{"type":"FeatureCollection","metadata":{"province":"Brussels Hoofdstedelijk Gewest","slug":"brussels-hoofdstedelijk-gewest","generated_at":"2026-09-29T08:27:21.693280Z","boundaries_count":19,"municipalities":["anderlecht","brussel-bruxelles","elsene-ixelles","etterbeek","evere","ganshoren","jette","koekelberg","oudergem-auderghem","schaarbeek-schaerbeek","sint-agatha-berchem-berchem-sainte-agathe","sint-gillis-saint-gilles","sint-jans-molenbeek-molenbeek-saint-jean","sint-joost-ten-node-saint-josse-ten-noode","sint-lambrechts-woluwe-woluwe-saint-lambert","sint-pieters-woluwe-woluwe-saint-pierre","ukkel-uccle","vorst-forest","watermaal-bosvoorde-watermael-boitsfort"]},"features":[{"type":"Feature","geometry":{"type":"Polygon","coordinates":[[[4.4000516,50.8436533],[4.4006046,50.8431153],[4.4009697,50.8425847],[4.4014732,50.8413365],[4.4010975,50.8407314],[4.4010885,50.8406024],[4.4025304,50.8403116],[4.4043532,50.8396289],[4.4048872,50.8393528],[4.405562,50.8388357],[4.405963,50.8390828],[4.4075628,50.8388739],[4.4078404,50.8389729],[4.4082979,50.8389761],[4.4091669,50.8385139],[4.4108198,50.8381316],[4.4117605,50.8383068],[4.4150693,50.8383426],[4.4180954,50.8385074],[4.4215794,50.8390547],[4.4264336,50.8393859],[4.4316033,50.8393201],[4.4318106,50.839621],[4.4318046,50.8400535],[4.4326826,50.8399978],[4.4333488,50.8398605],[4.4340002,50.8396411],[4.4340284,50.8377579],[4.4355183,50.8375817],[4.4347392,50.8351081],[4.4345163,50.8347498],[4.4347416,50.8347792],[4.4357863,50.8345413],[4.4359509,50.834712],[4.4361197,50.8347572],[4.4368662,50.8344225],[4.4392458,50.8337822],[4.4397035,50.8341177],[4.4399038,50.8344947],[4.4397459,50.8356826],[4.4385149,50.8358255],[4.4381485,50.8360072],[4.4381016,50.8362256],[4.4384707,50.8370224],[4.4389325,50.8369766],[4.4392028,50.8370561],[4.4406872,50.8376584],[4.4414709,50.8381385],[4.4419939,50.8382925],[4.4437867,50.8384021],[4.4512849,50.8396557],[4.4547942,50.8398854],[4.4524937,50.8413821],[4.4517623,50.8420523],[4.4496217,50.8416112],[4.4481299,50.8428857],[4.4496579,50.8433197],[4.4496294,50.8434545],[4.4506434,50.8438301],[4.4524817,50.8439038],[4.4541492,50.8441608],[4.4553178,50.8440681],[4.4557501,50.8439265],[4.4559116,50.8441774],[4.4568664,50.8441834],[4.4570801,50.8441134],[4.457226,50.844481],[4.4571612,50.844707],[4.4572287,50.8450788],[4.4575331,50.8452544],[4.4583958,50.8452701],[4.4591495,50.8454916],[4.4596394,50.845436],[4.4573703,50.8477976],[4.4617758,50.8487915],[4.4612218,50.8501189],[4.4609722,50.8509726],[4.4612766,50.8510247],[4.4611645,50.8519042],[4.4604382,50.8521608],[4.4581685,50.8527283],[4.4562825,50.8528367],[4.4546044,50.8531966],[4.4536665,50.8534858],[4.4505258,50.8535178],[4.4484266,50.8542146],[4.448113,50.8541694],[4.4462916,50.8551158],[4.4459571,50.8554748],[4.4460564,50.8560149],[4.4463282,50.8562438],[4.4460459,50.8568805],[4.4455632,50.8571626],[4.4443488,50.8574808],[4.4450107,50.8581434],[4.4391184,50.8604494],[4.4373723,50.8585049],[4.4297644,50.861209],[4.4310163,50.8624902],[4.4286777,50.8630357],[4.4282234,50.8630278],[4.426634,50.8628724],[4.4240634,50.8601347],[4.4220018,50.8570183],[4.4158371,50.8542252],[4.4117824,50.8520416],[4.4121057,50.851737],[4.4111201,50.8511416],[4.4110537,50.8507667],[4.4099616,50.8507032],[4.4108354,50.8491398],[4.4051165,50.8461418],[4.4036574,50.8454967],[4.4000516,50.8436533]]]},"properties":{"type":"boundary","gemeente":"Sint-Lambrechts-Woluwe (Woluwe-Saint-Lambert)"}},{"type":"Feature","geometry":{"type":"MultiPolygon","coordinates":[[[[4.3259014,50.8305476],[4.3261094,50.8307242],[4.3269825,50.8309976],[4.3292697,50.8313959],[4.3296526,50.8315379],[4.3304681,50.8321913],[4.3307275,50.8330249],[4.3308831,50.8332443],[4.3322191,50.8343287],[4.3321736,50.8348969],[4.3322425,50.8350878],[4.3327564,50.8354261],[4.3327006,50.8358933],[4.3330176,50.8361499],[4.333397,50.8366471],[4.3336836,50.8367264],[4.3348013,50.8373154],[4.3351934,50.8377074],[4.3358609,50.8381188],[4.3359498,50.8382125],[4.3360477,50.8389383],[4.3367832,50.8393103],[4.338125,50.8397722],[4.3387943,50.8401335],[4.3399536,50.8402288],[4.3399949,50.840116],[4.3402982,50.8401596],[4.3428561,50.8330899],[4.3429984,50.832973],[4.3449716,50.8326067],[4.3458608,50.8327154],[4.3483495,50.832813],[4.3500411,50.8334143],[4.3551663,50.8355601],[4.3554821,50.8353041],[4.3571905,50.8336532],[4.3569254,50.8328438],[4.3576044,50.8326576],[4.3576092,50.8325498],[4.3574857,50.8324985],[4.357613,50.8324535],[4.3576209,50.8322653],[4.3583317,50.8318773],[4.3580403,50.8314135],[4.3579072,50.8310344],[4.3583259,50.8306281],[4.3581158,50.8303733],[4.3584444,50.8302451],[4.3576001,50.8291981],[4.357135,50.8288661],[4.3576028,50.8286095],[4.3570032,50.8281633],[4.3585481,50.827272],[4.3584262,50.8259515],[4.3582864,50.8256043],[4.3584463,50.8249426],[4.3581544,50.8250467],[4.3570136,50.8244469],[4.3572266,50.8243043],[4.355896,50.8238692],[4.3538993,50.8225199],[4.3538338,50.8214945],[4.3536723,50.820715],[4.353566,50.8205364],[4.3480129,50.8208441],[4.3452942,50.8215903],[4.344544,50.821121],[4.341455,50.8226381],[4.3414892,50.8227028],[4.3412075,50.8230334],[4.3392954,50.8249838],[4.3372691,50.8262066],[4.3371267,50.8261586],[4.3358049,50.8269423],[4.3347073,50.8279812],[4.3293372,50.8298148],[4.3259014,50.8305476]]],[[[4.3553981,50.8356569],[4.355961,50.835891],[4.3568667,50.8349651],[4.3563105,50.8347276],[4.3553981,50.8356569]]]]},"properties":{"type":"boundary","gemeente":"Sint-Gillis (Saint-Gilles)"}},{"type":"Feature","geometry":{"type":"Polygon","coordinates":[[[4.2834999,50.8469816],[4.2832502,50.8469954],[4.2838144,50.8479013],[4.284087,50.8481394],[4.284598,50.848301],[4.2848975,50.8483809],[4.2857519,50.8478592],[4.2861752,50.8477635],[4.2871775,50.8478751],[4.288248,50.8482687],[4.2879229,50.8486732],[4.2872347,50.849997],[4.2863912,50.8513474],[4.2860684,50.851636],[4.2832542,50.8533301],[4.2831132,50.8536],[4.2833779,50.8539095],[4.2847174,50.8544868],[4.2862336,50.854597],[4.2867182,50.8547068],[4.2898409,50.8558671],[4.2901688,50.8553349],[4.2933665,50.8559177],[4.2935897,50.8554344],[4.2956563,50.8553643],[4.2956327,50.8555335],[4.2966741,50.8558741],[4.2979635,50.8564996],[4.2994316,50.8570615],[4.3040877,50.8580302],[4.3039676,50.8583422],[4.304201,50.8585733],[4.3033704,50.8598543],[4.3025346,50.8596601],[4.3021717,50.8602079],[4.3030911,50.8605744],[4.3035922,50.8605893],[4.3037909,50.8603666],[4.3046707,50.8605534],[4.3052042,50.8602483],[4.3052554,50.8603202],[4.3045805,50.8607581],[4.3042452,50.8608652],[4.3043035,50.860935],[4.3040195,50.861117],[4.3035264,50.8612751],[4.30448,50.861485],[4.3043783,50.8616794],[4.3064769,50.8621283],[4.3065205,50.8622588],[4.3059219,50.8641883],[4.3074225,50.8642718],[4.3088447,50.8645068],[4.3104268,50.8643895],[4.3106011,50.8647],[4.3110464,50.8645727],[4.3122341,50.8642278],[4.3161198,50.8612338],[4.322211,50.8625264],[4.322633,50.862155],[4.3268333,50.861146],[4.3273808,50.8606064],[4.3268959,50.8600587],[4.3271227,50.8599338],[4.3261142,50.8582943],[4.3254889,50.8569475],[4.326867,50.8567768],[4.3288487,50.8567896],[4.3309532,50.8570152],[4.3327706,50.857113],[4.3325072,50.8574459],[4.3345032,50.8583491],[4.3346062,50.8582537],[4.3348506,50.8583569],[4.3350355,50.8581889],[4.3369642,50.8589676],[4.3377273,50.8594678],[4.3364981,50.8601951],[4.3361791,50.860068],[4.3349522,50.8610902],[4.3348172,50.8616195],[4.335049,50.8619206],[4.3340007,50.862219],[4.3341828,50.8623456],[4.3324602,50.8643391],[4.3323674,50.8645451],[4.3405232,50.8713633],[4.3417359,50.8708261],[4.3435871,50.8690507],[4.3430965,50.8684206],[4.3435635,50.8679325],[4.3435764,50.8674627],[4.341688,50.8650821],[4.3417398,50.8649629],[4.3483947,50.8628503],[4.3471076,50.8610359],[4.3456588,50.8595598],[4.3458229,50.8594894],[4.3457485,50.8594133],[4.3466503,50.8590294],[4.3411307,50.8533031],[4.3385236,50.8504658],[4.3380777,50.849657],[4.3378628,50.8494763],[4.337798,50.84916],[4.3374241,50.8484961],[4.335475,50.8489189],[4.3356357,50.8481466],[4.334611,50.84807],[4.3335168,50.847795],[4.3326241,50.8471781],[4.3321158,50.846669],[4.33142,50.8451351],[4.3307253,50.8442913],[4.3307309,50.8439734],[4.3300308,50.8441564],[4.3293137,50.8445429],[4.3287152,50.8443514],[4.3281336,50.844044],[4.3272489,50.8449927],[4.3159732,50.8484323],[4.3136852,50.8489313],[4.3124784,50.8496908],[4.3102829,50.8503195],[4.3096316,50.8502974],[4.3081534,50.8497956],[4.3080364,50.8499676],[4.307557,50.849782],[4.3070893,50.8497404],[4.3054551,50.8490704],[4.3042969,50.8483845],[4.3039773,50.8482675],[4.302933,50.8481484],[4.3026104,50.8485119],[4.3009541,50.848542],[4.3004798,50.8489544],[4.3000195,50.8491552],[4.2997342,50.8491913],[4.2998693,50.8483727],[4.2998277,50.8473792],[4.2968074,50.8473684],[4.2952178,50.8475979],[4.2946013,50.8475389],[4.2942676,50.8473421],[4.293811,50.8479827],[4.293506,50.8494356],[4.2924351,50.8494749],[4.2923845,50.8489948],[4.2904469,50.8490625],[4.2916151,50.8471292],[4.2918861,50.846881],[4.291869,50.8468157],[4.2922822,50.8462758],[4.2929581,50.8462926],[4.2930328,50.8452982],[4.2924659,50.8452095],[4.2910887,50.8452009],[4.2887167,50.8454331],[4.2862351,50.8451437],[4.2846154,50.8452983],[4.2842887,50.8453999],[4.2845805,50.8457051],[4.2846391,50.8464608],[4.2834999,50.8469816]]]},"properties":{"type":"boundary","gemeente":"Sint-Jans-Molenbeek (Molenbeek-Saint-Jean)"}},{"type":"Feature","geometry":{"type":"Polygon","coordinates":[[[4.3030369,50.8053489],[4.3033163,50.8071709],[4.3039987,50.8082562],[4.3043381,50.809057],[4.3045074,50.8091824],[4.305452,50.8092041],[4.3057274,50.8104459],[4.3056127,50.8107607],[4.305657,50.8109731],[4.3057517,50.8112655],[4.3064519,50.8124433],[4.3083468,50.8122652],[4.308486,50.8125285],[4.3096335,50.8130092],[4.3100742,50.8133782],[4.3103407,50.8136518],[4.3106807,50.8142229],[4.3105821,50.8144365],[4.3102368,50.8146459],[4.3099701,50.8150174],[4.3101833,50.815245],[4.3102257,50.8154023],[4.3081094,50.8163204],[4.3082564,50.816778],[4.307955,50.8171647],[4.3089963,50.8176774],[4.3097721,50.8178637],[4.3102588,50.8181348],[4.3107744,50.8189711],[4.3106887,50.8197793],[4.3107662,50.8199864],[4.3128102,50.8202],[4.3130322,50.820351],[4.3132563,50.8206883],[4.3135812,50.8208818],[4.3146725,50.8210839],[4.3180857,50.8223204],[4.3188131,50.8230137],[4.3191213,50.8234607],[4.3193344,50.8234735],[4.3193257,50.8237081],[4.3193967,50.8238024],[4.3203864,50.8242274],[4.3210127,50.8246842],[4.3211235,50.8253327],[4.3215674,50.8260237],[4.3215043,50.8265019],[4.3217861,50.8268106],[4.3233889,50.8280044],[4.3238716,50.8286428],[4.3241149,50.8287096],[4.3247543,50.8286793],[4.3250003,50.8287613],[4.3252595,50.8291485],[4.3259014,50.8305476],[4.3293372,50.8298148],[4.3347073,50.8279812],[4.3358049,50.8269423],[4.3371267,50.8261586],[4.3372691,50.8262066],[4.3392954,50.8249838],[4.3412075,50.8230334],[4.3414892,50.8227028],[4.341455,50.8226381],[4.344544,50.821121],[4.3452942,50.8215903],[4.3480129,50.8208441],[4.35248,50.8205711],[4.3536035,50.8205828],[4.3533464,50.8201747],[4.3530952,50.8202375],[4.3523121,50.8190059],[4.3523945,50.8189847],[4.3521969,50.8186751],[4.3516332,50.8179556],[4.3517374,50.8179277],[4.3512546,50.8173133],[4.351054,50.8173599],[4.3509453,50.8165633],[4.3508658,50.8164187],[4.3505702,50.8164777],[4.3503451,50.8156941],[4.3491941,50.8159149],[4.3472924,50.8161349],[4.347825,50.8147509],[4.3479404,50.8147686],[4.3479222,50.8142904],[4.3440637,50.8140282],[4.3430396,50.8142936],[4.3430351,50.8145476],[4.3429143,50.8146549],[4.3409943,50.8151029],[4.3408059,50.8151096],[4.3406984,50.8149613],[4.3396448,50.8150592],[4.3393844,50.8149592],[4.3377522,50.8151844],[4.3375601,50.8144077],[4.33732,50.8139467],[4.336549,50.8137366],[4.33587,50.813211],[4.3353831,50.8131743],[4.3347823,50.812973],[4.3353356,50.8123749],[4.3360532,50.8117941],[4.3373115,50.8110995],[4.3365566,50.8095404],[4.3356242,50.8096371],[4.3351821,50.8095394],[4.3355337,50.8084861],[4.3324502,50.8079469],[4.3321015,50.8075248],[4.3308245,50.8063774],[4.3308589,50.8063284],[4.3307273,50.8062906],[4.330363,50.8062547],[4.3292745,50.8063606],[4.3285816,50.8065193],[4.3282686,50.8066781],[4.3279213,50.8056616],[4.3272754,50.8056806],[4.3249814,50.8054766],[4.3247244,50.8045211],[4.3243168,50.8038043],[4.3236046,50.8031271],[4.3217056,50.8006674],[4.3194002,50.8001563],[4.3188103,50.7999321],[4.3186936,50.8000149],[4.3180937,50.7998291],[4.3169468,50.7998178],[4.3158547,50.7992167],[4.314966,50.7990628],[4.3131949,50.7985352],[4.3122205,50.7981491],[4.3118244,50.7979669],[4.3117984,50.7975121],[4.3114351,50.7976222],[4.3107911,50.7976712],[4.3107148,50.797931],[4.3051466,50.7986326],[4.3049461,50.7987518],[4.3045059,50.7993113],[4.3041905,50.7999905],[4.3043044,50.8002058],[4.3042197,50.8005782],[4.3033688,50.8021627],[4.3029976,50.8023737],[4.3022936,50.803249],[4.3020932,50.8036501],[4.3020526,50.8042224],[4.3030369,50.8053489]]]},"properties":{"type":"boundary","gemeente":"Vorst (Forest)"}},{"type":"Feature","geometry":{"type":"Polygon","coordinates":[[[4.3960509,50.8257425],[4.4027584,50.8211372],[4.4032067,50.8205644],[4.4034475,50.8199156],[4.4033909,50.8191186],[4.4028862,50.8182019],[4.4016865,50.8174336],[4.4007945,50.8171207],[4.3999288,50.8169611],[4.3988586,50.8169213],[4.3980054,50.817007],[4.3971262,50.8172372],[4.3970761,50.8170575],[4.3976271,50.816443],[4.3971049,50.8162761],[4.39625,50.8168242],[4.3952571,50.8177329],[4.3941907,50.8172595],[4.3968772,50.8150186],[4.3971575,50.814458],[4.3975726,50.8139538],[4.397649,50.8139706],[4.3980394,50.8132949],[4.3996437,50.8139541],[4.4001546,50.8140318],[4.401126,50.8139982],[4.4020916,50.8144645],[4.4036208,50.8148513],[4.4049464,50.8149201],[4.4055143,50.8150277],[4.4063152,50.8150241],[4.4062922,50.8139648],[4.4064619,50.8130803],[4.4063616,50.812386],[4.4092611,50.8124722],[4.4125945,50.8133084],[4.4143705,50.8132179],[4.4144695,50.8129393],[4.4146993,50.812632],[4.4149645,50.8125184],[4.4163431,50.8122731],[4.4180618,50.8124085],[4.4181203,50.8120002],[4.419352,50.8106007],[4.4212983,50.8105653],[4.4216809,50.810624],[4.4223856,50.8109885],[4.4284665,50.8100152],[4.4286723,50.8097304],[4.4286475,50.8093398],[4.4284769,50.8089026],[4.4292921,50.8078631],[4.4290121,50.807009],[4.4290622,50.8067037],[4.4288598,50.8063756],[4.4283402,50.8060302],[4.4282377,50.8057111],[4.4283226,50.8051656],[4.4294644,50.8047714],[4.4293762,50.804421],[4.4291514,50.8041409],[4.4293958,50.8040832],[4.4292272,50.8038922],[4.4320949,50.8025503],[4.4435201,50.7975597],[4.4489955,50.7980768],[4.4501403,50.7985097],[4.4511412,50.7987638],[4.4553237,50.7919683],[4.4619174,50.7905414],[4.4665602,50.7904601],[4.4702733,50.7897632],[4.4822711,50.7929907],[4.480227,50.7939156],[4.4806067,50.7942247],[4.4471762,50.8082973],[4.4491495,50.8086291],[4.4502608,50.8086806],[4.4515886,50.8083312],[4.4528253,50.8085],[4.4532296,50.8087182],[4.454825,50.8100924],[4.4551834,50.8101877],[4.4565721,50.8100382],[4.4575972,50.8102027],[4.4578873,50.8104273],[4.4578389,50.8106575],[4.4566101,50.8105322],[4.4551239,50.810546],[4.4548724,50.8104896],[4.4542884,50.8101762],[4.4528698,50.8090933],[4.452578,50.8089859],[4.4519419,50.8089341],[4.4495298,50.8097297],[4.4489063,50.8101753],[4.4483993,50.8108231],[4.4478084,50.8113418],[4.4505813,50.8131398],[4.4517532,50.8134399],[4.4520169,50.8137213],[4.4527336,50.8140244],[4.4534738,50.8146199],[4.4541885,50.8150514],[4.4552177,50.8151568],[4.4567711,50.8158679],[4.4575553,50.8163253],[4.4564027,50.8171047],[4.4552069,50.8177244],[4.4546561,50.8184231],[4.4536584,50.8194537],[4.4533577,50.8198863],[4.4527557,50.8203818],[4.450322,50.8212674],[4.4498223,50.821705],[4.4493521,50.8219797],[4.446553,50.8226654],[4.4430321,50.8224827],[4.4425729,50.8222996],[4.4417057,50.8212486],[4.4411157,50.8209584],[4.4406396,50.8205744],[4.4336256,50.8250829],[4.4322623,50.8251207],[4.4322336,50.8250193],[4.431252,50.8255718],[4.4306725,50.8261135],[4.4302906,50.8262229],[4.4283467,50.8258632],[4.428139,50.8262535],[4.4271739,50.8259018],[4.4251777,50.8249196],[4.4240056,50.8242525],[4.4229883,50.8239328],[4.4226284,50.8237712],[4.4225498,50.8236216],[4.4219407,50.8233486],[4.4209018,50.8230208],[4.4194273,50.82204],[4.4185963,50.8217075],[4.4179768,50.8216021],[4.4176024,50.8216842],[4.4145687,50.8229418],[4.4136919,50.8224899],[4.4135694,50.8222602],[4.4133877,50.822286],[4.4131265,50.822185],[4.411709,50.8225624],[4.4117732,50.8226076],[4.41139,50.8229901],[4.4075368,50.8255238],[4.4058899,50.8264568],[4.4043618,50.8270367],[4.3993367,50.8248603],[4.397038,50.8262417],[4.3960509,50.8257425]]]},"properties":{"type":"boundary","gemeente":"Oudergem (Auderghem)"}},{"type":"Feature","geometry":{"type":"Polygon","coordinates":[[[4.2792615,50.8654535],[4.2796286,50.8651631],[4.2792161,50.8648525],[4.2791942,50.8647607],[4.2792936,50.86458],[4.2792979,50.8643519],[4.2794873,50.8640809],[4.2802178,50.8623861],[4.2803678,50.8622549],[4.2804143,50.8620733],[4.2803108,50.8618343],[4.2803279,50.8614897],[4.2807834,50.8614612],[4.2806598,50.8604608],[4.2803372,50.8599075],[4.2823256,50.8591959],[4.2826542,50.8596931],[4.2838899,50.8592503],[4.2834502,50.8587978],[4.2842426,50.8584971],[4.2840114,50.8583108],[4.2869727,50.8574678],[4.2870337,50.8575979],[4.287529,50.8569144],[4.2883796,50.8575741],[4.2893574,50.8566209],[4.2901688,50.8553349],[4.2933665,50.8559177],[4.2935897,50.8554344],[4.2956563,50.8553643],[4.2956327,50.8555335],[4.2966741,50.8558741],[4.2979635,50.8564996],[4.2994316,50.8570615],[4.3040877,50.8580302],[4.3039676,50.8583422],[4.304201,50.8585733],[4.3033704,50.8598543],[4.3025346,50.8596601],[4.3021717,50.8602079],[4.3030911,50.8605744],[4.3035922,50.8605893],[4.3037909,50.8603666],[4.3046707,50.8605534],[4.3052042,50.8602483],[4.3052554,50.8603202],[4.3045805,50.8607581],[4.3042452,50.8608652],[4.3043035,50.860935],[4.3040195,50.861117],[4.3035264,50.8612751],[4.30448,50.861485],[4.3043783,50.8616794],[4.3064769,50.8621283],[4.3065205,50.8622588],[4.3059219,50.8641883],[4.3070423,50.8642396],[4.306922,50.8649287],[4.3070323,50.8650133],[4.3072182,50.8655756],[4.3073308,50.8656835],[4.308362,50.8662063],[4.3091889,50.8668603],[4.3140584,50.8671372],[4.314013,50.8674615],[4.3125814,50.8679117],[4.3103281,50.8687658],[4.3099821,50.8689578],[4.3100798,50.8691357],[4.3087619,50.8693247],[4.3074153,50.8692647],[4.3063366,50.8693102],[4.3047658,50.8690949],[4.3037818,50.8693519],[4.3012341,50.8704018],[4.2985797,50.8717226],[4.2971991,50.8722107],[4.2959795,50.8731214],[4.29354,50.8743011],[4.2931506,50.8745623],[4.2914001,50.875289],[4.2917991,50.8750789],[4.2917924,50.8750035],[4.2920394,50.874952],[4.2919908,50.8747978],[4.2918089,50.8747786],[4.2917473,50.8745446],[4.2915132,50.8745515],[4.2914759,50.8745007],[4.291568,50.8744032],[4.2910967,50.874209],[4.2908135,50.8741852],[4.2897133,50.8737426],[4.2891571,50.8736131],[4.2890017,50.8734552],[4.2887399,50.8734892],[4.2880486,50.8731785],[4.287913,50.8729797],[4.287001,50.8722668],[4.2869414,50.8721399],[4.2866199,50.8720287],[4.2858555,50.8714011],[4.2859492,50.8712942],[4.2859145,50.871172],[4.2854782,50.8708286],[4.2855723,50.8705965],[4.2854917,50.8705069],[4.2854741,50.8701662],[4.28454,50.8695046],[4.2840409,50.8688618],[4.2836339,50.8687018],[4.2826515,50.8680156],[4.2821162,50.8677794],[4.2816024,50.8673451],[4.2812581,50.8672023],[4.2811682,50.8670502],[4.2805127,50.8672012],[4.2803156,50.867073],[4.2800561,50.8668227],[4.2792611,50.8657097],[4.2792615,50.8654535]]]},"properties":{"type":"boundary","gemeente":"Sint-Agatha-Berchem (Berchem-Sainte-Agathe)"}},{"type":"Feature","geometry":{"type":"MultiPolygon","coordinates":[[[[4.3479222,50.8142904],[4.3479404,50.8147686],[4.347825,50.8147509],[4.3472924,50.8161349],[4.3491941,50.8159149],[4.3503451,50.8156941],[4.3505702,50.8164777],[4.3508658,50.8164187],[4.3509453,50.8165633],[4.351054,50.8173599],[4.3512546,50.8173133],[4.3517374,50.8179277],[4.3516332,50.8179556],[4.3521969,50.8186751],[4.3523945,50.8189847],[4.3523121,50.8190059],[4.3530952,50.8202375],[4.3533464,50.8201747],[4.3536292,50.8205832],[4.3538338,50.8214945],[4.3538993,50.8225199],[4.355896,50.8238692],[4.3572266,50.8243043],[4.3570136,50.8244469],[4.3581544,50.8250467],[4.3584463,50.8249426],[4.3582864,50.8256043],[4.3584262,50.8259515],[4.3585481,50.827272],[4.3570032,50.8281633],[4.3576028,50.8286095],[4.357135,50.8288661],[4.3576001,50.8291981],[4.3584444,50.8302451],[4.3581158,50.8303733],[4.3583259,50.8306281],[4.3622433,50.8268283],[4.3617044,50.8265333],[4.3620993,50.8262519],[4.3626288,50.826464],[4.3633202,50.8259866],[4.3634106,50.8254362],[4.3645569,50.8249712],[4.3649511,50.8245105],[4.3643334,50.8241215],[4.3655881,50.8234813],[4.3650134,50.8231477],[4.367222,50.8229941],[4.3668856,50.822574],[4.3664351,50.8209589],[4.3696418,50.8192489],[4.3702948,50.8171819],[4.3706739,50.81527],[4.3681219,50.8148668],[4.3679789,50.8152303],[4.367876,50.8152138],[4.3675508,50.8159442],[4.3681443,50.8160467],[4.3680713,50.8162185],[4.3678636,50.8161909],[4.3677971,50.8163506],[4.3672937,50.8165235],[4.3673219,50.8166858],[4.3669105,50.8169252],[4.3667654,50.8169366],[4.3663382,50.8166311],[4.3635219,50.8157986],[4.3626139,50.8157929],[4.3623745,50.8163385],[4.3617883,50.8162224],[4.3605281,50.8166677],[4.359474,50.8164945],[4.3594182,50.8166544],[4.35778,50.8164203],[4.3579676,50.8157559],[4.3575848,50.8157122],[4.3576609,50.8154412],[4.357316,50.8154292],[4.3575234,50.8146925],[4.3479222,50.8142904]]],[[[4.3560899,50.8357674],[4.3615872,50.8382111],[4.3616497,50.8381517],[4.3628989,50.8386779],[4.3659533,50.8387406],[4.3670936,50.8393095],[4.3675734,50.8389145],[4.3683053,50.8392961],[4.3686814,50.8400162],[4.372123,50.8392963],[4.3728194,50.8406301],[4.3750399,50.8401612],[4.375975,50.8398028],[4.3750688,50.838052],[4.3752696,50.8380102],[4.3762291,50.8373238],[4.3761152,50.837002],[4.376202,50.8370447],[4.3758069,50.8360824],[4.3745789,50.8359702],[4.3746016,50.8358777],[4.3761208,50.8357507],[4.3767997,50.8357892],[4.3767502,50.835931],[4.3775739,50.8360607],[4.3775141,50.8362047],[4.3785363,50.8364181],[4.3785807,50.83635],[4.3786941,50.8363831],[4.3793902,50.8368147],[4.3796095,50.8368305],[4.3793068,50.8364881],[4.3791822,50.8362185],[4.3793593,50.8357957],[4.3795824,50.8355727],[4.3792898,50.8348808],[4.3792368,50.8343241],[4.3789886,50.8340263],[4.3823587,50.8329129],[4.3803682,50.8304264],[4.37998,50.8300777],[4.3810793,50.8290556],[4.3819687,50.8283861],[4.3824982,50.8281177],[4.3830789,50.8275588],[4.3853476,50.8260764],[4.3854956,50.8260427],[4.3855039,50.8259702],[4.3870722,50.8247998],[4.3870169,50.8247503],[4.387814,50.8241711],[4.3895599,50.8224708],[4.3960509,50.8257425],[4.4027584,50.8211372],[4.4033415,50.8203223],[4.4034606,50.8198323],[4.4034336,50.8192652],[4.4032363,50.8187678],[4.4028862,50.8182019],[4.4016865,50.8174336],[4.4007945,50.8171207],[4.3993878,50.8169237],[4.3982689,50.8169691],[4.3971262,50.8172372],[4.3970761,50.8170575],[4.3976271,50.816443],[4.3971049,50.8162761],[4.39625,50.8168242],[4.3952571,50.8177329],[4.3941907,50.8172595],[4.3968772,50.8150186],[4.3971575,50.814458],[4.3975726,50.8139538],[4.397649,50.8139706],[4.3980394,50.8132949],[4.3977142,50.8131967],[4.3972322,50.8132052],[4.3966561,50.8131033],[4.3922758,50.8120764],[4.3934267,50.8111742],[4.3942199,50.8100337],[4.3946456,50.8098168],[4.3955305,50.8095819],[4.3967231,50.8091128],[4.3972261,50.808682],[4.3973663,50.8082309],[4.3972645,50.8071733],[4.3973318,50.8066235],[4.3970393,50.8054508],[4.3969972,50.8047631],[4.3963803,50.8034574],[4.3964916,50.8029756],[4.3968808,50.8023772],[4.3970104,50.8018991],[4.3969642,50.801776],[4.3937751,50.8007534],[4.3904636,50.8021632],[4.3875143,50.8054221],[4.3873554,50.8058075],[4.3870386,50.8077263],[4.3868527,50.8082693],[4.3854328,50.8104573],[4.3850973,50.8117326],[4.3839057,50.8134409],[4.3835265,50.8147211],[4.3832361,50.8151979],[4.3828504,50.8156333],[4.3825903,50.8158511],[4.3791217,50.8138441],[4.3772414,50.81606],[4.3736187,50.8197294],[4.3704895,50.8239911],[4.3694843,50.8241015],[4.3685099,50.8244626],[4.3687472,50.8247335],[4.3671131,50.8253156],[4.3675425,50.8255933],[4.3668668,50.8259996],[4.3669596,50.8260671],[4.3667376,50.8262057],[4.3667885,50.8262429],[4.364697,50.8276242],[4.3655129,50.8285545],[4.365161,50.8289276],[4.3664178,50.8294105],[4.3654724,50.8304084],[4.3644094,50.8300212],[4.3642907,50.8300829],[4.3641005,50.830042],[4.3640682,50.8302266],[4.3632804,50.830173],[4.3603714,50.8315059],[4.3606597,50.8317112],[4.3597047,50.8322183],[4.3599428,50.8323985],[4.3587856,50.8335269],[4.3573473,50.8337248],[4.3563105,50.8347276],[4.3568667,50.8349651],[4.3560899,50.8357674]]]]},"properties":{"type":"boundary","gemeente":"Elsene (Ixelles)"}},{"type":"Feature","geometry":{"type":"Polygon","coordinates":[[[4.2915308,50.8752766],[4.2931506,50.8745623],[4.29354,50.8743011],[4.2959795,50.8731214],[4.2971991,50.8722107],[4.2985797,50.8717226],[4.3018054,50.8701421],[4.3044739,50.869143],[4.3047658,50.8690949],[4.3063366,50.8693102],[4.3074153,50.8692647],[4.3087619,50.8693247],[4.3100798,50.8691357],[4.3099821,50.8689578],[4.3103281,50.8687658],[4.3125814,50.8679117],[4.314013,50.8674615],[4.3140584,50.8671372],[4.3151619,50.8672006],[4.3172308,50.867074],[4.3225188,50.8661863],[4.3233793,50.8659132],[4.3248226,50.8650896],[4.3261445,50.8656558],[4.3251312,50.8666445],[4.3252223,50.8666754],[4.3250214,50.8669743],[4.324878,50.8669387],[4.3248478,50.8671216],[4.3240525,50.8669691],[4.3205646,50.8721694],[4.3233704,50.8727068],[4.3225281,50.8739669],[4.322258,50.8742436],[4.320416,50.875186],[4.3207345,50.8770497],[4.321098,50.8777277],[4.319339,50.8784703],[4.3195236,50.8793801],[4.3197187,50.8798977],[4.3196577,50.8802379],[4.3159334,50.8799587],[4.3142847,50.8799118],[4.3133079,50.8799656],[4.3081023,50.8810494],[4.3060137,50.8813978],[4.2982052,50.8821012],[4.2985873,50.8809279],[4.2988327,50.8804435],[4.2988999,50.8799278],[4.2988483,50.8797647],[4.2986106,50.879648],[4.2983531,50.8791289],[4.2976125,50.8786109],[4.2966932,50.8782169],[4.2958613,50.8777289],[4.2957112,50.877719],[4.2956918,50.8776437],[4.294875,50.8774221],[4.2947893,50.8772857],[4.2942853,50.8771342],[4.2944166,50.8769852],[4.2943829,50.8769116],[4.2946041,50.8769026],[4.2945749,50.8768291],[4.2941356,50.8766177],[4.2940249,50.8764218],[4.2936647,50.8763934],[4.293696,50.8761968],[4.2930537,50.875846],[4.293051,50.8757306],[4.2924983,50.875642],[4.2924462,50.8755359],[4.2921712,50.8755354],[4.2919152,50.8753475],[4.2915308,50.8752766]]]},"properties":{"type":"boundary","gemeente":"Ganshoren"}},{"type":"Feature","geometry":{"type":"Polygon","coordinates":[[[4.3571864,50.860314],[4.356685,50.8593506],[4.3565816,50.8577011],[4.3558087,50.8569708],[4.3552484,50.8562056],[4.3683811,50.8525504],[4.3697233,50.8474197],[4.369566,50.84712],[4.3732167,50.8472879],[4.3738643,50.8477817],[4.3738815,50.8479114],[4.3752615,50.8476249],[4.375713,50.8484705],[4.377367,50.8490307],[4.377587,50.848756],[4.3786537,50.8490268],[4.378709,50.8489741],[4.3789774,50.8490338],[4.3789652,50.8498937],[4.3795995,50.8500199],[4.3809895,50.8505959],[4.384052,50.8514185],[4.3822313,50.8518181],[4.3725553,50.8567384],[4.3696863,50.8574655],[4.3695256,50.8571818],[4.3679408,50.8575185],[4.3680463,50.857723],[4.3571864,50.860314]]]},"properties":{"type":"boundary","gemeente":"Sint-Joost-ten-Node (Saint-Josse-ten-Noode)"}},{"type":"Feature","geometry":{"type":"Polygon","coordinates":[[[4.3571864,50.860314],[4.3582629,50.862525],[4.3610865,50.8688045],[4.3629282,50.8703644],[4.3637347,50.8712579],[4.3644874,50.8709966],[4.3645907,50.8711174],[4.3652415,50.8708919],[4.3649021,50.8705029],[4.3652093,50.8694751],[4.3669085,50.8695938],[4.3681082,50.8705338],[4.3688369,50.8708996],[4.3698674,50.871258],[4.371218,50.8715278],[4.3725128,50.8715661],[4.3745067,50.8752703],[4.374827,50.8754972],[4.379399,50.8779067],[4.3795117,50.8778281],[4.3796845,50.8779019],[4.3814829,50.8789866],[4.3830668,50.879786],[4.3831411,50.8797201],[4.3842782,50.88014],[4.3883873,50.8810629],[4.3889471,50.8805762],[4.3890009,50.8804614],[4.3889449,50.8803826],[4.3903623,50.878657],[4.3905372,50.8785786],[4.3915492,50.8774383],[4.3924569,50.8760916],[4.3927345,50.875797],[4.3932657,50.8744403],[4.3940718,50.8731452],[4.3948444,50.8716142],[4.3960437,50.8686218],[4.396668,50.8676972],[4.4000358,50.8638986],[4.4029715,50.8612105],[4.4041078,50.8604788],[4.4042427,50.8603378],[4.4040713,50.8600215],[4.4047144,50.8598028],[4.4063919,50.8585649],[4.4076949,50.8573733],[4.4088956,50.8576687],[4.4130271,50.8540708],[4.4107019,50.853065],[4.4121057,50.851737],[4.4111201,50.8511416],[4.4110537,50.8507667],[4.4099616,50.8507032],[4.4108354,50.8491398],[4.4051165,50.8461418],[4.4036574,50.8454967],[4.4000516,50.8436533],[4.3989114,50.8446705],[4.3960287,50.8434086],[4.3956356,50.8443007],[4.3951127,50.8450951],[4.3936857,50.8465963],[4.3929979,50.8471769],[4.3911318,50.8481983],[4.3857754,50.8514721],[4.3851159,50.8516991],[4.384052,50.8514185],[4.3822313,50.8518181],[4.3725553,50.8567384],[4.3696863,50.8574655],[4.3695256,50.8571818],[4.3679408,50.8575185],[4.3680463,50.857723],[4.3571864,50.860314]]]},"properties":{"type":"boundary","gemeente":"Schaarbeek (Schaerbeek)"}},{"type":"Feature","geometry":{"type":"Polygon","coordinates":[[[4.2476042,50.8219406],[4.2437658,50.8195819],[4.2443812,50.8195414],[4.2449322,50.8177341],[4.2468168,50.8175403],[4.2465249,50.8190846],[4.2497793,50.8194552],[4.2513207,50.8172232],[4.2537563,50.8172561],[4.2554864,50.8174606],[4.2563216,50.8174123],[4.2583425,50.8151918],[4.2591082,50.8138783],[4.2598656,50.8112598],[4.2599362,50.8111185],[4.2600672,50.81107],[4.2607639,50.8111569],[4.2610481,50.81111],[4.2612801,50.8112291],[4.261412,50.8111593],[4.2616186,50.8112261],[4.2618936,50.8111766],[4.2617796,50.8110525],[4.2621682,50.8110975],[4.2627683,50.8113439],[4.2628656,50.8114996],[4.2639393,50.811581],[4.2641457,50.8115316],[4.2656443,50.8118159],[4.2658777,50.811615],[4.2660937,50.8116651],[4.2662599,50.8115165],[4.2666194,50.8116161],[4.2674393,50.8115575],[4.2680849,50.8117252],[4.2681322,50.811876],[4.2680657,50.8119918],[4.2681496,50.8120189],[4.269105,50.8120392],[4.2692844,50.8119719],[4.2698806,50.8121067],[4.2702552,50.8120407],[4.2706442,50.8121438],[4.2714853,50.8120674],[4.2718637,50.8121685],[4.272992,50.8121537],[4.2749128,50.8115289],[4.2758995,50.8107357],[4.2760582,50.8104982],[4.2760323,50.8103891],[4.2764758,50.8100276],[4.2762728,50.8097255],[4.2764918,50.8092802],[4.2766131,50.8091851],[4.2766089,50.8090703],[4.2767546,50.8089034],[4.2770429,50.8082385],[4.277326,50.808185],[4.2776178,50.8082764],[4.2781861,50.8082805],[4.2786944,50.8080699],[4.2789228,50.808062],[4.2790043,50.8078232],[4.2792923,50.8076046],[4.2795346,50.8076783],[4.2796824,50.8075451],[4.2799875,50.8075229],[4.2801285,50.8075909],[4.2802732,50.8075107],[4.2810096,50.8076146],[4.2812154,50.8074982],[4.2815393,50.8074968],[4.2824678,50.807226],[4.2827039,50.8072374],[4.2827735,50.8071409],[4.2831605,50.8072706],[4.2833153,50.8072149],[4.2835749,50.8073358],[4.2836618,50.8072633],[4.2836488,50.8070761],[4.2838245,50.8070654],[4.2848961,50.8072919],[4.2854744,50.8075374],[4.2861207,50.8079365],[4.2862116,50.8081106],[4.2864024,50.8081413],[4.2864141,50.8082632],[4.2864904,50.808296],[4.2891769,50.8085174],[4.2894014,50.8086614],[4.2895864,50.8086421],[4.2898878,50.8087489],[4.2915017,50.8088986],[4.2918747,50.8086948],[4.2925642,50.8086257],[4.2928898,50.8087073],[4.2929794,50.8088989],[4.2930933,50.8089131],[4.2933493,50.8087185],[4.2933455,50.8085665],[4.2936316,50.8084527],[4.2935652,50.8083257],[4.2938143,50.8083117],[4.2939747,50.8082023],[4.294122,50.80828],[4.2942334,50.8081935],[4.2944561,50.8082792],[4.2948049,50.8088141],[4.2953149,50.8090575],[4.2955297,50.8090365],[4.295839,50.8091485],[4.2960576,50.8094539],[4.2958217,50.8097153],[4.2964614,50.8097288],[4.2964248,50.809984],[4.297361,50.8098242],[4.2973558,50.8100006],[4.2976837,50.8100661],[4.2977416,50.8103343],[4.297904,50.8103331],[4.2978459,50.8108974],[4.2981505,50.8115551],[4.2983176,50.8116599],[4.299117,50.8115813],[4.2992804,50.8116355],[4.2991282,50.8121508],[4.2994287,50.812213],[4.2993615,50.812348],[4.2994697,50.8124187],[4.2998578,50.812522],[4.2997267,50.8127418],[4.2999842,50.8129629],[4.3011022,50.8127634],[4.3014997,50.8127821],[4.3018026,50.8128843],[4.301861,50.8130513],[4.3064519,50.8124433],[4.3083468,50.8122652],[4.308486,50.8125285],[4.3096335,50.8130092],[4.3103407,50.8136518],[4.3106807,50.8142229],[4.3106569,50.8143417],[4.3102368,50.8146459],[4.3099701,50.8150174],[4.3101833,50.815245],[4.3102257,50.8154023],[4.3081094,50.8163204],[4.3082564,50.816778],[4.307955,50.8171647],[4.3089963,50.8176774],[4.3097721,50.8178637],[4.3102588,50.8181348],[4.3107744,50.8189711],[4.3106887,50.8197793],[4.3107662,50.8199864],[4.3128102,50.8202],[4.3130322,50.820351],[4.3132563,50.8206883],[4.3135812,50.8208818],[4.3146725,50.8210839],[4.3180857,50.8223204],[4.3188131,50.8230137],[4.3191213,50.8234607],[4.3193344,50.8234735],[4.3193257,50.8237081],[4.3193967,50.8238024],[4.3203864,50.8242274],[4.3210127,50.8246842],[4.3211235,50.8253327],[4.3215674,50.8260237],[4.3215043,50.8265019],[4.3217861,50.8268106],[4.3233889,50.8280044],[4.3238716,50.8286428],[4.3241149,50.8287096],[4.3247543,50.8286793],[4.3250003,50.8287613],[4.3252595,50.8291485],[4.3258566,50.8305027],[4.3260481,50.830692],[4.3269825,50.8309976],[4.3294241,50.8314318],[4.3302957,50.832017],[4.3305455,50.8323122],[4.3307047,50.8329647],[4.3308345,50.8331899],[4.3322191,50.8343287],[4.3321736,50.8348969],[4.3322425,50.8350878],[4.3327564,50.8354261],[4.3327006,50.8358933],[4.3330176,50.8361499],[4.333397,50.8366471],[4.3336836,50.8367264],[4.3348013,50.8373154],[4.3351934,50.8377074],[4.3358609,50.8381188],[4.3359498,50.8382125],[4.3360477,50.8389383],[4.3367832,50.8393103],[4.338125,50.8397722],[4.3387943,50.8401335],[4.3401124,50.840252],[4.3383371,50.8448078],[4.3378781,50.8464503],[4.3360065,50.8464013],[4.3356357,50.8481466],[4.334611,50.84807],[4.3337181,50.84788],[4.3326241,50.8471781],[4.3322378,50.8468334],[4.3319274,50.8463657],[4.33142,50.8451351],[4.3307253,50.8442913],[4.3307309,50.8439734],[4.3305412,50.8439715],[4.3293137,50.8445429],[4.3287152,50.8443514],[4.3281336,50.844044],[4.3272489,50.8449927],[4.3159732,50.8484323],[4.3136852,50.8489313],[4.3124784,50.8496908],[4.3102829,50.8503195],[4.3096316,50.8502974],[4.3081534,50.8497956],[4.3080364,50.8499676],[4.307557,50.849782],[4.3070893,50.8497404],[4.3054551,50.8490704],[4.3042969,50.8483845],[4.3039773,50.8482675],[4.302933,50.8481484],[4.3026104,50.8485119],[4.3009541,50.848542],[4.3004798,50.8489544],[4.3000195,50.8491552],[4.2997342,50.8491913],[4.2998693,50.8483727],[4.2998277,50.8473792],[4.2968074,50.8473684],[4.2952178,50.8475979],[4.2946013,50.8475389],[4.2942676,50.8473421],[4.293811,50.8479827],[4.293506,50.8494356],[4.2924351,50.8494749],[4.2923845,50.8489948],[4.2904469,50.8490625],[4.2916151,50.8471292],[4.2918861,50.846881],[4.291869,50.8468157],[4.2922822,50.8462758],[4.2929581,50.8462926],[4.2930328,50.8452982],[4.2921984,50.8451867],[4.2910887,50.8452009],[4.2885894,50.8454314],[4.2862351,50.8451437],[4.2846154,50.8452983],[4.2846972,50.8449535],[4.2845255,50.8438535],[4.2843544,50.8437765],[4.2836172,50.8437971],[4.2837905,50.8419435],[4.2833056,50.8418306],[4.2837168,50.8406573],[4.2829132,50.840568],[4.2830216,50.8401788],[4.2816133,50.840054],[4.281735,50.8395294],[4.2827466,50.8396023],[4.2829404,50.8378502],[4.2820629,50.837811],[4.2796522,50.8379457],[4.2785711,50.8378046],[4.2776469,50.8378537],[4.2751562,50.8389259],[4.274417,50.8387093],[4.2743069,50.8385915],[4.273232,50.8386798],[4.2730032,50.8380134],[4.2729065,50.8380219],[4.272714,50.8377315],[4.2718841,50.8370551],[4.2719735,50.8364605],[4.2719033,50.836211],[4.2691597,50.8363508],[4.2681055,50.836305],[4.2645475,50.8358718],[4.2644444,50.8355318],[4.2635593,50.8355667],[4.2634802,50.8353377],[4.262665,50.8354377],[4.2618836,50.835182],[4.2602847,50.8353972],[4.2587679,50.8359858],[4.2583953,50.8357727],[4.2571678,50.8353455],[4.2563639,50.8349343],[4.2546705,50.8335181],[4.2547969,50.8331213],[4.2551604,50.8329032],[4.2545549,50.8325744],[4.2544316,50.8322725],[4.2548331,50.8317446],[4.2552118,50.8314334],[4.2555918,50.8304248],[4.2556692,50.8303981],[4.2556341,50.8293243],[4.2550919,50.8292977],[4.2550448,50.8287761],[4.2555148,50.8284533],[4.2548287,50.8270157],[4.25431,50.8262863],[4.2531563,50.8251469],[4.2511811,50.8242196],[4.2508417,50.8243805],[4.2476042,50.8219406]]]},"properties":{"type":"boundary","gemeente":"Anderlecht"}},{"type":"Feature","geometry":{"type":"Polygon","coordinates":[[[4.3137681,50.8933121],[4.314818,50.8930782],[4.3166962,50.8930127],[4.3222873,50.8940188],[4.3233659,50.8941154],[4.3244843,50.8940735],[4.3268335,50.8938133],[4.3276456,50.8933615],[4.3260821,50.8911454],[4.3298012,50.8905499],[4.3297021,50.8901635],[4.329944,50.8901075],[4.3275743,50.88912],[4.3274795,50.8889236],[4.3299899,50.8851845],[4.3301941,50.8851177],[4.3304475,50.8851636],[4.3322929,50.8857086],[4.3324042,50.8855885],[4.3329105,50.885751],[4.3338241,50.8861649],[4.3346911,50.8867883],[4.3370387,50.8869662],[4.3376831,50.8848906],[4.3383323,50.8848304],[4.3382676,50.884552],[4.3378212,50.8843414],[4.3392918,50.8817556],[4.339476,50.8765944],[4.3383628,50.8763942],[4.3397768,50.8731229],[4.3402258,50.8714962],[4.3417359,50.8708261],[4.3435871,50.8690507],[4.3430965,50.8684206],[4.3435635,50.8679325],[4.3435764,50.8674627],[4.341688,50.8650821],[4.3417398,50.8649629],[4.3483947,50.8628503],[4.3471076,50.8610359],[4.3456588,50.8595598],[4.3458229,50.8594894],[4.3457485,50.8594133],[4.3466503,50.8590294],[4.3411307,50.8533031],[4.3385236,50.8504658],[4.3380777,50.849657],[4.3378628,50.8494763],[4.337798,50.84916],[4.3374241,50.8484961],[4.335475,50.8489189],[4.3360065,50.8464013],[4.3378781,50.8464503],[4.3383371,50.8448078],[4.3401124,50.840252],[4.3399536,50.8402288],[4.3399949,50.840116],[4.3402982,50.8401596],[4.3428561,50.8330899],[4.3429984,50.832973],[4.3449716,50.8326067],[4.3458608,50.8327154],[4.3484489,50.8328316],[4.3500411,50.8334143],[4.3551663,50.8355601],[4.3571905,50.8336532],[4.3569254,50.8328438],[4.3576044,50.8326576],[4.3576092,50.8325498],[4.3574857,50.8324985],[4.357613,50.8324535],[4.3576209,50.8322653],[4.3583317,50.8318773],[4.3580403,50.8314135],[4.3579072,50.8310344],[4.3622433,50.8268283],[4.3617044,50.8265333],[4.3620993,50.8262519],[4.3626288,50.826464],[4.3633202,50.8259866],[4.3634106,50.8254362],[4.3645569,50.8249712],[4.3649511,50.8245105],[4.3643334,50.8241215],[4.3655881,50.8234813],[4.3650134,50.8231477],[4.367222,50.8229941],[4.3668856,50.822574],[4.3664351,50.8209589],[4.3696418,50.8192489],[4.3702948,50.8171819],[4.3706739,50.81527],[4.3681219,50.8148668],[4.3682844,50.8139882],[4.3678372,50.8138956],[4.3691434,50.8105516],[4.3697512,50.8094466],[4.3706173,50.8091116],[4.3710899,50.8088401],[4.3710725,50.8087562],[4.3724235,50.808477],[4.3729612,50.8081753],[4.3727258,50.8078032],[4.3729811,50.8075753],[4.3727743,50.8067097],[4.3717512,50.8066528],[4.3721931,50.8056541],[4.3724072,50.8042529],[4.3728377,50.8030968],[4.3733593,50.803212],[4.3735712,50.8026916],[4.3732303,50.8026393],[4.3734115,50.8023752],[4.3739376,50.8019565],[4.3756028,50.8012414],[4.3758112,50.8009944],[4.3767904,50.8009115],[4.3778448,50.801105],[4.3779436,50.801035],[4.3779942,50.8002817],[4.3778512,50.8001977],[4.3772929,50.8000097],[4.3753778,50.7997349],[4.4009077,50.7963454],[4.401044,50.7974673],[4.4006711,50.7979744],[4.3988813,50.7998573],[4.3977134,50.8008997],[4.3972386,50.8012065],[4.3968997,50.8017554],[4.3937751,50.8007534],[4.3904636,50.8021632],[4.3875143,50.8054221],[4.3873554,50.8058075],[4.3870386,50.8077263],[4.3868527,50.8082693],[4.3854328,50.8104573],[4.3850973,50.8117326],[4.3839057,50.8134409],[4.3835265,50.8147211],[4.3832361,50.8151979],[4.3828504,50.8156333],[4.3825903,50.8158511],[4.3791217,50.8138441],[4.3772414,50.81606],[4.3736187,50.8197294],[4.3704895,50.8239911],[4.3694843,50.8241015],[4.3685099,50.8244626],[4.3687472,50.8247335],[4.3671131,50.8253156],[4.3675425,50.8255933],[4.3668668,50.8259996],[4.3669596,50.8260671],[4.3667376,50.8262057],[4.3667885,50.8262429],[4.364697,50.8276242],[4.3655129,50.8285545],[4.365161,50.8289276],[4.3664178,50.8294105],[4.3654724,50.8304084],[4.3644094,50.8300212],[4.3642907,50.8300829],[4.3641005,50.830042],[4.3640682,50.8302266],[4.3632804,50.830173],[4.3603714,50.8315059],[4.3606597,50.8317112],[4.3597047,50.8322183],[4.3599428,50.8323985],[4.3587856,50.8335269],[4.3573473,50.8337248],[4.3553981,50.8356569],[4.355961,50.835891],[4.3560899,50.8357674],[4.3615872,50.8382111],[4.3616497,50.8381517],[4.3628989,50.8386779],[4.3659533,50.8387406],[4.3670936,50.8393095],[4.3675734,50.8389145],[4.3683053,50.8392961],[4.3686814,50.8400162],[4.372123,50.8392963],[4.3728194,50.8406301],[4.3750399,50.8401612],[4.375975,50.8398028],[4.3750688,50.838052],[4.3752696,50.8380102],[4.3762291,50.8373238],[4.3760968,50.8367362],[4.3760125,50.836692],[4.3758069,50.8360824],[4.3745789,50.8359702],[4.3746016,50.8358777],[4.3761208,50.8357507],[4.3767997,50.8357892],[4.3767502,50.835931],[4.3775739,50.8360607],[4.3775141,50.8362047],[4.3785363,50.8364181],[4.3785807,50.83635],[4.3786941,50.8363831],[4.3793902,50.8368147],[4.3796095,50.8368305],[4.380029,50.8370682],[4.3802451,50.8372625],[4.3802963,50.8375161],[4.3806583,50.8379117],[4.3807563,50.8391155],[4.3806763,50.8394373],[4.3802624,50.8400128],[4.3857842,50.8394257],[4.3858253,50.8395023],[4.3933307,50.8379429],[4.3960921,50.8432532],[4.3953868,50.8447369],[4.394223,50.8460657],[4.3929979,50.8471769],[4.3911318,50.8481983],[4.3862731,50.8512213],[4.3851159,50.8516991],[4.3813441,50.8507014],[4.3795995,50.8500199],[4.3789652,50.8498937],[4.3789774,50.8490338],[4.378709,50.8489741],[4.3786537,50.8490268],[4.377587,50.848756],[4.377367,50.8490307],[4.375713,50.8484705],[4.3752615,50.8476249],[4.3738815,50.8479114],[4.3738643,50.8477817],[4.3732167,50.8472879],[4.369566,50.84712],[4.3697233,50.8474197],[4.3683811,50.8525504],[4.3552484,50.8562056],[4.3558087,50.8569708],[4.3565816,50.8577011],[4.3567392,50.8595372],[4.3582629,50.862525],[4.3610865,50.8688045],[4.3629282,50.8703644],[4.3637347,50.8712579],[4.3644874,50.8709966],[4.3645907,50.8711174],[4.3652415,50.8708919],[4.3649021,50.8705029],[4.3652093,50.8694751],[4.3669085,50.8695938],[4.3681082,50.8705338],[4.3688369,50.8708996],[4.3698674,50.871258],[4.371218,50.8715278],[4.3725128,50.8715661],[4.3745067,50.8752703],[4.374827,50.8754972],[4.379399,50.8779067],[4.3795117,50.8778281],[4.3796845,50.8779019],[4.3814829,50.8789866],[4.3830668,50.879786],[4.3831411,50.8797201],[4.3842782,50.88014],[4.3883873,50.8810629],[4.3873111,50.8819966],[4.402003,50.8859352],[4.403097,50.885257],[4.4029668,50.8850377],[4.4032371,50.8849578],[4.4033204,50.8850244],[4.4040336,50.8847754],[4.403972,50.884694],[4.4052502,50.8839424],[4.406434,50.8828512],[4.4069923,50.8825214],[4.407339,50.8821815],[4.4086695,50.8803595],[4.4088931,50.8792173],[4.4099264,50.8781019],[4.4106825,50.8769742],[4.4143492,50.8782634],[4.4176504,50.8753246],[4.4186043,50.875272],[4.4203617,50.8745052],[4.4215403,50.8736789],[4.4222116,50.8733627],[4.4244151,50.872712],[4.4257197,50.8721324],[4.4275998,50.8750389],[4.4288105,50.876294],[4.4272386,50.8769776],[4.4273484,50.8774674],[4.4336459,50.8783713],[4.4370662,50.8787817],[4.4340403,50.8820576],[4.4320674,50.8843802],[4.4314585,50.8853399],[4.4305223,50.8862521],[4.4299106,50.887065],[4.4275056,50.8892579],[4.4272125,50.8898556],[4.4270382,50.8908911],[4.4277889,50.8916144],[4.4293165,50.8928818],[4.4310834,50.8933794],[4.4316567,50.8936404],[4.4319636,50.8938514],[4.4318415,50.8939291],[4.4327892,50.8947285],[4.4321585,50.8950034],[4.4312295,50.8952566],[4.4313709,50.8956647],[4.4294914,50.8969233],[4.4284387,50.8974209],[4.4273073,50.8976258],[4.4267591,50.8978163],[4.4259124,50.8985109],[4.4261477,50.8986098],[4.4269886,50.8995051],[4.427235,50.8995167],[4.427788,50.8997995],[4.4278137,50.8999577],[4.4266047,50.9003977],[4.426437,50.9003968],[4.4263915,50.9007212],[4.426063,50.9007991],[4.4260687,50.9010302],[4.425511,50.9011315],[4.4253188,50.9013825],[4.4249456,50.901451],[4.4247581,50.9017459],[4.4244577,50.9017924],[4.4242468,50.9020869],[4.4229629,50.9029675],[4.422699,50.9026457],[4.4224964,50.9025751],[4.4223988,50.9026127],[4.4221178,50.9031718],[4.4211119,50.9032025],[4.4206317,50.9035687],[4.4181458,50.9039147],[4.4174927,50.9045037],[4.4179167,50.9054234],[4.4144357,50.9064859],[4.41292,50.9066985],[4.4127353,50.9068228],[4.4127062,50.9069709],[4.4124763,50.9070245],[4.4125267,50.9075105],[4.4123893,50.9084161],[4.4124252,50.9085704],[4.4127206,50.908969],[4.4132144,50.9091121],[4.4137452,50.9095176],[4.4138004,50.9096616],[4.4137608,50.910396],[4.4144154,50.9112525],[4.414233,50.9115304],[4.4098223,50.9125436],[4.4063356,50.9130867],[4.4034684,50.9139045],[4.4030403,50.9130439],[4.4018459,50.9133375],[4.4009209,50.9133553],[4.3990675,50.9132342],[4.3989196,50.9121356],[4.3976872,50.9120564],[4.3971989,50.911857],[4.3948847,50.9101879],[4.394606,50.9103707],[4.3940039,50.9101738],[4.3929067,50.909961],[4.3915075,50.9100432],[4.3899958,50.9099771],[4.3892597,50.9103593],[4.3889979,50.9100012],[4.3885196,50.9102755],[4.3877622,50.9099444],[4.3871946,50.908071],[4.387038,50.9072436],[4.3861844,50.9057582],[4.3829511,50.9017992],[4.37922,50.900797],[4.3790499,50.9003697],[4.3779209,50.8993215],[4.3780167,50.8989236],[4.3782976,50.8985442],[4.3780955,50.8984882],[4.3783281,50.8978458],[4.3782247,50.8972813],[4.378064,50.8971474],[4.3774577,50.897],[4.3764982,50.8975797],[4.3757814,50.8977604],[4.3755136,50.8979602],[4.3734234,50.898422],[4.370713,50.8988822],[4.3639931,50.9011513],[4.3624981,50.9010676],[4.3573126,50.90137],[4.3532977,50.9012678],[4.3517173,50.9013134],[4.3481023,50.9015343],[4.3443632,50.902339],[4.3428625,50.902419],[4.3415644,50.9023925],[4.3332189,50.9014069],[4.331673,50.9011145],[4.3301767,50.9006929],[4.3245785,50.8985833],[4.3234298,50.8980587],[4.3225603,50.8974663],[4.3205756,50.8957252],[4.3193847,50.8949873],[4.3183361,50.894591],[4.3146138,50.8936101],[4.3137681,50.8933121]]]},"properties":{"type":"boundary","gemeente":"Brussel (Bruxelles)"}},{"type":"Feature","geometry":{"type":"Polygon","coordinates":[[[4.3117984,50.7975121],[4.3129474,50.7974041],[4.3133272,50.7971688],[4.3137163,50.7971111],[4.3137403,50.7969995],[4.3140249,50.7970343],[4.3139842,50.7969532],[4.3142788,50.7967269],[4.3141367,50.7963433],[4.3144246,50.7964537],[4.3146522,50.7964181],[4.3149323,50.7965682],[4.3152626,50.7963764],[4.3154339,50.7964528],[4.3158913,50.7963995],[4.3160672,50.7962895],[4.3161854,50.7963797],[4.3163969,50.7963521],[4.3164486,50.7962252],[4.3166067,50.7961791],[4.3165592,50.7960505],[4.316785,50.7958788],[4.3168104,50.7956915],[4.3169693,50.7956132],[4.3169417,50.7955409],[4.3170598,50.7953874],[4.3172387,50.7953128],[4.3172169,50.7952005],[4.3177175,50.7950374],[4.3177127,50.7949209],[4.3178851,50.794696],[4.3178625,50.7944097],[4.3180081,50.7942421],[4.3179173,50.7937583],[4.3183356,50.7932926],[4.3182178,50.7929978],[4.3183463,50.7929016],[4.3182316,50.7926905],[4.3182795,50.7924706],[4.3185175,50.7924485],[4.318552,50.792328],[4.3187676,50.7921471],[4.3186767,50.7919435],[4.3184641,50.7918354],[4.3185574,50.7916979],[4.3185238,50.7915476],[4.3183592,50.791326],[4.3183711,50.7912041],[4.3181811,50.7910263],[4.3182068,50.7907416],[4.3182916,50.7906045],[4.3187628,50.7906705],[4.3187867,50.7905556],[4.3189751,50.7904251],[4.3189572,50.790297],[4.3192267,50.7901078],[4.3191099,50.789983],[4.3191896,50.7897596],[4.318926,50.7896889],[4.3192105,50.7894341],[4.3191402,50.7893604],[4.3191719,50.7890995],[4.3194196,50.7888706],[4.3196334,50.7888404],[4.3197234,50.7886889],[4.3195864,50.7886082],[4.3196399,50.7884596],[4.319333,50.7883668],[4.3194243,50.7881565],[4.319287,50.7879912],[4.3195399,50.7878395],[4.3194731,50.7876589],[4.3191344,50.7876377],[4.3191905,50.7872063],[4.3193617,50.7868507],[4.3197138,50.7868299],[4.3204897,50.7863156],[4.3204043,50.7861358],[4.3206597,50.7858495],[4.3205796,50.7856959],[4.3209038,50.7856549],[4.320958,50.7854469],[4.3212295,50.785361],[4.3211883,50.7851886],[4.3212927,50.7850888],[4.3211736,50.7850404],[4.3211184,50.784797],[4.3214059,50.7845143],[4.3214471,50.7843348],[4.3216036,50.7842472],[4.321646,50.7839974],[4.3215197,50.7838668],[4.3217864,50.7835131],[4.3218671,50.7831707],[4.3231939,50.782397],[4.3249358,50.780903],[4.3251445,50.7806859],[4.3252515,50.7801603],[4.3253827,50.7799668],[4.3257641,50.7799032],[4.3267372,50.7794856],[4.3269613,50.779292],[4.3270254,50.7790804],[4.327286,50.7789834],[4.3275114,50.7787209],[4.3278545,50.7785728],[4.3277046,50.7784677],[4.3277155,50.7783657],[4.3279736,50.7783127],[4.3284511,50.7779605],[4.3287496,50.7779114],[4.3296212,50.7775514],[4.329962,50.7773068],[4.3300789,50.7771309],[4.3302864,50.7770853],[4.3308918,50.7764321],[4.3307238,50.7762981],[4.3310881,50.7759083],[4.3310191,50.775739],[4.3312509,50.7754987],[4.3355717,50.7744707],[4.3407685,50.7735971],[4.3410273,50.7738247],[4.3413419,50.7739559],[4.3418016,50.7744007],[4.343953,50.7750988],[4.3440364,50.7753856],[4.3444521,50.7752956],[4.3447375,50.7754533],[4.3455504,50.7754124],[4.3458966,50.7755054],[4.3461475,50.7754375],[4.3471422,50.7754857],[4.3475235,50.7752941],[4.3478019,50.7747823],[4.3485465,50.7746422],[4.3488096,50.7747025],[4.3489289,50.774564],[4.3493166,50.7744653],[4.3496154,50.7745619],[4.3499066,50.7745298],[4.35031,50.7743436],[4.3514976,50.7740636],[4.3523003,50.7736583],[4.3530004,50.7735138],[4.3537353,50.7736022],[4.353971,50.7734923],[4.3544575,50.7736121],[4.3546433,50.7736091],[4.3547975,50.7734991],[4.3553212,50.7735661],[4.3629017,50.7723432],[4.3625111,50.771915],[4.3637302,50.7713681],[4.364273,50.7724286],[4.3642149,50.7729021],[4.3631592,50.7730665],[4.3630991,50.773305],[4.3810456,50.7693327],[4.3811115,50.7685849],[4.3817915,50.7685825],[4.3826528,50.7687349],[4.3826705,50.764689],[4.3829292,50.7636799],[4.3964583,50.7675611],[4.410975,50.7719146],[4.4126138,50.7723237],[4.4112932,50.7739034],[4.4113547,50.7739164],[4.4095513,50.7754851],[4.4063913,50.7785842],[4.3998286,50.785241],[4.3970475,50.7881969],[4.3968738,50.7892555],[4.40099,50.7904795],[4.4024986,50.7913691],[4.4018875,50.791558],[4.4022535,50.7917372],[4.4037722,50.7921133],[4.4038763,50.7925469],[4.40369,50.7926515],[4.4034891,50.7929185],[4.4033116,50.7935812],[4.4026861,50.7936296],[4.4019957,50.7934179],[4.4015289,50.7939354],[4.4011009,50.7940648],[4.4008144,50.796358],[4.3753778,50.7997349],[4.3772929,50.8000097],[4.3778512,50.8001977],[4.3779942,50.8002817],[4.3779436,50.801035],[4.3778448,50.801105],[4.3767904,50.8009115],[4.3758112,50.8009944],[4.3756028,50.8012414],[4.3739376,50.8019565],[4.3734115,50.8023752],[4.3732303,50.8026393],[4.3735712,50.8026916],[4.3733593,50.803212],[4.3728377,50.8030968],[4.3724072,50.8042529],[4.3721931,50.8056541],[4.3717512,50.8066528],[4.3727743,50.8067097],[4.3729811,50.8075753],[4.3727258,50.8078032],[4.3729612,50.8081753],[4.3724235,50.808477],[4.3710725,50.8087562],[4.3710899,50.8088401],[4.3706173,50.8091116],[4.3697512,50.8094466],[4.3691434,50.8105516],[4.3678372,50.8138956],[4.3682844,50.8139882],[4.3682978,50.8141809],[4.3679789,50.8152303],[4.367876,50.8152138],[4.3675508,50.8159442],[4.3681443,50.8160467],[4.3680713,50.8162185],[4.3678636,50.8161909],[4.3677971,50.8163506],[4.3672937,50.8165235],[4.3673219,50.8166858],[4.3669105,50.8169252],[4.3667654,50.8169366],[4.3663382,50.8166311],[4.3635219,50.8157986],[4.3626139,50.8157929],[4.3623745,50.8163385],[4.3617883,50.8162224],[4.3605281,50.8166677],[4.359474,50.8164945],[4.3594182,50.8166544],[4.35778,50.8164203],[4.3579676,50.8157559],[4.3575848,50.8157122],[4.3576609,50.8154412],[4.357316,50.8154292],[4.3575234,50.8146925],[4.3461128,50.8142096],[4.3440637,50.8140282],[4.3430396,50.8142936],[4.3430351,50.8145476],[4.3429143,50.8146549],[4.3409943,50.8151029],[4.3408059,50.8151096],[4.3406984,50.8149613],[4.3396448,50.8150592],[4.3393844,50.8149592],[4.3377522,50.8151844],[4.3375601,50.8144077],[4.33732,50.8139467],[4.336549,50.8137366],[4.33587,50.813211],[4.3353831,50.8131743],[4.3347823,50.812973],[4.3353356,50.8123749],[4.3360532,50.8117941],[4.3373115,50.8110995],[4.3365566,50.8095404],[4.3356242,50.8096371],[4.3351821,50.8095394],[4.3355337,50.8084861],[4.3324502,50.8079469],[4.3321015,50.8075248],[4.3308245,50.8063774],[4.3308589,50.8063284],[4.3307273,50.8062906],[4.330363,50.8062547],[4.3292745,50.8063606],[4.3285816,50.8065193],[4.3282686,50.8066781],[4.3279213,50.8056616],[4.3272754,50.8056806],[4.3249814,50.8054766],[4.3247244,50.8045211],[4.3243168,50.8038043],[4.3236046,50.8031271],[4.3217056,50.8006674],[4.3194002,50.8001563],[4.3188103,50.7999321],[4.3186936,50.8000149],[4.3180937,50.7998291],[4.3169468,50.7998178],[4.3158547,50.7992167],[4.314966,50.7990628],[4.3131949,50.7985352],[4.3122205,50.7981491],[4.3118244,50.7979669],[4.3117984,50.7975121]]]},"properties":{"type":"boundary","gemeente":"Ukkel (Uccle)"}},{"type":"Feature","geometry":{"type":"Polygon","coordinates":[[[4.3968997,50.8017554],[4.3972386,50.8012065],[4.3977134,50.8008997],[4.3989738,50.7997691],[4.4000284,50.7986991],[4.401044,50.7974673],[4.4009077,50.7963454],[4.4008144,50.796358],[4.4011009,50.7940648],[4.4015289,50.7939354],[4.4019957,50.7934179],[4.4026861,50.7936296],[4.4033116,50.7935812],[4.4034891,50.7929185],[4.40369,50.7926515],[4.4038763,50.7925469],[4.4037722,50.7921133],[4.4022535,50.7917372],[4.4018875,50.791558],[4.4024986,50.7913691],[4.40099,50.7904795],[4.3968738,50.7892555],[4.3970475,50.7881969],[4.3998286,50.785241],[4.4063913,50.7785842],[4.4095513,50.7754851],[4.4113547,50.7739164],[4.4112932,50.7739034],[4.4126138,50.7723237],[4.4253134,50.7754944],[4.4331649,50.7781279],[4.4345951,50.7764837],[4.4514574,50.7825981],[4.4633423,50.7878873],[4.4702733,50.7897632],[4.4665602,50.7904601],[4.4619174,50.7905414],[4.4553237,50.7919683],[4.4511412,50.7987638],[4.4501403,50.7985097],[4.4489955,50.7980768],[4.4435201,50.7975597],[4.4320949,50.8025503],[4.4296125,50.8037048],[4.4292272,50.8038922],[4.4293958,50.8040832],[4.4291514,50.8041409],[4.4293762,50.804421],[4.4294644,50.8047714],[4.4283226,50.8051656],[4.4282551,50.8058743],[4.4283402,50.8060302],[4.4289443,50.8064759],[4.42907,50.8067359],[4.4290121,50.807009],[4.4292921,50.8078631],[4.4284769,50.8089026],[4.4286475,50.8093398],[4.4286723,50.8097304],[4.4284665,50.8100152],[4.4223856,50.8109885],[4.4216809,50.810624],[4.4212983,50.8105653],[4.419352,50.8106007],[4.4181203,50.8120002],[4.4180618,50.8124085],[4.4163431,50.8122731],[4.4149645,50.8125184],[4.4146993,50.812632],[4.4144695,50.8129393],[4.4143705,50.8132179],[4.4125945,50.8133084],[4.4092611,50.8124722],[4.4063616,50.812386],[4.4064619,50.8130803],[4.4062922,50.8139648],[4.4063152,50.8150241],[4.4055143,50.8150277],[4.4049464,50.8149201],[4.4036208,50.8148513],[4.4020916,50.8144645],[4.401126,50.8139982],[4.3999035,50.8140241],[4.3978869,50.8132381],[4.3966561,50.8131033],[4.3922758,50.8120764],[4.3934267,50.8111742],[4.3942199,50.8100337],[4.3946456,50.8098168],[4.3955305,50.8095819],[4.3967231,50.8091128],[4.3972261,50.808682],[4.3973663,50.8082309],[4.3972645,50.8071733],[4.3973318,50.8066235],[4.3970393,50.8054508],[4.3969972,50.8047631],[4.3963803,50.8034574],[4.3964591,50.8030461],[4.3967709,50.8026355],[4.3968976,50.8023258],[4.3970104,50.8018991],[4.3968997,50.8017554]]]},"properties":{"type":"boundary","gemeente":"Watermaal-Bosvoorde (Watermael-Boitsfort)"}},{"type":"Feature","geometry":{"type":"Polygon","coordinates":[[[4.2937616,50.8890454],[4.2939145,50.8871545],[4.2941995,50.8866384],[4.2946769,50.886064],[4.2957582,50.8853265],[4.2965654,50.8849768],[4.2969186,50.8850838],[4.297053,50.8850387],[4.2971231,50.884793],[4.2978972,50.8835097],[4.2980041,50.8828271],[4.2982032,50.8825138],[4.2982052,50.8821012],[4.3060137,50.8813978],[4.3081023,50.8810494],[4.3133079,50.8799656],[4.3142847,50.8799118],[4.3159334,50.8799587],[4.3196577,50.8802379],[4.3197187,50.8798977],[4.3195236,50.8793801],[4.319339,50.8784703],[4.321098,50.8777277],[4.3207345,50.8770497],[4.320416,50.875186],[4.322258,50.8742436],[4.3225281,50.8739669],[4.3233704,50.8727068],[4.3205646,50.8721694],[4.3240525,50.8669691],[4.3248478,50.8671216],[4.324878,50.8669387],[4.3250214,50.8669743],[4.3252223,50.8666754],[4.3276146,50.8674676],[4.3277086,50.8673858],[4.3280383,50.8674781],[4.3283376,50.8671837],[4.3296159,50.867586],[4.3323674,50.8645451],[4.3405232,50.8713633],[4.3402258,50.8714962],[4.3397768,50.8731229],[4.3383628,50.8763942],[4.339476,50.8765944],[4.3392918,50.8817556],[4.3378212,50.8843414],[4.3382676,50.884552],[4.3383323,50.8848304],[4.3376831,50.8848906],[4.3370387,50.8869662],[4.3346911,50.8867883],[4.3338241,50.8861649],[4.3329105,50.885751],[4.3324042,50.8855885],[4.3322929,50.8857086],[4.3304475,50.8851636],[4.3301941,50.8851177],[4.3299899,50.8851845],[4.3274795,50.8889236],[4.3275743,50.88912],[4.329944,50.8901075],[4.3297021,50.8901635],[4.3298012,50.8905499],[4.3260821,50.8911454],[4.3276456,50.8933615],[4.3268921,50.8937921],[4.3244843,50.8940735],[4.3233659,50.8941154],[4.3222873,50.8940188],[4.3166962,50.8930127],[4.314818,50.8930782],[4.3137681,50.8933121],[4.3074286,50.8909925],[4.3057759,50.8909458],[4.3040899,50.8906163],[4.3019804,50.8903971],[4.3011579,50.8904202],[4.3009376,50.8905635],[4.2937616,50.8890454]]]},"properties":{"type":"boundary","gemeente":"Jette"}},{"type":"Feature","geometry":{"type":"Polygon","coordinates":[[[4.3873111,50.8819966],[4.3889471,50.8805762],[4.3890009,50.8804614],[4.3889449,50.8803826],[4.3903623,50.878657],[4.3905372,50.8785786],[4.3915492,50.8774383],[4.3924569,50.8760916],[4.3927345,50.875797],[4.3932657,50.8744403],[4.3940718,50.8731452],[4.3948444,50.8716142],[4.3960437,50.8686218],[4.396668,50.8676972],[4.4000358,50.8638986],[4.4029715,50.8612105],[4.4041078,50.8604788],[4.4042427,50.8603378],[4.4040713,50.8600215],[4.4047144,50.8598028],[4.4063919,50.8585649],[4.4076949,50.8573733],[4.4088956,50.8576687],[4.4130271,50.8540708],[4.4107019,50.853065],[4.4117824,50.8520416],[4.4158371,50.8542252],[4.4220018,50.8570183],[4.4240634,50.8601347],[4.426634,50.8628724],[4.4254038,50.8638628],[4.4222741,50.8666214],[4.4217304,50.8667858],[4.4213748,50.8672474],[4.4208709,50.8677151],[4.4216619,50.8682979],[4.4258832,50.87206],[4.4244151,50.872712],[4.4222116,50.8733627],[4.4215403,50.8736789],[4.4203617,50.8745052],[4.4186043,50.875272],[4.4176504,50.8753246],[4.4143492,50.8782634],[4.4106825,50.8769742],[4.4099264,50.8781019],[4.4088931,50.8792173],[4.4086695,50.8803595],[4.407339,50.8821815],[4.4069923,50.8825214],[4.406434,50.8828512],[4.4052502,50.8839424],[4.403972,50.884694],[4.4040336,50.8847754],[4.4033204,50.8850244],[4.4032371,50.8849578],[4.4029668,50.8850377],[4.403097,50.885257],[4.402003,50.8859352],[4.3873111,50.8819966]]]},"properties":{"type":"boundary","gemeente":"Evere"}},{"type":"Feature","geometry":{"type":"Polygon","coordinates":[[[4.3070423,50.8642396],[4.3088447,50.8645068],[4.3104268,50.8643895],[4.3106011,50.8647],[4.3122341,50.8642278],[4.3161198,50.8612338],[4.322211,50.8625264],[4.322633,50.862155],[4.3268333,50.861146],[4.3273808,50.8606064],[4.3268959,50.8600587],[4.3271227,50.8599338],[4.3261142,50.8582943],[4.3254889,50.8569475],[4.326867,50.8567768],[4.3288487,50.8567896],[4.3309532,50.8570152],[4.3327706,50.857113],[4.3325072,50.8574459],[4.3345032,50.8583491],[4.3346062,50.8582537],[4.3348506,50.8583569],[4.3350355,50.8581889],[4.3369642,50.8589676],[4.3377273,50.8594678],[4.3364981,50.8601951],[4.3361791,50.860068],[4.3349522,50.8610902],[4.3348172,50.8616195],[4.335049,50.8619206],[4.3340007,50.862219],[4.3341828,50.8623456],[4.331502,50.8655689],[4.3313949,50.8655749],[4.3306092,50.8665416],[4.3296159,50.867586],[4.3283376,50.8671837],[4.3280383,50.8674781],[4.3277086,50.8673858],[4.3276146,50.8674676],[4.3251312,50.8666445],[4.3261445,50.8656558],[4.3248226,50.8650896],[4.3233793,50.8659132],[4.3227792,50.8661362],[4.3172308,50.867074],[4.3150825,50.8671999],[4.3091889,50.8668603],[4.308362,50.8662063],[4.3072182,50.8655756],[4.3070323,50.8650133],[4.306922,50.8649287],[4.3070423,50.8642396]]]},"properties":{"type":"boundary","gemeente":"Koekelberg"}},{"type":"Feature","geometry":{"type":"Polygon","coordinates":[[[4.3796095,50.8368305],[4.3793068,50.8364881],[4.3791822,50.8362185],[4.3793593,50.8357957],[4.3795824,50.8355727],[4.3792898,50.8348808],[4.3792368,50.8343241],[4.3789886,50.8340263],[4.3823587,50.8329129],[4.3803682,50.8304264],[4.37998,50.8300777],[4.3810793,50.8290556],[4.3819687,50.8283861],[4.3824982,50.8281177],[4.3830789,50.8275588],[4.3853476,50.8260764],[4.3854956,50.8260427],[4.3855039,50.8259702],[4.3870722,50.8247998],[4.3870169,50.8247503],[4.387814,50.8241711],[4.3895599,50.8224708],[4.397038,50.8262417],[4.3993367,50.8248603],[4.4121918,50.8304644],[4.4110881,50.8304977],[4.4108225,50.8305853],[4.4104591,50.8308535],[4.4099853,50.831507],[4.4098037,50.8318988],[4.4097356,50.8324467],[4.4098642,50.8335883],[4.4097547,50.8339059],[4.4093132,50.8343811],[4.407161,50.835906],[4.4050986,50.8376239],[4.4059516,50.8380571],[4.4061248,50.8383894],[4.4075628,50.8388739],[4.405963,50.8390828],[4.405562,50.8388357],[4.4048872,50.8393528],[4.4043532,50.8396289],[4.4025304,50.8403116],[4.4010885,50.8406024],[4.4010975,50.8407314],[4.4014732,50.8413365],[4.4009697,50.8425847],[4.4006046,50.8431153],[4.3989114,50.8446705],[4.3960287,50.8434086],[4.3960921,50.8432532],[4.3933307,50.8379429],[4.3858253,50.8395023],[4.3857842,50.8394257],[4.3802624,50.8400128],[4.3806763,50.8394373],[4.3807563,50.8391155],[4.3806583,50.8379117],[4.3802963,50.8375161],[4.3802451,50.8372625],[4.3796095,50.8368305]]]},"properties":{"type":"boundary","gemeente":"Etterbeek"}},{"type":"Feature","geometry":{"type":"Polygon","coordinates":[[[4.4043618,50.8270367],[4.4058899,50.8264568],[4.4075368,50.8255238],[4.41139,50.8229901],[4.4117732,50.8226076],[4.411709,50.8225624],[4.4131265,50.822185],[4.4133877,50.822286],[4.4135694,50.8222602],[4.4136919,50.8224899],[4.4145687,50.8229418],[4.417779,50.8216169],[4.4185963,50.8217075],[4.4194273,50.82204],[4.4209018,50.8230208],[4.4219407,50.8233486],[4.4225498,50.8236216],[4.4226284,50.8237712],[4.4229883,50.8239328],[4.4240056,50.8242525],[4.4251777,50.8249196],[4.4271739,50.8259018],[4.428139,50.8262535],[4.4283467,50.8258632],[4.4302906,50.8262229],[4.4306725,50.8261135],[4.431252,50.8255718],[4.4322336,50.8250193],[4.4322623,50.8251207],[4.4336256,50.8250829],[4.4406396,50.8205744],[4.4411157,50.8209584],[4.4417057,50.8212486],[4.4425729,50.8222996],[4.4427599,50.8224103],[4.4430321,50.8224827],[4.4463234,50.8226632],[4.4468602,50.8226307],[4.4493521,50.8219797],[4.4498223,50.821705],[4.450322,50.8212674],[4.4527557,50.8203818],[4.4533577,50.8198863],[4.4536584,50.8194537],[4.4546561,50.8184231],[4.476725,50.8204065],[4.4657443,50.8355352],[4.4681635,50.8373851],[4.4678151,50.8386734],[4.467004,50.8397504],[4.4668135,50.8401516],[4.4672517,50.8433863],[4.4670702,50.8440942],[4.4670755,50.8446251],[4.4651958,50.844273],[4.4639895,50.8463915],[4.4636424,50.8472898],[4.4630278,50.8483123],[4.4624858,50.8489441],[4.4573703,50.8477976],[4.4596394,50.845436],[4.4591495,50.8454916],[4.4583958,50.8452701],[4.4575331,50.8452544],[4.4572287,50.8450788],[4.4571612,50.844707],[4.457226,50.844481],[4.4570801,50.8441134],[4.4568664,50.8441834],[4.4559116,50.8441774],[4.4557501,50.8439265],[4.4553178,50.8440681],[4.4541492,50.8441608],[4.4524817,50.8439038],[4.4506434,50.8438301],[4.4496294,50.8434545],[4.4496579,50.8433197],[4.4481299,50.8428857],[4.4496217,50.8416112],[4.4517623,50.8420523],[4.4524937,50.8413821],[4.4547942,50.8398854],[4.4512849,50.8396557],[4.4437867,50.8384021],[4.4419939,50.8382925],[4.4414709,50.8381385],[4.4406872,50.8376584],[4.4392028,50.8370561],[4.4389325,50.8369766],[4.4384707,50.8370224],[4.4381016,50.8362256],[4.4381485,50.8360072],[4.4385149,50.8358255],[4.4397459,50.8356826],[4.4399038,50.8344947],[4.4397035,50.8341177],[4.4392458,50.8337822],[4.4368662,50.8344225],[4.4361197,50.8347572],[4.4359509,50.834712],[4.4357863,50.8345413],[4.4347416,50.8347792],[4.4345163,50.8347498],[4.4347392,50.8351081],[4.4355183,50.8375817],[4.4340284,50.8377579],[4.4340002,50.8396411],[4.4326826,50.8399978],[4.4318046,50.8400535],[4.4318106,50.839621],[4.4316033,50.8393201],[4.4264336,50.8393859],[4.4215794,50.8390547],[4.4180954,50.8385074],[4.4150693,50.8383426],[4.4117605,50.8383068],[4.4108198,50.8381316],[4.4091669,50.8385139],[4.4082979,50.8389761],[4.4079056,50.8389798],[4.4061248,50.8383894],[4.4059516,50.8380571],[4.4050986,50.8376239],[4.407161,50.835906],[4.4093132,50.8343811],[4.4097547,50.8339059],[4.4098642,50.8335883],[4.4097356,50.8324467],[4.4098037,50.8318988],[4.4099853,50.831507],[4.4104591,50.8308535],[4.4108225,50.8305853],[4.4110881,50.8304977],[4.4121918,50.8304644],[4.4043618,50.8270367]]]},"properties":{"type":"boundary","gemeente":"Sint-Pieters-Woluwe (Woluwe-Saint-Pierre)"}}]}