{
  "type": "FeatureCollection",
  "metadata": {
    "gemeente": "Anthisnes",
    "slug": "anthisnes",
    "generated_at": "2026-09-25T22:11:34.254293Z",
    "total_points": 10,
    "providers": [
      "bpost",
      "DHL",
      "GLS",
      "InPost",
      "VintedGo",
      "Amazon"
    ],
    "bounds": [
      5.50174,
      50.4777639,
      5.5241542,
      50.484782
    ]
  },
  "features": [
    {
      "type": "Feature",
      "geometry": {
        "type": "Point",
        "coordinates": [
          5.50174,
          50.48478
        ]
      },
      "properties": {
        "type": "pakketpunt",
        "locatieNaam": "Anthisnes",
        "straatNaam": "Rue Des Martyrs",
        "straatNr": "19",
        "vervoerder": "bpost",
        "puntType": "postkantoor",
        "bezettingsgraad": 50,
        "latitude": 50.48478,
        "longitude": 5.50174,
        "canPickup": true,
        "canDropoff": true,
        "openingstijden": null
      }
    },
    {
      "type": "Feature",
      "geometry": {
        "type": "Point",
        "coordinates": [
          5.52393,
          50.47781
        ]
      },
      "properties": {
        "type": "pakketpunt",
        "locatieNaam": "Bbox 24/7 Spar Anthisnes",
        "straatNaam": "Rue Du Moulin",
        "straatNr": "21",
        "vervoerder": "bpost",
        "puntType": "automaat",
        "bezettingsgraad": 50,
        "latitude": 50.47781,
        "longitude": 5.52393,
        "canPickup": true,
        "canDropoff": true,
        "openingstijden": null
      }
    },
    {
      "type": "Feature",
      "geometry": {
        "type": "Point",
        "coordinates": [
          5.501745,
          50.484782
        ]
      },
      "properties": {
        "type": "pakketpunt",
        "locatieNaam": "ANTHISNES",
        "straatNaam": "RUE DES MARTYRS",
        "straatNr": "19",
        "vervoerder": "DHL",
        "puntType": "postOffice",
        "bezettingsgraad": 50,
        "latitude": 50.484782,
        "longitude": 5.501745,
        "canPickup": true,
        "canDropoff": true,
        "openingstijden": {
          "ma": "09:30 - 12:00",
          "di": "09:30 - 12:30, 14:00 - 18:00",
          "wo": "09:30 - 12:00",
          "do": "09:30 - 12:30, 14:00 - 18:00",
          "vr": "09:30 - 12:00",
          "za": "gesloten",
          "zo": "gesloten"
        }
      }
    },
    {
      "type": "Feature",
      "geometry": {
        "type": "Point",
        "coordinates": [
          5.523934,
          50.477806
        ]
      },
      "properties": {
        "type": "pakketpunt",
        "locatieNaam": "BBOX 24/7 SPAR ANTHISNES",
        "straatNaam": "RUE DU MOULIN",
        "straatNr": "21",
        "vervoerder": "DHL",
        "puntType": "packStation",
        "bezettingsgraad": 50,
        "latitude": 50.477806,
        "longitude": 5.523934,
        "canPickup": true,
        "canDropoff": true,
        "openingstijden": {
          "ma": "00:00 - 23:59",
          "di": "00:00 - 23:59",
          "wo": "00:00 - 23:59",
          "do": "00:00 - 23:59",
          "vr": "00:00 - 23:59",
          "za": "00:00 - 23:59",
          "zo": "00:00 - 23:59"
        }
      }
    },
    {
      "type": "Feature",
      "geometry": {
        "type": "Point",
        "coordinates": [
          5.521,
          50.48019
        ]
      },
      "properties": {
        "type": "pakketpunt",
        "locatieNaam": "Stock Anthisnes",
        "straatNaam": "Rue Du Centre",
        "straatNr": "7",
        "vervoerder": "GLS",
        "puntType": "parcel_shop",
        "bezettingsgraad": 50,
        "latitude": 50.48019,
        "longitude": 5.521,
        "canPickup": true,
        "canDropoff": true,
        "openingstijden": "vr: 08:30 - 12:30, 13:30 - 18:00; za: 08:30 - 12:30, 13:30 - 18:00"
      }
    },
    {
      "type": "Feature",
      "geometry": {
        "type": "Point",
        "coordinates": [
          5.52069,
          50.48017
        ]
      },
      "properties": {
        "type": "pakketpunt",
        "locatieNaam": "STOCK ANTHISNES S.R.L",
        "straatNaam": "7 Rue du Ctre",
        "straatNr": "",
        "vervoerder": "InPost",
        "puntType": "servicepunt",
        "bezettingsgraad": 50,
        "latitude": 50.48017,
        "longitude": 5.52069,
        "canPickup": true,
        "canDropoff": true,
        "openingstijden": null
      }
    },
    {
      "type": "Feature",
      "geometry": {
        "type": "Point",
        "coordinates": [
          5.52061,
          50.48039
        ]
      },
      "properties": {
        "type": "pakketpunt",
        "locatieNaam": "",
        "straatNaam": "Rue du Ctre",
        "straatNr": "7",
        "vervoerder": "InPost",
        "puntType": "automaat",
        "bezettingsgraad": 50,
        "latitude": 50.48039,
        "longitude": 5.52061,
        "canPickup": true,
        "canDropoff": true,
        "openingstijden": "24/7"
      }
    },
    {
      "type": "Feature",
      "geometry": {
        "type": "Point",
        "coordinates": [
          5.5241542,
          50.4777639
        ]
      },
      "properties": {
        "type": "pakketpunt",
        "locatieNaam": "Spar Anthisnes",
        "straatNaam": "Rue Du Moulin",
        "straatNr": "21",
        "vervoerder": "VintedGo",
        "puntType": "locker",
        "bezettingsgraad": 50,
        "latitude": 50.4777639,
        "longitude": 5.5241542,
        "canPickup": true,
        "canDropoff": true,
        "openingstijden": null
      }
    },
    {
      "type": "Feature",
      "geometry": {
        "type": "Point",
        "coordinates": [
          5.523934,
          50.477806
        ]
      },
      "properties": {
        "type": "pakketpunt",
        "locatieNaam": "bpost - BBOX 24/7 SPAR ANTHISNES",
        "straatNaam": "RUE DU MOULIN,21",
        "straatNr": "",
        "vervoerder": "Amazon",
        "puntType": "3p",
        "bezettingsgraad": 50,
        "latitude": 50.477806,
        "longitude": 5.523934,
        "canPickup": true,
        "canDropoff": false,
        "openingstijden": null
      }
    },
    {
      "type": "Feature",
      "geometry": {
        "type": "Point",
        "coordinates": [
          5.501745,
          50.484782
        ]
      },
      "properties": {
        "type": "pakketpunt",
        "locatieNaam": "bpost - ANTHISNES",
        "straatNaam": "RUE DES MARTYRS,19",
        "straatNr": "",
        "vervoerder": "Amazon",
        "puntType": "3p",
        "bezettingsgraad": 50,
        "latitude": 50.484782,
        "longitude": 5.501745,
        "canPickup": true,
        "canDropoff": false,
        "openingstijden": null
      }
    },
    {
      "type": "Feature",
      "geometry": {
        "type": "MultiPolygon",
        "coordinates": [
          [
            [
              [
                5.528179048900112,
                50.4769405100279
              ],
              [
                5.528033184519224,
                50.47669273623376
              ],
              [
                5.527849965922452,
                50.47645527871038
              ],
              [
                5.527631158019107,
                50.47623042413317
              ],
              [
                5.52737886835001,
                50.47602033778196
              ],
              [
                5.527095526779157,
                50.47582704269552
              ],
              [
                5.526783862086016,
                50.47565240019672
              ],
              [
                5.526446875684158,
                50.475498091975155
              ],
              [
                5.526087812719379,
                50.47536560389966
              ],
              [
                5.525710130825531,
                50.475256211716534
              ],
              [
                5.5253174668386364,
                50.47517096877048
              ],
              [
                5.524913601789345,
                50.475110695866576
              ],
              [
                5.524502424510231,
                50.47507597337051
              ],
              [
                5.524087894207586,
                50.47506713562298
              ],
              [
                5.523674002357295,
                50.47508426772198
              ],
              [
                5.523264734290773,
                50.47512720470379
              ],
              [
                5.522864030839916,
                50.475195533130645
              ],
              [
                5.522798222212273,
                50.47521130607062
              ],
              [
                5.522643841629292,
                50.47523763070701
              ],
              [
                5.522255560421422,
                50.47533069191058
              ],
              [
                5.52188344097917,
                50.475447590560925
              ],
              [
                5.52153106660204,
                50.47558720103049
              ],
              [
                5.521201830546694,
                50.47574817898678
              ],
              [
                5.520898903359622,
                50.47592897433169
              ],
              [
                5.520625202349831,
                50.47612784612166
              ],
              [
                5.520383363495315,
                50.476342879325856
              ],
              [
                5.5203812956081615,
                50.47634516110258
              ],
              [
                5.520379363319094,
                50.47634687920478
              ],
              [
                5.520171715840692,
                50.47657600313225
              ],
              [
                5.52000025987438,
                50.47681701138912
              ],
              [
                5.519866647081847,
                50.477067583095966
              ],
              [
                5.519772164765489,
                50.47732530524138
              ],
              [
                5.519726385965758,
                50.47754594540783
              ],
              [
                5.519399953106544,
                50.47760159574601
              ],
              [
                5.519011646155472,
                50.47769464608817
              ],
              [
                5.51863950014431,
                50.47781153431826
              ],
              [
                5.518287098628344,
                50.47795113490909
              ],
              [
                5.5179578351255145,
                50.47811210362334
              ],
              [
                5.51765488044657,
                50.47829289045182
              ],
              [
                5.5173811521652185,
                50.478491754533074
              ],
              [
                5.517139286522043,
                50.47870678091047
              ],
              [
                5.516931613032707,
                50.47893589896613
              ],
              [
                5.516760132045102,
                50.47917690235426
              ],
              [
                5.516626495461885,
                50.479427470242335
              ],
              [
                5.516531990814588,
                50.47968518965577
              ],
              [
                5.516531137289787,
                50.479689301824266
              ],
              [
                5.516451972325974,
                50.479905186814605
              ],
              [
                5.516397509658647,
                50.4801675758229
              ],
              [
                5.516383615006411,
                50.480432107606795
              ],
              [
                5.516410422860066,
                50.48069623459504
              ],
              [
                5.5164776757188845,
                50.480957413072595
              ],
              [
                5.5165847265446155,
                50.48121312767915
              ],
              [
                5.516730544968079,
                50.481460915636035
              ],
              [
                5.5169137271895465,
                50.48169839046827
              ],
              [
                5.517132509478455,
                50.481923264993036
              ],
              [
                5.517384785143156,
                50.48213337335302
              ],
              [
                5.517668124807927,
                50.4823266918823
              ],
              [
                5.517979799802393,
                50.48250135860321
              ],
              [
                5.518316808438345,
                50.48265569116655
              ],
              [
                5.518675904921021,
                50.482788203061645
              ],
              [
                5.5190536306162254,
                50.482897617940175
              ],
              [
                5.519446347371889,
                50.48298288191516
              ],
              [
                5.519850272572649,
                50.48304317371681
              ],
              [
                5.520261515589188,
                50.483077912606696
              ],
              [
                5.520676115270526,
                50.48308676397436
              ],
              [
                5.521090078117281,
                50.48306964256195
              ],
              [
                5.521499416767294,
                50.483026713285795
              ],
              [
                5.52190018842202,
                50.48295838964707
              ],
              [
                5.522288532842545,
                50.482865329747064
              ],
              [
                5.522660709548449,
                50.48274842994494
              ],
              [
                5.5230131338603154,
                50.48260881622018
              ],
              [
                5.523342411438087,
                50.482447833321935
              ],
              [
                5.523428931760375,
                50.48239619957047
              ],
              [
                5.523732416842832,
                50.482247824233085
              ],
              [
                5.524035373619366,
                50.48206702170091
              ],
              [
                5.524309094625294,
                50.48186814208546
              ],
              [
                5.524550943865478,
                50.48165310091937
              ],
              [
                5.5247585924170295,
                50.4814239693703
              ],
              [
                5.524930040849758,
                50.481182954286645
              ],
              [
                5.525063638468738,
                50.480932376937275
              ],
              [
                5.525158099194223,
                50.480674650650144
              ],
              [
                5.525212513926598,
                50.48041225756564
              ],
              [
                5.525214234293422,
                50.48037938795732
              ],
              [
                5.525220298140291,
                50.480378353937525
              ],
              [
                5.525334092145552,
                50.480351080179354
              ],
              [
                5.525444509038483,
                50.480332251471076
              ],
              [
                5.525832824971395,
                50.48023917970292
              ],
              [
                5.526204972302488,
                50.48012226851476
              ],
              [
                5.52655736663534,
                50.4799826439957
              ],
              [
                5.526886613918696,
                50.47982165099883
              ],
              [
                5.527189543144609,
                50.47964084018237
              ],
              [
                5.5274632368937695,
                50.479441953067806
              ],
              [
                5.5277050594335835,
                50.479226905260006
              ],
              [
                5.5279126820983375,
                50.478997767990585
              ],
              [
                5.528084105707155,
                50.47875674816304
              ],
              [
                5.528217679804179,
                50.47850616709188
              ],
              [
                5.528312118536173,
                50.478248438140895
              ],
              [
                5.528366513015293,
                50.47798604347612
              ],
              [
                5.528380340048785,
                50.4777215101575
              ],
              [
                5.5283534671524,
                50.477457385799845
              ],
              [
                5.528286153800266,
                50.47719621403731
              ],
              [
                5.528179048900112,
                50.4769405100279
              ]
            ]
          ],
          [
            [
              [
                5.5032973475850415,
                50.48227261446609
              ],
              [
                5.5029046657899015,
                50.482187295986485
              ],
              [
                5.502500769462015,
                50.48212694536103
              ],
              [
                5.502089547735193,
                50.48209214370379
              ],
              [
                5.501674960243689,
                50.4820832261177
              ],
              [
                5.5012609990139785,
                50.48210027846953
              ],
              [
                5.500851650045386,
                50.48214313656342
              ],
              [
                5.500450854948617,
                50.48221138772122
              ],
              [
                5.500062473010628,
                50.482304374754115
              ],
              [
                5.4996902440502,
                50.48242120228754
              ],
              [
                5.499337752421111,
                50.48256074537878
              ],
              [
                5.499008392508774,
                50.482721660344225
              ],
              [
                5.498705336052042,
                50.48290239769233
              ],
              [
                5.498431501604445,
                50.48310121703812
              ],
              [
                5.498189526428677,
                50.48331620385583
              ],
              [
                5.497981741094975,
                50.48354528790859
              ],
              [
                5.497810147028119,
                50.48378626317815
              ],
              [
                5.497676397219606,
                50.484036809102854
              ],
              [
                5.497581780291281,
                50.48429451291972
              ],
              [
                5.497527208064527,
                50.48455689289558
              ],
              [
                5.497513206755539,
                50.48482142222392
              ],
              [
                5.497539911882379,
                50.485085553357194
              ],
              [
                5.497607066933806,
                50.48534674254057
              ],
              [
                5.497714025813738,
                50.48560247431074
              ],
              [
                5.497859759038763,
                50.485850285723835
              ],
              [
                5.4980428636299825,
                50.48608779007905
              ],
              [
                5.498261576604805,
                50.4863126999093
              ],
              [
                5.498513791939482,
                50.48652284901731
              ],
              [
                5.498797080839666,
                50.48671621334475
              ],
              [
                5.499108715124224,
                50.4868909304729
              ],
              [
                5.4994456934973375,
                50.48704531756708
              ],
              [
                5.499448961760236,
                50.48704652420727
              ],
              [
                5.499450693639572,
                50.4870473176649
              ],
              [
                5.499809770627363,
                50.48717988767378
              ],
              [
                5.500187487753096,
                50.48728936370383
              ],
              [
                5.500580206947409,
                50.48737469127908
              ],
              [
                5.5009841455715645,
                50.487435048517106
              ],
              [
                5.501395412867009,
                50.48746985404922
              ],
              [
                5.501810047448913,
                50.48747877262309
              ],
              [
                5.502224055481678,
                50.48746171833347
              ],
              [
                5.502633449167815,
                50.487418855450166
              ],
              [
                5.503034285178516,
                50.48735059683486
              ],
              [
                5.503422702654805,
                50.48725759996252
              ],
              [
                5.503794960412373,
                50.487140760585284
              ],
              [
                5.504147472990881,
                50.487001204100594
              ],
              [
                5.504476845199847,
                50.48684027470634
              ],
              [
                5.504779904827776,
                50.48665952244812
              ],
              [
                5.505053733199093,
                50.486460688283536
              ],
              [
                5.505295693284335,
                50.48624568730751
              ],
              [
                5.50550345509283,
                50.486016590300686
              ],
              [
                5.505675018103415,
                50.485775603778904
              ],
              [
                5.505808730517542,
                50.48552504873599
              ],
              [
                5.505903305149814,
                50.48526733828521
              ],
              [
                5.505957831803591,
                50.48500495441453
              ],
              [
                5.505971786013295,
                50.48474042408009
              ],
              [
                5.505945034070072,
                50.48447629486807
              ],
              [
                5.505877834283457,
                50.4842151104595
              ],
              [
                5.505770834467803,
                50.483959386134316
              ],
              [
                5.505625065678756,
                50.48371158455037
              ],
              [
                5.505441932260983,
                50.483474092030946
              ],
              [
                5.505223198303923,
                50.48324919558853
              ],
              [
                5.504970970636711,
                50.48303906090614
              ],
              [
                5.504687678526679,
                50.48284571148808
              ],
              [
                5.504376050277382,
                50.48267100918047
              ],
              [
                5.504039086951797,
                50.48251663624882
              ],
              [
                5.504035818884494,
                50.4825154297366
              ],
              [
                5.504034087094036,
                50.482514636346615
              ],
              [
                5.5036750336451945,
                50.48238207926746
              ],
              [
                5.5032973475850415,
                50.48227261446609
              ]
            ]
          ]
        ]
      },
      "properties": {
        "type": "buffer_union_300m",
        "buffer_m": 300
      }
    },
    {
      "type": "Feature",
      "geometry": {
        "type": "MultiPolygon",
        "coordinates": [
          [
            [
              [
                5.529520634113233,
                50.47666601574211
              ],
              [
                5.529326140383838,
                50.47633565286779
              ],
              [
                5.529081842531135,
                50.47601904546636
              ],
              [
                5.528790094013048,
                50.47571924233726
              ],
              [
                5.528453705062518,
                50.47543913040598
              ],
              [
                5.528075915602872,
                50.47518140693452
              ],
              [
                5.527660364033523,
                50.474948553559415
              ],
              [
                5.527211052187131,
                50.47474281240707
              ],
              [
                5.526732306795767,
                50.474566164515146
              ],
              [
                5.526228737836974,
                50.47442031076825
              ],
              [
                5.525705194160319,
                50.47430665553002
              ],
              [
                5.525166716820852,
                50.4742262931295
              ],
              [
                5.524618490567752,
                50.47417999733104
              ],
              [
                5.5240657939539375,
                50.4741682138891
              ],
              [
                5.523513948545488,
                50.47419105625916
              ],
              [
                5.522968267718328,
                50.47424830450608
              ],
              [
                5.522434005533515,
                50.474339407420295
              ],
              [
                5.52236819795174,
                50.4743551801193
              ],
              [
                5.522213819919147,
                50.47438150418881
              ],
              [
                5.521696119530817,
                50.47450558360951
              ],
              [
                5.521199966665972,
                50.47466144584732
              ],
              [
                5.520730138811673,
                50.474847590166505
              ],
              [
                5.52029116013149,
                50.47506222423805
              ],
              [
                5.51988725791592,
                50.47530328138752
              ],
              [
                5.519522321883346,
                50.47556844048411
              ],
              [
                5.519199866723026,
                50.47585514827975
              ],
              [
                5.519197798800166,
                50.4758574300356
              ],
              [
                5.519195866488074,
                50.475859148118296
              ],
              [
                5.518918997956636,
                50.47616464381252
              ],
              [
                5.518690383102846,
                50.47648598565731
              ],
              [
                5.518512224407341,
                50.47682007924277
              ],
              [
                5.518498129062759,
                50.47685852474574
              ],
              [
                5.518452233843575,
                50.47686952251279
              ],
              [
                5.51795604555488,
                50.477025370857056
              ],
              [
                5.51748618151675,
                50.47721150200469
              ],
              [
                5.517047166241078,
                50.47742612375352
              ],
              [
                5.516643227370663,
                50.47766716954774
              ],
              [
                5.51627825497678,
                50.477932318365944
              ],
              [
                5.515955764098779,
                50.47821901705905
              ],
              [
                5.515678860886369,
                50.478524504923975
              ],
              [
                5.515450212670855,
                50.47884584027689
              ],
              [
                5.51527202225417,
                50.479179928770414
              ],
              [
                5.515146006664144,
                50.479523553182844
              ],
              [
                5.51514515302196,
                50.47952766534131
              ],
              [
                5.515065982012943,
                50.4797435493945
              ],
              [
                5.514993355002509,
                50.48009340054175
              ],
              [
                5.514974818340816,
                50.480446109364735
              ],
              [
                5.515010551750838,
                50.48079827911029
              ],
              [
                5.515100212297759,
                50.48114651814192
              ],
              [
                5.515242937645604,
                50.48148747260512
              ],
              [
                5.515437354318028,
                50.4818178587314
              ],
              [
                5.515681590885417,
                50.4821344944702
              ],
              [
                5.515973295952822,
                50.48243433014338
              ],
              [
                5.516309660776853,
                50.482714477826924
              ],
              [
                5.516687446294813,
                50.482972239176476
              ],
              [
                5.517103014306548,
                50.48320513142792
              ],
              [
                5.517552362509182,
                50.48341091132254
              ],
              [
                5.518031163047462,
                50.4835875967253
              ],
              [
                5.518534804208219,
                50.483733485727875
              ],
              [
                5.519058434856827,
                50.48384717305162
              ],
              [
                5.5195970111868355,
                50.48392756359235
              ],
              [
                5.520145345331367,
                50.48397388297562
              ],
              [
                5.520698155366721,
                50.48398568502099
              ],
              [
                5.521250116225003,
                50.48396285604275
              ],
              [
                5.521795911023768,
                50.483905615945794
              ],
              [
                5.522330282316537,
                50.4838145161059
              ],
              [
                5.522848082768864,
                50.48369043405497
              ],
              [
                5.523344324770216,
                50.483534565022666
              ],
              [
                5.523814228502328,
                50.48334841041585
              ],
              [
                5.524253267999778,
                50.48313376334778
              ],
              [
                5.524339788582017,
                50.48308212892504
              ],
              [
                5.524643275205753,
                50.48293375122924
              ],
              [
                5.52504721827413,
                50.482692677875804
              ],
              [
                5.5254121782608925,
                50.48242750176505
              ],
              [
                5.525734640557962,
                50.48214077706699
              ],
              [
                5.526011500063875,
                50.481835265459274
              ],
              [
                5.526240091072739,
                50.48151390951699
              ],
              [
                5.526418212923271,
                50.48117980436124
              ],
              [
                5.526469423158402,
                50.481040072146996
              ],
              [
                5.52688860843994,
                50.480908383115796
              ],
              [
                5.527358472198618,
                50.480722214116504
              ],
              [
                5.5277974713022475,
                50.48050755358358
              ],
              [
                5.528201377635504,
                50.480266469184436
              ],
              [
                5.528566301279166,
                50.48000128307497
              ],
              [
                5.528888727975245,
                50.47971454952144
              ],
              [
                5.529165552965188,
                50.47940903028679
              ],
              [
                5.529394110875542,
                50.47908766801953
              ],
              [
                5.5295722013637745,
                50.47875355790165
              ],
              [
                5.529698110278225,
                50.478409917829254
              ],
              [
                5.529770626129517,
                50.478060057413586
              ],
              [
                5.529789051716271,
                50.477707346101084
              ],
              [
                5.52975321079473,
                50.47735518071996
              ],
              [
                5.52966344972977,
                50.477006952765926
              ],
              [
                5.529520634113233,
                50.47666601574211
              ]
            ]
          ],
          [
            [
              [
                5.503816426815288,
                50.481436814423695
              ],
              [
                5.503292859392904,
                50.48132305847574
              ],
              [
                5.502754340348618,
                50.48124259244833
              ],
              [
                5.502206054833255,
                50.48119619110362
              ],
              [
                5.501653281970303,
                50.48118430121228
              ],
              [
                5.501101344059854,
                50.48120703725474
              ],
              [
                5.500555555368233,
                50.48126418031962
              ],
              [
                5.500021170994715,
                50.4813551802101
              ],
              [
                5.499503336306005,
                50.481479160737926
              ],
              [
                5.499007037423771,
                50.481634928154236
              ],
              [
                5.498537053240512,
                50.48182098263642
              ],
              [
                5.498097909424527,
                50.48203553272052
              ],
              [
                5.497693834855871,
                50.48227651254093
              ],
              [
                5.497328720912037,
                50.48254160171154
              ],
              [
                5.4970060839949975,
                50.482828247657736
              ],
              [
                5.496729031660388,
                50.48313369018455
              ],
              [
                5.496500232675227,
                50.48345498804484
              ],
              [
                5.496321891293127,
                50.48378904725245
              ],
              [
                5.496195725995612,
                50.48413265086789
              ],
              [
                5.4961229529054565,
                50.48448248997029
              ],
              [
                5.49610427403318,
                50.4848351955175
              ],
              [
                5.496139870471504,
                50.485187370788104
              ],
              [
                5.496229400605027,
                50.4855356240926
              ],
              [
                5.496372003354132,
                50.48587660143921
              ],
              [
                5.496566306423669,
                50.486207018839224
              ],
              [
                5.496810439478653,
                50.48652369394103
              ],
              [
                5.497102052121639,
                50.48682357668752
              ],
              [
                5.497438336499987,
                50.48710377870144
              ],
              [
                5.497816054326383,
                50.4873616011152
              ],
              [
                5.498231568053209,
                50.48759456057661
              ],
              [
                5.498680875900962,
                50.48780041317965
              ],
              [
                5.498684144196474,
                50.48780161984117
              ],
              [
                5.498685876090605,
                50.48780241331007
              ],
              [
                5.499164650632055,
                50.4879791761988
              ],
              [
                5.499668280364119,
                50.48812514673789
              ],
              [
                5.500191914262548,
                50.48823891886338
              ],
              [
                5.500730508489793,
                50.488319396654205
              ],
              [
                5.501278875006689,
                50.488365804895444
              ],
              [
                5.501831731577712,
                50.48837769655075
              ],
              [
                5.502383752686624,
                50.48835495707122
              ],
              [
                5.502929620870433,
                50.488297805499634
              ],
              [
                5.5034640779755115,
                50.48820679235904
              ],
              [
                5.503981975840494,
                50.488082794346234
              ],
              [
                5.504478325916138,
                50.48792700588137
              ],
              [
                5.504948347342742,
                50.48774092759532
              ],
              [
                5.50538751302077,
                50.48752635186624
              ],
              [
                5.505791593229903,
                50.48728534554474
              ],
              [
                5.506156696375646,
                50.48702023003482
              ],
              [
                5.50647930647063,
                50.48673355892286
              ],
              [
                5.506756316989499,
                50.486428093370556
              ],
              [
                5.506985060771593,
                50.486106775509526
              ],
              [
                5.507163335684029,
                50.48577270009431
              ],
              [
                5.507289425798874,
                50.485429084687
              ],
              [
                5.507362117881691,
                50.48507923866149
              ],
              [
                5.507380713034051,
                50.48472653132587
              ],
              [
                5.507345033379495,
                50.48437435947028
              ],
              [
                5.5072554237302604,
                50.48402611465301
              ],
              [
                5.5071127482205435,
                50.483685150539834
              ],
              [
                5.506918381940434,
                50.48335475061105
              ],
              [
                5.506674197652821,
                50.483038096547126
              ],
              [
                5.506382547722733,
                50.482738237597
              ],
              [
                5.5060462414344675,
                50.4824580612238
              ],
              [
                5.505668517916061,
                50.482200265310176
              ],
              [
                5.505253014932633,
                50.48196733219042
              ],
              [
                5.504803733849606,
                50.481761504758744
              ],
              [
                5.5048004658149186,
                50.481760298267844
              ],
              [
                5.504798734039258,
                50.481759504889126
              ],
              [
                5.504320001331873,
                50.481582764993476
              ],
              [
                5.503816426815288,
                50.481436814423695
              ]
            ]
          ]
        ]
      },
      "properties": {
        "type": "buffer_union_400m",
        "buffer_m": 400
      }
    },
    {
      "type": "Feature",
      "geometry": {
        "type": "Polygon",
        "coordinates": [
          [
            [
              5.4405998,
              50.4812758
            ],
            [
              5.4399796,
              50.4822671
            ],
            [
              5.4392629,
              50.4839232
            ],
            [
              5.4389108,
              50.4853633
            ],
            [
              5.4380506,
              50.4880803
            ],
            [
              5.4378995,
              50.4899292
            ],
            [
              5.4402366,
              50.4917076
            ],
            [
              5.4420386,
              50.4919208
            ],
            [
              5.4427679,
              50.4922448
            ],
            [
              5.4443892,
              50.4932392
            ],
            [
              5.4450274,
              50.4937562
            ],
            [
              5.4455082,
              50.4943308
            ],
            [
              5.4485276,
              50.4960664
            ],
            [
              5.4501401,
              50.4968885
            ],
            [
              5.4494305,
              50.4984183
            ],
            [
              5.4493174,
              50.4990093
            ],
            [
              5.4500431,
              50.4994164
            ],
            [
              5.4494519,
              50.5009751
            ],
            [
              5.4514618,
              50.5026705
            ],
            [
              5.4511997,
              50.5029979
            ],
            [
              5.4519669,
              50.5036686
            ],
            [
              5.4520852,
              50.5039352
            ],
            [
              5.4536759,
              50.5043795
            ],
            [
              5.4546969,
              50.5047691
            ],
            [
              5.4559867,
              50.5055894
            ],
            [
              5.4566875,
              50.5064164
            ],
            [
              5.4576096,
              50.5063414
            ],
            [
              5.4579105,
              50.5061978
            ],
            [
              5.4592863,
              50.5063687
            ],
            [
              5.459596,
              50.5061313
            ],
            [
              5.4604309,
              50.5065362
            ],
            [
              5.4603825,
              50.5068198
            ],
            [
              5.4608769,
              50.5070317
            ],
            [
              5.4620055,
              50.5073462
            ],
            [
              5.4632306,
              50.507526
            ],
            [
              5.463623,
              50.5095984
            ],
            [
              5.4628828,
              50.5116732
            ],
            [
              5.4635967,
              50.512157
            ],
            [
              5.4631255,
              50.5125823
            ],
            [
              5.4634565,
              50.5127014
            ],
            [
              5.4620767,
              50.5151968
            ],
            [
              5.4621882,
              50.5155819
            ],
            [
              5.4624795,
              50.5158637
            ],
            [
              5.4634979,
              50.5163276
            ],
            [
              5.4635663,
              50.5161246
            ],
            [
              5.4641515,
              50.5161246
            ],
            [
              5.4647291,
              50.5164822
            ],
            [
              5.4651015,
              50.5164581
            ],
            [
              5.4659223,
              50.516661
            ],
            [
              5.467959,
              50.5164436
            ],
            [
              5.4684226,
              50.5165837
            ],
            [
              5.469365,
              50.5165692
            ],
            [
              5.4697752,
              50.5163546
            ],
            [
              5.4703606,
              50.5164194
            ],
            [
              5.4703226,
              50.516574
            ],
            [
              5.4713334,
              50.5170621
            ],
            [
              5.4718654,
              50.517526
            ],
            [
              5.4724332,
              50.517632
            ],
            [
              5.4724446,
              50.5177625
            ],
            [
              5.4731297,
              50.5182944
            ],
            [
              5.4738392,
              50.5189947
            ],
            [
              5.474128,
              50.519101
            ],
            [
              5.474356,
              50.5193861
            ],
            [
              5.4746904,
              50.519391
            ],
            [
              5.4749716,
              50.5195166
            ],
            [
              5.4749716,
              50.5197534
            ],
            [
              5.4754883,
              50.5198887
            ],
            [
              5.4757543,
              50.520024
            ],
            [
              5.4758683,
              50.5202027
            ],
            [
              5.4761419,
              50.5202366
            ],
            [
              5.4763547,
              50.5204299
            ],
            [
              5.476352,
              50.5205776
            ],
            [
              5.4769378,
              50.5210423
            ],
            [
              5.4769319,
              50.5214027
            ],
            [
              5.4778508,
              50.52167
            ],
            [
              5.4784229,
              50.52167
            ],
            [
              5.4788651,
              50.5215763
            ],
            [
              5.4792985,
              50.5212622
            ],
            [
              5.4804602,
              50.5208047
            ],
            [
              5.4810497,
              50.5202811
            ],
            [
              5.4815611,
              50.5201268
            ],
            [
              5.4843352,
              50.5211299
            ],
            [
              5.4856876,
              50.5219401
            ],
            [
              5.4863031,
              50.5220338
            ],
            [
              5.4874214,
              50.5223645
            ],
            [
              5.4887477,
              50.5221661
            ],
            [
              5.4892939,
              50.5222157
            ],
            [
              5.4900134,
              50.5217582
            ],
            [
              5.4904902,
              50.5217362
            ],
            [
              5.4913224,
              50.5217637
            ],
            [
              5.4921286,
              50.5219456
            ],
            [
              5.4928221,
              50.5222157
            ],
            [
              5.4937584,
              50.5227117
            ],
            [
              5.4943652,
              50.5228385
            ],
            [
              5.4965238,
              50.5229653
            ],
            [
              5.4988991,
              50.5228881
            ],
            [
              5.5000868,
              50.5228054
            ],
            [
              5.5007648,
              50.5225778
            ],
            [
              5.5014819,
              50.5225215
            ],
            [
              5.5012336,
              50.5224582
            ],
            [
              5.5007856,
              50.5221431
            ],
            [
              5.5007389,
              50.5220301
            ],
            [
              5.5001955,
              50.5218396
            ],
            [
              5.5004084,
              50.5217932
            ],
            [
              5.4995088,
              50.5211938
            ],
            [
              5.4992313,
              50.5208507
            ],
            [
              5.4983988,
              50.5202967
            ],
            [
              5.4983541,
              50.5199705
            ],
            [
              5.4987199,
              50.5193797
            ],
            [
              5.4987781,
              50.5190142
            ],
            [
              5.4986112,
              50.5185092
            ],
            [
              5.49844,
              50.5183333
            ],
            [
              5.4973631,
              50.5179539
            ],
            [
              5.4977928,
              50.5177043
            ],
            [
              5.4984645,
              50.5170708
            ],
            [
              5.4987739,
              50.5170454
            ],
            [
              5.498866,
              50.5170736
            ],
            [
              5.4989395,
              50.5174342
            ],
            [
              5.4991861,
              50.5176456
            ],
            [
              5.5000989,
              50.518085
            ],
            [
              5.5029357,
              50.5137398
            ],
            [
              5.5044379,
              50.5128015
            ],
            [
              5.5049876,
              50.5122235
            ],
            [
              5.5063198,
              50.5125664
            ],
            [
              5.508654,
              50.5134616
            ],
            [
              5.5077846,
              50.5151011
            ],
            [
              5.5089183,
              50.5153371
            ],
            [
              5.5113504,
              50.5160787
            ],
            [
              5.5128321,
              50.5164169
            ],
            [
              5.514823,
              50.5167303
            ],
            [
              5.5161802,
              50.5175197
            ],
            [
              5.5170691,
              50.5161301
            ],
            [
              5.5141936,
              50.5152593
            ],
            [
              5.5146633,
              50.5151432
            ],
            [
              5.5157107,
              50.5147049
            ],
            [
              5.5159333,
              50.5144806
            ],
            [
              5.516609,
              50.5141713
            ],
            [
              5.5170599,
              50.5138086
            ],
            [
              5.5179638,
              50.5127596
            ],
            [
              5.5182052,
              50.5120893
            ],
            [
              5.5178679,
              50.511807
            ],
            [
              5.5159099,
              50.5110199
            ],
            [
              5.5157711,
              50.5109192
            ],
            [
              5.5157845,
              50.5107892
            ],
            [
              5.5156571,
              50.5106344
            ],
            [
              5.5154076,
              50.5104339
            ],
            [
              5.5140296,
              50.5100242
            ],
            [
              5.5144501,
              50.5098668
            ],
            [
              5.5140746,
              50.5096297
            ],
            [
              5.5138868,
              50.5093517
            ],
            [
              5.5156383,
              50.5088195
            ],
            [
              5.5164898,
              50.5084041
            ],
            [
              5.5192874,
              50.5091308
            ],
            [
              5.5225342,
              50.5097738
            ],
            [
              5.5232558,
              50.5098924
            ],
            [
              5.5236675,
              50.5099016
            ],
            [
              5.5235226,
              50.5097465
            ],
            [
              5.5239759,
              50.5098915
            ],
            [
              5.5247229,
              50.5098335
            ],
            [
              5.5248354,
              50.5092556
            ],
            [
              5.5240229,
              50.5089013
            ],
            [
              5.52394,
              50.5087918
            ],
            [
              5.5239474,
              50.5082952
            ],
            [
              5.5234755,
              50.5081112
            ],
            [
              5.5232379,
              50.5084629
            ],
            [
              5.5220101,
              50.5082762
            ],
            [
              5.5216294,
              50.5081822
            ],
            [
              5.5219588,
              50.5077648
            ],
            [
              5.5216883,
              50.5075202
            ],
            [
              5.5210002,
              50.5077225
            ],
            [
              5.5206601,
              50.5070284
            ],
            [
              5.5207339,
              50.5063813
            ],
            [
              5.5206325,
              50.5063335
            ],
            [
              5.5206424,
              50.5055792
            ],
            [
              5.5205007,
              50.5053831
            ],
            [
              5.5223634,
              50.5053721
            ],
            [
              5.5233335,
              50.5052457
            ],
            [
              5.5238589,
              50.5047612
            ],
            [
              5.5241811,
              50.5047834
            ],
            [
              5.5246612,
              50.5046418
            ],
            [
              5.5260709,
              50.5047312
            ],
            [
              5.5260604,
              50.5044146
            ],
            [
              5.5267064,
              50.5043629
            ],
            [
              5.5273783,
              50.5044636
            ],
            [
              5.5274354,
              50.5044087
            ],
            [
              5.5273005,
              50.5042392
            ],
            [
              5.5274186,
              50.5042128
            ],
            [
              5.5278034,
              50.5042384
            ],
            [
              5.528349,
              50.5044672
            ],
            [
              5.5288173,
              50.5038571
            ],
            [
              5.5288415,
              50.5036191
            ],
            [
              5.5290909,
              50.5035526
            ],
            [
              5.5291137,
              50.5034596
            ],
            [
              5.5301732,
              50.5035295
            ],
            [
              5.530833,
              50.5037769
            ],
            [
              5.5325245,
              50.503855
            ],
            [
              5.5328366,
              50.5039765
            ],
            [
              5.5331129,
              50.50391
            ],
            [
              5.533357,
              50.5040754
            ],
            [
              5.5336896,
              50.5040567
            ],
            [
              5.5344862,
              50.5043143
            ],
            [
              5.5348805,
              50.5043467
            ],
            [
              5.5351219,
              50.5045309
            ],
            [
              5.535829,
              50.5045659
            ],
            [
              5.5363584,
              50.5047664
            ],
            [
              5.537155,
              50.5048602
            ],
            [
              5.5380859,
              50.5051316
            ],
            [
              5.5385717,
              50.50508
            ],
            [
              5.5392444,
              50.505227
            ],
            [
              5.5403441,
              50.5051707
            ],
            [
              5.5408081,
              50.5052781
            ],
            [
              5.54102,
              50.5052031
            ],
            [
              5.5419812,
              50.5051789
            ],
            [
              5.5422056,
              50.5050239
            ],
            [
              5.5429453,
              50.5050895
            ],
            [
              5.5433334,
              50.5050325
            ],
            [
              5.5444814,
              50.5051596
            ],
            [
              5.544696,
              50.5053711
            ],
            [
              5.5453934,
              50.5054453
            ],
            [
              5.5456401,
              50.5056198
            ],
            [
              5.5458266,
              50.5052389
            ],
            [
              5.5464997,
              50.5031378
            ],
            [
              5.5470247,
              50.5019599
            ],
            [
              5.5475211,
              50.5013595
            ],
            [
              5.548231,
              50.5008322
            ],
            [
              5.5496642,
              50.5001751
            ],
            [
              5.5504208,
              50.4994948
            ],
            [
              5.5509301,
              50.4988747
            ],
            [
              5.5512211,
              50.4982453
            ],
            [
              5.5517911,
              50.496419
            ],
            [
              5.5501766,
              50.4960246
            ],
            [
              5.5490271,
              50.4958684
            ],
            [
              5.5486525,
              50.4957515
            ],
            [
              5.5486525,
              50.4956763
            ],
            [
              5.5487179,
              50.4956057
            ],
            [
              5.5496528,
              50.4955294
            ],
            [
              5.5511473,
              50.4954879
            ],
            [
              5.5509896,
              50.4945783
            ],
            [
              5.5510157,
              50.4941047
            ],
            [
              5.5511455,
              50.4936726
            ],
            [
              5.5528431,
              50.4934169
            ],
            [
              5.5537862,
              50.4912456
            ],
            [
              5.5527355,
              50.4885549
            ],
            [
              5.5508318,
              50.487953
            ],
            [
              5.550951,
              50.4872899
            ],
            [
              5.5508091,
              50.4867251
            ],
            [
              5.5495724,
              50.4857739
            ],
            [
              5.5492668,
              50.4851559
            ],
            [
              5.5495986,
              50.4840111
            ],
            [
              5.5487447,
              50.4838344
            ],
            [
              5.5489482,
              50.4805041
            ],
            [
              5.5466144,
              50.4804247
            ],
            [
              5.5467688,
              50.4794411
            ],
            [
              5.5467397,
              50.4786217
            ],
            [
              5.5464778,
              50.4775522
            ],
            [
              5.5461068,
              50.4768623
            ],
            [
              5.5453502,
              50.4744848
            ],
            [
              5.5451839,
              50.4736127
            ],
            [
              5.5451693,
              50.472902
            ],
            [
              5.5413812,
              50.4719814
            ],
            [
              5.535316,
              50.4672729
            ],
            [
              5.5389437,
              50.4635868
            ],
            [
              5.5394838,
              50.4631153
            ],
            [
              5.5401474,
              50.462719
            ],
            [
              5.541962,
              50.4613532
            ],
            [
              5.5409444,
              50.461142
            ],
            [
              5.5406646,
              50.4608798
            ],
            [
              5.5402906,
              50.4607097
            ],
            [
              5.5395213,
              50.4604732
            ],
            [
              5.5381237,
              50.4597825
            ],
            [
              5.5367847,
              50.4592573
            ],
            [
              5.5351992,
              50.4591922
            ],
            [
              5.5347994,
              50.4592785
            ],
            [
              5.5335856,
              50.4584984
            ],
            [
              5.5324778,
              50.4575803
            ],
            [
              5.5313127,
              50.4578924
            ],
            [
              5.5297994,
              50.4578898
            ],
            [
              5.5277218,
              50.4581175
            ],
            [
              5.5259662,
              50.4607579
            ],
            [
              5.5240598,
              50.4609089
            ],
            [
              5.5211817,
              50.4599446
            ],
            [
              5.5207563,
              50.4599025
            ],
            [
              5.5184343,
              50.4602847
            ],
            [
              5.5162576,
              50.4604101
            ],
            [
              5.5169481,
              50.4613515
            ],
            [
              5.5170219,
              50.4621439
            ],
            [
              5.5172067,
              50.4627069
            ],
            [
              5.5171628,
              50.4629963
            ],
            [
              5.5165779,
              50.463141
            ],
            [
              5.5153771,
              50.4628238
            ],
            [
              5.5134513,
              50.4620772
            ],
            [
              5.5131486,
              50.462424
            ],
            [
              5.5115897,
              50.4623122
            ],
            [
              5.5089011,
              50.4616875
            ],
            [
              5.5047237,
              50.4605185
            ],
            [
              5.5007309,
              50.4618785
            ],
            [
              5.4997862,
              50.4620203
            ],
            [
              5.4966241,
              50.4619266
            ],
            [
              5.4952562,
              50.4616807
            ],
            [
              5.4941333,
              50.4617306
            ],
            [
              5.4936683,
              50.4615748
            ],
            [
              5.4931694,
              50.4615953
            ],
            [
              5.492624,
              50.4615061
            ],
            [
              5.4919329,
              50.4617892
            ],
            [
              5.4896927,
              50.462299
            ],
            [
              5.4895526,
              50.462824
            ],
            [
              5.4892963,
              50.4629767
            ],
            [
              5.4891568,
              50.463173
            ],
            [
              5.4873061,
              50.4640335
            ],
            [
              5.4864451,
              50.4645816
            ],
            [
              5.486185,
              50.4651553
            ],
            [
              5.4862012,
              50.4656537
            ],
            [
              5.4864666,
              50.466026
            ],
            [
              5.486885,
              50.4663265
            ],
            [
              5.486877,
              50.4665379
            ],
            [
              5.4862037,
              50.4673424
            ],
            [
              5.4857523,
              50.467691
            ],
            [
              5.4855974,
              50.4677019
            ],
            [
              5.4854814,
              50.4679181
            ],
            [
              5.4808367,
              50.4662352
            ],
            [
              5.4792353,
              50.4659953
            ],
            [
              5.4780659,
              50.465729
            ],
            [
              5.4778379,
              50.4654882
            ],
            [
              5.476812,
              50.4662471
            ],
            [
              5.4764698,
              50.4667249
            ],
            [
              5.4760087,
              50.4666552
            ],
            [
              5.4759229,
              50.4663979
            ],
            [
              5.4738822,
              50.4654473
            ],
            [
              5.471913,
              50.4667052
            ],
            [
              5.4705286,
              50.4660183
            ],
            [
              5.4697076,
              50.4666784
            ],
            [
              5.4669642,
              50.4675916
            ],
            [
              5.4658245,
              50.4677171
            ],
            [
              5.4644881,
              50.468051
            ],
            [
              5.4639084,
              50.4681053
            ],
            [
              5.4638126,
              50.4682071
            ],
            [
              5.4636598,
              50.4691486
            ],
            [
              5.4639923,
              50.4697291
            ],
            [
              5.4641104,
              50.471484
            ],
            [
              5.4637778,
              50.4727473
            ],
            [
              5.4638774,
              50.4731109
            ],
            [
              5.4636222,
              50.4741505
            ],
            [
              5.4627907,
              50.475627
            ],
            [
              5.4629436,
              50.4758831
            ],
            [
              5.4630605,
              50.4763352
            ],
            [
              5.4633781,
              50.4765181
            ],
            [
              5.463008,
              50.4766102
            ],
            [
              5.4625145,
              50.4776378
            ],
            [
              5.4623327,
              50.4778674
            ],
            [
              5.4621103,
              50.4780428
            ],
            [
              5.4612609,
              50.4783471
            ],
            [
              5.4609641,
              50.4790545
            ],
            [
              5.4599589,
              50.4802464
            ],
            [
              5.4598223,
              50.4808313
            ],
            [
              5.4594648,
              50.4810361
            ],
            [
              5.4597153,
              50.4812476
            ],
            [
              5.4592175,
              50.481391
            ],
            [
              5.4594111,
              50.4819019
            ],
            [
              5.4594482,
              50.4822914
            ],
            [
              5.4596472,
              50.4823452
            ],
            [
              5.459874,
              50.4825727
            ],
            [
              5.4596914,
              50.4827515
            ],
            [
              5.4594782,
              50.4826661
            ],
            [
              5.4584655,
              50.4825631
            ],
            [
              5.458408,
              50.4824288
            ],
            [
              5.4576623,
              50.4825176
            ],
            [
              5.4559982,
              50.4824334
            ],
            [
              5.4548434,
              50.4821142
            ],
            [
              5.4529712,
              50.4814167
            ],
            [
              5.45289,
              50.4814626
            ],
            [
              5.4516012,
              50.4812423
            ],
            [
              5.451276,
              50.4817171
            ],
            [
              5.4509383,
              50.4820209
            ],
            [
              5.4498491,
              50.4816284
            ],
            [
              5.4475898,
              50.4812877
            ],
            [
              5.4448978,
              50.4816634
            ],
            [
              5.4405998,
              50.4812758
            ]
          ]
        ]
      },
      "properties": {
        "type": "boundary",
        "gemeente": "Anthisnes"
      }
    }
  ]
}