{
  "type": "FeatureCollection",
  "metadata": {
    "gemeente": "Baarle-Hertog",
    "slug": "baarle-hertog",
    "generated_at": "2026-09-25T22:11:34.786336Z",
    "total_points": 6,
    "providers": [
      "bpost",
      "DHL",
      "GLS",
      "PostNL",
      "DPD",
      "Amazon"
    ],
    "bounds": [
      4.930945,
      51.43817,
      4.93235,
      51.4424
    ]
  },
  "features": [
    {
      "type": "Feature",
      "geometry": {
        "type": "Point",
        "coordinates": [
          4.93095,
          51.44087
        ]
      },
      "properties": {
        "type": "pakketpunt",
        "locatieNaam": "Baarle-Hertog",
        "straatNaam": "Uitbreidingsstraat",
        "straatNr": "7",
        "vervoerder": "bpost",
        "puntType": "postkantoor",
        "bezettingsgraad": 50,
        "latitude": 51.44087,
        "longitude": 4.93095,
        "canPickup": true,
        "canDropoff": true,
        "openingstijden": null
      }
    },
    {
      "type": "Feature",
      "geometry": {
        "type": "Point",
        "coordinates": [
          4.930945,
          51.440869
        ]
      },
      "properties": {
        "type": "pakketpunt",
        "locatieNaam": "BAARLE-HERTOG",
        "straatNaam": "UITBREIDINGSSTRAAT",
        "straatNr": "7",
        "vervoerder": "DHL",
        "puntType": "postOffice",
        "bezettingsgraad": 50,
        "latitude": 51.440869,
        "longitude": 4.930945,
        "canPickup": true,
        "canDropoff": true,
        "openingstijden": {
          "ma": "09:30 - 12:30",
          "di": "14:30 - 18:00",
          "wo": "09:30 - 11:30",
          "do": "14:30 - 18:00",
          "vr": "09:30 - 12:30",
          "za": "gesloten",
          "zo": "gesloten"
        }
      }
    },
    {
      "type": "Feature",
      "geometry": {
        "type": "Point",
        "coordinates": [
          4.93235,
          51.439397
        ]
      },
      "properties": {
        "type": "pakketpunt",
        "locatieNaam": "De Baarlese Witte Pompen",
        "straatNaam": "Molenstraat",
        "straatNr": "77 A",
        "vervoerder": "GLS",
        "puntType": "parcel_shop",
        "bezettingsgraad": 50,
        "latitude": 51.439397,
        "longitude": 4.93235,
        "canPickup": true,
        "canDropoff": true,
        "openingstijden": "vr: 09:30 - 18:00; za: 09:30 - 18:00"
      }
    },
    {
      "type": "Feature",
      "geometry": {
        "type": "Point",
        "coordinates": [
          4.93171,
          51.4424
        ]
      },
      "properties": {
        "type": "pakketpunt",
        "locatieNaam": "CABALLERO SHOP",
        "straatNaam": "Molenstr",
        "straatNr": "17",
        "vervoerder": "PostNL",
        "puntType": "servicepunt",
        "bezettingsgraad": 50,
        "latitude": 51.4424,
        "longitude": 4.93171,
        "canPickup": true,
        "canDropoff": true,
        "openingstijden": "09:00 - 17:00"
      }
    },
    {
      "type": "Feature",
      "geometry": {
        "type": "Point",
        "coordinates": [
          4.93223,
          51.43817
        ]
      },
      "properties": {
        "type": "pakketpunt",
        "locatieNaam": "DE BAARLESE WITTEPOMPEN",
        "straatNaam": "MOLENSTRAAT",
        "straatNr": "77 A",
        "vervoerder": "DPD",
        "puntType": "pickup_point",
        "bezettingsgraad": 50,
        "latitude": 51.43817,
        "longitude": 4.93223,
        "canPickup": true,
        "canDropoff": true,
        "openingstijden": {
          "ma": "12:00 - 16:00",
          "di": "09:30 - 18:00",
          "wo": "09:30 - 18:00",
          "do": "09:30 - 18:00",
          "vr": "09:30 - 18:00",
          "za": "09:30 - 18:00",
          "zo": "09:30 - 18:00"
        }
      }
    },
    {
      "type": "Feature",
      "geometry": {
        "type": "Point",
        "coordinates": [
          4.930945,
          51.440869
        ]
      },
      "properties": {
        "type": "pakketpunt",
        "locatieNaam": "bpost - BAARLE-HERTOG",
        "straatNaam": "UITBREIDINGSSTRAAT,7",
        "straatNr": "",
        "vervoerder": "Amazon",
        "puntType": "3p",
        "bezettingsgraad": 50,
        "latitude": 51.440869,
        "longitude": 4.930945,
        "canPickup": true,
        "canDropoff": false,
        "openingstijden": null
      }
    },
    {
      "type": "Feature",
      "geometry": {
        "type": "Polygon",
        "coordinates": [
          [
            [
              4.936454556027388,
              51.437623513012454
            ],
            [
              4.936348498357477,
              51.43736734903225
            ],
            [
              4.936202779348515,
              51.43711891554261
            ],
            [
              4.936018802894068,
              51.43688060495403
            ],
            [
              4.93579834122823,
              51.43665471215836
            ],
            [
              4.935543517841115,
              51.436443412434315
            ],
            [
              4.935256787016056,
              51.43624874050572
            ],
            [
              4.93494091018603,
              51.43607257095404
            ],
            [
              4.934598929337313,
              51.435916600173364
            ],
            [
              4.934234137716574,
              51.43578233004152
            ],
            [
              4.933850048123407,
              51.43567105346402
            ],
            [
              4.933450359093337,
              51.43558384193005
            ],
            [
              4.933038919296466,
              51.43552153519966
            ],
            [
              4.932619690493965,
              51.43548473322172
            ],
            [
              4.932196709408302,
              51.435473790359765
            ],
            [
              4.93177404887354,
              51.43548881198167
            ],
            [
              4.931355778638798,
              51.43552965344553
            ],
            [
              4.930945926201353,
              51.43559592149171
            ],
            [
              4.930548438045527,
              51.43568697802763
            ],
            [
              4.930167141659651,
              51.4358019462689
            ],
            [
              4.9298057086960165,
              51.435939719177874
            ],
            [
              4.9294676196277685,
              51.43609897011851
            ],
            [
              4.9291561302424975,
              51.43627816562517
            ],
            [
              4.9288742402947205,
              51.436475580162806
            ],
            [
              4.92862466461885,
              51.43668931273654
            ],
            [
              4.928409806980789,
              51.436917305190875
            ],
            [
              4.928231736920066,
              51.437157362023115
            ],
            [
              4.9280921698058515,
              51.43740717151987
            ],
            [
              4.927992450299468,
              51.43766432801382
            ],
            [
              4.9279335393832735,
              51.43792635504642
            ],
            [
              4.9279160050817215,
              51.43819072921373
            ],
            [
              4.927940016964836,
              51.43845490446593
            ],
            [
              4.928005344488062,
              51.43871633662638
            ],
            [
              4.928066689768862,
              51.4388645701913
            ],
            [
              4.927871003851181,
              51.438977134720275
            ],
            [
              4.9275890920415995,
              51.43917454596402
            ],
            [
              4.927339495931245,
              51.4393882755731
            ],
            [
              4.9271246194828215,
              51.43961626542065
            ],
            [
              4.926946532417025,
              51.43985632002906
            ],
            [
              4.926806950266834,
              51.44010612770635
            ],
            [
              4.926707217838418,
              51.44036328280275
            ],
            [
              4.926648296238651,
              51.44062530887318
            ],
            [
              4.9266307535949405,
              51.44088968252297
            ],
            [
              4.926654759557736,
              51.441153857707285
            ],
            [
              4.9267200836395775,
              51.441415290250156
            ],
            [
              4.926826097407815,
              51.441671462347315
            ],
            [
              4.926971780510846,
              51.44191990681648
            ],
            [
              4.927155730480872,
              51.44215823086182
            ],
            [
              4.92737617621967,
              51.44238413912309
            ],
            [
              4.927396897759139,
              51.44240132321628
            ],
            [
              4.927395611590585,
              51.44242071028423
            ],
            [
              4.927419622699919,
              51.44268488512789
            ],
            [
              4.927484953246436,
              51.442946317066
            ],
            [
              4.927590974735271,
              51.44320248830016
            ],
            [
              4.927736666740498,
              51.44345093165636
            ],
            [
              4.927920626708613,
              51.44368925434946
            ],
            [
              4.928141083445125,
              51.44391516103226
            ],
            [
              4.928395914155186,
              51.44412647590751
            ],
            [
              4.9286826648748185,
              51.44432116368943
            ],
            [
              4.928998574096423,
              51.44449734921254
            ],
            [
              4.929340599361346,
              51.444653335498955
            ],
            [
              4.9297054465635055,
              51.44478762010933
            ],
            [
              4.930089601681722,
              51.444898909620235
            ],
            [
              4.930489364634848,
              51.444986132087614
            ],
            [
              4.930900884933159,
              51.44504844737674
            ],
            [
              4.93132019878195,
              51.44508525525827
            ],
            [
              4.931743267279249,
              51.44509620119254
            ],
            [
              4.93216601533879,
              51.44508117974634
            ],
            [
              4.932584370962437,
              51.44504033560893
            ],
            [
              4.932994304482788,
              51.4449740621977
            ],
            [
              4.933391867396968,
              51.44488299786677
            ],
            [
              4.933773230416679,
              51.44476801975531
            ],
            [
              4.934134720367085,
              51.444630235334785
            ],
            [
              4.934472855578429,
              51.44447097173687
            ],
            [
              4.9347843794288595,
              51.44429176296517
            ],
            [
              4.935066291714968,
              51.44409433511377
            ],
            [
              4.93531587754764,
              51.443880589735834
            ],
            [
              4.935530733494816,
              51.44365258552228
            ],
            [
              4.935708790719564,
              51.44341251846759
            ],
            [
              4.935848334890903,
              51.44316270071388
            ],
            [
              4.935948022676174,
              51.44290553827734
            ],
            [
              4.936006894656765,
              51.44264350787187
            ],
            [
              4.936024384543658,
              51.442379133053116
            ],
            [
              4.936000324604949,
              51.44211495991296
            ],
            [
              4.935934947254099,
              51.44185353255862
            ],
            [
              4.935828882784641,
              51.441597368612406
            ],
            [
              4.93568315327422,
              51.441348934968175
            ],
            [
              4.935562114683817,
              51.4411921619115
            ],
            [
              4.935706097881247,
              51.44109131937922
            ],
            [
              4.935955664614949,
              51.44087757236188
            ],
            [
              4.936170503514268,
              51.44064956667629
            ],
            [
              4.936348545906417,
              51.440409498331114
            ],
            [
              4.936488077603211,
              51.44015967948086
            ],
            [
              4.936587755392064,
              51.439902516152316
            ],
            [
              4.93664661995056,
              51.439640485067926
            ],
            [
              4.936664105061073,
              51.4393761097899
            ],
            [
              4.936640043037609,
              51.43911193641453
            ],
            [
              4.936574666313614,
              51.438850509051285
            ],
            [
              4.936479802356844,
              51.43862138940613
            ],
            [
              4.936526505717228,
              51.43841348954692
            ],
            [
              4.936543991049716,
              51.438149114137595
            ],
            [
              4.936519930346203,
              51.43788494058906
            ],
            [
              4.936454556027388,
              51.437623513012454
            ]
          ]
        ]
      },
      "properties": {
        "type": "buffer_union_300m",
        "buffer_m": 300
      }
    },
    {
      "type": "Feature",
      "geometry": {
        "type": "Polygon",
        "coordinates": [
          [
            [
              4.937862719258053,
              51.43744131727059
            ],
            [
              4.937721299483088,
              51.437099766916866
            ],
            [
              4.937526999139553,
              51.436768524422526
            ],
            [
              4.937281690405657,
              51.436450779585236
            ],
            [
              4.936987736521231,
              51.43614959216034
            ],
            [
              4.936647968998377,
              51.435867862405345
            ],
            [
              4.9362656603303545,
              51.43560830316202
            ],
            [
              4.935844492462379,
              51.435373413744394
            ],
            [
              4.935388521328507,
              51.43516545588378
            ],
            [
              4.934902137796263,
              51.43498643196175
            ],
            [
              4.934390025394938,
              51.434838065740095
            ],
            [
              4.933857115234082,
              51.43472178577316
            ],
            [
              4.933308538545458,
              51.43463871166113
            ],
            [
              4.9327495773043015,
              51.43458964327711
            ],
            [
              4.932185613403967,
              51.43457505307048
            ],
            [
              4.931622076871806,
              51.434595081521124
            ],
            [
              4.931064393623183,
              51.43464953578772
            ],
            [
              4.930517933254953,
              51.43473789156324
            ],
            [
              4.929987957379323,
              51.43485929811977
            ],
            [
              4.929479568993907,
              51.4350125864944
            ],
            [
              4.9289976633739485,
              51.43519628073734
            ],
            [
              4.928546880958225,
              51.43540861211462
            ],
            [
              4.928131562681215,
              51.43564753612877
            ],
            [
              4.927755708180844,
              51.435910752194275
            ],
            [
              4.9274229372838,
              51.436195725778745
            ],
            [
              4.927136455139159,
              51.43649971279711
            ],
            [
              4.926899021336331,
              51.436819786024664
            ],
            [
              4.926712923305269,
              51.437152863274854
            ],
            [
              4.926579954256068,
              51.43749573707112
            ],
            [
              4.926501395871546,
              51.4378451055275
            ],
            [
              4.9264780059209805,
              51.43819760414079
            ],
            [
              4.926510010915906,
              51.43854983818853
            ],
            [
              4.926516859964223,
              51.43857725072655
            ],
            [
              4.926470510516755,
              51.438609706594725
            ],
            [
              4.9261377123737065,
              51.43889467622624
            ],
            [
              4.925851205148296,
              51.439198659768785
            ],
            [
              4.9256137486715055,
              51.43951873003112
            ],
            [
              4.925427630591714,
              51.439851804855216
            ],
            [
              4.925294644312182,
              51.44019467678794
            ],
            [
              4.9252160716817786,
              51.440544043961296
            ],
            [
              4.925192670607102,
              51.44089654188445
            ],
            [
              4.925224667706962,
              51.44124877584157
            ],
            [
              4.9253117560817445,
              51.441597353583525
            ],
            [
              4.925453098220984,
              51.44193891799881
            ],
            [
              4.925647334022989,
              51.44227017944888
            ],
            [
              4.925892593851086,
              51.44258794745632
            ],
            [
              4.925980210719407,
              51.442677738323944
            ],
            [
              4.925989485227977,
              51.44277981240133
            ],
            [
              4.926076582221712,
              51.443128389337026
            ],
            [
              4.926217934654558,
              51.44346995260171
            ],
            [
              4.926412182325754,
              51.443801212567884
            ],
            [
              4.926657455484363,
              51.44411897877242
            ],
            [
              4.926951392799075,
              51.444420190651925
            ],
            [
              4.927291164069006,
              51.444701947029294
            ],
            [
              4.927673497457923,
              51.444961534066785
            ],
            [
              4.928094710990489,
              51.44519645141584
            ],
            [
              4.928550748007667,
              51.445404436311726
            ],
            [
              4.929037216240043,
              51.44558348537978
            ],
            [
              4.929549430122516,
              51.44573187394308
            ],
            [
              4.930082455942298,
              51.445848172645015
            ],
            [
              4.930631159384516,
              51.44593126122603
            ],
            [
              4.931190255016323,
              51.44598033932155
            ],
            [
              4.931754357231506,
              51.44599493417667
            ],
            [
              4.932318032163322,
              51.44597490520312
            ],
            [
              4.9328758500638035,
              51.44592044533454
            ],
            [
              4.933422437643257,
              51.44583207916655
            ],
            [
              4.933952529864049,
              51.445710657900285
            ],
            [
              4.934461020688093,
              51.445557351137516
            ],
            [
              4.9349430122876905,
              51.4453736356074
            ],
            [
              4.935393862244392,
              51.44516128093298
            ],
            [
              4.935809228280149,
              51.44492233257572
            ],
            [
              4.936185110089141,
              51.444659092122365
            ],
            [
              4.936517887866889,
              51.44437409510465
            ],
            [
              4.936804357165445,
              51.44407008656604
            ],
            [
              4.937041759739222,
              51.443749994611416
            ],
            [
              4.937227810084934,
              51.44341690219483
            ],
            [
              4.937360717420976,
              51.4430740174178
            ],
            [
              4.9374392028957645,
              51.44272464262421
            ],
            [
              4.937462511860787,
              51.44237214259026
            ],
            [
              4.937430421091787,
              51.44201991211573
            ],
            [
              4.9373432408903515,
              51.44167134332898
            ],
            [
              4.937201812047508,
              51.4413297930206
            ],
            [
              4.9371997731405175,
              51.441326317374426
            ],
            [
              4.937444050518236,
              51.44106706143987
            ],
            [
              4.937681433315985,
              51.440746967764674
            ],
            [
              4.93786746702996,
              51.44041387388614
            ],
            [
              4.938000361038615,
              51.44007098791984
            ],
            [
              4.938078836618583,
              51.439721612221106
            ],
            [
              4.938102139216491,
              51.43936911157484
            ],
            [
              4.938070045669245,
              51.439016880786745
            ],
            [
              4.9379828663050205,
              51.438668311988145
            ],
            [
              4.9379418953488985,
              51.438569364744325
            ],
            [
              4.937958684307123,
              51.438494618194
            ],
            [
              4.937981987201575,
              51.43814211737268
            ],
            [
              4.937949895414833,
              51.43778988635367
            ],
            [
              4.937862719258053,
              51.43744131727059
            ]
          ]
        ]
      },
      "properties": {
        "type": "buffer_union_400m",
        "buffer_m": 400
      }
    },
    {
      "type": "Feature",
      "geometry": {
        "type": "MultiPolygon",
        "coordinates": [
          [
            [
              [
                4.9399714,
                51.4361185
              ],
              [
                4.9421897,
                51.4364547
              ],
              [
                4.9427557,
                51.4351132
              ],
              [
                4.9409988,
                51.4346421
              ],
              [
                4.940966,
                51.4352408
              ],
              [
                4.940402,
                51.4352404
              ],
              [
                4.940219,
                51.4354741
              ],
              [
                4.9399714,
                51.4361185
              ]
            ]
          ],
          [
            [
              [
                4.9399714,
                51.4361185
              ],
              [
                4.938327,
                51.4358874
              ],
              [
                4.9381838,
                51.4359477
              ],
              [
                4.9362448,
                51.4342371
              ],
              [
                4.9365733,
                51.4339953
              ],
              [
                4.9369241,
                51.4339229
              ],
              [
                4.938772,
                51.4341563
              ],
              [
                4.9399369,
                51.4341169
              ],
              [
                4.9396846,
                51.4332249
              ],
              [
                4.9394693,
                51.4332123
              ],
              [
                4.9394166,
                51.4322266
              ],
              [
                4.9397895,
                51.4322918
              ],
              [
                4.9400981,
                51.4315911
              ],
              [
                4.9392493,
                51.4314188
              ],
              [
                4.9396975,
                51.4307426
              ],
              [
                4.9382497,
                51.4303662
              ],
              [
                4.9376105,
                51.4300901
              ],
              [
                4.9376532,
                51.4300541
              ],
              [
                4.9361528,
                51.4294651
              ],
              [
                4.9359799,
                51.4294708
              ],
              [
                4.9344302,
                51.4306013
              ],
              [
                4.9337409,
                51.430555
              ],
              [
                4.9335986,
                51.4310212
              ],
              [
                4.9309431,
                51.430474
              ],
              [
                4.9305945,
                51.429974
              ],
              [
                4.9293875,
                51.4309398
              ],
              [
                4.928813,
                51.4305124
              ],
              [
                4.9282678,
                51.4308172
              ],
              [
                4.9279629,
                51.4310821
              ],
              [
                4.9266195,
                51.4329311
              ],
              [
                4.9265896,
                51.4331192
              ],
              [
                4.9268802,
                51.4335927
              ],
              [
                4.9265095,
                51.4334338
              ],
              [
                4.9260846,
                51.4333964
              ],
              [
                4.9259874,
                51.433863
              ],
              [
                4.9254079,
                51.4338275
              ],
              [
                4.9252451,
                51.4339751
              ],
              [
                4.9249446,
                51.433872
              ],
              [
                4.9252456,
                51.4334094
              ],
              [
                4.9225532,
                51.4336427
              ],
              [
                4.9225741,
                51.4339052
              ],
              [
                4.9224158,
                51.4340713
              ],
              [
                4.9199793,
                51.4345032
              ],
              [
                4.9185308,
                51.4349967
              ],
              [
                4.9181204,
                51.4352209
              ],
              [
                4.917975,
                51.435215
              ],
              [
                4.9172158,
                51.4345856
              ],
              [
                4.9159515,
                51.4349247
              ],
              [
                4.9150121,
                51.4353553
              ],
              [
                4.917077,
                51.4358857
              ],
              [
                4.9179502,
                51.4352556
              ],
              [
                4.9180561,
                51.435281
              ],
              [
                4.9195572,
                51.4364592
              ],
              [
                4.9201067,
                51.4362942
              ],
              [
                4.9202037,
                51.43639
              ],
              [
                4.9206056,
                51.4362789
              ],
              [
                4.9212058,
                51.4368964
              ],
              [
                4.9197973,
                51.4380858
              ],
              [
                4.9213034,
                51.4391148
              ],
              [
                4.9206388,
                51.4394599
              ],
              [
                4.9205551,
                51.4393868
              ],
              [
                4.9202141,
                51.439542
              ],
              [
                4.9212007,
                51.4404039
              ],
              [
                4.9191897,
                51.4406702
              ],
              [
                4.9215404,
                51.4421932
              ],
              [
                4.9219006,
                51.4420665
              ],
              [
                4.9223695,
                51.442663
              ],
              [
                4.9212651,
                51.4434538
              ],
              [
                4.9214652,
                51.4437762
              ],
              [
                4.9208634,
                51.4447917
              ],
              [
                4.9215373,
                51.4448623
              ],
              [
                4.9212418,
                51.4453087
              ],
              [
                4.9210522,
                51.4452371
              ],
              [
                4.9202874,
                51.4457586
              ],
              [
                4.9198999,
                51.4451507
              ],
              [
                4.918799,
                51.4457106
              ],
              [
                4.9183029,
                51.4457848
              ],
              [
                4.9185882,
                51.4462785
              ],
              [
                4.9194298,
                51.4469324
              ],
              [
                4.92055,
                51.4459554
              ],
              [
                4.9217542,
                51.4465682
              ],
              [
                4.9230349,
                51.4473779
              ],
              [
                4.9240219,
                51.4463134
              ],
              [
                4.9220951,
                51.4457017
              ],
              [
                4.9243118,
                51.4449301
              ],
              [
                4.9231047,
                51.4449023
              ],
              [
                4.9237329,
                51.443894
              ],
              [
                4.9241311,
                51.4440616
              ],
              [
                4.9242948,
                51.4439266
              ],
              [
                4.9253903,
                51.4445156
              ],
              [
                4.9280551,
                51.4436188
              ],
              [
                4.9257903,
                51.4427797
              ],
              [
                4.9264541,
                51.4421721
              ],
              [
                4.9265212,
                51.4421938
              ],
              [
                4.9268531,
                51.4416715
              ],
              [
                4.9262682,
                51.4416936
              ],
              [
                4.9261294,
                51.4412142
              ],
              [
                4.9265267,
                51.4413079
              ],
              [
                4.9273755,
                51.4400318
              ],
              [
                4.9268919,
                51.4398338
              ],
              [
                4.9283002,
                51.4385534
              ],
              [
                4.9287565,
                51.4393319
              ],
              [
                4.9290282,
                51.4396358
              ],
              [
                4.9297,
                51.4400937
              ],
              [
                4.928859,
                51.4410297
              ],
              [
                4.928702,
                51.4415974
              ],
              [
                4.9292815,
                51.4417043
              ],
              [
                4.9299104,
                51.441957
              ],
              [
                4.9298874,
                51.442477
              ],
              [
                4.9304572,
                51.4424563
              ],
              [
                4.9304544,
                51.4426035
              ],
              [
                4.9309983,
                51.4428046
              ],
              [
                4.9309026,
                51.4428678
              ],
              [
                4.9323153,
                51.4432452
              ],
              [
                4.9323971,
                51.4431662
              ],
              [
                4.9331226,
                51.4432708
              ],
              [
                4.9331766,
                51.4430883
              ],
              [
                4.9337304,
                51.4431598
              ],
              [
                4.933474,
                51.4440131
              ],
              [
                4.9332648,
                51.4442102
              ],
              [
                4.9344697,
                51.445564
              ],
              [
                4.9355458,
                51.4463466
              ],
              [
                4.9358853,
                51.445929
              ],
              [
                4.9361692,
                51.4452617
              ],
              [
                4.9351801,
                51.4448726
              ],
              [
                4.9354771,
                51.444282
              ],
              [
                4.9367288,
                51.4444634
              ],
              [
                4.936784,
                51.4443317
              ],
              [
                4.9373457,
                51.4445612
              ],
              [
                4.9381176,
                51.4447173
              ],
              [
                4.9385611,
                51.4434589
              ],
              [
                4.9390283,
                51.4435736
              ],
              [
                4.9395255,
                51.4418276
              ],
              [
                4.9388852,
                51.4418497
              ],
              [
                4.9384679,
                51.443435
              ],
              [
                4.9378227,
                51.4432967
              ],
              [
                4.9381633,
                51.4424363
              ],
              [
                4.9381065,
                51.4418765
              ],
              [
                4.9360086,
                51.4420608
              ],
              [
                4.9342697,
                51.4421128
              ],
              [
                4.93428,
                51.4418232
              ],
              [
                4.9341896,
                51.4418202
              ],
              [
                4.9337407,
                51.4408824
              ],
              [
                4.9348999,
                51.4408702
              ],
              [
                4.9348888,
                51.4395604
              ],
              [
                4.9364258,
                51.4396659
              ],
              [
                4.9363747,
                51.4391951
              ],
              [
                4.9345819,
                51.4391576
              ],
              [
                4.9346603,
                51.4385488
              ],
              [
                4.9363428,
                51.4385959
              ],
              [
                4.9364308,
                51.4377924
              ],
              [
                4.9390388,
                51.4379893
              ],
              [
                4.9387858,
                51.4393169
              ],
              [
                4.9398813,
                51.4394462
              ],
              [
                4.9403774,
                51.4380072
              ],
              [
                4.9394498,
                51.4371468
              ],
              [
                4.9399714,
                51.4361185
              ]
            ]
          ],
          [
            [
              [
                4.836225,
                51.4480468
              ],
              [
                4.8357449,
                51.4484594
              ],
              [
                4.8362091,
                51.4487899
              ],
              [
                4.8366643,
                51.4483988
              ],
              [
                4.836225,
                51.4480468
              ]
            ]
          ],
          [
            [
              [
                4.8408575,
                51.4174536
              ],
              [
                4.8395648,
                51.4178964
              ],
              [
                4.8387503,
                51.4181784
              ],
              [
                4.8400145,
                51.4188007
              ],
              [
                4.8404411,
                51.4188564
              ],
              [
                4.8405603,
                51.4187536
              ],
              [
                4.8403818,
                51.4184907
              ],
              [
                4.8405578,
                51.418349
              ],
              [
                4.8404777,
                51.4180801
              ],
              [
                4.8408735,
                51.4179402
              ],
              [
                4.8413671,
                51.417896
              ],
              [
                4.8408575,
                51.4174536
              ]
            ]
          ],
          [
            [
              [
                4.8462762,
                51.4128563
              ],
              [
                4.847005,
                51.4134371
              ],
              [
                4.8486319,
                51.4127486
              ],
              [
                4.849815,
                51.4142984
              ],
              [
                4.8501785,
                51.4142467
              ],
              [
                4.8500233,
                51.4141064
              ],
              [
                4.8502627,
                51.4138092
              ],
              [
                4.8505896,
                51.4140124
              ],
              [
                4.8505885,
                51.4142076
              ],
              [
                4.8507218,
                51.4142698
              ],
              [
                4.8513527,
                51.4140539
              ],
              [
                4.8518528,
                51.414143
              ],
              [
                4.8524128,
                51.4138503
              ],
              [
                4.8525768,
                51.4136164
              ],
              [
                4.8530154,
                51.4134183
              ],
              [
                4.8534412,
                51.413376
              ],
              [
                4.8536045,
                51.4135002
              ],
              [
                4.8544626,
                51.4136914
              ],
              [
                4.8546796,
                51.4132116
              ],
              [
                4.8547849,
                51.4131857
              ],
              [
                4.8548579,
                51.4133801
              ],
              [
                4.8549686,
                51.413424
              ],
              [
                4.8550542,
                51.4133921
              ],
              [
                4.8550718,
                51.4132675
              ],
              [
                4.8554528,
                51.4130777
              ],
              [
                4.8553724,
                51.4128569
              ],
              [
                4.8554793,
                51.4127508
              ],
              [
                4.8558547,
                51.4129168
              ],
              [
                4.8562219,
                51.4127637
              ],
              [
                4.8565822,
                51.4129166
              ],
              [
                4.8566618,
                51.4126942
              ],
              [
                4.8570197,
                51.412849
              ],
              [
                4.8575985,
                51.4126666
              ],
              [
                4.8576118,
                51.412783
              ],
              [
                4.8574544,
                51.4129656
              ],
              [
                4.8578106,
                51.4131885
              ],
              [
                4.8578834,
                51.4131445
              ],
              [
                4.8577414,
                51.4129632
              ],
              [
                4.8582617,
                51.4128034
              ],
              [
                4.8583892,
                51.4128138
              ],
              [
                4.85851,
                51.4129954
              ],
              [
                4.859061,
                51.4128242
              ],
              [
                4.858935,
                51.4130936
              ],
              [
                4.8593055,
                51.4131408
              ],
              [
                4.8594907,
                51.4132875
              ],
              [
                4.8597304,
                51.4133294
              ],
              [
                4.8599148,
                51.4132784
              ],
              [
                4.8596869,
                51.4131387
              ],
              [
                4.8596069,
                51.4129191
              ],
              [
                4.8599413,
                51.4130091
              ],
              [
                4.8597432,
                51.4113157
              ],
              [
                4.8578037,
                51.4117612
              ],
              [
                4.856067,
                51.411936
              ],
              [
                4.854289,
                51.4119077
              ],
              [
                4.8539145,
                51.4116875
              ],
              [
                4.8537831,
                51.411373
              ],
              [
                4.8515279,
                51.4123307
              ],
              [
                4.8509047,
                51.4117277
              ],
              [
                4.8462762,
                51.4128563
              ]
            ]
          ],
          [
            [
              [
                4.8660515,
                51.4136072
              ],
              [
                4.8657796,
                51.4142749
              ],
              [
                4.8669974,
                51.4143861
              ],
              [
                4.8678188,
                51.4132626
              ],
              [
                4.867054,
                51.4133257
              ],
              [
                4.8663162,
                51.4131829
              ],
              [
                4.8660515,
                51.4136072
              ]
            ]
          ],
          [
            [
              [
                4.8673116,
                51.4091161
              ],
              [
                4.8681797,
                51.4096635
              ],
              [
                4.8683907,
                51.4100587
              ],
              [
                4.8679921,
                51.4102003
              ],
              [
                4.8681986,
                51.4104602
              ],
              [
                4.867911,
                51.4105027
              ],
              [
                4.8678511,
                51.4106424
              ],
              [
                4.867567,
                51.4105855
              ],
              [
                4.8670984,
                51.4107405
              ],
              [
                4.866944,
                51.4106104
              ],
              [
                4.8664991,
                51.4106918
              ],
              [
                4.8664002,
                51.4108956
              ],
              [
                4.8661759,
                51.4110002
              ],
              [
                4.8663766,
                51.4113176
              ],
              [
                4.8662534,
                51.411442
              ],
              [
                4.8675592,
                51.4120792
              ],
              [
                4.8679469,
                51.4123774
              ],
              [
                4.8680082,
                51.4125406
              ],
              [
                4.8688479,
                51.4126614
              ],
              [
                4.8687215,
                51.4128878
              ],
              [
                4.8699217,
                51.4130431
              ],
              [
                4.8703886,
                51.4129853
              ],
              [
                4.8706473,
                51.4133755
              ],
              [
                4.8710934,
                51.41353
              ],
              [
                4.8712548,
                51.4137179
              ],
              [
                4.8721116,
                51.4137689
              ],
              [
                4.8721608,
                51.4135747
              ],
              [
                4.8728849,
                51.4136177
              ],
              [
                4.8728479,
                51.4137995
              ],
              [
                4.8733062,
                51.4138769
              ],
              [
                4.8733658,
                51.4140497
              ],
              [
                4.8738352,
                51.4142799
              ],
              [
                4.8735534,
                51.4147541
              ],
              [
                4.8760125,
                51.415196
              ],
              [
                4.8777947,
                51.4153355
              ],
              [
                4.878443,
                51.4141023
              ],
              [
                4.8797961,
                51.4143672
              ],
              [
                4.8805048,
                51.4149799
              ],
              [
                4.8807019,
                51.4149827
              ],
              [
                4.8809473,
                51.4151086
              ],
              [
                4.8813311,
                51.4154662
              ],
              [
                4.8821316,
                51.4152939
              ],
              [
                4.8830721,
                51.4152859
              ],
              [
                4.8830283,
                51.416371
              ],
              [
                4.8829356,
                51.4164817
              ],
              [
                4.8848995,
                51.4166367
              ],
              [
                4.8860732,
                51.4166256
              ],
              [
                4.8858813,
                51.4153346
              ],
              [
                4.8869603,
                51.4150551
              ],
              [
                4.8884292,
                51.415162
              ],
              [
                4.8888406,
                51.415451
              ],
              [
                4.8890727,
                51.4155045
              ],
              [
                4.8895105,
                51.415497
              ],
              [
                4.8899317,
                51.4152024
              ],
              [
                4.8903013,
                51.4147435
              ],
              [
                4.8908631,
                51.4151228
              ],
              [
                4.8917636,
                51.4145039
              ],
              [
                4.8946071,
                51.412915
              ],
              [
                4.896458,
                51.4128749
              ],
              [
                4.8966669,
                51.412536
              ],
              [
                4.896639,
                51.4123931
              ],
              [
                4.8969852,
                51.4117885
              ],
              [
                4.8971328,
                51.4116932
              ],
              [
                4.8977674,
                51.411715
              ],
              [
                4.8986044,
                51.4119299
              ],
              [
                4.8984866,
                51.4124889
              ],
              [
                4.8985095,
                51.4127849
              ],
              [
                4.8980821,
                51.4129067
              ],
              [
                4.8974403,
                51.4133514
              ],
              [
                4.8975616,
                51.413485
              ],
              [
                4.8978743,
                51.4136247
              ],
              [
                4.899131,
                51.413816
              ],
              [
                4.8988127,
                51.4141184
              ],
              [
                4.8999937,
                51.4146707
              ],
              [
                4.900755,
                51.414217
              ],
              [
                4.9008284,
                51.4143134
              ],
              [
                4.9011647,
                51.4140846
              ],
              [
                4.9006619,
                51.4132861
              ],
              [
                4.9007577,
                51.4132757
              ],
              [
                4.9018464,
                51.4139359
              ],
              [
                4.9028696,
                51.4135544
              ],
              [
                4.9031873,
                51.4135524
              ],
              [
                4.9025949,
                51.4127875
              ],
              [
                4.9025587,
                51.4124854
              ],
              [
                4.9013613,
                51.4125797
              ],
              [
                4.9002924,
                51.4125213
              ],
              [
                4.900486,
                51.411918
              ],
              [
                4.9001938,
                51.4109503
              ],
              [
                4.8999152,
                51.4106223
              ],
              [
                4.9019446,
                51.4104427
              ],
              [
                4.9027108,
                51.4102451
              ],
              [
                4.9034094,
                51.4118275
              ],
              [
                4.9038479,
                51.4124142
              ],
              [
                4.904878,
                51.4119003
              ],
              [
                4.9037018,
                51.4099552
              ],
              [
                4.9048929,
                51.409729
              ],
              [
                4.905272,
                51.409984
              ],
              [
                4.9057029,
                51.4099199
              ],
              [
                4.9059514,
                51.4094179
              ],
              [
                4.9059468,
                51.408794
              ],
              [
                4.9064363,
                51.4089459
              ],
              [
                4.9066711,
                51.408923
              ],
              [
                4.907895,
                51.4082004
              ],
              [
                4.9098045,
                51.4074355
              ],
              [
                4.9085705,
                51.4045943
              ],
              [
                4.9086639,
                51.4045197
              ],
              [
                4.90864,
                51.4044365
              ],
              [
                4.9105307,
                51.4029403
              ],
              [
                4.9105039,
                51.4027104
              ],
              [
                4.9101617,
                51.4022602
              ],
              [
                4.917816,
                51.4005112
              ],
              [
                4.9177913,
                51.4004042
              ],
              [
                4.916121,
                51.3987233
              ],
              [
                4.918126,
                51.3982291
              ],
              [
                4.9181521,
                51.3979273
              ],
              [
                4.9186247,
                51.3982853
              ],
              [
                4.9232685,
                51.3985501
              ],
              [
                4.9242313,
                51.3978514
              ],
              [
                4.924636,
                51.3969288
              ],
              [
                4.9236045,
                51.3967366
              ],
              [
                4.9178056,
                51.3968424
              ],
              [
                4.9153869,
                51.3953326
              ],
              [
                4.9138316,
                51.3950651
              ],
              [
                4.9117937,
                51.3954588
              ],
              [
                4.910985,
                51.394543
              ],
              [
                4.910033,
                51.3944086
              ],
              [
                4.9086504,
                51.3940019
              ],
              [
                4.9073234,
                51.392824
              ],
              [
                4.9048785,
                51.3936701
              ],
              [
                4.8988824,
                51.3974795
              ],
              [
                4.899214,
                51.3978537
              ],
              [
                4.8996385,
                51.3986225
              ],
              [
                4.8991111,
                51.3990341
              ],
              [
                4.8987262,
                51.3991684
              ],
              [
                4.8979979,
                51.3996436
              ],
              [
                4.8979018,
                51.3998774
              ],
              [
                4.897966,
                51.4000943
              ],
              [
                4.8974865,
                51.4002664
              ],
              [
                4.8974146,
                51.4006004
              ],
              [
                4.8968151,
                51.4009149
              ],
              [
                4.8966794,
                51.4010868
              ],
              [
                4.8963565,
                51.4009608
              ],
              [
                4.8959048,
                51.4009161
              ],
              [
                4.8955829,
                51.4009797
              ],
              [
                4.895355,
                51.4008768
              ],
              [
                4.8950851,
                51.4009062
              ],
              [
                4.8947716,
                51.4005521
              ],
              [
                4.8943411,
                51.4007743
              ],
              [
                4.89346,
                51.4008409
              ],
              [
                4.8930996,
                51.4009778
              ],
              [
                4.893003,
                51.4007263
              ],
              [
                4.8921675,
                51.4005577
              ],
              [
                4.8921038,
                51.4005205
              ],
              [
                4.8921373,
                51.4003134
              ],
              [
                4.8918044,
                51.4003121
              ],
              [
                4.891681,
                51.4001125
              ],
              [
                4.8917729,
                51.399738
              ],
              [
                4.8916958,
                51.399649
              ],
              [
                4.8913773,
                51.3997247
              ],
              [
                4.8911211,
                51.3996234
              ],
              [
                4.8904439,
                51.3996243
              ],
              [
                4.8901173,
                51.3998635
              ],
              [
                4.8898853,
                51.3998322
              ],
              [
                4.8897851,
                51.3999905
              ],
              [
                4.889496,
                51.3999189
              ],
              [
                4.8894639,
                51.3997144
              ],
              [
                4.8892798,
                51.3996845
              ],
              [
                4.8890424,
                51.3998008
              ],
              [
                4.8887705,
                51.3998164
              ],
              [
                4.8888111,
                51.4000301
              ],
              [
                4.8886632,
                51.4000658
              ],
              [
                4.888572,
                51.4001946
              ],
              [
                4.8881552,
                51.400038
              ],
              [
                4.8877422,
                51.4001999
              ],
              [
                4.8875722,
                51.400011
              ],
              [
                4.887296,
                51.3999403
              ],
              [
                4.8872252,
                51.3998084
              ],
              [
                4.8868406,
                51.3999983
              ],
              [
                4.8859511,
                51.3997297
              ],
              [
                4.8856974,
                51.3998901
              ],
              [
                4.8857604,
                51.4000725
              ],
              [
                4.8856759,
                51.4000976
              ],
              [
                4.8849946,
                51.3999846
              ],
              [
                4.8849041,
                51.4000545
              ],
              [
                4.8849028,
                51.4001699
              ],
              [
                4.8847579,
                51.4002247
              ],
              [
                4.8846141,
                51.4000168
              ],
              [
                4.8844582,
                51.3999838
              ],
              [
                4.8842449,
                51.4002348
              ],
              [
                4.8843053,
                51.400331
              ],
              [
                4.884257,
                51.4003737
              ],
              [
                4.8841055,
                51.4003946
              ],
              [
                4.8839338,
                51.4002448
              ],
              [
                4.8836415,
                51.4003887
              ],
              [
                4.8837836,
                51.400541
              ],
              [
                4.8834416,
                51.4005678
              ],
              [
                4.883447,
                51.400797
              ],
              [
                4.8829347,
                51.4007493
              ],
              [
                4.8827952,
                51.4009317
              ],
              [
                4.8823097,
                51.4009242
              ],
              [
                4.8824385,
                51.4011727
              ],
              [
                4.8821676,
                51.4012597
              ],
              [
                4.8823379,
                51.4015584
              ],
              [
                4.8818269,
                51.4015551
              ],
              [
                4.8818296,
                51.4018378
              ],
              [
                4.8812529,
                51.4020646
              ],
              [
                4.8807943,
                51.4019583
              ],
              [
                4.8804228,
                51.4023449
              ],
              [
                4.8805113,
                51.4025138
              ],
              [
                4.8800285,
                51.4025164
              ],
              [
                4.880113,
                51.4028728
              ],
              [
                4.87983,
                51.402923
              ],
              [
                4.8796369,
                51.4028544
              ],
              [
                4.8794197,
                51.4029523
              ],
              [
                4.8795404,
                51.4031045
              ],
              [
                4.8792521,
                51.4032284
              ],
              [
                4.8788168,
                51.4037291
              ],
              [
                4.8785841,
                51.4037358
              ],
              [
                4.8783213,
                51.4035345
              ],
              [
                4.8765872,
                51.403686
              ],
              [
                4.8762868,
                51.4034994
              ],
              [
                4.876032,
                51.403553
              ],
              [
                4.8755868,
                51.4034467
              ],
              [
                4.8749886,
                51.4035496
              ],
              [
                4.8748465,
                51.403732
              ],
              [
                4.8741558,
                51.4040365
              ],
              [
                4.8742416,
                51.4041804
              ],
              [
                4.8740928,
                51.4044373
              ],
              [
                4.8741451,
                51.4046556
              ],
              [
                4.873838,
                51.4049836
              ],
              [
                4.8742457,
                51.4052488
              ],
              [
                4.8738876,
                51.4053625
              ],
              [
                4.8739895,
                51.4055457
              ],
              [
                4.8738004,
                51.4055918
              ],
              [
                4.8735362,
                51.4058553
              ],
              [
                4.8735577,
                51.406041
              ],
              [
                4.8732747,
                51.4059992
              ],
              [
                4.8733807,
                51.406174
              ],
              [
                4.872914,
                51.4061782
              ],
              [
                4.8728375,
                51.4063773
              ],
              [
                4.8726149,
                51.4064664
              ],
              [
                4.8727,
                51.4066387
              ],
              [
                4.8725532,
                51.4067918
              ],
              [
                4.872108,
                51.4066797
              ],
              [
                4.8719242,
                51.4067596
              ],
              [
                4.8720007,
                51.4068809
              ],
              [
                4.8719604,
                51.406937
              ],
              [
                4.8717767,
                51.4069629
              ],
              [
                4.8716024,
                51.4069378
              ],
              [
                4.8714173,
                51.406727
              ],
              [
                4.871192,
                51.4068625
              ],
              [
                4.8708621,
                51.4068123
              ],
              [
                4.8708111,
                51.4068575
              ],
              [
                4.8708782,
                51.4069763
              ],
              [
                4.8690234,
                51.407331
              ],
              [
                4.8673116,
                51.4091161
              ]
            ]
          ],
          [
            [
              [
                4.873628,
                51.4154772
              ],
              [
                4.8733928,
                51.4159166
              ],
              [
                4.8748285,
                51.4165082
              ],
              [
                4.875317,
                51.41606
              ],
              [
                4.873628,
                51.4154772
              ]
            ]
          ],
          [
            [
              [
                4.8886182,
                51.4246799
              ],
              [
                4.8901237,
                51.4252826
              ],
              [
                4.8905723,
                51.4249827
              ],
              [
                4.8906464,
                51.4247936
              ],
              [
                4.8912005,
                51.4245278
              ],
              [
                4.8915983,
                51.4247845
              ],
              [
                4.8923068,
                51.4241022
              ],
              [
                4.8917788,
                51.4237396
              ],
              [
                4.8914358,
                51.4232243
              ],
              [
                4.8893674,
                51.4234538
              ],
              [
                4.8903631,
                51.4238957
              ],
              [
                4.8886182,
                51.4246799
              ]
            ]
          ],
          [
            [
              [
                4.9182222,
                51.443433
              ],
              [
                4.9181472,
                51.4439588
              ],
              [
                4.9183726,
                51.4441051
              ],
              [
                4.9188784,
                51.4440058
              ],
              [
                4.9186262,
                51.4436177
              ],
              [
                4.9184843,
                51.4435733
              ],
              [
                4.9185246,
                51.4434391
              ],
              [
                4.9182222,
                51.443433
              ]
            ]
          ],
          [
            [
              [
                4.9257193,
                51.4449068
              ],
              [
                4.924172,
                51.4463513
              ],
              [
                4.9255046,
                51.4466514
              ],
              [
                4.9269266,
                51.4453608
              ],
              [
                4.926264,
                51.4451673
              ],
              [
                4.9257193,
                51.4449068
              ]
            ]
          ],
          [
            [
              [
                4.927266,
                51.408243
              ],
              [
                4.9308472,
                51.4079921
              ],
              [
                4.9319094,
                51.408025
              ],
              [
                4.9323313,
                51.4081981
              ],
              [
                4.9325703,
                51.4084059
              ],
              [
                4.9326627,
                51.4086347
              ],
              [
                4.9329193,
                51.4087503
              ],
              [
                4.9329647,
                51.4089863
              ],
              [
                4.9357951,
                51.4093002
              ],
              [
                4.9363949,
                51.4053423
              ],
              [
                4.9284952,
                51.4051145
              ],
              [
                4.9289995,
                51.4053983
              ],
              [
                4.9297865,
                51.4053854
              ],
              [
                4.9307893,
                51.4060526
              ],
              [
                4.9309917,
                51.4060066
              ],
              [
                4.9312969,
                51.4057872
              ],
              [
                4.9316736,
                51.4057786
              ],
              [
                4.9323652,
                51.4060225
              ],
              [
                4.9324773,
                51.4062399
              ],
              [
                4.9323161,
                51.4065679
              ],
              [
                4.9316526,
                51.4064739
              ],
              [
                4.9315258,
                51.4066961
              ],
              [
                4.9313005,
                51.4068164
              ],
              [
                4.9312206,
                51.4070595
              ],
              [
                4.931084,
                51.4071837
              ],
              [
                4.9303988,
                51.4074913
              ],
              [
                4.9298653,
                51.4076773
              ],
              [
                4.9277924,
                51.4078804
              ],
              [
                4.927266,
                51.408243
              ]
            ]
          ],
          [
            [
              [
                4.9283983,
                51.4478278
              ],
              [
                4.9273505,
                51.4485682
              ],
              [
                4.928153,
                51.4489372
              ],
              [
                4.9291255,
                51.4481244
              ],
              [
                4.9283983,
                51.4478278
              ]
            ]
          ],
          [
            [
              [
                4.9278572,
                51.3954429
              ],
              [
                4.9252358,
                51.3966509
              ],
              [
                4.9245863,
                51.3977765
              ],
              [
                4.9244281,
                51.3987835
              ],
              [
                4.9257222,
                51.3990793
              ],
              [
                4.9278976,
                51.3997347
              ],
              [
                4.9286962,
                51.3959064
              ],
              [
                4.9278572,
                51.3954429
              ]
            ]
          ],
          [
            [
              [
                4.9295065,
                51.449556
              ],
              [
                4.930737,
                51.4504259
              ],
              [
                4.9318132,
                51.44927
              ],
              [
                4.930403,
                51.4487237
              ],
              [
                4.9295065,
                51.449556
              ]
            ]
          ],
          [
            [
              [
                4.9315288,
                51.4469966
              ],
              [
                4.9319596,
                51.4472006
              ],
              [
                4.9315123,
                51.4476313
              ],
              [
                4.9332585,
                51.4482818
              ],
              [
                4.9340738,
                51.4474005
              ],
              [
                4.9319069,
                51.4466602
              ],
              [
                4.9315288,
                51.4469966
              ]
            ]
          ],
          [
            [
              [
                4.9346981,
                51.4474741
              ],
              [
                4.9330822,
                51.4495296
              ],
              [
                4.9359523,
                51.4499005
              ],
              [
                4.9372304,
                51.4499186
              ],
              [
                4.9372745,
                51.4501112
              ],
              [
                4.9378847,
                51.4500889
              ],
              [
                4.9379412,
                51.4504024
              ],
              [
                4.9393982,
                51.4503774
              ],
              [
                4.9394794,
                51.4504411
              ],
              [
                4.9410811,
                51.4504605
              ],
              [
                4.9410499,
                51.4507884
              ],
              [
                4.9430401,
                51.4508264
              ],
              [
                4.9431121,
                51.4503617
              ],
              [
                4.9466569,
                51.450749
              ],
              [
                4.9465813,
                51.4509283
              ],
              [
                4.9473593,
                51.4511081
              ],
              [
                4.947624,
                51.4505727
              ],
              [
                4.9488994,
                51.4512987
              ],
              [
                4.9506224,
                51.4516491
              ],
              [
                4.95038,
                51.4522032
              ],
              [
                4.9499611,
                51.4521369
              ],
              [
                4.9495854,
                51.4529296
              ],
              [
                4.9494323,
                51.4535252
              ],
              [
                4.9514693,
                51.4537126
              ],
              [
                4.9516025,
                51.4525432
              ],
              [
                4.952758,
                51.4516341
              ],
              [
                4.951263,
                51.4510427
              ],
              [
                4.9517868,
                51.4505095
              ],
              [
                4.9519129,
                51.4505469
              ],
              [
                4.9524007,
                51.4501507
              ],
              [
                4.9507148,
                51.4494585
              ],
              [
                4.9482699,
                51.4490259
              ],
              [
                4.9483364,
                51.4487562
              ],
              [
                4.9481312,
                51.4481872
              ],
              [
                4.9480819,
                51.4474146
              ],
              [
                4.9479529,
                51.4473334
              ],
              [
                4.9463763,
                51.447379
              ],
              [
                4.9459747,
                51.4475234
              ],
              [
                4.9452284,
                51.4475808
              ],
              [
                4.9447615,
                51.4477841
              ],
              [
                4.946371,
                51.4482816
              ],
              [
                4.9459944,
                51.4490931
              ],
              [
                4.943533,
                51.4486637
              ],
              [
                4.943489,
                51.4474778
              ],
              [
                4.9413914,
                51.4471123
              ],
              [
                4.941501,
                51.4464187
              ],
              [
                4.9406994,
                51.446366
              ],
              [
                4.9404515,
                51.4468125
              ],
              [
                4.9397225,
                51.4465657
              ],
              [
                4.9403702,
                51.4451883
              ],
              [
                4.9401325,
                51.445163
              ],
              [
                4.939507,
                51.4464928
              ],
              [
                4.9390816,
                51.4463489
              ],
              [
                4.9389089,
                51.4471337
              ],
              [
                4.9367281,
                51.4468424
              ],
              [
                4.9362387,
                51.4469069
              ],
              [
                4.9367886,
                51.4475231
              ],
              [
                4.9346981,
                51.4474741
              ]
            ]
          ],
          [
            [
              [
                4.9397127,
                51.4418687
              ],
              [
                4.9392146,
                51.4436197
              ],
              [
                4.9399473,
                51.4437569
              ],
              [
                4.9402381,
                51.4430283
              ],
              [
                4.9399101,
                51.4429672
              ],
              [
                4.940282,
                51.4418015
              ],
              [
                4.9397127,
                51.4418687
              ]
            ]
          ],
          [
            [
              [
                4.9398719,
                51.4394911
              ],
              [
                4.939761,
                51.4397602
              ],
              [
                4.9414351,
                51.4399865
              ],
              [
                4.9415283,
                51.4397339
              ],
              [
                4.9398719,
                51.4394911
              ]
            ]
          ],
          [
            [
              [
                4.9407159,
                51.45563
              ],
              [
                4.9416312,
                51.4555685
              ],
              [
                4.942095,
                51.4552393
              ],
              [
                4.9406224,
                51.4553251
              ],
              [
                4.9407159,
                51.45563
              ]
            ]
          ],
          [
            [
              [
                4.9407597,
                51.4393147
              ],
              [
                4.942265,
                51.4395342
              ],
              [
                4.9420544,
                51.4400433
              ],
              [
                4.9431173,
                51.4401644
              ],
              [
                4.9424102,
                51.4394414
              ],
              [
                4.9418442,
                51.43905
              ],
              [
                4.9422269,
                51.4381084
              ],
              [
                4.9413738,
                51.4379518
              ],
              [
                4.941009,
                51.4385356
              ],
              [
                4.9407597,
                51.4393147
              ]
            ]
          ],
          [
            [
              [
                4.9409965,
                51.4452652
              ],
              [
                4.9421157,
                51.4455492
              ],
              [
                4.9423155,
                51.4451365
              ],
              [
                4.9411855,
                51.4448828
              ],
              [
                4.9409965,
                51.4452652
              ]
            ]
          ],
          [
            [
              [
                4.9428183,
                51.452683
              ],
              [
                4.9426638,
                51.453168
              ],
              [
                4.9427693,
                51.4533269
              ],
              [
                4.944789,
                51.4535129
              ],
              [
                4.9449289,
                51.4530346
              ],
              [
                4.9428183,
                51.452683
              ]
            ]
          ],
          [
            [
              [
                4.9439564,
                51.4436517
              ],
              [
                4.9439041,
                51.4437889
              ],
              [
                4.9458012,
                51.4439747
              ],
              [
                4.9457065,
                51.4447059
              ],
              [
                4.9459379,
                51.4447115
              ],
              [
                4.9459128,
                51.445194
              ],
              [
                4.9477083,
                51.445202
              ],
              [
                4.9477189,
                51.4457362
              ],
              [
                4.9482597,
                51.445557
              ],
              [
                4.9492093,
                51.4455209
              ],
              [
                4.9494044,
                51.445332
              ],
              [
                4.9496215,
                51.4453184
              ],
              [
                4.9496911,
                51.4449867
              ],
              [
                4.9497878,
                51.4449557
              ],
              [
                4.9496005,
                51.4449296
              ],
              [
                4.9496478,
                51.4447773
              ],
              [
                4.948941,
                51.4447317
              ],
              [
                4.9498767,
                51.4436543
              ],
              [
                4.9481447,
                51.4436975
              ],
              [
                4.9480478,
                51.4438181
              ],
              [
                4.9480731,
                51.4440387
              ],
              [
                4.9458053,
                51.4439487
              ],
              [
                4.9458238,
                51.4438342
              ],
              [
                4.9439564,
                51.4436517
              ]
            ]
          ],
          [
            [
              [
                4.9490227,
                51.4537654
              ],
              [
                4.948755,
                51.4549908
              ],
              [
                4.9495907,
                51.4551116
              ],
              [
                4.9497913,
                51.4543045
              ],
              [
                4.9492362,
                51.4542513
              ],
              [
                4.949351,
                51.4537897
              ],
              [
                4.9490227,
                51.4537654
              ]
            ]
          ]
        ]
      },
      "properties": {
        "type": "boundary",
        "gemeente": "Baarle-Hertog"
      }
    }
  ]
}