{
  "type": "FeatureCollection",
  "metadata": {
    "gemeente": "Beauvechain",
    "slug": "beauvechain",
    "generated_at": "2026-09-25T22:11:34.930386Z",
    "total_points": 12,
    "providers": [
      "bpost",
      "DHL",
      "GLS",
      "InPost",
      "VintedGo",
      "Amazon"
    ],
    "bounds": [
      4.71377,
      50.7805524,
      4.77609,
      50.781445
    ]
  },
  "features": [
    {
      "type": "Feature",
      "geometry": {
        "type": "Point",
        "coordinates": [
          4.71452,
          50.78137
        ]
      },
      "properties": {
        "type": "pakketpunt",
        "locatieNaam": "Bbox 24/7 Lidl Hamme-Mille",
        "straatNaam": "Chaussée De Louvain",
        "straatNr": "31",
        "vervoerder": "bpost",
        "puntType": "automaat",
        "bezettingsgraad": 50,
        "latitude": 50.78137,
        "longitude": 4.71452,
        "canPickup": true,
        "canDropoff": true,
        "openingstijden": null
      }
    },
    {
      "type": "Feature",
      "geometry": {
        "type": "Point",
        "coordinates": [
          4.71515,
          50.78082
        ]
      },
      "properties": {
        "type": "pakketpunt",
        "locatieNaam": "Beauvechain",
        "straatNaam": "Rue Des Epinoches",
        "straatNr": "4",
        "vervoerder": "bpost",
        "puntType": "postkantoor",
        "bezettingsgraad": 50,
        "latitude": 50.78082,
        "longitude": 4.71515,
        "canPickup": true,
        "canDropoff": true,
        "openingstijden": null
      }
    },
    {
      "type": "Feature",
      "geometry": {
        "type": "Point",
        "coordinates": [
          4.77609,
          50.78144
        ]
      },
      "properties": {
        "type": "pakketpunt",
        "locatieNaam": "Spar Beauvechain + Lotto",
        "straatNaam": "Rue Du Village",
        "straatNr": "2",
        "vervoerder": "bpost",
        "puntType": "servicepunt",
        "bezettingsgraad": 50,
        "latitude": 50.78144,
        "longitude": 4.77609,
        "canPickup": true,
        "canDropoff": true,
        "openingstijden": null
      }
    },
    {
      "type": "Feature",
      "geometry": {
        "type": "Point",
        "coordinates": [
          4.714524,
          50.781371
        ]
      },
      "properties": {
        "type": "pakketpunt",
        "locatieNaam": "BBOX 24/7 LIDL HAMME-MILLE",
        "straatNaam": "CHAUSSÉE DE LOUVAIN",
        "straatNr": "31",
        "vervoerder": "DHL",
        "puntType": "packStation",
        "bezettingsgraad": 50,
        "latitude": 50.781371,
        "longitude": 4.714524,
        "canPickup": true,
        "canDropoff": true,
        "openingstijden": {
          "ma": "00:00 - 23:59",
          "di": "00:00 - 23:59",
          "wo": "00:00 - 23:59",
          "do": "00:00 - 23:59",
          "vr": "00:00 - 23:59",
          "za": "00:00 - 23:59",
          "zo": "00:00 - 23:59"
        }
      }
    },
    {
      "type": "Feature",
      "geometry": {
        "type": "Point",
        "coordinates": [
          4.715152,
          50.780815
        ]
      },
      "properties": {
        "type": "pakketpunt",
        "locatieNaam": "BEAUVECHAIN",
        "straatNaam": "RUE DES EPINOCHES",
        "straatNr": "4",
        "vervoerder": "DHL",
        "puntType": "postOffice",
        "bezettingsgraad": 50,
        "latitude": 50.780815,
        "longitude": 4.715152,
        "canPickup": true,
        "canDropoff": true,
        "openingstijden": {
          "ma": "14:00 - 17:00",
          "di": "09:30 - 12:30, 13:45 - 18:00",
          "wo": "14:00 - 17:00",
          "do": "09:30 - 12:30, 13:45 - 18:00",
          "vr": "09:30 - 12:30, 13:45 - 17:00",
          "za": "09:30 - 13:00",
          "zo": "gesloten"
        }
      }
    },
    {
      "type": "Feature",
      "geometry": {
        "type": "Point",
        "coordinates": [
          4.77609,
          50.781445
        ]
      },
      "properties": {
        "type": "pakketpunt",
        "locatieNaam": "SPAR BEAUVECHAIN + LOTTO",
        "straatNaam": "RUE DU VILLAGE",
        "straatNr": "2",
        "vervoerder": "DHL",
        "puntType": "parcelShop",
        "bezettingsgraad": 50,
        "latitude": 50.781445,
        "longitude": 4.77609,
        "canPickup": true,
        "canDropoff": true,
        "openingstijden": {
          "ma": "08:00 - 19:00",
          "di": "gesloten",
          "wo": "08:00 - 19:00",
          "do": "08:00 - 19:00",
          "vr": "08:00 - 19:00",
          "za": "08:00 - 18:30",
          "zo": "08:00 - 12:30"
        }
      }
    },
    {
      "type": "Feature",
      "geometry": {
        "type": "Point",
        "coordinates": [
          4.7144536,
          50.7814373
        ]
      },
      "properties": {
        "type": "pakketpunt",
        "locatieNaam": "GLS Parcel Locker powered by bbox",
        "straatNaam": "Chaussee De Louvain",
        "straatNr": "31",
        "vervoerder": "GLS",
        "puntType": "locker",
        "bezettingsgraad": 50,
        "latitude": 50.7814373,
        "longitude": 4.7144536,
        "canPickup": true,
        "canDropoff": true,
        "openingstijden": "vr: 00:00 - 24:00; ma: 00:00 - 24:00"
      }
    },
    {
      "type": "Feature",
      "geometry": {
        "type": "Point",
        "coordinates": [
          4.71377,
          50.78094
        ]
      },
      "properties": {
        "type": "pakketpunt",
        "locatieNaam": "",
        "straatNaam": "Chaussée de Louvain",
        "straatNr": "27",
        "vervoerder": "InPost",
        "puntType": "automaat",
        "bezettingsgraad": 50,
        "latitude": 50.78094,
        "longitude": 4.71377,
        "canPickup": true,
        "canDropoff": true,
        "openingstijden": "24/7"
      }
    },
    {
      "type": "Feature",
      "geometry": {
        "type": "Point",
        "coordinates": [
          4.71611,
          50.7805524
        ]
      },
      "properties": {
        "type": "pakketpunt",
        "locatieNaam": "Goodboro Hamme-mille - Cigarettes Électroniques",
        "straatNaam": "Chaussée De Louvain",
        "straatNr": "17D",
        "vervoerder": "VintedGo",
        "puntType": "parcel_shop",
        "bezettingsgraad": 50,
        "latitude": 50.7805524,
        "longitude": 4.71611,
        "canPickup": true,
        "canDropoff": true,
        "openingstijden": null
      }
    },
    {
      "type": "Feature",
      "geometry": {
        "type": "Point",
        "coordinates": [
          4.77609,
          50.781445
        ]
      },
      "properties": {
        "type": "pakketpunt",
        "locatieNaam": "bpost - SPAR BEAUVECHAIN + LOTTO",
        "straatNaam": "RUE DU VILLAGE,2",
        "straatNr": "",
        "vervoerder": "Amazon",
        "puntType": "3p",
        "bezettingsgraad": 50,
        "latitude": 50.781445,
        "longitude": 4.77609,
        "canPickup": true,
        "canDropoff": false,
        "openingstijden": null
      }
    },
    {
      "type": "Feature",
      "geometry": {
        "type": "Point",
        "coordinates": [
          4.7151518,
          50.7808151
        ]
      },
      "properties": {
        "type": "pakketpunt",
        "locatieNaam": "bpost - BEAUVECHAIN",
        "straatNaam": "RUE DES EPINOCHES,4",
        "straatNr": "",
        "vervoerder": "Amazon",
        "puntType": "3p",
        "bezettingsgraad": 50,
        "latitude": 50.7808151,
        "longitude": 4.7151518,
        "canPickup": true,
        "canDropoff": false,
        "openingstijden": null
      }
    },
    {
      "type": "Feature",
      "geometry": {
        "type": "Point",
        "coordinates": [
          4.714524,
          50.781371
        ]
      },
      "properties": {
        "type": "pakketpunt",
        "locatieNaam": "bpost - BBOX 24/7 LIDL HAMME-MILLE",
        "straatNaam": "CHAUSSÉE DE LOUVAIN,31",
        "straatNr": "",
        "vervoerder": "Amazon",
        "puntType": "3p",
        "bezettingsgraad": 50,
        "latitude": 50.781371,
        "longitude": 4.714524,
        "canPickup": true,
        "canDropoff": false,
        "openingstijden": null
      }
    },
    {
      "type": "Feature",
      "geometry": {
        "type": "MultiPolygon",
        "coordinates": [
          [
            [
              [
                4.713749688825495,
                50.77824310702953
              ],
              [
                4.713332861589826,
                50.77825735474593
              ],
              [
                4.712920243518667,
                50.77829743635046
              ],
              [
                4.712515807693328,
                50.77836296589984
              ],
              [
                4.7121234484484,
                50.77845331241205
              ],
              [
                4.711746943890365,
                50.778567605938996
              ],
              [
                4.711389919532641,
                50.77870474593936
              ],
              [
                4.711055813396477,
                50.778863411870915
              ],
              [
                4.710747842913172,
                50.7790420759007
              ],
              [
                4.710468973945883,
                50.77923901761102
              ],
              [
                4.710221892229086,
                50.7794523405597
              ],
              [
                4.7100089775006575,
                50.77967999053566
              ],
              [
                4.709832280575786,
                50.779919775334236
              ],
              [
                4.709693503583824,
                50.78016938586192
              ],
              [
                4.709593983558896,
                50.780426418367966
              ],
              [
                4.7095346795429425,
                50.78068839758857
              ],
              [
                4.709516163326195,
                50.780952800581225
              ],
              [
                4.709538613915157,
                50.78121708101967
              ],
              [
                4.70960181578234,
                50.78147869371561
              ],
              [
                4.709705160915627,
                50.781735119131355
              ],
              [
                4.709847654648535,
                50.781983887646604
              ],
              [
                4.7100279252161945,
                50.78222260334631
              ],
              [
                4.710244236945915,
                50.782448967099995
              ],
              [
                4.710494506956068,
                50.78266079870999
              ],
              [
                4.710776325203144,
                50.782856057915346
              ],
              [
                4.710919428415103,
                50.78293750458152
              ],
              [
                4.710927821610952,
                50.78294628748521
              ],
              [
                4.711178097341379,
                50.7831581176073
              ],
              [
                4.7114599214014055,
                50.78335337514275
              ],
              [
                4.711770579732238,
                50.783530179440156
              ],
              [
                4.712107080450408,
                50.7836868275633
              ],
              [
                4.712466182664093,
                50.78382181069956
              ],
              [
                4.712844427692591,
                50.7839338286985
              ],
              [
                4.713238172387986,
                50.78402180260035
              ],
              [
                4.71364362423763,
                50.78408488503323
              ],
              [
                4.7140568779087,
                50.78412246837914
              ],
              [
                4.714473952882142,
                50.78413419062929
              ],
              [
                4.714890831812622,
                50.784119938872955
              ],
              [
                4.71530349924409,
                50.78407985038552
              ],
              [
                4.715707980307126,
                50.78401431130553
              ],
              [
                4.716100379024321,
                50.78392395291355
              ],
              [
                4.716476915853889,
                50.783809645548544
              ],
              [
                4.71683396410898,
                50.78367249022077
              ],
              [
                4.717168084901249,
                50.78351380800198
              ],
              [
                4.717476060271463,
                50.783335127295466
              ],
              [
                4.717754924187636,
                50.783138169108675
              ],
              [
                4.71793095745922,
                50.78298616723278
              ],
              [
                4.7181333612955045,
                50.78292471747423
              ],
              [
                4.718490398011985,
                50.78278755706561
              ],
              [
                4.718824506939202,
                50.782628870085325
              ],
              [
                4.719132470232229,
                50.78245018498252
              ],
              [
                4.71941132197542,
                50.78225322280701
              ],
              [
                4.719658376748146,
                50.7820398806264
              ],
              [
                4.719871255484001,
                50.781812213248074
              ],
              [
                4.72004790837459,
                50.78157241342231
              ],
              [
                4.720186634597608,
                50.781322790717745
              ],
              [
                4.720286098679718,
                50.781065749272514
              ],
              [
                4.720345343337285,
                50.78080376463598
              ],
              [
                4.720363798672095,
                50.78053935992391
              ],
              [
                4.720341287634418,
                50.78027508151726
              ],
              [
                4.720278027701762,
                50.78001347453838
              ],
              [
                4.720174628758156,
                50.779757058340934
              ],
              [
                4.720032087195421,
                50.77950830224972
              ],
              [
                4.719851776294186,
                50.77926960178356
              ],
              [
                4.71963543297817,
                50.779043255590636
              ],
              [
                4.719385141070104,
                50.77883144331755
              ],
              [
                4.719103311211143,
                50.77863620462554
              ],
              [
                4.71879265763765,
                50.778459419555375
              ],
              [
                4.718456172039293,
                50.778302790429784
              ],
              [
                4.7180970947502825,
                50.7781678254673
              ],
              [
                4.7177188835511,
                50.778055824265344
              ],
              [
                4.717325180380875,
                50.777967865291515
              ],
              [
                4.716919776280469,
                50.77790479550379
              ],
              [
                4.716506574903293,
                50.77786722219897
              ],
              [
                4.716089554944394,
                50.77785550716798
              ],
              [
                4.715672731848828,
                50.77786976321395
              ],
              [
                4.715260119167047,
                50.777909853066504
              ],
              [
                4.714855689928478,
                50.77797539070298
              ],
              [
                4.71446333840431,
                50.778065745063444
              ],
              [
                4.714086842626705,
                50.77818004612427
              ],
              [
                4.713963969061911,
                50.77822724821357
              ],
              [
                4.713897735372652,
                50.778237980617035
              ],
              [
                4.71386178834707,
                50.77824625852227
              ],
              [
                4.713749688825495,
                50.77824310702953
              ]
            ]
          ],
          [
            [
              [
                4.780153690611074,
                50.78064257713375
              ],
              [
                4.780010829472293,
                50.78039389418125
              ],
              [
                4.779830211111633,
                50.78015528619135
              ],
              [
                4.779613575412967,
                50.77992905092141
              ],
              [
                4.779363009013856,
                50.779717366949576
              ],
              [
                4.779080925197894,
                50.779522272701406
              ],
              [
                4.778770040646085,
                50.779345646826584
              ],
              [
                4.778433349271436,
                50.779189190114685
              ],
              [
                4.77807409338883,
                50.77905440912396
              ],
              [
                4.777695732497714,
                50.778942601680214
              ],
              [
                4.777301909977964,
                50.77885484438527
              ],
              [
                4.776896418019127,
                50.7787919822551
              ],
              [
                4.7764831611202005,
                50.778754620587
              ],
              [
                4.776066118510604,
                50.778743119134006
              ],
              [
                4.775649305853407,
                50.77875758864272
              ],
              [
                4.775236736598629,
                50.77879788978737
              ],
              [
                4.774832383357779,
                50.778863634510756
              ],
              [
                4.774440139670658,
                50.7789541897589
              ],
              [
                4.774063782531594,
                50.77906868357378
              ],
              [
                4.77370693603517,
                50.7792060134854
              ],
              [
                4.773373036490751,
                50.77936485712273
              ],
              [
                4.773065299341147,
                50.77954368494153
              ],
              [
                4.772786688203536,
                50.77974077494678
              ],
              [
                4.7725398863305,
                50.779954229268085
              ],
              [
                4.772327270765974,
                50.78018199242907
              ],
              [
                4.772150889445054,
                50.780421871134834
              ],
              [
                4.772012441458547,
                50.78067155538731
              ],
              [
                4.771913260672812,
                50.780928640725435
              ],
              [
                4.771854302863277,
                50.7811906513763
              ],
              [
                4.771836136486353,
                50.781455064094324
              ],
              [
                4.771836327472995,
                50.7814572777117
              ],
              [
                4.77183613603453,
                50.78146006409429
              ],
              [
                4.77185893673011,
                50.781724332458865
              ],
              [
                4.771922485600806,
                50.781985911398
              ],
              [
                4.772026171292337,
                50.78224228169868
              ],
              [
                4.772168995857917,
                50.78249097427113
              ],
              [
                4.772349584345845,
                50.782729593931386
              ],
              [
                4.772566198020792,
                50.78295584247365
              ],
              [
                4.772816751092219,
                50.78316754080962
              ],
              [
                4.773098830789474,
                50.783362649961795
              ],
              [
                4.773409720590696,
                50.783539290707736
              ],
              [
                4.773746426382094,
                50.78369576168632
              ],
              [
                4.774105705295793,
                50.78383055579109
              ],
              [
                4.774484096948369,
                50.78394237469223
              ],
              [
                4.774877956778957,
                50.784030141347614
              ],
              [
                4.775283491165382,
                50.784093010381554
              ],
              [
                4.775696793979418,
                50.78413037623147
              ],
              [
                4.776113884228418,
                50.7841418789836
              ],
              [
                4.776530744419833,
                50.784127407841396
              ],
              [
                4.776943359278206,
                50.784087102193446
              ],
              [
                4.7773477544407665,
                50.784021350269974
              ],
              [
                4.777740034757922,
                50.78393078540168
              ],
              [
                4.778116421828879,
                50.783816279916266
              ],
              [
                4.778473290409934,
                50.78367893673226
              ],
              [
                4.778807203344115,
                50.7835200787307
              ],
              [
                4.779114944675074,
                50.78334123600786
              ],
              [
                4.779393550625886,
                50.783144131131536
              ],
              [
                4.779640338144145,
                50.78293066254362
              ],
              [
                4.779852930738322,
                50.78270288626871
              ],
              [
                4.780029281356705,
                50.78246299610571
              ],
              [
                4.7801676920889085,
                50.782213302493
              ],
              [
                4.7802668305006595,
                50.781956210251366
              ],
              [
                4.780325742445241,
                50.78169419541898
              ],
              [
                4.780343861228985,
                50.78142978140213
              ],
              [
                4.780343669842401,
                50.78142756779863
              ],
              [
                4.780343860777163,
                50.78142478140212
              ],
              [
                4.780321012594064,
                50.781160514670724
              ],
              [
                4.78025741817035,
                50.78089894023461
              ],
              [
                4.780153690611074,
                50.78064257713375
              ]
            ]
          ]
        ]
      },
      "properties": {
        "type": "buffer_union_300m",
        "buffer_m": 300
      }
    },
    {
      "type": "Feature",
      "geometry": {
        "type": "MultiPolygon",
        "coordinates": [
          [
            [
              [
                4.713187159857186,
                50.77736313888786
              ],
              [
                4.712637012557229,
                50.77741658003188
              ],
              [
                4.712097774103832,
                50.77750395116938
              ],
              [
                4.711574636585241,
                50.77762441105226
              ],
              [
                4.711072637163934,
                50.777776799831706
              ],
              [
                4.71059660960203,
                50.77795965021884
              ],
              [
                4.710151137738973,
                50.77817120160384
              ],
              [
                4.709740511368418,
                50.77840941699873
              ],
              [
                4.709368684938391,
                50.77867200264051
              ],
              [
                4.70903923947196,
                50.778956430066586
              ],
              [
                4.708755348075003,
                50.7792599604508
              ],
              [
                4.7085197453633985,
                50.779579670965624
              ],
              [
                4.708334701104657,
                50.77991248291775
              ],
              [
                4.708201998328677,
                50.78025519138629
              ],
              [
                4.708122916119603,
                50.780604496078716
              ],
              [
                4.708098217255894,
                50.780957033107555
              ],
              [
                4.708128140819254,
                50.781309407382466
              ],
              [
                4.7082123998453485,
                50.781658225305414
              ],
              [
                4.708350184040677,
                50.7820001274545
              ],
              [
                4.7085401675413046,
                50.782331820941415
              ],
              [
                4.708780521640406,
                50.78265011113077
              ],
              [
                4.709068932363646,
                50.782951932415735
              ],
              [
                4.709402622724527,
                50.78323437775286
              ],
              [
                4.709778379446511,
                50.78349472667161
              ],
              [
                4.709863401059929,
                50.78354311710887
              ],
              [
                4.710086209903632,
                50.78373170294928
              ],
              [
                4.710461974376393,
                50.783992049641476
              ],
              [
                4.7108761866250175,
                50.7842277920101
              ],
              [
                4.711324857427746,
                50.784436659346525
              ],
              [
                4.711803665473359,
                50.7846166397786
              ],
              [
                4.712307998991827,
                50.78476599966036
              ],
              [
                4.712833000190728,
                50.78488330028075
              ],
              [
                4.713373612068613,
                50.78496741173048
              ],
              [
                4.713924627153322,
                50.785017523793016
              ],
              [
                4.714480737694458,
                50.78503315375409
              ],
              [
                4.7150365868250566,
                50.78501415105479
              ],
              [
                4.715586820197969,
                50.78496069874264
              ],
              [
                4.716126137597912,
                50.78487331170733
              ],
              [
                4.71664934403029,
                50.78475283171758
              ],
              [
                4.71715139979309,
                50.78460041930739
              ],
              [
                4.717627469048023,
                50.784417542589935
              ],
              [
                4.718072966421758,
                50.78420596310755
              ],
              [
                4.718483601187335,
                50.78396771885387
              ],
              [
                4.718855418599408,
                50.7837051046328
              ],
              [
                4.718871884851948,
                50.783690886075384
              ],
              [
                4.719283914251044,
                50.78353259838286
              ],
              [
                4.719729395804144,
                50.78332101255178
              ],
              [
                4.7201400144662955,
                50.78308276243641
              ],
              [
                4.720511815647298,
                50.78282014289707
              ],
              [
                4.720841218830301,
                50.782535683484326
              ],
              [
                4.721125052049051,
                50.782232124063185
              ],
              [
                4.721360582421586,
                50.781912388412856
              ],
              [
                4.721545542446793,
                50.781579556056116
              ],
              [
                4.721678151811508,
                50.78123683259059
              ],
              [
                4.721757134499267,
                50.78088751880782
              ],
              [
                4.721781731037371,
                50.780534978898125
              ],
              [
                4.721751705765918,
                50.78018260804736
              ],
              [
                4.721667349060506,
                50.77983379973822
              ],
              [
                4.721529474489048,
                50.77949191307066
              ],
              [
                4.721339410931835,
                50.77916024041636
              ],
              [
                4.721098989742465,
                50.77884197571849
              ],
              [
                4.720810527074894,
                50.7785401837417
              ],
              [
                4.720476801548158,
                50.77825777056822
              ],
              [
                4.720101027465023,
                50.77799745562376
              ],
              [
                4.719686823843297,
                50.7777617455021
              ],
              [
                4.719238179558573,
                50.77755290983984
              ],
              [
                4.718759414934247,
                50.777372959473205
              ],
              [
                4.71825514014852,
                50.777223627086656
              ],
              [
                4.717730210858419,
                50.77710635053903
              ],
              [
                4.717189681467315,
                50.77702225902754
              ],
              [
                4.7166387564848655,
                50.77697216222215
              ],
              [
                4.716082740446384,
                50.77695654247487
              ],
              [
                4.715526986872349,
                50.77697555017853
              ],
              [
                4.714976846757861,
                50.77702900231973
              ],
              [
                4.714437617086349,
                50.777116384239825
              ],
              [
                4.713914489861541,
                50.7772368545869
              ],
              [
                4.713538024919768,
                50.77735114615402
              ],
              [
                4.713187159857186,
                50.77736313888786
              ]
            ]
          ],
          [
            [
              [
                4.78150822355289,
                50.78037673814256
              ],
              [
                4.781317733904994,
                50.78004516301072
              ],
              [
                4.781076902782847,
                50.77972702161791
              ],
              [
                4.780788050286768,
                50.779425377540896
              ],
              [
                4.780453958788323,
                50.77914313543729
              ],
              [
                4.780077846112903,
                50.77888301308511
              ],
              [
                4.7796633345371795,
                50.77864751522332
              ],
              [
                4.779214415900545,
                50.778438909444404
              ],
              [
                4.778735413166655,
                50.77825920437088
              ],
              [
                4.778230938805081,
                50.77811013032517
              ],
              [
                4.777705850393331,
                50.777993122678566
              ],
              [
                4.777165203865931,
                50.77790930803907
              ],
              [
                4.7766142048596745,
                50.777859493410816
              ],
              [
                4.776058158622165,
                50.777844158428834
              ],
              [
                4.775502418964494,
                50.77786345074414
              ],
              [
                4.774952336747909,
                50.777917184603034
              ],
              [
                4.7744132083988005,
                50.778004842634296
              ],
              [
                4.773890224946013,
                50.77812558082748
              ],
              [
                4.773388422069586,
                50.778278236653996
              ],
              [
                4.772912631640387,
                50.778461340253514
              ],
              [
                4.772467435215949,
                50.778673128578
              ],
              [
                4.772057119939268,
                50.77891156235775
              ],
              [
                4.7716856372644045,
                50.77917434572669
              ],
              [
                4.771356564905923,
                50.779458948317924
              ],
              [
                4.771073072378431,
                50.779762629618155
              ],
              [
                4.77083789045829,
                50.780082465346155
              ],
              [
                4.770653284862151,
                50.78041537560235
              ],
              [
                4.770521034396656,
                50.780758154518615
              ],
              [
                4.770442413790923,
                50.78110750112336
              ],
              [
                4.770418181378522,
                50.78146005112494
              ],
              [
                4.770418372298506,
                50.78146226474464
              ],
              [
                4.77041818077609,
                50.7814650511249
              ],
              [
                4.770448571149976,
                50.78181740930688
              ],
              [
                4.7705332928525515,
                50.78216618222608
              ],
              [
                4.7706715311339005,
                50.782508010893324
              ],
              [
                4.770861955756028,
                50.78283960312745
              ],
              [
                4.77110273376257,
                50.78315776526772
              ],
              [
                4.771391547095146,
                50.78345943294003
              ],
              [
                4.771725614888101,
                50.78374170058004
              ],
              [
                4.772101720228059,
                50.78400184942834
              ],
              [
                4.7725162411213935,
                50.78423737372775
              ],
              [
                4.7729651853719135,
                50.78444600486978
              ],
              [
                4.773444229033006,
                50.78462573325721
              ],
              [
                4.7739487580637565,
                50.78477482767169
              ],
              [
                4.774473912787296,
                50.784891851959145
              ],
              [
                4.775014634722376,
                50.78497567887205
              ],
              [
                4.775565715335985,
                50.785025500934665
              ],
              [
                4.77612184624608,
                50.785040838226216
              ],
              [
                4.7766776703893505,
                50.78502154300694
              ],
              [
                4.777227833659513,
                50.784967801142145
              ],
              [
                4.777767036517019,
                50.7848801303107
              ],
              [
                4.7782900850713546,
                50.78475937501498
              ],
              [
                4.7787919411422655,
                50.78460669844078
              ],
              [
                4.779267770816185,
                50.784423571245796
              ],
              [
                4.779712991028882,
                50.784211757384824
              ],
              [
                4.780123313724556,
                50.7839732971089
              ],
              [
                4.780494787165289,
                50.7837104873024
              ],
              [
                4.78082383399252,
                50.78342585934813
              ],
              [
                4.781107285673797,
                50.78312215473416
              ],
              [
                4.781342413003323,
                50.78280229863762
              ],
              [
                4.781526952363055,
                50.78246937174085
              ],
              [
                4.7816591274923415,
                50.7821265805515
              ],
              [
                4.781737666557596,
                50.78177722651277
              ],
              [
                4.781761814359047,
                50.78142467420208
              ],
              [
                4.781761622905806,
                50.78142246060088
              ],
              [
                4.781761813756616,
                50.78141967420206
              ],
              [
                4.781731338959398,
                50.78106731892361
              ],
              [
                4.781646536270681,
                50.780718554009965
              ],
              [
                4.78150822355289,
                50.78037673814256
              ]
            ]
          ]
        ]
      },
      "properties": {
        "type": "buffer_union_400m",
        "buffer_m": 400
      }
    },
    {
      "type": "Feature",
      "geometry": {
        "type": "Polygon",
        "coordinates": [
          [
            [
              4.6988546,
              50.7893806
            ],
            [
              4.6986644,
              50.7884438
            ],
            [
              4.6994685,
              50.7877569
            ],
            [
              4.6981625,
              50.7867729
            ],
            [
              4.6979895,
              50.7852647
            ],
            [
              4.6996019,
              50.7843698
            ],
            [
              4.7018128,
              50.7840202
            ],
            [
              4.7028332,
              50.7833668
            ],
            [
              4.7023888,
              50.7818974
            ],
            [
              4.7032469,
              50.7812103
            ],
            [
              4.7032342,
              50.7797052
            ],
            [
              4.7047939,
              50.7789815
            ],
            [
              4.7039262,
              50.7785398
            ],
            [
              4.7054314,
              50.7777479
            ],
            [
              4.7047226,
              50.7769293
            ],
            [
              4.7070923,
              50.7762029
            ],
            [
              4.7082793,
              50.7760962
            ],
            [
              4.7133894,
              50.7742583
            ],
            [
              4.7152767,
              50.7734727
            ],
            [
              4.7174414,
              50.774047
            ],
            [
              4.7183027,
              50.7737362
            ],
            [
              4.7192215,
              50.7738357
            ],
            [
              4.7200268,
              50.7732856
            ],
            [
              4.7191527,
              50.7720913
            ],
            [
              4.71813,
              50.772471
            ],
            [
              4.718072,
              50.7719923
            ],
            [
              4.7193664,
              50.7718169
            ],
            [
              4.7192018,
              50.7715096
            ],
            [
              4.7217866,
              50.7706798
            ],
            [
              4.7211312,
              50.7697926
            ],
            [
              4.7222625,
              50.7694809
            ],
            [
              4.7217739,
              50.7691747
            ],
            [
              4.7222494,
              50.7685585
            ],
            [
              4.7208351,
              50.7667149
            ],
            [
              4.729752,
              50.7612114
            ],
            [
              4.7350709,
              50.7580462
            ],
            [
              4.7379205,
              50.7565999
            ],
            [
              4.7430349,
              50.7548037
            ],
            [
              4.7425415,
              50.753916
            ],
            [
              4.7433825,
              50.7512107
            ],
            [
              4.7433982,
              50.7475043
            ],
            [
              4.7486008,
              50.748208
            ],
            [
              4.7519656,
              50.7487507
            ],
            [
              4.7516854,
              50.7491408
            ],
            [
              4.754028,
              50.7497062
            ],
            [
              4.7590012,
              50.7459727
            ],
            [
              4.7617524,
              50.7474537
            ],
            [
              4.764572,
              50.7485224
            ],
            [
              4.7744668,
              50.7398663
            ],
            [
              4.7757695,
              50.7405142
            ],
            [
              4.7798587,
              50.7417177
            ],
            [
              4.7795625,
              50.7419776
            ],
            [
              4.7794585,
              50.7421925
            ],
            [
              4.7802741,
              50.7437579
            ],
            [
              4.7809798,
              50.7457638
            ],
            [
              4.7804999,
              50.7465449
            ],
            [
              4.7798629,
              50.7484884
            ],
            [
              4.7797922,
              50.7492203
            ],
            [
              4.7798803,
              50.749976
            ],
            [
              4.7821528,
              50.7510374
            ],
            [
              4.783577,
              50.7522258
            ],
            [
              4.784479,
              50.7532124
            ],
            [
              4.7852751,
              50.7545828
            ],
            [
              4.7864721,
              50.7558154
            ],
            [
              4.7890199,
              50.7579322
            ],
            [
              4.7940836,
              50.7557422
            ],
            [
              4.7951755,
              50.7551432
            ],
            [
              4.7960223,
              50.7544834
            ],
            [
              4.7983842,
              50.7534124
            ],
            [
              4.7993598,
              50.7531183
            ],
            [
              4.8006332,
              50.7528761
            ],
            [
              4.8011114,
              50.7526204
            ],
            [
              4.8028465,
              50.7520329
            ],
            [
              4.8042886,
              50.7519863
            ],
            [
              4.80535,
              50.7517167
            ],
            [
              4.8077687,
              50.7513774
            ],
            [
              4.8080302,
              50.7512039
            ],
            [
              4.8105904,
              50.7540968
            ],
            [
              4.8108458,
              50.7542042
            ],
            [
              4.8106268,
              50.7542877
            ],
            [
              4.8124214,
              50.756321
            ],
            [
              4.8130866,
              50.757199
            ],
            [
              4.8131916,
              50.7575009
            ],
            [
              4.8125813,
              50.7580417
            ],
            [
              4.8126172,
              50.7581967
            ],
            [
              4.8129564,
              50.7585359
            ],
            [
              4.8139151,
              50.7590469
            ],
            [
              4.8153317,
              50.7600007
            ],
            [
              4.8169421,
              50.7607749
            ],
            [
              4.8183895,
              50.7620584
            ],
            [
              4.8191749,
              50.7623447
            ],
            [
              4.8206891,
              50.76321
            ],
            [
              4.823655,
              50.7656987
            ],
            [
              4.8238341,
              50.766084
            ],
            [
              4.8250708,
              50.7669673
            ],
            [
              4.8264293,
              50.7668584
            ],
            [
              4.8272069,
              50.7677968
            ],
            [
              4.8279585,
              50.7684919
            ],
            [
              4.8294208,
              50.7700599
            ],
            [
              4.8297769,
              50.7701971
            ],
            [
              4.8307752,
              50.770242
            ],
            [
              4.8312268,
              50.7705171
            ],
            [
              4.831446,
              50.7707581
            ],
            [
              4.8317228,
              50.7711269
            ],
            [
              4.8317572,
              50.7713331
            ],
            [
              4.8320755,
              50.7713573
            ],
            [
              4.8325047,
              50.771575
            ],
            [
              4.8336276,
              50.771509
            ],
            [
              4.8340442,
              50.7712493
            ],
            [
              4.8385458,
              50.7728918
            ],
            [
              4.836345,
              50.7743185
            ],
            [
              4.837219,
              50.7746037
            ],
            [
              4.8368511,
              50.7749964
            ],
            [
              4.8363558,
              50.7748825
            ],
            [
              4.8362134,
              50.7749502
            ],
            [
              4.8360289,
              50.774895
            ],
            [
              4.8352333,
              50.7761991
            ],
            [
              4.8336297,
              50.775919
            ],
            [
              4.8323093,
              50.7755173
            ],
            [
              4.8321746,
              50.7754267
            ],
            [
              4.8316264,
              50.7744668
            ],
            [
              4.8310474,
              50.7744633
            ],
            [
              4.8305971,
              50.7743321
            ],
            [
              4.8287459,
              50.7768586
            ],
            [
              4.8283272,
              50.7772118
            ],
            [
              4.8264266,
              50.777208
            ],
            [
              4.8229422,
              50.7761705
            ],
            [
              4.8207765,
              50.7759604
            ],
            [
              4.819889,
              50.7759804
            ],
            [
              4.8176826,
              50.7763668
            ],
            [
              4.8158667,
              50.7765141
            ],
            [
              4.8143818,
              50.7764726
            ],
            [
              4.8122046,
              50.7762125
            ],
            [
              4.8124316,
              50.7774846
            ],
            [
              4.8093252,
              50.7809721
            ],
            [
              4.8094333,
              50.7810724
            ],
            [
              4.8074582,
              50.7865605
            ],
            [
              4.8073977,
              50.786911
            ],
            [
              4.8041438,
              50.7877813
            ],
            [
              4.8034069,
              50.788911
            ],
            [
              4.8030566,
              50.7892461
            ],
            [
              4.800527,
              50.7903789
            ],
            [
              4.8000424,
              50.7927733
            ],
            [
              4.7964572,
              50.7954721
            ],
            [
              4.7906539,
              50.7987344
            ],
            [
              4.786866,
              50.79955
            ],
            [
              4.7854958,
              50.7999337
            ],
            [
              4.7852319,
              50.7996962
            ],
            [
              4.7843353,
              50.799416
            ],
            [
              4.7822137,
              50.7997187
            ],
            [
              4.7819532,
              50.799892
            ],
            [
              4.7754306,
              50.8015508
            ],
            [
              4.7726817,
              50.8024906
            ],
            [
              4.766727,
              50.8040699
            ],
            [
              4.7663554,
              50.803775
            ],
            [
              4.7651545,
              50.8034251
            ],
            [
              4.7635172,
              50.8032031
            ],
            [
              4.7620069,
              50.8024927
            ],
            [
              4.7608546,
              50.803768
            ],
            [
              4.7604412,
              50.8045213
            ],
            [
              4.7602769,
              50.8049763
            ],
            [
              4.7600805,
              50.8066824
            ],
            [
              4.7582496,
              50.806714
            ],
            [
              4.7554633,
              50.8066134
            ],
            [
              4.7538544,
              50.806397
            ],
            [
              4.7526024,
              50.8065861
            ],
            [
              4.7509802,
              50.8070204
            ],
            [
              4.7486629,
              50.8072202
            ],
            [
              4.7477507,
              50.8071167
            ],
            [
              4.7457541,
              50.8054609
            ],
            [
              4.7450839,
              50.8054193
            ],
            [
              4.7435385,
              50.8043629
            ],
            [
              4.7428985,
              50.8040609
            ],
            [
              4.7420421,
              50.8038455
            ],
            [
              4.74176,
              50.8041222
            ],
            [
              4.7403857,
              50.804013
            ],
            [
              4.7391433,
              50.8043
            ],
            [
              4.7391659,
              50.8033755
            ],
            [
              4.7382644,
              50.8031918
            ],
            [
              4.7386546,
              50.8025897
            ],
            [
              4.7395118,
              50.8028579
            ],
            [
              4.7398807,
              50.8022179
            ],
            [
              4.739152,
              50.8019534
            ],
            [
              4.7388995,
              50.8022248
            ],
            [
              4.7380064,
              50.8020704
            ],
            [
              4.7375848,
              50.8025194
            ],
            [
              4.7364976,
              50.802239
            ],
            [
              4.7364361,
              50.8021396
            ],
            [
              4.7366776,
              50.8016189
            ],
            [
              4.7373885,
              50.8009003
            ],
            [
              4.7359988,
              50.8002589
            ],
            [
              4.7349237,
              50.8010621
            ],
            [
              4.7343429,
              50.8018138
            ],
            [
              4.7327239,
              50.8014962
            ],
            [
              4.7326206,
              50.8016034
            ],
            [
              4.7322058,
              50.8014135
            ],
            [
              4.7302284,
              50.802779
            ],
            [
              4.729821,
              50.8025769
            ],
            [
              4.7290295,
              50.8029845
            ],
            [
              4.7270443,
              50.8021218
            ],
            [
              4.7264971,
              50.8027672
            ],
            [
              4.7263408,
              50.8031133
            ],
            [
              4.7252298,
              50.80225
            ],
            [
              4.7255049,
              50.8020353
            ],
            [
              4.7238116,
              50.8010947
            ],
            [
              4.725891,
              50.7996797
            ],
            [
              4.7258357,
              50.7995013
            ],
            [
              4.7252085,
              50.7992182
            ],
            [
              4.7256469,
              50.7989829
            ],
            [
              4.7255677,
              50.7985572
            ],
            [
              4.7262561,
              50.7985006
            ],
            [
              4.7273154,
              50.7980444
            ],
            [
              4.7277576,
              50.797754
            ],
            [
              4.7272711,
              50.797436
            ],
            [
              4.7264607,
              50.7972078
            ],
            [
              4.7258367,
              50.7969195
            ],
            [
              4.7244502,
              50.7960011
            ],
            [
              4.7241556,
              50.7955766
            ],
            [
              4.7237304,
              50.7957765
            ],
            [
              4.7220744,
              50.7945796
            ],
            [
              4.7205791,
              50.7938108
            ],
            [
              4.7193976,
              50.7930864
            ],
            [
              4.720904,
              50.7920686
            ],
            [
              4.7196455,
              50.7911036
            ],
            [
              4.7197466,
              50.7910495
            ],
            [
              4.7184569,
              50.7900826
            ],
            [
              4.7175182,
              50.7899877
            ],
            [
              4.716869,
              50.7900626
            ],
            [
              4.7165553,
              50.7899596
            ],
            [
              4.7164697,
              50.7898912
            ],
            [
              4.7164283,
              50.7895949
            ],
            [
              4.7158808,
              50.7892727
            ],
            [
              4.7154852,
              50.7889177
            ],
            [
              4.7129177,
              50.7909358
            ],
            [
              4.7119737,
              50.7925768
            ],
            [
              4.7119156,
              50.7932001
            ],
            [
              4.7133253,
              50.7940334
            ],
            [
              4.7128497,
              50.7942628
            ],
            [
              4.711851,
              50.7956448
            ],
            [
              4.7114037,
              50.7958883
            ],
            [
              4.7104987,
              50.7961952
            ],
            [
              4.7104144,
              50.7957408
            ],
            [
              4.7102187,
              50.7956916
            ],
            [
              4.7103388,
              50.7952835
            ],
            [
              4.7101106,
              50.7945397
            ],
            [
              4.7094799,
              50.7934746
            ],
            [
              4.7090891,
              50.7931863
            ],
            [
              4.708275,
              50.7929101
            ],
            [
              4.7076454,
              50.7928736
            ],
            [
              4.7062598,
              50.7922012
            ],
            [
              4.704834,
              50.7912468
            ],
            [
              4.7037367,
              50.7907138
            ],
            [
              4.7031396,
              50.790325
            ],
            [
              4.7023728,
              50.7907445
            ],
            [
              4.7019021,
              50.7903997
            ],
            [
              4.7012968,
              50.790145
            ],
            [
              4.7000292,
              50.7900406
            ],
            [
              4.6995826,
              50.7899153
            ],
            [
              4.6988546,
              50.7893806
            ]
          ]
        ]
      },
      "properties": {
        "type": "boundary",
        "gemeente": "Beauvechain"
      }
    }
  ]
}