{"type":"FeatureCollection","metadata":{"gemeente":"Berlare","slug":"berlare","generated_at":"2026-09-26T10:41:00.436570Z","total_points":16,"providers":["bpost","DHL","GLS","InPost","PostNL","Amazon"],"bounds":[3.94063,51.017197,4.005821,51.05044]},"features":[{"type":"Feature","geometry":{"type":"Point","coordinates":[3.94774,51.03481]},"properties":{"type":"pakketpunt","locatieNaam":"Bbox 24/7 Brood&Desserts Nechelput","straatNaam":"Molenstraat","straatNr":"87","vervoerder":"bpost","puntType":"automaat","bezettingsgraad":50,"latitude":51.03481,"longitude":3.94774,"canPickup":true,"canDropoff":true,"openingstijden":null}},{"type":"Feature","geometry":{"type":"Point","coordinates":[3.97426,51.05044]},"properties":{"type":"pakketpunt","locatieNaam":"Total Berlare New","straatNaam":"Dendermondse Steenweg","straatNr":"67","vervoerder":"bpost","puntType":"servicepunt","bezettingsgraad":50,"latitude":51.05044,"longitude":3.97426,"canPickup":true,"canDropoff":true,"openingstijden":null}},{"type":"Feature","geometry":{"type":"Point","coordinates":[4.00557,51.02152]},"properties":{"type":"pakketpunt","locatieNaam":"Beirleirs Gazetje","straatNaam":"Frankrijkstraat","straatNr":"10","vervoerder":"bpost","puntType":"servicepunt","bezettingsgraad":50,"latitude":51.02152,"longitude":4.00557,"canPickup":true,"canDropoff":true,"openingstijden":null}},{"type":"Feature","geometry":{"type":"Point","coordinates":[4.00582,51.0172]},"properties":{"type":"pakketpunt","locatieNaam":"Berlare","straatNaam":"Emiel Hertecantlaan","straatNr":"43","vervoerder":"bpost","puntType":"postkantoor","bezettingsgraad":50,"latitude":51.0172,"longitude":4.00582,"canPickup":true,"canDropoff":true,"openingstijden":null}},{"type":"Feature","geometry":{"type":"Point","coordinates":[3.947744,51.034807]},"properties":{"type":"pakketpunt","locatieNaam":"BBOX 24/7 BROOD&DESSERTS NECHELPUT","straatNaam":"MOLENSTRAAT","straatNr":"87","vervoerder":"DHL","puntType":"packStation","bezettingsgraad":50,"latitude":51.034807,"longitude":3.947744,"canPickup":true,"canDropoff":true,"openingstijden":{"ma":"00:00 - 23:59","di":"00:00 - 23:59","wo":"00:00 - 23:59","do":"00:00 - 23:59","vr":"00:00 - 23:59","za":"00:00 - 23:59","zo":"00:00 - 23:59"}}},{"type":"Feature","geometry":{"type":"Point","coordinates":[4.005821,51.017197]},"properties":{"type":"pakketpunt","locatieNaam":"BERLARE","straatNaam":"EMIEL HERTECANTLAAN","straatNr":"43","vervoerder":"DHL","puntType":"postOffice","bezettingsgraad":50,"latitude":51.017197,"longitude":4.005821,"canPickup":true,"canDropoff":true,"openingstijden":{"ma":"09:30 - 12:30, 13:30 - 17:00","di":"09:30 - 12:30, 13:30 - 18:00","wo":"09:30 - 12:30, 13:30 - 17:00","do":"09:30 - 12:30, 13:30 - 18:00","vr":"09:30 - 12:30, 13:30 - 17:00","za":"09:30 - 13:00","zo":"gesloten"}}},{"type":"Feature","geometry":{"type":"Point","coordinates":[4.005567,51.021517]},"properties":{"type":"pakketpunt","locatieNaam":"BEIRLEIRS GAZETJE","straatNaam":"FRANKRIJKSTRAAT","straatNr":"10","vervoerder":"DHL","puntType":"parcelShop","bezettingsgraad":50,"latitude":51.021517,"longitude":4.005567,"canPickup":true,"canDropoff":true,"openingstijden":{"ma":"05:30 - 12:30","di":"05:30 - 12:30, 14:00 - 17:30","wo":"05:30 - 12:30, 14:00 - 17:30","do":"05:30 - 12:30, 14:00 - 17:30","vr":"05:30 - 12:30, 14:00 - 17:30","za":"08:00 - 17:00","zo":"gesloten"}}},{"type":"Feature","geometry":{"type":"Point","coordinates":[3.974265,51.050435]},"properties":{"type":"pakketpunt","locatieNaam":"TOTAL BERLARE NEW","straatNaam":"DENDERMONDSE STEENWEG","straatNr":"67","vervoerder":"DHL","puntType":"parcelShop","bezettingsgraad":50,"latitude":51.050435,"longitude":3.974265,"canPickup":true,"canDropoff":true,"openingstijden":{"ma":"06:00 - 19:00","di":"06:00 - 19:00","wo":"06:00 - 19:00","do":"06:00 - 19:00","vr":"06:00 - 19:00","za":"09:00 - 16:00","zo":"gesloten"}}},{"type":"Feature","geometry":{"type":"Point","coordinates":[4.00537,51.02142]},"properties":{"type":"pakketpunt","locatieNaam":"Se Service","straatNaam":"Frankrijkstraat","straatNr":"10","vervoerder":"GLS","puntType":"parcel_shop","bezettingsgraad":50,"latitude":51.02142,"longitude":4.00537,"canPickup":true,"canDropoff":true,"openingstijden":"vr: 06:00 - 12:00; za: 08:00 - 17:00"}},{"type":"Feature","geometry":{"type":"Point","coordinates":[3.94063,51.04488]},"properties":{"type":"pakketpunt","locatieNaam":"Jornavan","straatNaam":"Baron Tibbautstraat","straatNr":"46","vervoerder":"GLS","puntType":"parcel_shop","bezettingsgraad":50,"latitude":51.04488,"longitude":3.94063,"canPickup":true,"canDropoff":true,"openingstijden":"vr: 13:00 - 18:30; ma: 13:00 - 18:30"}},{"type":"Feature","geometry":{"type":"Point","coordinates":[4.00546,51.02145]},"properties":{"type":"pakketpunt","locatieNaam":"BEIRLEIRS GAZETJE","straatNaam":"Frankrijkstraat 10","straatNr":"","vervoerder":"InPost","puntType":"servicepunt","bezettingsgraad":50,"latitude":51.02145,"longitude":4.00546,"canPickup":true,"canDropoff":true,"openingstijden":null}},{"type":"Feature","geometry":{"type":"Point","coordinates":[4.00531,51.02145]},"properties":{"type":"pakketpunt","locatieNaam":"Beirleirs Gazetje","straatNaam":"Frankrijkstraat","straatNr":"10","vervoerder":"PostNL","puntType":"servicepunt","bezettingsgraad":50,"latitude":51.02145,"longitude":4.00531,"canPickup":true,"canDropoff":true,"openingstijden":"05:30 - 18:00"}},{"type":"Feature","geometry":{"type":"Point","coordinates":[4.005567,51.021517]},"properties":{"type":"pakketpunt","locatieNaam":"bpost - BEIRLEIRS GAZETJE","straatNaam":"FRANKRIJKSTRAAT,10","straatNr":"","vervoerder":"Amazon","puntType":"3p","bezettingsgraad":50,"latitude":51.021517,"longitude":4.005567,"canPickup":true,"canDropoff":false,"openingstijden":null}},{"type":"Feature","geometry":{"type":"Point","coordinates":[4.005821,51.017197]},"properties":{"type":"pakketpunt","locatieNaam":"bpost - BERLARE","straatNaam":"EMIEL HERTECANTLAAN,43","straatNr":"","vervoerder":"Amazon","puntType":"3p","bezettingsgraad":50,"latitude":51.017197,"longitude":4.005821,"canPickup":true,"canDropoff":false,"openingstijden":null}},{"type":"Feature","geometry":{"type":"Point","coordinates":[3.974265,51.050435]},"properties":{"type":"pakketpunt","locatieNaam":"bpost - TOTAL BERLARE NEW","straatNaam":"DENDERMONDSE STEENWEG,67","straatNr":"","vervoerder":"Amazon","puntType":"3p","bezettingsgraad":50,"latitude":51.050435,"longitude":3.974265,"canPickup":true,"canDropoff":false,"openingstijden":null}},{"type":"Feature","geometry":{"type":"Point","coordinates":[3.947744,51.034807]},"properties":{"type":"pakketpunt","locatieNaam":"bpost - BBOX 24/7 BROOD&DESSERTS NECHELPUT","straatNaam":"MOLENSTRAAT,87","straatNr":"","vervoerder":"Amazon","puntType":"3p","bezettingsgraad":50,"latitude":51.034807,"longitude":3.947744,"canPickup":true,"canDropoff":false,"openingstijden":null}},{"type":"Feature","geometry":{"type":"Polygon","coordinates":[[[3.9282181,51.0712889],[3.9718202,51.0739434],[3.972635,51.0717491],[3.97341,51.068012],[3.973279,51.067691],[3.972882,51.067447],[3.973882,51.065868],[3.974793,51.066158],[3.975863,51.065467],[3.977014,51.064033],[3.977899,51.062679],[3.979048,51.061473],[3.977739,51.060977],[3.98001,51.060012],[3.978931,51.059268],[3.9801332,51.0582266],[3.9788472,51.0575678],[3.9793683,51.0569982],[3.9805574,51.0562643],[3.9800924,51.0560679],[3.9792901,51.0555708],[3.9784738,51.0552298],[3.980244,51.0523277],[3.9799907,51.0521852],[3.9805003,51.0514855],[3.9820461,51.0524037],[3.9839621,51.0530658],[3.9863862,51.0534572],[3.9871677,51.0534418],[3.9884987,51.0536389],[3.9885498,51.0535778],[3.9898063,51.0536404],[3.9916598,51.0534715],[3.9924841,51.0533112],[3.9934483,51.0532683],[3.9951983,51.0530249],[3.9956283,51.0529048],[3.9955535,51.0527616],[3.996938,51.0524441],[3.9970499,51.0525405],[3.9980496,51.0519595],[4.0000358,51.0527246],[3.9998717,51.0528547],[3.9993601,51.0538378],[4.006671,51.055526],[4.009691,51.05606],[4.010494,51.055572],[4.010858,51.055141],[4.0121372,51.0525055],[4.013191,51.050666],[4.0132273,51.0503884],[4.0128308,51.0492666],[4.0113617,51.046043],[4.0106293,51.0441784],[4.0103821,51.043886],[4.010226,51.0438249],[4.0086037,51.0435549],[4.0086322,51.0434639],[4.0082438,51.0433918],[4.0082415,51.0432187],[4.0083804,51.0430348],[4.0085853,51.0424552],[4.0087116,51.0414106],[4.0080204,51.0389732],[4.0082435,51.0389277],[4.009116,51.0390565],[4.0125685,51.0398968],[4.026552,51.041667],[4.027167,51.040687],[4.029104,51.040859],[4.031804,51.040748],[4.032416,51.040126],[4.032082,51.03907],[4.03224,51.038185],[4.032628,51.037132],[4.033162,51.036941],[4.034196,51.035842],[4.034015,51.034641],[4.034131,51.034332],[4.03592,51.033977],[4.035543,51.033569],[4.037031,51.032878],[4.038515,51.032592],[4.039393,51.032115],[4.040225,51.0326],[4.040832,51.032745],[4.041306,51.030422],[4.041089,51.028911],[4.040412,51.027854],[4.040806,51.026031],[4.041464,51.024356],[4.04205,51.022224],[4.041422,51.019706],[4.039987,51.018482],[4.0392742,51.0179964],[4.038056,51.017398],[4.035365,51.016357],[4.032903,51.015296],[4.028776,51.013103],[4.022751,51.010524],[4.019769,51.007736],[4.01727,51.006481],[4.012982,51.005558],[4.00831,51.005043],[4.002688,51.004714],[3.9989953,51.0040288],[3.9985944,51.0046287],[3.9982972,51.0047206],[3.9978138,51.0053413],[3.9975657,51.0052147],[3.9971753,51.0052582],[3.9968485,51.0051643],[3.9966903,51.0053029],[3.9964857,51.0052097],[3.9963028,51.0054099],[3.9954306,51.0054396],[3.9952659,51.005561],[3.9948262,51.0056672],[3.9947252,51.0054261],[3.9926609,51.0045877],[3.9900911,51.005026],[3.9888419,51.0054964],[3.9884738,51.0058393],[3.9873459,51.0059126],[3.9864403,51.0060869],[3.9858492,51.0059579],[3.9855247,51.0060873],[3.9847475,51.0062072],[3.9838134,51.0065747],[3.9826011,51.0068477],[3.9823638,51.0065068],[3.9813755,51.0068009],[3.9811432,51.006987],[3.9809263,51.0073097],[3.9803654,51.007423],[3.9799973,51.0078364],[3.9793245,51.0082308],[3.9786886,51.0084398],[3.9785428,51.008557],[3.9781726,51.0093691],[3.9774695,51.0105329],[3.9774751,51.0107351],[3.9773029,51.0111242],[3.977348,51.0113423],[3.9771773,51.011497],[3.9772981,51.0116966],[3.9773201,51.0119184],[3.9769646,51.0122892],[3.9771254,51.01239],[3.977142,51.0125625],[3.9772997,51.0126035],[3.9771776,51.0130733],[3.9774129,51.0133256],[3.9772852,51.0135466],[3.9777654,51.0136736],[3.9776855,51.0139053],[3.9781272,51.0141482],[3.9790643,51.0155898],[3.9799261,51.0162115],[3.9807768,51.0171463],[3.9794363,51.0178728],[3.9799032,51.0180956],[3.9808822,51.0182274],[3.9812767,51.0184549],[3.9804886,51.0193371],[3.9800681,51.0200549],[3.9797377,51.0204144],[3.9797092,51.0206225],[3.979614,51.0207065],[3.9806857,51.0212533],[3.9809893,51.0217731],[3.9807692,51.0222345],[3.9807835,51.0230102],[3.9808726,51.0233392],[3.980723,51.0235502],[3.9801525,51.0234907],[3.9795756,51.0235599],[3.9795492,51.0237937],[3.9761543,51.0231257],[3.9744342,51.0230328],[3.9724299,51.0223399],[3.9709583,51.0215826],[3.9708245,51.0214696],[3.9707326,51.0212133],[3.9701796,51.0208678],[3.9699036,51.0204651],[3.9693788,51.0199497],[3.967398,51.0209147],[3.9663315,51.0212084],[3.9654455,51.0213442],[3.9643797,51.0213557],[3.9637956,51.0212666],[3.9628066,51.0209168],[3.9621152,51.0204179],[3.9616815,51.0199142],[3.9613399,51.0192268],[3.9610103,51.0177472],[3.9608235,51.0146879],[3.9605398,51.0140069],[3.9599017,51.0132657],[3.9578541,51.0118181],[3.9570935,51.0111776],[3.9567172,51.0105632],[3.9562239,51.0089797],[3.9558621,51.008613],[3.9553202,51.0082842],[3.95463,51.0080053],[3.9509618,51.0070048],[3.9503363,51.0066899],[3.9497343,51.0061951],[3.9493001,51.006502],[3.948795,51.0076393],[3.9472237,51.0074134],[3.946848,51.008186],[3.945308,51.008232],[3.941335,51.009315],[3.938928,51.010581],[3.935911,51.012977],[3.933642,51.011837],[3.930948,51.01332],[3.931875,51.014636],[3.933039,51.015144],[3.9335682,51.0165459],[3.933378,51.0168271],[3.9346228,51.0184058],[3.9347537,51.0189017],[3.9353509,51.019839],[3.9361057,51.0203773],[3.9363974,51.0207832],[3.9367964,51.0209461],[3.9385157,51.0222116],[3.939549,51.022811],[3.9407633,51.023206],[3.9415965,51.0246299],[3.9421751,51.0251309],[3.9420686,51.0255547],[3.9413686,51.0268398],[3.9422862,51.0270027],[3.9410273,51.0276959],[3.9426525,51.028682],[3.9434236,51.0297932],[3.942828,51.031345],[3.9414861,51.0333825],[3.9409321,51.0330295],[3.938092,51.0342594],[3.9382603,51.0345079],[3.9362313,51.0347721],[3.9357528,51.0360567],[3.9353818,51.0421898],[3.934503,51.046611],[3.932192,51.053398],[3.931691,51.054088],[3.931386,51.056137],[3.9307067,51.058169],[3.929786,51.06808],[3.9294272,51.0696968],[3.9291168,51.0704052],[3.9282181,51.0712889]]]},"properties":{"type":"boundary","gemeente":"Berlare"}}]}