{"type":"FeatureCollection","metadata":{"gemeente":"Beyne-Heusay","slug":"beyne-heusay","generated_at":"2026-09-29T08:27:08.205336Z","total_points":31,"providers":["bpost","DHL","GLS","InPost","VintedGo","PostNL","DPD","Amazon","FedEx"],"bounds":[5.64699,50.619506,5.67933,50.644293]},"features":[{"type":"Feature","geometry":{"type":"Point","coordinates":[5.64699,50.62535]},"properties":{"type":"pakketpunt","locatieNaam":"Bbox 24/7 Q8 Easy Beyne-Heusay","straatNaam":"Grand'Route","straatNr":"107","vervoerder":"bpost","puntType":"automaat","bezettingsgraad":50,"latitude":50.62535,"longitude":5.64699,"canPickup":true,"canDropoff":true,"openingstijden":null}},{"type":"Feature","geometry":{"type":"Point","coordinates":[5.65245,50.62383]},"properties":{"type":"pakketpunt","locatieNaam":"Librairie Anne Magis","straatNaam":"Rue De Jupille","straatNr":"24","vervoerder":"bpost","puntType":"servicepunt","bezettingsgraad":50,"latitude":50.62383,"longitude":5.65245,"canPickup":true,"canDropoff":true,"openingstijden":null}},{"type":"Feature","geometry":{"type":"Point","coordinates":[5.65365,50.62123]},"properties":{"type":"pakketpunt","locatieNaam":"Beyne-Heusay","straatNaam":"Rue Albert I","straatNr":"9","vervoerder":"bpost","puntType":"postkantoor","bezettingsgraad":50,"latitude":50.62123,"longitude":5.65365,"canPickup":true,"canDropoff":true,"openingstijden":null}},{"type":"Feature","geometry":{"type":"Point","coordinates":[5.66148,50.64429]},"properties":{"type":"pakketpunt","locatieNaam":"Pharmacie Tassin","straatNaam":"Rue Emile Vandervelde","straatNr":"473","vervoerder":"bpost","puntType":"servicepunt","bezettingsgraad":50,"latitude":50.64429,"longitude":5.66148,"canPickup":true,"canDropoff":true,"openingstijden":null}},{"type":"Feature","geometry":{"type":"Point","coordinates":[5.65796,50.62106]},"properties":{"type":"pakketpunt","locatieNaam":"Bbox Intermarché Beyne-Heusay","straatNaam":"Rue Albert I","straatNr":"43","vervoerder":"bpost","puntType":"automaat","bezettingsgraad":50,"latitude":50.62106,"longitude":5.65796,"canPickup":true,"canDropoff":true,"openingstijden":null}},{"type":"Feature","geometry":{"type":"Point","coordinates":[5.67933,50.63719]},"properties":{"type":"pakketpunt","locatieNaam":"Au Quotidien D’Emma","straatNaam":"Rue Emile Vandervelde","straatNr":"83","vervoerder":"bpost","puntType":"servicepunt","bezettingsgraad":50,"latitude":50.63719,"longitude":5.67933,"canPickup":true,"canDropoff":true,"openingstijden":null}},{"type":"Feature","geometry":{"type":"Point","coordinates":[5.679325,50.637188]},"properties":{"type":"pakketpunt","locatieNaam":"AU QUOTIDIEN D’EMMA","straatNaam":"RUE EMILE VANDERVELDE","straatNr":"83","vervoerder":"DHL","puntType":"parcelShop","bezettingsgraad":50,"latitude":50.637188,"longitude":5.679325,"canPickup":true,"canDropoff":true,"openingstijden":{"ma":"07:30 - 12:30, 13:30 - 17:00","di":"07:30 - 12:30, 13:30 - 17:00","wo":"07:30 - 12:30","do":"07:30 - 12:30, 13:30 - 17:00","vr":"07:30 - 12:30, 13:30 - 17:00","za":"08:00 - 12:30","zo":"gesloten"}}},{"type":"Feature","geometry":{"type":"Point","coordinates":[5.661481,50.644293]},"properties":{"type":"pakketpunt","locatieNaam":"PHARMACIE TASSIN","straatNaam":"RUE EMILE VANDERVELDE","straatNr":"473","vervoerder":"DHL","puntType":"parcelShop","bezettingsgraad":50,"latitude":50.644293,"longitude":5.661481,"canPickup":true,"canDropoff":true,"openingstijden":{"ma":"09:00 - 12:00, 14:00 - 18:00","di":"09:00 - 12:00, 14:00 - 18:00","wo":"09:00 - 12:00, 14:00 - 18:00","do":"09:00 - 12:00, 14:00 - 18:00","vr":"09:00 - 12:00, 14:00 - 18:00","za":"09:00 - 12:00","zo":"gesloten"}}},{"type":"Feature","geometry":{"type":"Point","coordinates":[5.653649,50.621233]},"properties":{"type":"pakketpunt","locatieNaam":"BEYNE-HEUSAY","straatNaam":"RUE ALBERT I","straatNr":"9","vervoerder":"DHL","puntType":"postOffice","bezettingsgraad":50,"latitude":50.621233,"longitude":5.653649,"canPickup":true,"canDropoff":true,"openingstijden":{"ma":"09:30 - 12:30, 13:30 - 17:00","di":"09:30 - 12:30, 13:30 - 18:00","wo":"09:30 - 12:30, 13:30 - 17:00","do":"09:30 - 12:30, 13:30 - 18:00","vr":"09:30 - 12:30, 13:30 - 17:00","za":"09:30 - 13:00","zo":"gesloten"}}},{"type":"Feature","geometry":{"type":"Point","coordinates":[5.657962,50.621061]},"properties":{"type":"pakketpunt","locatieNaam":"BBOX INTERMARCHÉ BEYNE-HEUSAY","straatNaam":"RUE ALBERT I","straatNr":"43","vervoerder":"DHL","puntType":"packStation","bezettingsgraad":50,"latitude":50.621061,"longitude":5.657962,"canPickup":true,"canDropoff":true,"openingstijden":{"ma":"00:00 - 23:59","di":"00:00 - 23:59","wo":"00:00 - 23:59","do":"00:00 - 23:59","vr":"00:00 - 23:59","za":"00:00 - 23:59","zo":"00:00 - 23:59"}}},{"type":"Feature","geometry":{"type":"Point","coordinates":[5.652451,50.623826]},"properties":{"type":"pakketpunt","locatieNaam":"LIBRAIRIE ANNE MAGIS","straatNaam":"RUE DE JUPILLE","straatNr":"24","vervoerder":"DHL","puntType":"parcelShop","bezettingsgraad":50,"latitude":50.623826,"longitude":5.652451,"canPickup":true,"canDropoff":true,"openingstijden":{"ma":"06:30 - 18:00","di":"06:30 - 18:00","wo":"06:30 - 18:00","do":"06:30 - 18:00","vr":"06:30 - 18:00","za":"07:00 - 18:00","zo":"gesloten"}}},{"type":"Feature","geometry":{"type":"Point","coordinates":[5.646994,50.625349]},"properties":{"type":"pakketpunt","locatieNaam":"BBOX 24/7 Q8 EASY BEYNE-HEUSAY","straatNaam":"GRAND'ROUTE","straatNr":"107","vervoerder":"DHL","puntType":"packStation","bezettingsgraad":50,"latitude":50.625349,"longitude":5.646994,"canPickup":true,"canDropoff":true,"openingstijden":{"ma":"00:00 - 23:59","di":"00:00 - 23:59","wo":"00:00 - 23:59","do":"00:00 - 23:59","vr":"00:00 - 23:59","za":"00:00 - 23:59","zo":"00:00 - 23:59"}}},{"type":"Feature","geometry":{"type":"Point","coordinates":[5.6524794,50.6239895]},"properties":{"type":"pakketpunt","locatieNaam":"Anne Magis","straatNaam":"Rue De Jupille","straatNr":"24","vervoerder":"GLS","puntType":"parcel_shop","bezettingsgraad":50,"latitude":50.6239895,"longitude":5.6524794,"canPickup":true,"canDropoff":true,"openingstijden":"di: 07:00 - 18:00; wo: 07:00 - 18:00"}},{"type":"Feature","geometry":{"type":"Point","coordinates":[5.65809,50.61951]},"properties":{"type":"pakketpunt","locatieNaam":"LIBRAIRIE DU BATY PLACE DU BATY 10","straatNaam":"PLACE DU BATY 10","straatNr":"","vervoerder":"InPost","puntType":"servicepunt","bezettingsgraad":50,"latitude":50.61951,"longitude":5.65809,"canPickup":true,"canDropoff":true,"openingstijden":null}},{"type":"Feature","geometry":{"type":"Point","coordinates":[5.65247,50.62382]},"properties":{"type":"pakketpunt","locatieNaam":"ANNE MAGIS","straatNaam":"Rue de Jupille 24","straatNr":"","vervoerder":"InPost","puntType":"servicepunt","bezettingsgraad":50,"latitude":50.62382,"longitude":5.65247,"canPickup":true,"canDropoff":true,"openingstijden":null}},{"type":"Feature","geometry":{"type":"Point","coordinates":[5.65635,50.621]},"properties":{"type":"pakketpunt","locatieNaam":"","straatNaam":"Rue Albert Ier","straatNr":"43","vervoerder":"InPost","puntType":"automaat","bezettingsgraad":50,"latitude":50.621,"longitude":5.65635,"canPickup":true,"canDropoff":true,"openingstijden":"24/7"}},{"type":"Feature","geometry":{"type":"Point","coordinates":[5.65249016,50.62383299]},"properties":{"type":"pakketpunt","locatieNaam":"Librairie Anne Magis ","straatNaam":"Rue des Jupilles","straatNr":"24","vervoerder":"VintedGo","puntType":"parcel_shop","bezettingsgraad":50,"latitude":50.62383299,"longitude":5.65249016,"canPickup":true,"canDropoff":true,"openingstijden":null}},{"type":"Feature","geometry":{"type":"Point","coordinates":[5.65817,50.61955]},"properties":{"type":"pakketpunt","locatieNaam":"La Librairie Du Baty ","straatNaam":"Place du Baty","straatNr":"10","vervoerder":"VintedGo","puntType":"parcel_shop","bezettingsgraad":50,"latitude":50.61955,"longitude":5.65817,"canPickup":true,"canDropoff":true,"openingstijden":null}},{"type":"Feature","geometry":{"type":"Point","coordinates":[5.6564608,50.6208578]},"properties":{"type":"pakketpunt","locatieNaam":"Intermarché","straatNaam":"Rue Albert Ier","straatNr":"43","vervoerder":"VintedGo","puntType":"locker","bezettingsgraad":50,"latitude":50.6208578,"longitude":5.6564608,"canPickup":true,"canDropoff":true,"openingstijden":null}},{"type":"Feature","geometry":{"type":"Point","coordinates":[5.65251,50.62379]},"properties":{"type":"pakketpunt","locatieNaam":"Anne Magis SRL","straatNaam":"Rue de Jupille","straatNr":"24","vervoerder":"PostNL","puntType":"servicepunt","bezettingsgraad":50,"latitude":50.62379,"longitude":5.65251,"canPickup":true,"canDropoff":true,"openingstijden":"07:00 - 18:00"}},{"type":"Feature","geometry":{"type":"Point","coordinates":[5.658175,50.619553]},"properties":{"type":"pakketpunt","locatieNaam":"Librairie du Baty","straatNaam":"Place du Baty","straatNr":"10","vervoerder":"PostNL","puntType":"servicepunt","bezettingsgraad":50,"latitude":50.619553,"longitude":5.658175,"canPickup":true,"canDropoff":true,"openingstijden":"06:30 - 18:30"}},{"type":"Feature","geometry":{"type":"Point","coordinates":[5.65249,50.62381]},"properties":{"type":"pakketpunt","locatieNaam":"LIBRARIE MAGIS","straatNaam":"RUE DE JUPILLE","straatNr":"24","vervoerder":"DPD","puntType":"pickup_point","bezettingsgraad":50,"latitude":50.62381,"longitude":5.65249,"canPickup":true,"canDropoff":true,"openingstijden":{"ma":"07:00 - 18:00","di":"07:00 - 18:00","wo":"07:00 - 18:00","do":"07:00 - 18:00","vr":"07:00 - 18:00","za":"07:00 - 13:00","zo":"gesloten"}}},{"type":"Feature","geometry":{"type":"Point","coordinates":[5.67927,50.63712]},"properties":{"type":"pakketpunt","locatieNaam":"AU QUOTIDIEN D'EMMA","straatNaam":"RUE EMILE VANDERVELDE","straatNr":"83","vervoerder":"DPD","puntType":"pickup_point","bezettingsgraad":50,"latitude":50.63712,"longitude":5.67927,"canPickup":true,"canDropoff":true,"openingstijden":{"ma":"gesloten","di":"08:00 - 12:00, 14:00 - 17:00","wo":"08:00 - 12:00","do":"08:00 - 12:00, 14:00 - 17:00","vr":"08:00 - 12:00, 14:00 - 17:00","za":"08:00 - 12:00","zo":"gesloten"}}},{"type":"Feature","geometry":{"type":"Point","coordinates":[5.657962,50.621061]},"properties":{"type":"pakketpunt","locatieNaam":"bpost - BBOX INTERMARCHÉ BEYNE-HEUSAY","straatNaam":"RUE ALBERT I,43","straatNr":"","vervoerder":"Amazon","puntType":"3p","bezettingsgraad":50,"latitude":50.621061,"longitude":5.657962,"canPickup":true,"canDropoff":false,"openingstijden":null}},{"type":"Feature","geometry":{"type":"Point","coordinates":[5.653649,50.621233]},"properties":{"type":"pakketpunt","locatieNaam":"bpost - BEYNE-HEUSAY","straatNaam":"RUE ALBERT I,9","straatNr":"","vervoerder":"Amazon","puntType":"3p","bezettingsgraad":50,"latitude":50.621233,"longitude":5.653649,"canPickup":true,"canDropoff":false,"openingstijden":null}},{"type":"Feature","geometry":{"type":"Point","coordinates":[5.652451,50.623826]},"properties":{"type":"pakketpunt","locatieNaam":"bpost - LIBRAIRIE ANNE MAGIS","straatNaam":"RUE DE JUPILLE,24","straatNr":"","vervoerder":"Amazon","puntType":"3p","bezettingsgraad":50,"latitude":50.623826,"longitude":5.652451,"canPickup":true,"canDropoff":false,"openingstijden":null}},{"type":"Feature","geometry":{"type":"Point","coordinates":[5.646994,50.625349]},"properties":{"type":"pakketpunt","locatieNaam":"bpost - BBOX 24/7 Q8 EASY BEYNE-HEUSAY","straatNaam":"GRAND'ROUTE,107","straatNr":"","vervoerder":"Amazon","puntType":"3p","bezettingsgraad":50,"latitude":50.625349,"longitude":5.646994,"canPickup":true,"canDropoff":false,"openingstijden":null}},{"type":"Feature","geometry":{"type":"Point","coordinates":[5.679325,50.637188]},"properties":{"type":"pakketpunt","locatieNaam":"bpost - AU QUOTIDIEN D’EMMA","straatNaam":"RUE EMILE VANDERVELDE,83","straatNr":"","vervoerder":"Amazon","puntType":"3p","bezettingsgraad":50,"latitude":50.637188,"longitude":5.679325,"canPickup":true,"canDropoff":false,"openingstijden":null}},{"type":"Feature","geometry":{"type":"Point","coordinates":[5.661481,50.644293]},"properties":{"type":"pakketpunt","locatieNaam":"bpost - PHARMACIE TASSIN","straatNaam":"RUE EMILE VANDERVELDE,473","straatNr":"","vervoerder":"Amazon","puntType":"3p","bezettingsgraad":50,"latitude":50.644293,"longitude":5.661481,"canPickup":true,"canDropoff":false,"openingstijden":null}},{"type":"Feature","geometry":{"type":"Point","coordinates":[5.658092,50.619506]},"properties":{"type":"pakketpunt","locatieNaam":"FedEx OnSite","straatNaam":"PLACE DU BATY 10","straatNr":"","vervoerder":"FedEx","puntType":"servicepunt","bezettingsgraad":50,"latitude":50.619506,"longitude":5.658092,"canPickup":true,"canDropoff":true,"openingstijden":{"ma":"06:30 - 18:30","di":"06:30 - 18:30","wo":"06:30 - 18:30","do":"06:30 - 18:30","vr":"06:30 - 18:30","za":"06:30 - 18:30","zo":"10:30 - 15:00"}}},{"type":"Feature","geometry":{"type":"Point","coordinates":[5.652469,50.623819]},"properties":{"type":"pakketpunt","locatieNaam":"FedEx OnSite","straatNaam":"RUE DE JUPILLE 24","straatNr":"","vervoerder":"FedEx","puntType":"servicepunt","bezettingsgraad":50,"latitude":50.623819,"longitude":5.652469,"canPickup":true,"canDropoff":true,"openingstijden":{"ma":"07:00 - 18:00","di":"07:00 - 18:00","wo":"07:00 - 18:00","do":"07:00 - 18:00","vr":"07:00 - 18:00","za":"07:00 - 13:00","zo":"gesloten"}}},{"type":"Feature","geometry":{"type":"Polygon","coordinates":[[[5.6383172,50.6253853],[5.6383975,50.6255316],[5.637715,50.6256824],[5.6368706,50.6259933],[5.6359207,50.6266084],[5.6388538,50.6261734],[5.6390399,50.6267326],[5.6392554,50.6268244],[5.639251,50.626747],[5.6395131,50.6266014],[5.6401498,50.6265022],[5.6401161,50.6263679],[5.6402601,50.6263521],[5.6402968,50.6264846],[5.6417392,50.6262783],[5.6416936,50.6261558],[5.6418781,50.6261244],[5.6419273,50.6262486],[5.6427017,50.6261357],[5.6427475,50.6262679],[5.6443525,50.6260243],[5.6448943,50.6285986],[5.6454055,50.6293803],[5.6439916,50.6304152],[5.6447782,50.6307446],[5.6457792,50.6308869],[5.6457509,50.631194],[5.6463688,50.6312489],[5.6469619,50.6309255],[5.6476963,50.6313387],[5.6495888,50.6318239],[5.6494476,50.6313029],[5.6500408,50.6308896],[5.6502385,50.6299913],[5.6512836,50.6300452],[5.6514419,50.6297992],[5.6525742,50.6298913],[5.6526286,50.6292466],[5.6529599,50.6292697],[5.6546181,50.6298969],[5.655023,50.6299512],[5.6566195,50.6296572],[5.6573,50.6300093],[5.656848,50.6306201],[5.6566503,50.6315723],[5.6567633,50.6324706],[5.6586491,50.6326756],[5.6586887,50.6339614],[5.6603784,50.6351745],[5.6616899,50.6343546],[5.6624016,50.6349301],[5.6621314,50.6351089],[5.6633729,50.6357764],[5.6629492,50.6361717],[5.6624408,50.6359202],[5.6618194,50.6362615],[5.6621301,50.6365669],[5.6616216,50.6369263],[5.6617911,50.63707],[5.6605483,50.6373934],[5.6601246,50.6373216],[5.6588818,50.6387229],[5.6584016,50.6388127],[5.6583451,50.6390104],[5.6578084,50.6388127],[5.6573,50.6392623],[5.6579766,50.6395253],[5.6573699,50.6400724],[5.6582995,50.6406377],[5.6575022,50.6412622],[5.656909,50.6409716],[5.6550121,50.642101],[5.6555502,50.6428621],[5.6551394,50.6430982],[5.655156,50.6433387],[5.654296,50.6435016],[5.6540669,50.6434803],[5.6527533,50.6428252],[5.6522772,50.6427393],[5.6519767,50.6427853],[5.6519026,50.6429814],[5.6514531,50.6430173],[5.6515943,50.6436821],[5.6511142,50.6436461],[5.6507469,50.6439874],[5.6512554,50.6448319],[5.651948,50.6448851],[5.6533503,50.645389],[5.6536471,50.6455703],[5.6547154,50.6466094],[5.6553512,50.6476023],[5.6539446,50.6485399],[5.6544609,50.6490691],[5.6546325,50.649468],[5.6549087,50.6496798],[5.6564196,50.650673],[5.6573781,50.6508573],[5.6575533,50.6506587],[5.6578006,50.6505463],[5.6590435,50.6503411],[5.6593259,50.6501646],[5.6595506,50.6498497],[5.6592661,50.6497882],[5.6592538,50.6495726],[5.6595547,50.6490002],[5.6597361,50.6489165],[5.6610674,50.6487561],[5.6619455,50.6477631],[5.6620257,50.6472436],[5.6629924,50.6472331],[5.6639261,50.6467195],[5.6647457,50.646509],[5.6646484,50.6463544],[5.6647677,50.6462528],[5.6648206,50.6460326],[5.6656649,50.6458848],[5.6664243,50.6462424],[5.6681578,50.646545],[5.6688531,50.6455958],[5.669094,50.6448683],[5.6696661,50.6448156],[5.6706878,50.6442755],[5.6723426,50.6423424],[5.6743043,50.6402692],[5.675213,50.6402235],[5.676023,50.6398584],[5.6813167,50.6379889],[5.6818616,50.6379253],[5.6817979,50.6378229],[5.682237,50.6377019],[5.6819582,50.6373612],[5.6821766,50.6365488],[5.6824139,50.636512],[5.6821192,50.6358329],[5.6824913,50.6353383],[5.6824543,50.6352916],[5.6826406,50.6352188],[5.6821297,50.634606],[5.6824194,50.6345643],[5.6827372,50.6336414],[5.6830226,50.6323822],[5.6834209,50.6319274],[5.6849098,50.631115],[5.6855294,50.6306488],[5.6860685,50.6301282],[5.6883162,50.6283205],[5.689019,50.627485],[5.6897378,50.6268393],[5.6907544,50.6261331],[5.6927985,50.6252559],[5.6932717,50.6247735],[5.6936097,50.6240837],[5.69086,50.623607],[5.6905511,50.6240077],[5.6897954,50.6244405],[5.6883114,50.6249302],[5.6868038,50.6255919],[5.6850849,50.6261669],[5.6845972,50.6264315],[5.6842054,50.6267969],[5.6831154,50.627315],[5.6811493,50.6277832],[5.6793945,50.6284711],[5.6776096,50.6287899],[5.6764501,50.6293608],[5.676147,50.6293642],[5.6761175,50.6295293],[5.6751975,50.6297488],[5.6749365,50.6298992],[5.6745699,50.6299512],[5.673776,50.6297964],[5.673725,50.6296637],[5.6734702,50.6297658],[5.6730462,50.6297981],[5.6727177,50.6293845],[5.6728064,50.6290648],[5.6727104,50.6285759],[5.6727514,50.6281664],[5.6725666,50.6277426],[5.6722129,50.6275456],[5.6721465,50.6271149],[5.6717965,50.6269124],[5.6717402,50.6267797],[5.6719789,50.6265347],[5.6719824,50.6263793],[5.6722536,50.6260267],[5.672754,50.6257962],[5.6731193,50.6241998],[5.6730705,50.6239194],[5.6695086,50.622456],[5.6691331,50.6226942],[5.6689136,50.6226198],[5.6700557,50.621908],[5.6706405,50.6212886],[5.6721472,50.6201726],[5.673198,50.6188711],[5.6705037,50.6178],[5.6688353,50.6162794],[5.6688179,50.6161875],[5.6732851,50.6155035],[5.6729123,50.6151484],[5.6719821,50.6145122],[5.6708814,50.6139225],[5.6683355,50.6129212],[5.66724,50.6135996],[5.6642994,50.6151798],[5.6626802,50.6158879],[5.6622917,50.615634],[5.6620534,50.6151114],[5.6611625,50.6151437],[5.660782,50.6153033],[5.6603676,50.6152795],[5.659593,50.6153926],[5.6588601,50.6152308],[5.6587449,50.6150463],[5.6581364,50.6149867],[5.657444,50.6147196],[5.6568089,50.6142941],[5.6556651,50.6140205],[5.6555884,50.6136651],[5.6550118,50.6133204],[5.6545714,50.6132525],[5.6544401,50.6133514],[5.6539783,50.6130602],[5.6528735,50.6132882],[5.6522244,50.6132456],[5.6509088,50.6126465],[5.6508028,50.61249],[5.6509566,50.6123556],[5.6506974,50.6119543],[5.6500601,50.6118936],[5.6491947,50.6116086],[5.6479722,50.6118102],[5.6467748,50.6121219],[5.6464855,50.6119693],[5.6460437,50.6115724],[5.6450783,50.6115814],[5.6442162,50.6112398],[5.6436586,50.611115],[5.6430706,50.6112655],[5.6422889,50.6112261],[5.6416583,50.6113046],[5.6431212,50.6120707],[5.643821,50.6129242],[5.6444085,50.6140814],[5.6445776,50.6142376],[5.6445744,50.6143648],[5.644272,50.6144179],[5.6428689,50.6143239],[5.6419219,50.614433],[5.6410948,50.6147398],[5.6415028,50.615093],[5.6380362,50.6160486],[5.6363979,50.6167493],[5.6386011,50.6180967],[5.637556,50.6189592],[5.6379797,50.6192106],[5.6374713,50.6193724],[5.637669,50.619588],[5.6381492,50.6205047],[5.6402959,50.6205406],[5.6414539,50.6209179],[5.6413409,50.621942],[5.6416517,50.6222115],[5.6401055,50.6234871],[5.6396636,50.6244315],[5.6389984,50.6252579],[5.6383172,50.6253853]]]},"properties":{"type":"boundary","gemeente":"Beyne-Heusay"}}]}