{
  "type": "FeatureCollection",
  "metadata": {
    "gemeente": "Bierbeek",
    "slug": "bierbeek",
    "generated_at": "2026-09-25T22:11:35.295557Z",
    "total_points": 9,
    "providers": [
      "bpost",
      "DHL",
      "InPost",
      "PostNL",
      "DPD",
      "Amazon"
    ],
    "bounds": [
      4.758568,
      50.82789,
      4.788111,
      50.86232
    ]
  },
  "features": [
    {
      "type": "Feature",
      "geometry": {
        "type": "Point",
        "coordinates": [
          4.75857,
          50.86024
        ]
      },
      "properties": {
        "type": "pakketpunt",
        "locatieNaam": "Bierbeek",
        "straatNaam": "Vengerstraat",
        "straatNr": "68",
        "vervoerder": "bpost",
        "puntType": "postkantoor",
        "bezettingsgraad": 50,
        "latitude": 50.86024,
        "longitude": 4.75857,
        "canPickup": true,
        "canDropoff": true,
        "openingstijden": null
      }
    },
    {
      "type": "Feature",
      "geometry": {
        "type": "Point",
        "coordinates": [
          4.78811,
          50.84339
        ]
      },
      "properties": {
        "type": "pakketpunt",
        "locatieNaam": "Bbox 24/7 Delhaize Lovenjoel",
        "straatNaam": "Bruulstraat",
        "straatNr": "100",
        "vervoerder": "bpost",
        "puntType": "automaat",
        "bezettingsgraad": 50,
        "latitude": 50.84339,
        "longitude": 4.78811,
        "canPickup": true,
        "canDropoff": true,
        "openingstijden": null
      }
    },
    {
      "type": "Feature",
      "geometry": {
        "type": "Point",
        "coordinates": [
          4.788111,
          50.843389
        ]
      },
      "properties": {
        "type": "pakketpunt",
        "locatieNaam": "BBOX 24/7 DELHAIZE LOVENJOEL",
        "straatNaam": "BRUULSTRAAT",
        "straatNr": "100",
        "vervoerder": "DHL",
        "puntType": "packStation",
        "bezettingsgraad": 50,
        "latitude": 50.843389,
        "longitude": 4.788111,
        "canPickup": true,
        "canDropoff": true,
        "openingstijden": {
          "ma": "00:00 - 23:59",
          "di": "00:00 - 23:59",
          "wo": "00:00 - 23:59",
          "do": "00:00 - 23:59",
          "vr": "00:00 - 23:59",
          "za": "00:00 - 23:59",
          "zo": "00:00 - 23:59"
        }
      }
    },
    {
      "type": "Feature",
      "geometry": {
        "type": "Point",
        "coordinates": [
          4.758568,
          50.860238
        ]
      },
      "properties": {
        "type": "pakketpunt",
        "locatieNaam": "BIERBEEK",
        "straatNaam": "VENGERSTRAAT",
        "straatNr": "68",
        "vervoerder": "DHL",
        "puntType": "postOffice",
        "bezettingsgraad": 50,
        "latitude": 50.860238,
        "longitude": 4.758568,
        "canPickup": true,
        "canDropoff": true,
        "openingstijden": {
          "ma": "09:30 - 12:30, 13:45 - 17:00",
          "di": "09:30 - 12:30, 13:45 - 18:00",
          "wo": "09:30 - 12:30, 13:45 - 17:00",
          "do": "09:30 - 12:30, 13:45 - 18:00",
          "vr": "09:30 - 12:30, 13:45 - 17:00",
          "za": "gesloten",
          "zo": "gesloten"
        }
      }
    },
    {
      "type": "Feature",
      "geometry": {
        "type": "Point",
        "coordinates": [
          4.75899,
          50.82789
        ]
      },
      "properties": {
        "type": "pakketpunt",
        "locatieNaam": "LOUIS DELHAIZE BIERBEEK",
        "straatNaam": "DORPSSTRAAT 27",
        "straatNr": "",
        "vervoerder": "InPost",
        "puntType": "servicepunt",
        "bezettingsgraad": 50,
        "latitude": 50.82789,
        "longitude": 4.75899,
        "canPickup": true,
        "canDropoff": true,
        "openingstijden": null
      }
    },
    {
      "type": "Feature",
      "geometry": {
        "type": "Point",
        "coordinates": [
          4.7704570846566,
          50.8608169581655
        ]
      },
      "properties": {
        "type": "pakketpunt",
        "locatieNaam": "Dier Plus",
        "straatNaam": "Tiensesteenweg",
        "straatNr": "187",
        "vervoerder": "PostNL",
        "puntType": "servicepunt",
        "bezettingsgraad": 50,
        "latitude": 50.8608169581655,
        "longitude": 4.7704570846566,
        "canPickup": true,
        "canDropoff": true,
        "openingstijden": "10:00 - 18:00"
      }
    },
    {
      "type": "Feature",
      "geometry": {
        "type": "Point",
        "coordinates": [
          4.76273,
          50.86232
        ]
      },
      "properties": {
        "type": "pakketpunt",
        "locatieNaam": "MANTRA MARKET",
        "straatNaam": "TIENSESTEENWEG",
        "straatNr": "114",
        "vervoerder": "DPD",
        "puntType": "pickup_point",
        "bezettingsgraad": 50,
        "latitude": 50.86232,
        "longitude": 4.76273,
        "canPickup": true,
        "canDropoff": false,
        "openingstijden": {
          "ma": "gesloten",
          "di": "08:00 - 18:00",
          "wo": "08:00 - 18:00",
          "do": "08:00 - 18:00",
          "vr": "08:00 - 18:00",
          "za": "08:00 - 18:00",
          "zo": "08:00 - 18:00"
        }
      }
    },
    {
      "type": "Feature",
      "geometry": {
        "type": "Point",
        "coordinates": [
          4.788111,
          50.843389
        ]
      },
      "properties": {
        "type": "pakketpunt",
        "locatieNaam": "bpost - BBOX 24/7 DELHAIZE LOVENJOEL",
        "straatNaam": "BRUULSTRAAT,100",
        "straatNr": "",
        "vervoerder": "Amazon",
        "puntType": "3p",
        "bezettingsgraad": 50,
        "latitude": 50.843389,
        "longitude": 4.788111,
        "canPickup": true,
        "canDropoff": false,
        "openingstijden": null
      }
    },
    {
      "type": "Feature",
      "geometry": {
        "type": "Point",
        "coordinates": [
          4.758568,
          50.860238
        ]
      },
      "properties": {
        "type": "pakketpunt",
        "locatieNaam": "bpost - BIERBEEK",
        "straatNaam": "VENGERSTRAAT,68",
        "straatNr": "",
        "vervoerder": "Amazon",
        "puntType": "3p",
        "bezettingsgraad": 50,
        "latitude": 50.860238,
        "longitude": 4.758568,
        "canPickup": true,
        "canDropoff": false,
        "openingstijden": null
      }
    },
    {
      "type": "Feature",
      "geometry": {
        "type": "MultiPolygon",
        "coordinates": [
          [
            [
              [
                4.763057994183271,
                50.82709318019861
              ],
              [
                4.762915082343051,
                50.8268444794542
              ],
              [
                4.7627343723273095,
                50.826605848035896
              ],
              [
                4.762517604903705,
                50.82637958392666
              ],
              [
                4.7622668679792906,
                50.82616786598242
              ],
              [
                4.761984576480598,
                50.825972732955826
              ],
              [
                4.761673449089162,
                50.82579606386996
              ],
              [
                4.761336482056836,
                50.82563955993048
              ],
              [
                4.760976920353129,
                50.82550472815036
              ],
              [
                4.760598226422338,
                50.825392866844425
              ],
              [
                4.76020404685106,
                50.82530505313315
              ],
              [
                4.759798177266584,
                50.825242132575646
              ],
              [
                4.759384525803589,
                50.82520471103177
              ],
              [
                4.758967075490143,
                50.825193148831154
              ],
              [
                4.758549845914404,
                50.825207557305276
              ],
              [
                4.758136854540153,
                50.82524779771608
              ],
              [
                4.757732078042755,
                50.82531348259119
              ],
              [
                4.757339414036857,
                50.825403979452936
              ],
              [
                4.756962643563439,
                50.825518416905574
              ],
              [
                4.7566053946966225,
                50.825655693021886
              ],
              [
                4.756271107619912,
                50.82581448594893
              ],
              [
                4.75596300150758,
                50.82599326663091
              ],
              [
                4.755684043529681,
                50.826190313526766
              ],
              [
                4.755436920278893,
                50.82640372918136
              ],
              [
                4.7552240118943,
                50.82663145849081
              ],
              [
                4.75504736913139,
                50.82687130848633
              ],
              [
                4.754908693599431,
                50.827120969446455
              ],
              [
                4.7548093213570315,
                50.82737803713455
              ],
              [
                4.754750210024511,
                50.82764003594781
              ],
              [
                4.754731929538007,
                50.82790444275479
              ],
              [
                4.7547546566352565,
                50.82816871119225
              ],
              [
                4.754818173127119,
                50.82843029618723
              ],
              [
                4.754921867972532,
                50.82868667846848
              ],
              [
                4.755064743137893,
                50.828935388830885
              ],
              [
                4.755245423185448,
                50.829174031919194
              ],
              [
                4.755462168499196,
                50.829400309301995
              ],
              [
                4.755712892021752,
                50.82961204161326
              ],
              [
                4.755995179341612,
                50.82980718954817
              ],
              [
                4.7563063119378315,
                50.82998387351079
              ],
              [
                4.756643293358539,
                50.83014039172373
              ],
              [
                4.75700287808129,
                50.83027523662549
              ],
              [
                4.757381602777177,
                50.83038710939696
              ],
              [
                4.757775819677317,
                50.830474932477124
              ],
              [
                4.758181731719896,
                50.830537859946766
              ],
              [
                4.758595429138591,
                50.83057528568041
              ],
              [
                4.759012927139285,
                50.83058684918746
              ],
              [
                4.759430204301226,
                50.83057243908618
              ],
              [
                4.759843241331917,
                50.830532194177174
              ],
              [
                4.760248059801447,
                50.8304665021057
              ],
              [
                4.760640760482202,
                50.830375995625936
              ],
              [
                4.761017560923808,
                50.830261546503266
              ],
              [
                4.76137483190048,
                50.830124257113404
              ],
              [
                4.761709132379048,
                50.82996544981933
              ],
              [
                4.762017242670213,
                50.82978665422903
              ],
              [
                4.762296195443329,
                50.82958959245645
              ],
              [
                4.762543304305734,
                50.82937616252839
              ],
              [
                4.7627561896712844,
                50.82914842009731
              ],
              [
                4.762932801669098,
                50.82890855863623
              ],
              [
                4.763071439872195,
                50.828658888307245
              ],
              [
                4.763170769656492,
                50.828401813706996
              ],
              [
                4.763229835033312,
                50.828139810703945
              ],
              [
                4.763248067832568,
                50.82787540259054
              ],
              [
                4.763225293149119,
                50.82761113578025
              ],
              [
                4.763161731000815,
                50.82734955528348
              ],
              [
                4.763057994183271,
                50.82709318019861
              ]
            ]
          ],
          [
            [
              [
                4.79217984138071,
                50.84259117315383
              ],
              [
                4.792036728383912,
                50.84234250898439
              ],
              [
                4.79185581099345,
                50.842103923486434
              ],
              [
                4.79163883197398,
                50.841877714200606
              ],
              [
                4.791387881270069,
                50.841666059454745
              ],
              [
                4.791105375866668,
                50.84147099739281
              ],
              [
                4.790794036504834,
                50.841294406354415
              ],
              [
                4.790456861477222,
                50.84113798679356
              ],
              [
                4.790097097755797,
                50.841003244910645
              ],
              [
                4.789718209729705,
                50.8408914781548
              ],
              [
                4.789323845854081,
                50.84080376273602
              ],
              [
                4.788917803530472,
                50.84074094326692
              ],
              [
                4.788503992556477,
                50.840703624633996
              ],
              [
                4.788086397495754,
                50.84069216617587
              ],
              [
                4.787669039329956,
                50.840706678225146
              ],
              [
                4.787255936760868,
                50.84074702104644
              ],
              [
                4.786851067534445,
                50.840812806181276
              ],
              [
                4.786458330158231,
                50.8409034001866
              ],
              [
                4.786081506379801,
                50.84101793073123
              ],
              [
                4.785724224786771,
                50.84115529499159
              ],
              [
                4.785389925878086,
                50.84131417026593
              ],
              [
                4.7850818289423565,
                50.84149302670547
              ],
              [
                4.784802901061764,
                50.84169014203962
              ],
              [
                4.784555828539719,
                50.841903618154156
              ],
              [
                4.784555169400701,
                50.8419043235765
              ],
              [
                4.784554828495694,
                50.84190461812424
              ],
              [
                4.784341990974015,
                50.84213239933108
              ],
              [
                4.78416543853623,
                50.84237229216377
              ],
              [
                4.784026871922434,
                50.842621986488155
              ],
              [
                4.783927626142986,
                50.84287907774625
              ],
              [
                4.783868657600951,
                50.843141090108055
              ],
              [
                4.783850534857904,
                50.84340550031152
              ],
              [
                4.783873433132928,
                50.84366976196049
              ],
              [
                4.783937132588737,
                50.84393133004726
              ],
              [
                4.784041020422498,
                50.84418768546324
              ],
              [
                4.784184096742165,
                50.84443635926185
              ],
              [
                4.784364984172757,
                50.84467495643984
              ],
              [
                4.784581941100923,
                50.84490117900783
              ],
              [
                4.784832878431048,
                50.84511284812756
              ],
              [
                4.78511537969215,
                50.84530792510276
              ],
              [
                4.785426724302416,
                50.845484531020794
              ],
              [
                4.785763913767575,
                50.84564096485591
              ],
              [
                4.786123700560946,
                50.84577571985919
              ],
              [
                4.786502619406882,
                50.84588749807744
              ],
              [
                4.786897020666019,
                50.845975222860275
              ],
              [
                4.787303105500373,
                50.84603804923526
              ],
              [
                4.787716962478891,
                50.84607537205068
              ],
              [
                4.788134605270216,
                50.8460868318072
              ],
              [
                4.788552011058684,
                50.84607231812249
              ],
              [
                4.7889651593126645,
                50.84603197079486
              ],
              [
                4.789370070530831,
                50.84596617845608
              ],
              [
                4.789762844592212,
                50.84587557482613
              ],
              [
                4.790139698339736,
                50.84576103260615
              ],
              [
                4.790497002034395,
                50.845623655068515
              ],
              [
                4.790831314328194,
                50.845464765425255
              ],
              [
                4.791139415418438,
                50.845285894077485
              ],
              [
                4.791418338063592,
                50.84508876386876
              ],
              [
                4.791665396161732,
                50.84487527348498
              ],
              [
                4.7916660552357095,
                50.84487456802324
              ],
              [
                4.791666396117695,
                50.84487427345509
              ],
              [
                4.791879210562842,
                50.84464647912899
              ],
              [
                4.792055732177608,
                50.84440657483554
              ],
              [
                4.792194261406153,
                50.84415687114918
              ],
              [
                4.792293464674579,
                50.84389977298774
              ],
              [
                4.792352387213273,
                50.843637756446384
              ],
              [
                4.792370462228348,
                50.84337334494784
              ],
              [
                4.792347516334708,
                50.843109084937986
              ],
              [
                4.792283771199446,
                50.84284752136157
              ],
              [
                4.79217984138071,
                50.84259117315383
              ]
            ]
          ],
          [
            [
              [
                4.761847138930924,
                50.85851589314824
              ],
              [
                4.761564654872793,
                50.85832076085407
              ],
              [
                4.761253314910708,
                50.85814409223154
              ],
              [
                4.760916117343598,
                50.857987588481805
              ],
              [
                4.760556309360869,
                50.857852756615955
              ],
              [
                4.760177355778172,
                50.85774089494961
              ],
              [
                4.759782905682088,
                50.85765308060663
              ],
              [
                4.759376757304475,
                50.85759015915227
              ],
              [
                4.758962821464101,
                50.85755273645493
              ],
              [
                4.758545083926838,
                50.85754117285533
              ],
              [
                4.758127567046017,
                50.85755557969844
              ],
              [
                4.757714291051386,
                50.85759581826193
              ],
              [
                4.757309235358447,
                50.85766150109117
              ],
              [
                4.756916300269819,
                50.85775199572829
              ],
              [
                4.756539269436424,
                50.85786643079894
              ],
              [
                4.756181773439193,
                50.85800370439891
              ],
              [
                4.755847254841186,
                50.85816249469951
              ],
              [
                4.755538935046078,
                50.85834127267029
              ],
              [
                4.755259783281715,
                50.85853831679633
              ],
              [
                4.7550124880071385,
                50.858751729649256
              ],
              [
                4.754799431018395,
                50.85897945615219
              ],
              [
                4.754622664502561,
                50.85921930336341
              ],
              [
                4.754483891261318,
                50.85946896158829
              ],
              [
                4.754384448294999,
                50.85972602661661
              ],
              [
                4.754325293905876,
                50.859988022871185
              ],
              [
                4.754306998445652,
                50.86025242724523
              ],
              [
                4.754329738797215,
                50.86051669339889
              ],
              [
                4.7543932966447215,
                50.86077827628127
              ],
              [
                4.75449706054974,
                50.86103465664143
              ],
              [
                4.754640031814424,
                50.861283365292735
              ],
              [
                4.754820834076261,
                50.86152200689638
              ],
              [
                4.755037726542859,
                50.86174828303522
              ],
              [
                4.755038159794803,
                50.86174864866161
              ],
              [
                4.7550397264568875,
                50.86175028309454
              ],
              [
                4.755290620673837,
                50.86196201441006
              ],
              [
                4.755573100567166,
                50.86215716161087
              ],
              [
                4.755884445761431,
                50.86233384510801
              ],
              [
                4.756221657757232,
                50.86249036312854
              ],
              [
                4.75658148881128,
                50.862625208112775
              ],
              [
                4.756960473221914,
                50.86273708124075
              ],
              [
                4.757354960718454,
                50.862824904948006
              ],
              [
                4.757761151632355,
                50.86288783330923
              ],
              [
                4.758175133510777,
                50.862925260190366
              ],
              [
                4.758586012129052,
                50.8629366339147
              ],
              [
                4.758658950743049,
                50.86311680059038
              ],
              [
                4.758801950369775,
                50.86336550402325
              ],
              [
                4.758982781778507,
                50.86360413907235
              ],
              [
                4.759199703896136,
                50.863830407383546
              ],
              [
                4.759450627962964,
                50.86404212967815
              ],
              [
                4.75973313763635,
                50.86423726674782
              ],
              [
                4.760044512253985,
                50.864413939101134
              ],
              [
                4.760381753033018,
                50.86457044507249
              ],
              [
                4.760741611952874,
                50.86470527721822
              ],
              [
                4.761120623043429,
                50.86481713684206
              ],
              [
                4.761515135776963,
                50.86490494650957
              ],
              [
                4.761921350241789,
                50.86496786043068
              ],
              [
                4.762335353758169,
                50.86500527261039
              ],
              [
                4.762753158583101,
                50.865016822688666
              ],
              [
                4.763170740339941,
                50.86500239941309
              ],
              [
                4.763584076801779,
                50.8649621417112
              ],
              [
                4.763989186654074,
                50.86489643735146
              ],
              [
                4.764382167862183,
                50.86480591920647
              ],
              [
                4.764759235273373,
                50.86469145915398
              ],
              [
                4.765116757090215,
                50.86455415967498
              ],
              [
                4.765451289863409,
                50.864395343229745
              ],
              [
                4.765759611666313,
                50.86421653951438
              ],
              [
                4.76603875313129,
                50.864019470721175
              ],
              [
                4.766286026048652,
                50.863806034944595
              ],
              [
                4.766499049252686,
                50.86357828789341
              ],
              [
                4.7666757715455965,
                50.86333842308522
              ],
              [
                4.766814491438904,
                50.863088750714354
              ],
              [
                4.766913873522638,
                50.86283167539715
              ],
              [
                4.766972961305375,
                50.862569673008984
              ],
              [
                4.766986212662407,
                50.862377425187184
              ],
              [
                4.767178100695156,
                50.862539304550616
              ],
              [
                4.767460633420932,
                50.86273442309539
              ],
              [
                4.767772027131336,
                50.862911075015
              ],
              [
                4.768109282859506,
                50.863067558840626
              ],
              [
                4.768469152440775,
                50.86320236734192
              ],
              [
                4.768848169802237,
                50.86331420205032
              ],
              [
                4.769242684355701,
                50.86340198577138
              ],
              [
                4.769648896171896,
                50.863464872964954
              ],
              [
                4.770062892596564,
                50.863502257893465
              ],
              [
                4.770480685955004,
                50.863513780459364
              ],
              [
                4.7708982519810315,
                50.86349932967528
              ],
              [
                4.771311568599292,
                50.86345904473364
              ],
              [
                4.771716654686433,
                50.86339331366535
              ],
              [
                4.772109608436793,
                50.863302769600224
              ],
              [
                4.772486644962195,
                50.8631882846657
              ],
              [
                4.7728441327628035,
                50.86305096158243
              ],
              [
                4.773178628717054,
                50.862892123037994
              ],
              [
                4.7734869112530465,
                50.862713298941365
              ],
              [
                4.773766011381449,
                50.8625162116811
              ],
              [
                4.774013241290809,
                50.8623027595295
              ],
              [
                4.774226220229723,
                50.862074998353044
              ],
              [
                4.7744028974268025,
                50.86183512180531
              ],
              [
                4.774541571827944,
                50.8615854401937
              ],
              [
                4.774640908461348,
                50.86132835822347
              ],
              [
                4.77469995127333,
                50.861066351834026
              ],
              [
                4.774718132312103,
                50.860801944350364
              ],
              [
                4.774695277171988,
                50.86053768217985
              ],
              [
                4.774631606646614,
                50.86027611028812
              ],
              [
                4.774527734576185,
                50.8600197476906
              ],
              [
                4.7743846619105685,
                50.85977106319553
              ],
              [
                4.774203767046357,
                50.85953245163197
              ],
              [
                4.77398679253184,
                50.85930621079158
              ],
              [
                4.773735828268728,
                50.85909451930615
              ],
              [
                4.773453291373011,
                50.85889941567342
              ],
              [
                4.773141902889405,
                50.85872277863337
              ],
              [
                4.772804661583907,
                50.85856630908297
              ],
              [
                4.772444815066931,
                50.85843151370401
              ],
              [
                4.772065828525033,
                50.85831969046073
              ],
              [
                4.771671351362028,
                50.85823191610704
              ],
              [
                4.771265182070289,
                50.858169035823046
              ],
              [
                4.770851231669887,
                50.85813165508081
              ],
              [
                4.770433486066833,
                50.858120133817025
              ],
              [
                4.770015967692101,
                50.858134582968994
              ],
              [
                4.769602696789833,
                50.85817486340701
              ],
              [
                4.769197652726539,
                50.85824058727327
              ],
              [
                4.768804735692928,
                50.858331121714706
              ],
              [
                4.7684277291661745,
                50.858445594973716
              ],
              [
                4.768070263493285,
                50.858582904778345
              ],
              [
                4.767735780945463,
                50.85874172895128
              ],
              [
                4.7674275025794115,
                50.85892053813585
              ],
              [
                4.76714839722421,
                50.85911761051656
              ],
              [
                4.766901152892178,
                50.85933104839293
              ],
              [
                4.766688150888971,
                50.85955879644707
              ],
              [
                4.766511442872326,
                50.85979866152964
              ],
              [
                4.766372731080727,
                50.860048333773896
              ],
              [
                4.766273351922866,
                50.86030540883455
              ],
              [
                4.766214263086619,
                50.86056741103773
              ],
              [
                4.7662010090820095,
                50.86075965887048
              ],
              [
                4.766009131681728,
                50.86059777782774
              ],
              [
                4.765726617828194,
                50.86040265567001
              ],
              [
                4.7654152484277725,
                50.860225998196725
              ],
              [
                4.765078022062818,
                50.8600695065017
              ],
              [
                4.764718186199983,
                50.85993468747993
              ],
              [
                4.76433920592332,
                50.85982283932334
              ],
              [
                4.763944730576392,
                50.85973503902572
              ],
              [
                4.763538558634137,
                50.859672132017025
              ],
              [
                4.7631246011421755,
                50.85963472402661
              ],
              [
                4.762713750294736,
                50.85962336618614
              ],
              [
                4.762640801557856,
                50.85944320185405
              ],
              [
                4.7624977935507875,
                50.8591945028253
              ],
              [
                4.7623169612612175,
                50.85895587289734
              ],
              [
                4.762100046634969,
                50.85872961003872
              ],
              [
                4.762099613355919,
                50.85872924443811
              ],
              [
                4.7620980465490215,
                50.85872761009805
              ],
              [
                4.761847138930924,
                50.85851589314824
              ]
            ]
          ]
        ]
      },
      "properties": {
        "type": "buffer_union_300m",
        "buffer_m": 300
      }
    },
    {
      "type": "Feature",
      "geometry": {
        "type": "MultiPolygon",
        "coordinates": [
          [
            [
              [
                4.764413961609305,
                50.82682754219207
              ],
              [
                4.764223404340275,
                50.82649594333718
              ],
              [
                4.763982450994407,
                50.826177770706344
              ],
              [
                4.763693422851051,
                50.82587608817719
              ],
              [
                4.76335910397497,
                50.82559380077757
              ],
              [
                4.762982714382543,
                50.82533362672174
              ],
              [
                4.762567879018075,
                50.82509807124644
              ],
              [
                4.762118592839516,
                50.82488940249886
              ],
              [
                4.761639182349963,
                50.82470962970781
              ],
              [
                4.7611342639452285,
                50.82456048384762
              ],
              [
                4.760608699478076,
                50.82444340098106
              ],
              [
                4.760067549466175,
                50.82435950844031
              ],
              [
                4.759516024393264,
                50.82430961397947
              ],
              [
                4.758959434571096,
                50.824294198002264
              ],
              [
                4.75840313904342,
                50.82431340893953
              ],
              [
                4.757852494022354,
                50.824367061821086
              ],
              [
                4.757312801351928,
                50.824454640055485
              ],
              [
                4.7567892574933195,
                50.82457530040065
              ],
              [
                4.75628690352137,
                50.82472788107766
              ],
              [
                4.755810576612344,
                50.824910912949896
              ],
              [
                4.7553648634887535,
                50.8251226336601
              ],
              [
                4.754954056268471,
                50.825361004589844
              ],
              [
                4.754582111142474,
                50.82562373047836
              ],
              [
                4.754252610278682,
                50.82590828151256
              ],
              [
                4.753968727318635,
                50.82621191767576
              ],
              [
                4.753733196799439,
                50.826531715121654
              ],
              [
                4.753548287796067,
                50.82686459431951
              ],
              [
                4.75341578203867,
                50.82720734970058
              ],
              [
                4.75333695671685,
                50.82755668052011
              ],
              [
                4.753312572137865,
                50.82790922263867
              ],
              [
                4.753342864359255,
                50.82826158091641
              ],
              [
                4.753427542868569,
                50.828610361908915
              ],
              [
                4.753565793334342,
                50.828952206549395
              ],
              [
                4.753756285403626,
                50.829283822502966
              ],
              [
                4.753997185472718,
                50.8296020158805
              ],
              [
                4.7542861743096605,
                50.8299037220071
              ],
              [
                4.7546204693602165,
                50.830186034948056
              ],
              [
                4.754996851523607,
                50.83044623550759
              ],
              [
                4.7554116961410235,
                50.83068181743045
              ],
              [
                4.755861007898928,
                50.83089051155303
              ],
              [
                4.756340459311224,
                50.83107030767145
              ],
              [
                4.756845432409461,
                50.83121947391484
              ],
              [
                4.757371063239037,
                50.83133657343717
              ],
              [
                4.757912288732008,
                50.83142047826619
              ],
              [
                4.758463895503944,
                50.83147038017553
              ],
              [
                4.759020570103441,
                50.831485798475256
              ],
              [
                4.759576950228807,
                50.83146658464527
              ],
              [
                4.7601276764168805,
                50.83141292376691
              ],
              [
                4.760667443704431,
                50.83132533273895
              ],
              [
                4.7611910527627845,
                50.83120465529511
              ],
              [
                4.761693460011513,
                50.831052053871396
              ],
              [
                4.762169826226951,
                50.83086899840172
              ],
              [
                4.762615563176064,
                50.830657252150175
              ],
              [
                4.763026377825382,
                50.83041885471672
              ],
              [
                4.76339831369843,
                50.83015610238065
              ],
              [
                4.763727788982876,
                50.82987152597144
              ],
              [
                4.764011631020179,
                50.82956786648089
              ],
              [
                4.76424710684587,
                50.829248048651785
              ],
              [
                4.764431949486821,
                50.828915152798146
              ],
              [
                4.764564379763148,
                50.82857238512883
              ],
              [
                4.764643123385945,
                50.828223046860785
              ],
              [
                4.764667423187601,
                50.82787050241971
              ],
              [
                4.764637046368522,
                50.827518147034695
              ],
              [
                4.764552286692201,
                50.827169374039
              ],
              [
                4.764413961609305,
                50.82682754219207
              ]
            ]
          ],
          [
            [
              [
                4.793536091150544,
                50.84232519946235
              ],
              [
                4.7933452656727376,
                50.84199364937627
              ],
              [
                4.793104035829366,
                50.84167553797449
              ],
              [
                4.792814725562357,
                50.84137392854472
              ],
              [
                4.792480121653001,
                50.8410917254107
              ],
              [
                4.7921034468620025,
                50.84083164597497
              ],
              [
                4.791688328879397,
                50.84059619456302
              ],
              [
                4.79123876538386,
                50.84038763831983
              ],
              [
                4.790759085548042,
                50.84020798539076
              ],
              [
                4.790253908360476,
                50.84005896559597
              ],
              [
                4.789728098164888,
                50.83994201378425
              ],
              [
                4.789186717844216,
                50.83985825602588
              ],
              [
                4.788634980099039,
                50.8398084987772
              ],
              [
                4.788078197288215,
                50.83979322112077
              ],
              [
                4.787521730313189,
                50.83981257015561
              ],
              [
                4.786970937036516,
                50.8398663595819
              ],
              [
                4.7864311207295245,
                50.83995407149348
              ],
              [
                4.785907479043835,
                50.84007486136119
              ],
              [
                4.785405053996415,
                50.84022756615896
              ],
              [
                4.784928683448271,
                50.84041071555506
              ],
              [
                4.784482954542664,
                50.840622546060594
              ],
              [
                4.78407215955015,
                50.840861017999856
              ],
              [
                4.783700254544834,
                50.841123835139385
              ],
              [
                4.783370821309297,
                50.84140846678725
              ],
              [
                4.78337016215944,
                50.84140917220304
              ],
              [
                4.7833698212506,
                50.84140946674738
              ],
              [
                4.783086032763747,
                50.841713172108065
              ],
              [
                4.78285062266715,
                50.84203302667157
              ],
              [
                4.782665858877298,
                50.84236595035697
              ],
              [
                4.782533521727093,
                50.842708737166824
              ],
              [
                4.7824548867835155,
                50.843058086053496
              ],
              [
                4.782430712521426,
                50.84341063270326
              ],
              [
                4.782461232973781,
                50.843762981932336
              ],
              [
                4.782546155430844,
                50.84411174038314
              ],
              [
                4.7826846632122795,
                50.84445354920571
              ],
              [
                4.782875423487295,
                50.84478511640978
              ],
              [
                4.783116600069222,
                50.84510324857547
              ],
              [
                4.783405871062889,
                50.845404881617156
              ],
              [
                4.783740451196254,
                50.845687110303814
              ],
              [
                4.784117118622341,
                50.84594721625097
              ],
              [
                4.784532245934213,
                50.84618269411443
              ],
              [
                4.784981835094791,
                50.8463912757328
              ],
              [
                4.785461555945277,
                50.846570951985655
              ],
              [
                4.785966787921152,
                50.846719992156636
              ],
              [
                4.78649266457342,
                50.846836960614056
              ],
              [
                4.787034120465505,
                50.84692073064804
              ],
              [
                4.78758593999294,
                50.846970495330666
              ],
              [
                4.788142807654329,
                50.84698577529381
              ],
              [
                4.788699359287796,
                50.84696642334995
              ],
              [
                4.789250233777767,
                50.84691262591083
              ],
              [
                4.789790124732299,
                50.846824901190665
              ],
              [
                4.790313831631493,
                50.84670409421102
              ],
              [
                4.790816309952659,
                50.84655136865563
              ],
              [
                4.7912927197879105,
                50.846368195654094
              ],
              [
                4.791738472484611,
                50.84615633960257
              ],
              [
                4.792149274858326,
                50.84591784115859
              ],
              [
                4.792521170551696,
                50.845654997574265
              ],
              [
                4.792850578140379,
                50.84537034055787
              ],
              [
                4.792851237203512,
                50.845369635089575
              ],
              [
                4.7928515780816605,
                50.84536934051801
              ],
              [
                4.793135325547731,
                50.84506561183507
              ],
              [
                4.793370680851788,
                50.84474573689756
              ],
              [
                4.793555378182643,
                50.844412796569245
              ],
              [
                4.793687639761066,
                50.84406999748713
              ],
              [
                4.79376619292396,
                50.843720641170435
              ],
              [
                4.7937902823389935,
                50.8433680922184
              ],
              [
                4.793759677233601,
                50.843015745903266
              ],
              [
                4.793674673570492,
                50.84266699547064
              ],
              [
                4.793536091150544,
                50.84232519946235
              ]
            ]
          ],
          [
            [
              [
                4.762940131837152,
                50.85794183697815
              ],
              [
                4.762563485497411,
                50.857681663899605
              ],
              [
                4.762148366706885,
                50.85744610904282
              ],
              [
                4.761698773152902,
                50.85723744054895
              ],
              [
                4.761219034298259,
                50.85705766764423
              ],
              [
                4.760713769700304,
                50.85690852130407
              ],
              [
                4.760187844544759,
                50.85679143759576
              ],
              [
                4.759646322821609,
                50.85670754385953
              ],
              [
                4.759094418592887,
                50.85665764786098
              ],
              [
                4.758537445820209,
                50.856642230018565
              ],
              [
                4.757980767233666,
                50.85666143878112
              ],
              [
                4.757429742732763,
                50.856715089199405
              ],
              [
                4.7568896778145175,
                50.8568026647057
              ],
              [
                4.756365772523569,
                50.85692332208422
              ],
              [
                4.7558630714142485,
                50.857075899584714
              ],
              [
                4.755386415004876,
                50.857258928101174
              ],
              [
                4.754940393190442,
                50.85747064530877
              ],
              [
                4.7545293010611935,
                50.85770901262286
              ],
              [
                4.754157097551773,
                50.85797173481759
              ],
              [
                4.753827367318647,
                50.858256282115505
              ],
              [
                4.753543286212798,
                50.858559914536016
              ],
              [
                4.753307590680385,
                50.85887970826893
              ],
              [
                4.753122551386618,
                50.85921258381935
              ],
              [
                4.752989951317728,
                50.85955533565365
              ],
              [
                4.752911068573075,
                50.85990466306136
              ],
              [
                4.752886664014548,
                50.86025720193589
              ],
              [
                4.752916973893779,
                50.86060955716864
              ],
              [
                4.753001707529942,
                50.86095833534452
              ],
              [
                4.753140050062285,
                50.861300177423885
              ],
              [
                4.753330670252694,
                50.86163179109641
              ],
              [
                4.753571733264893,
                50.861949982494934
              ],
              [
                4.753860918298762,
                50.86225168696352
              ],
              [
                4.75386135154619,
                50.86225205259419
              ],
              [
                4.753862918184127,
                50.86225368704263
              ],
              [
                4.7541974408229875,
                50.862535998656625
              ],
              [
                4.7545740797496014,
                50.86279619823807
              ],
              [
                4.75498920783255,
                50.863031779541004
              ],
              [
                4.7554388270281995,
                50.86324047340777
              ],
              [
                4.755918606889166,
                50.8634202696368
              ],
              [
                4.756423926283057,
                50.86356943635612
              ],
              [
                4.756949917919182,
                50.86368653671505
              ],
              [
                4.757491515253525,
                50.86377044273321
              ],
              [
                4.757538572571936,
                50.86377469715263
              ],
              [
                4.757733663527193,
                50.86403215872971
              ],
              [
                4.758022888096391,
                50.86433385276172
              ],
              [
                4.758357450535969,
                50.86461615234798
              ],
              [
                4.758734129170435,
                50.86487633842131
              ],
              [
                4.759149296485832,
                50.86511190486583
              ],
              [
                4.759598954060548,
                50.865320582666925
              ],
              [
                4.760078771077424,
                50.86550036177784
              ],
              [
                4.760584126046065,
                50.865649510491416
              ],
              [
                4.761110151332997,
                50.86576659213044
              ],
              [
                4.761651780069961,
                50.86585047889481
              ],
              [
                4.762203794987414,
                50.865900362732134
              ],
              [
                4.762760878701529,
                50.86591576312656
              ],
              [
                4.763317664968815,
                50.86589653173045
              ],
              [
                4.763868790412969,
                50.86584285379435
              ],
              [
                4.76440894622403,
                50.86575524638136
              ],
              [
                4.764932929330115,
                50.865634553383096
              ],
              [
                4.7654356925472126,
                50.86548193738546
              ],
              [
                4.765912393222462,
                50.8652988684628
              ],
              [
                4.766358439901078,
                50.86508711000886
              ],
              [
                4.766769536566336,
                50.86484870174121
              ],
              [
                4.76714172402577,
                50.86458594004356
              ],
              [
                4.767471418044443,
                50.86430135583568
              ],
              [
                4.767755443857948,
                50.86399769018449
              ],
              [
                4.767766591115452,
                50.86398255958367
              ],
              [
                4.7678064635183475,
                50.86399749589134
              ],
              [
                4.76831182684946,
                50.86414661138387
              ],
              [
                4.768837854563821,
                50.86426365842706
              ],
              [
                4.769379479769697,
                50.864347509554065
              ],
              [
                4.7699314852315,
                50.8643973570558
              ],
              [
                4.770488553656473,
                50.86441272076637
              ],
              [
                4.771045318948421,
                50.86439345269153
              ],
              [
                4.771596417933155,
                50.86433973843513
              ],
              [
                4.77213654205568,
                50.86425209541015
              ],
              [
                4.772660488549485,
                50.86413136785122
              ],
              [
                4.7731632105833794,
                50.863978718677146
              ],
              [
                4.773639865901366,
                50.86379561828181
              ],
              [
                4.774085863485738,
                50.86358383036209
              ],
              [
                4.774496907792845,
                50.86334539491939
              ],
              [
                4.774869040134717,
                50.86308260859912
              ],
              [
                4.7751986768074755,
                50.86279800255811
              ],
              [
                4.775482643599207,
                50.86249431807359
              ],
              [
                4.775718206345146,
                50.862174480129056
              ],
              [
                4.775903097236467,
                50.86184156923224
              ],
              [
                4.776035536630189,
                50.86149879173685
              ],
              [
                4.7761142501512985,
                50.86114944895438
              ],
              [
                4.7761384809238345,
                50.860796905353936
              ],
              [
                4.776107996814737,
                50.86044455615639
              ],
              [
                4.776023092622426,
                50.86009579463529
              ],
              [
                4.77588458719086,
                50.85975397943941
              ],
              [
                4.775693815478661,
                50.859422402251575
              ],
              [
                4.775452615661399,
                50.859104256094945
              ],
              [
                4.775163311392861,
                50.85880260459205
              ],
              [
                4.774828689397502,
                50.85852035247185
              ],
              [
                4.774451972611021,
                50.85826021760867
              ],
              [
                4.774036789128553,
                50.85802470486173
              ],
              [
                4.773587137260051,
                50.85781608196668
              ],
              [
                4.773107347029529,
                50.85763635771063
              ],
              [
                4.772602038488754,
                50.85748726260057
              ],
              [
                4.772076077246318,
                50.85737023221046
              ],
              [
                4.771534527639477,
                50.85728639336715
              ],
              [
                4.77098260399859,
                50.857236553307686
              ],
              [
                4.770425620472082,
                50.85722119191197
              ],
              [
                4.769868939893547,
                50.857240457085275
              ],
              [
                4.769317922181687,
                50.857294163335254
              ],
              [
                4.768777872768224,
                50.85738179355662
              ],
              [
                4.768253991548642,
                50.85750250400675
              ],
              [
                4.7677513228456805,
                50.85765513242438
              ],
              [
                4.767274706865857,
                50.85783820921322
              ],
              [
                4.766828733115138,
                50.8580499715836
              ],
              [
                4.766417696221255,
                50.858288380515965
              ],
              [
                4.7660455545873,
                50.85855114038373
              ],
              [
                4.765715892274232,
                50.858835721046525
              ],
              [
                4.765431884479314,
                50.85913938220247
              ],
              [
                4.765420737618928,
                50.85915451260213
              ],
              [
                4.765380870083209,
                50.85913957546331
              ],
              [
                4.764875569894823,
                50.85899044713596
              ],
              [
                4.764349611072966,
                50.858873382154506
              ],
              [
                4.763808057931683,
                50.85878950767888
              ],
              [
                4.763761005037567,
                50.85878525576807
              ],
              [
                4.763565902844035,
                50.8585278038331
              ],
              [
                4.763276678423617,
                50.85822612297205
              ],
              [
                4.763276245140056,
                50.858225757375735
              ],
              [
                4.763274678309027,
                50.858224123051166
              ],
              [
                4.762940131837152,
                50.85794183697815
              ]
            ]
          ]
        ]
      },
      "properties": {
        "type": "buffer_union_400m",
        "buffer_m": 400
      }
    },
    {
      "type": "Feature",
      "geometry": {
        "type": "Polygon",
        "coordinates": [
          [
            [
              4.6912306,
              50.7918013
            ],
            [
              4.6918897,
              50.7909814
            ],
            [
              4.6918796,
              50.7907771
            ],
            [
              4.6916413,
              50.7905241
            ],
            [
              4.6916674,
              50.7901423
            ],
            [
              4.6919697,
              50.7891237
            ],
            [
              4.6918488,
              50.7889089
            ],
            [
              4.6918615,
              50.7884657
            ],
            [
              4.6916426,
              50.7881418
            ],
            [
              4.6924985,
              50.7885185
            ],
            [
              4.6925803,
              50.7885225
            ],
            [
              4.692595,
              50.7883665
            ],
            [
              4.6928512,
              50.7885516
            ],
            [
              4.6937962,
              50.7889703
            ],
            [
              4.6944805,
              50.7888604
            ],
            [
              4.6952173,
              50.7889255
            ],
            [
              4.6955631,
              50.7887785
            ],
            [
              4.6958266,
              50.7889208
            ],
            [
              4.696122,
              50.7891633
            ],
            [
              4.6954286,
              50.7897166
            ],
            [
              4.69422,
              50.7897003
            ],
            [
              4.6939573,
              50.7897902
            ],
            [
              4.6938431,
              50.7899232
            ],
            [
              4.694267,
              50.7902512
            ],
            [
              4.6948304,
              50.7904619
            ],
            [
              4.6956424,
              50.7903776
            ],
            [
              4.6956858,
              50.7901765
            ],
            [
              4.6957975,
              50.7901015
            ],
            [
              4.6970446,
              50.7899984
            ],
            [
              4.6977164,
              50.7896324
            ],
            [
              4.6988546,
              50.7893806
            ],
            [
              4.6995826,
              50.7899153
            ],
            [
              4.7000292,
              50.7900406
            ],
            [
              4.7012968,
              50.790145
            ],
            [
              4.7019021,
              50.7903997
            ],
            [
              4.7023728,
              50.7907445
            ],
            [
              4.7031396,
              50.790325
            ],
            [
              4.7037367,
              50.7907138
            ],
            [
              4.704834,
              50.7912468
            ],
            [
              4.7062598,
              50.7922012
            ],
            [
              4.7076454,
              50.7928736
            ],
            [
              4.7086382,
              50.7929933
            ],
            [
              4.7094344,
              50.7934184
            ],
            [
              4.7101106,
              50.7945397
            ],
            [
              4.7103388,
              50.7952835
            ],
            [
              4.7102187,
              50.7956916
            ],
            [
              4.7104144,
              50.7957408
            ],
            [
              4.7104987,
              50.7961952
            ],
            [
              4.7114037,
              50.7958883
            ],
            [
              4.711851,
              50.7956448
            ],
            [
              4.7128497,
              50.7942628
            ],
            [
              4.7133253,
              50.7940334
            ],
            [
              4.7119156,
              50.7932001
            ],
            [
              4.7119737,
              50.7925768
            ],
            [
              4.7129177,
              50.7909358
            ],
            [
              4.7154852,
              50.7889177
            ],
            [
              4.7158808,
              50.7892727
            ],
            [
              4.7164283,
              50.7895949
            ],
            [
              4.7164697,
              50.7898912
            ],
            [
              4.7165553,
              50.7899596
            ],
            [
              4.716869,
              50.7900626
            ],
            [
              4.7176191,
              50.7899902
            ],
            [
              4.7185849,
              50.7901531
            ],
            [
              4.7197466,
              50.7910495
            ],
            [
              4.7196455,
              50.7911036
            ],
            [
              4.720904,
              50.7920686
            ],
            [
              4.7193976,
              50.7930864
            ],
            [
              4.7205791,
              50.7938108
            ],
            [
              4.7220744,
              50.7945796
            ],
            [
              4.7237304,
              50.7957765
            ],
            [
              4.7241556,
              50.7955766
            ],
            [
              4.7244502,
              50.7960011
            ],
            [
              4.7258367,
              50.7969195
            ],
            [
              4.7264607,
              50.7972078
            ],
            [
              4.7272711,
              50.797436
            ],
            [
              4.7277576,
              50.797754
            ],
            [
              4.7273154,
              50.7980444
            ],
            [
              4.7262561,
              50.7985006
            ],
            [
              4.7255677,
              50.7985572
            ],
            [
              4.7256469,
              50.7989829
            ],
            [
              4.7252085,
              50.7992182
            ],
            [
              4.7258357,
              50.7995013
            ],
            [
              4.725891,
              50.7996797
            ],
            [
              4.7238116,
              50.8010947
            ],
            [
              4.7255049,
              50.8020353
            ],
            [
              4.7252298,
              50.80225
            ],
            [
              4.7263408,
              50.8031133
            ],
            [
              4.7264971,
              50.8027672
            ],
            [
              4.7270443,
              50.8021218
            ],
            [
              4.7290295,
              50.8029845
            ],
            [
              4.729821,
              50.8025769
            ],
            [
              4.7302284,
              50.802779
            ],
            [
              4.7322058,
              50.8014135
            ],
            [
              4.7326206,
              50.8016034
            ],
            [
              4.7327239,
              50.8014962
            ],
            [
              4.7343429,
              50.8018138
            ],
            [
              4.7349237,
              50.8010621
            ],
            [
              4.7359988,
              50.8002589
            ],
            [
              4.7373885,
              50.8009003
            ],
            [
              4.7366776,
              50.8016189
            ],
            [
              4.7364361,
              50.8021396
            ],
            [
              4.7364976,
              50.802239
            ],
            [
              4.7375848,
              50.8025194
            ],
            [
              4.7380064,
              50.8020704
            ],
            [
              4.7388995,
              50.8022248
            ],
            [
              4.739152,
              50.8019534
            ],
            [
              4.7398807,
              50.8022179
            ],
            [
              4.7395118,
              50.8028579
            ],
            [
              4.7386546,
              50.8025897
            ],
            [
              4.7382644,
              50.8031918
            ],
            [
              4.7391659,
              50.8033755
            ],
            [
              4.7391433,
              50.8043
            ],
            [
              4.7403857,
              50.804013
            ],
            [
              4.74176,
              50.8041222
            ],
            [
              4.7420421,
              50.8038455
            ],
            [
              4.7428985,
              50.8040609
            ],
            [
              4.7435385,
              50.8043629
            ],
            [
              4.7450839,
              50.8054193
            ],
            [
              4.7457541,
              50.8054609
            ],
            [
              4.7476464,
              50.8070882
            ],
            [
              4.748612,
              50.8072193
            ],
            [
              4.7509802,
              50.8070204
            ],
            [
              4.7526024,
              50.8065861
            ],
            [
              4.7538544,
              50.806397
            ],
            [
              4.7554633,
              50.8066134
            ],
            [
              4.7582496,
              50.806714
            ],
            [
              4.7600805,
              50.8066824
            ],
            [
              4.7602769,
              50.8049763
            ],
            [
              4.7604412,
              50.8045213
            ],
            [
              4.7608546,
              50.803768
            ],
            [
              4.7620069,
              50.8024927
            ],
            [
              4.7635172,
              50.8032031
            ],
            [
              4.7651545,
              50.8034251
            ],
            [
              4.7663554,
              50.803775
            ],
            [
              4.766727,
              50.8040699
            ],
            [
              4.7726817,
              50.8024906
            ],
            [
              4.7754306,
              50.8015508
            ],
            [
              4.7819532,
              50.799892
            ],
            [
              4.7822137,
              50.7997187
            ],
            [
              4.7843353,
              50.799416
            ],
            [
              4.7852319,
              50.7996962
            ],
            [
              4.7854958,
              50.7999337
            ],
            [
              4.786866,
              50.79955
            ],
            [
              4.7906539,
              50.7987344
            ],
            [
              4.7964572,
              50.7954721
            ],
            [
              4.7969661,
              50.7958703
            ],
            [
              4.798041,
              50.7964009
            ],
            [
              4.7994858,
              50.7967038
            ],
            [
              4.8006304,
              50.7958482
            ],
            [
              4.8025549,
              50.797338
            ],
            [
              4.8012309,
              50.7981544
            ],
            [
              4.8027248,
              50.7989903
            ],
            [
              4.8043112,
              50.7994349
            ],
            [
              4.8055262,
              50.7999014
            ],
            [
              4.8085133,
              50.8006303
            ],
            [
              4.8102647,
              50.8006247
            ],
            [
              4.8120906,
              50.8011651
            ],
            [
              4.812399,
              50.8010142
            ],
            [
              4.8137366,
              50.80132
            ],
            [
              4.814935,
              50.8017285
            ],
            [
              4.8165129,
              50.8023924
            ],
            [
              4.8161915,
              50.8027236
            ],
            [
              4.8166008,
              50.8028626
            ],
            [
              4.8168414,
              50.8025918
            ],
            [
              4.8194503,
              50.803541
            ],
            [
              4.8184961,
              50.8049276
            ],
            [
              4.8181664,
              50.8056936
            ],
            [
              4.8176259,
              50.8062625
            ],
            [
              4.8169808,
              50.8071461
            ],
            [
              4.8158368,
              50.808486
            ],
            [
              4.8139357,
              50.809696
            ],
            [
              4.8134298,
              50.8097518
            ],
            [
              4.812958,
              50.8099402
            ],
            [
              4.8126539,
              50.8104392
            ],
            [
              4.8113288,
              50.811729
            ],
            [
              4.806302,
              50.8142752
            ],
            [
              4.8048174,
              50.8156103
            ],
            [
              4.8043453,
              50.815711
            ],
            [
              4.8035312,
              50.8154992
            ],
            [
              4.8032894,
              50.8155823
            ],
            [
              4.8049742,
              50.8161887
            ],
            [
              4.8053847,
              50.8162267
            ],
            [
              4.8057737,
              50.8164312
            ],
            [
              4.8052073,
              50.8172094
            ],
            [
              4.8058646,
              50.8172845
            ],
            [
              4.8057514,
              50.8174808
            ],
            [
              4.8056483,
              50.8174664
            ],
            [
              4.8055455,
              50.8176252
            ],
            [
              4.8051728,
              50.817534
            ],
            [
              4.8043688,
              50.817996
            ],
            [
              4.8044809,
              50.818185
            ],
            [
              4.8042455,
              50.8186664
            ],
            [
              4.8040081,
              50.8185605
            ],
            [
              4.8031928,
              50.8192332
            ],
            [
              4.8026067,
              50.819415
            ],
            [
              4.8005898,
              50.8192622
            ],
            [
              4.7982633,
              50.8193975
            ],
            [
              4.7989393,
              50.8199034
            ],
            [
              4.7995981,
              50.8208364
            ],
            [
              4.799961,
              50.8211575
            ],
            [
              4.8007926,
              50.8216156
            ],
            [
              4.8006254,
              50.82173
            ],
            [
              4.8019429,
              50.8224464
            ],
            [
              4.8029106,
              50.8228243
            ],
            [
              4.8021384,
              50.8234345
            ],
            [
              4.8038156,
              50.8242271
            ],
            [
              4.8034109,
              50.8244985
            ],
            [
              4.8046023,
              50.8250623
            ],
            [
              4.8032096,
              50.8261552
            ],
            [
              4.8042541,
              50.8266509
            ],
            [
              4.803021,
              50.8275922
            ],
            [
              4.8037339,
              50.8279323
            ],
            [
              4.8027689,
              50.8288606
            ],
            [
              4.8027338,
              50.8290374
            ],
            [
              4.8024537,
              50.8294235
            ],
            [
              4.8026304,
              50.8294635
            ],
            [
              4.8038737,
              50.829331
            ],
            [
              4.8040294,
              50.8301859
            ],
            [
              4.806912,
              50.8299056
            ],
            [
              4.8082107,
              50.8316285
            ],
            [
              4.807452,
              50.8326119
            ],
            [
              4.806813,
              50.8345215
            ],
            [
              4.812835,
              50.834976
            ],
            [
              4.8156825,
              50.835391
            ],
            [
              4.8148367,
              50.8363437
            ],
            [
              4.8141141,
              50.8369706
            ],
            [
              4.8130171,
              50.8376699
            ],
            [
              4.8104047,
              50.8385715
            ],
            [
              4.8095833,
              50.8389508
            ],
            [
              4.8079693,
              50.8395319
            ],
            [
              4.8065549,
              50.8398118
            ],
            [
              4.8052461,
              50.8399265
            ],
            [
              4.8052702,
              50.8407199
            ],
            [
              4.8051809,
              50.8410238
            ],
            [
              4.8049773,
              50.8414447
            ],
            [
              4.8044697,
              50.84202
            ],
            [
              4.8030639,
              50.8428316
            ],
            [
              4.8022589,
              50.8434893
            ],
            [
              4.8008886,
              50.8442711
            ],
            [
              4.8000447,
              50.8448565
            ],
            [
              4.7977012,
              50.8459666
            ],
            [
              4.7960297,
              50.8469914
            ],
            [
              4.7965722,
              50.8473212
            ],
            [
              4.7965651,
              50.8474526
            ],
            [
              4.7967021,
              50.8475572
            ],
            [
              4.7971858,
              50.8473202
            ],
            [
              4.7974095,
              50.8474813
            ],
            [
              4.8003497,
              50.8478443
            ],
            [
              4.8010378,
              50.8477679
            ],
            [
              4.802921,
              50.847322
            ],
            [
              4.8028233,
              50.8469991
            ],
            [
              4.8025717,
              50.8468867
            ],
            [
              4.8025664,
              50.8468219
            ],
            [
              4.8034572,
              50.846263
            ],
            [
              4.8046026,
              50.8457751
            ],
            [
              4.8051678,
              50.8456183
            ],
            [
              4.8081549,
              50.8458299
            ],
            [
              4.8081526,
              50.8461084
            ],
            [
              4.8110815,
              50.8461396
            ],
            [
              4.8111197,
              50.8463087
            ],
            [
              4.811008,
              50.846638
            ],
            [
              4.8109702,
              50.8473256
            ],
            [
              4.8110117,
              50.8474951
            ],
            [
              4.8119989,
              50.8501313
            ],
            [
              4.8126397,
              50.8523393
            ],
            [
              4.8112222,
              50.8526733
            ],
            [
              4.8098941,
              50.852855
            ],
            [
              4.8099584,
              50.8569476
            ],
            [
              4.8100763,
              50.8574484
            ],
            [
              4.8100892,
              50.8584903
            ],
            [
              4.8099714,
              50.8594562
            ],
            [
              4.8079847,
              50.8591865
            ],
            [
              4.8082068,
              50.8582439
            ],
            [
              4.8089623,
              50.8582864
            ],
            [
              4.8091626,
              50.8570979
            ],
            [
              4.8091347,
              50.8564713
            ],
            [
              4.8089811,
              50.8556606
            ],
            [
              4.8084832,
              50.85373
            ],
            [
              4.8082282,
              50.8530677
            ],
            [
              4.8080102,
              50.8530765
            ],
            [
              4.8064137,
              50.8555357
            ],
            [
              4.8041225,
              50.8587879
            ],
            [
              4.8039036,
              50.8589282
            ],
            [
              4.8039859,
              50.8591734
            ],
            [
              4.8038192,
              50.8592957
            ],
            [
              4.8031871,
              50.8592565
            ],
            [
              4.8015439,
              50.8587043
            ],
            [
              4.8011826,
              50.8584893
            ],
            [
              4.7997557,
              50.8582128
            ],
            [
              4.7989794,
              50.8579461
            ],
            [
              4.795404,
              50.8579404
            ],
            [
              4.7953485,
              50.8578089
            ],
            [
              4.7950855,
              50.8578697
            ],
            [
              4.7948224,
              50.8577313
            ],
            [
              4.7944396,
              50.8576972
            ],
            [
              4.7942587,
              50.8575246
            ],
            [
              4.7938201,
              50.8575574
            ],
            [
              4.7937628,
              50.8574335
            ],
            [
              4.7915284,
              50.8577713
            ],
            [
              4.7910805,
              50.8588689
            ],
            [
              4.7910841,
              50.8594491
            ],
            [
              4.7912186,
              50.8596942
            ],
            [
              4.7892899,
              50.8604834
            ],
            [
              4.788703,
              50.8616219
            ],
            [
              4.7885648,
              50.8615977
            ],
            [
              4.7868513,
              50.8645336
            ],
            [
              4.7864626,
              50.8644286
            ],
            [
              4.7807296,
              50.8669927
            ],
            [
              4.7772643,
              50.8680526
            ],
            [
              4.7771804,
              50.8680201
            ],
            [
              4.7746703,
              50.8696029
            ],
            [
              4.7746511,
              50.8703828
            ],
            [
              4.7740383,
              50.8717757
            ],
            [
              4.7729701,
              50.8723082
            ],
            [
              4.7694974,
              50.8748516
            ],
            [
              4.768852,
              50.8748933
            ],
            [
              4.7678872,
              50.8747941
            ],
            [
              4.7662584,
              50.8756492
            ],
            [
              4.7655481,
              50.8748555
            ],
            [
              4.7660525,
              50.8746448
            ],
            [
              4.7656251,
              50.874041
            ],
            [
              4.7656547,
              50.8732183
            ],
            [
              4.765534,
              50.8726866
            ],
            [
              4.7646872,
              50.8729881
            ],
            [
              4.7637025,
              50.8731537
            ],
            [
              4.7631404,
              50.873342
            ],
            [
              4.7619892,
              50.8733796
            ],
            [
              4.7602131,
              50.8729799
            ],
            [
              4.7588838,
              50.8728162
            ],
            [
              4.7569328,
              50.8721999
            ],
            [
              4.7552246,
              50.872056
            ],
            [
              4.7540957,
              50.8718554
            ],
            [
              4.752864,
              50.8709285
            ],
            [
              4.7519935,
              50.8706555
            ],
            [
              4.7519598,
              50.870309
            ],
            [
              4.7515184,
              50.8697377
            ],
            [
              4.7508208,
              50.8690901
            ],
            [
              4.7505872,
              50.8690805
            ],
            [
              4.7498065,
              50.867351
            ],
            [
              4.7482264,
              50.8674739
            ],
            [
              4.7474938,
              50.8659852
            ],
            [
              4.7469713,
              50.8654589
            ],
            [
              4.7457563,
              50.8643643
            ],
            [
              4.7443315,
              50.8633962
            ],
            [
              4.7438811,
              50.8635077
            ],
            [
              4.7432666,
              50.8625203
            ],
            [
              4.7431832,
              50.8625434
            ],
            [
              4.742576,
              50.8619214
            ],
            [
              4.7413693,
              50.8611519
            ],
            [
              4.7403694,
              50.860643
            ],
            [
              4.7400643,
              50.8602507
            ],
            [
              4.7395325,
              50.8598724
            ],
            [
              4.7380834,
              50.8596386
            ],
            [
              4.7366898,
              50.8587064
            ],
            [
              4.7344436,
              50.8570161
            ],
            [
              4.7350562,
              50.856499
            ],
            [
              4.7355223,
              50.8558708
            ],
            [
              4.7361929,
              50.8542557
            ],
            [
              4.7365701,
              50.8530619
            ],
            [
              4.7364921,
              50.8524949
            ],
            [
              4.7370343,
              50.8507556
            ],
            [
              4.7384979,
              50.8485913
            ],
            [
              4.7392874,
              50.8461109
            ],
            [
              4.7399423,
              50.8449899
            ],
            [
              4.7415404,
              50.8432918
            ],
            [
              4.74227,
              50.8421623
            ],
            [
              4.7429847,
              50.8400043
            ],
            [
              4.7431227,
              50.8388064
            ],
            [
              4.7434153,
              50.8380876
            ],
            [
              4.743874,
              50.8372431
            ],
            [
              4.7442741,
              50.8368146
            ],
            [
              4.7453565,
              50.8359079
            ],
            [
              4.7456451,
              50.8351897
            ],
            [
              4.7466016,
              50.8337908
            ],
            [
              4.7428577,
              50.8341294
            ],
            [
              4.7427202,
              50.8332738
            ],
            [
              4.7429388,
              50.8332595
            ],
            [
              4.7428011,
              50.8322368
            ],
            [
              4.7409799,
              50.8323145
            ],
            [
              4.7429479,
              50.8308755
            ],
            [
              4.7425068,
              50.8306897
            ],
            [
              4.7423951,
              50.8289143
            ],
            [
              4.7434291,
              50.828876
            ],
            [
              4.7431481,
              50.8278962
            ],
            [
              4.7421513,
              50.8279579
            ],
            [
              4.7431804,
              50.8270775
            ],
            [
              4.7408869,
              50.8272515
            ],
            [
              4.7407171,
              50.8263936
            ],
            [
              4.7394135,
              50.8264759
            ],
            [
              4.7393548,
              50.8261591
            ],
            [
              4.739469,
              50.826154
            ],
            [
              4.7392427,
              50.8249752
            ],
            [
              4.7394458,
              50.8249675
            ],
            [
              4.7394159,
              50.8245033
            ],
            [
              4.7395199,
              50.824494
            ],
            [
              4.7390915,
              50.8228511
            ],
            [
              4.7377361,
              50.8230507
            ],
            [
              4.737756,
              50.8231113
            ],
            [
              4.7362138,
              50.8222586
            ],
            [
              4.732787,
              50.8229696
            ],
            [
              4.7322918,
              50.8239045
            ],
            [
              4.7308628,
              50.8232801
            ],
            [
              4.7380842,
              50.810671
            ],
            [
              4.7363017,
              50.8100031
            ],
            [
              4.7067084,
              50.8081269
            ],
            [
              4.7087446,
              50.8010288
            ],
            [
              4.6914078,
              50.7971559
            ],
            [
              4.6926973,
              50.7926031
            ],
            [
              4.6918129,
              50.7923521
            ],
            [
              4.6917636,
              50.7920963
            ],
            [
              4.6912306,
              50.7918013
            ]
          ]
        ]
      },
      "properties": {
        "type": "boundary",
        "gemeente": "Bierbeek"
      }
    }
  ]
}