{
  "type": "FeatureCollection",
  "metadata": {
    "gemeente": "Bièvre",
    "slug": "bievre",
    "generated_at": "2026-09-25T22:11:35.400804Z",
    "total_points": 9,
    "providers": [
      "bpost",
      "DHL",
      "InPost",
      "PostNL",
      "DPD",
      "Amazon"
    ],
    "bounds": [
      5.0146,
      49.93835,
      5.05775,
      49.9565943
    ]
  },
  "features": [
    {
      "type": "Feature",
      "geometry": {
        "type": "Point",
        "coordinates": [
          5.01956,
          49.94401
        ]
      },
      "properties": {
        "type": "pakketpunt",
        "locatieNaam": "Bbox 24/7 Total Energies Bievre",
        "straatNaam": "Rue De Dinant",
        "straatNr": "19",
        "vervoerder": "bpost",
        "puntType": "automaat",
        "bezettingsgraad": 50,
        "latitude": 49.94401,
        "longitude": 5.01956,
        "canPickup": true,
        "canDropoff": true,
        "openingstijden": null
      }
    },
    {
      "type": "Feature",
      "geometry": {
        "type": "Point",
        "coordinates": [
          5.0146,
          49.94048
        ]
      },
      "properties": {
        "type": "pakketpunt",
        "locatieNaam": "Bievre",
        "straatNaam": "Rue D' Houdrémont",
        "straatNr": "21",
        "vervoerder": "bpost",
        "puntType": "postkantoor",
        "bezettingsgraad": 50,
        "latitude": 49.94048,
        "longitude": 5.0146,
        "canPickup": true,
        "canDropoff": true,
        "openingstijden": null
      }
    },
    {
      "type": "Feature",
      "geometry": {
        "type": "Point",
        "coordinates": [
          5.014604,
          49.940481
        ]
      },
      "properties": {
        "type": "pakketpunt",
        "locatieNaam": "BIEVRE",
        "straatNaam": "RUE D' HOUDRÉMONT",
        "straatNr": "21",
        "vervoerder": "DHL",
        "puntType": "postOffice",
        "bezettingsgraad": 50,
        "latitude": 49.940481,
        "longitude": 5.014604,
        "canPickup": true,
        "canDropoff": true,
        "openingstijden": {
          "ma": "13:45 - 17:00",
          "di": "13:45 - 18:00",
          "wo": "13:45 - 17:00",
          "do": "09:30 - 12:00, 13:45 - 18:00",
          "vr": "13:45 - 17:00",
          "za": "gesloten",
          "zo": "gesloten"
        }
      }
    },
    {
      "type": "Feature",
      "geometry": {
        "type": "Point",
        "coordinates": [
          5.019561,
          49.94401
        ]
      },
      "properties": {
        "type": "pakketpunt",
        "locatieNaam": "BBOX 24/7 TOTAL ENERGIES BIEVRE",
        "straatNaam": "RUE DE DINANT",
        "straatNr": "19",
        "vervoerder": "DHL",
        "puntType": "packStation",
        "bezettingsgraad": 50,
        "latitude": 49.94401,
        "longitude": 5.019561,
        "canPickup": true,
        "canDropoff": true,
        "openingstijden": {
          "ma": "00:00 - 23:59",
          "di": "00:00 - 23:59",
          "wo": "00:00 - 23:59",
          "do": "00:00 - 23:59",
          "vr": "00:00 - 23:59",
          "za": "00:00 - 23:59",
          "zo": "00:00 - 23:59"
        }
      }
    },
    {
      "type": "Feature",
      "geometry": {
        "type": "Point",
        "coordinates": [
          5.02221,
          49.93835
        ]
      },
      "properties": {
        "type": "pakketpunt",
        "locatieNaam": "EPICERIE DU CENTRE",
        "straatNaam": "28 Rue de Bouillon",
        "straatNr": "",
        "vervoerder": "InPost",
        "puntType": "servicepunt",
        "bezettingsgraad": 50,
        "latitude": 49.93835,
        "longitude": 5.02221,
        "canPickup": true,
        "canDropoff": true,
        "openingstijden": null
      }
    },
    {
      "type": "Feature",
      "geometry": {
        "type": "Point",
        "coordinates": [
          5.0576664,
          49.9565943
        ]
      },
      "properties": {
        "type": "pakketpunt",
        "locatieNaam": "Apiculteur Peter Otte",
        "straatNaam": "Vôye du Sclassin",
        "straatNr": "47",
        "vervoerder": "PostNL",
        "puntType": "servicepunt",
        "bezettingsgraad": 50,
        "latitude": 49.9565943,
        "longitude": 5.0576664,
        "canPickup": true,
        "canDropoff": true,
        "openingstijden": null
      }
    },
    {
      "type": "Feature",
      "geometry": {
        "type": "Point",
        "coordinates": [
          5.05775,
          49.956526
        ]
      },
      "properties": {
        "type": "pakketpunt",
        "locatieNaam": "PETER OTTE",
        "straatNaam": "VOYE DE SCLASSIN",
        "straatNr": "47",
        "vervoerder": "DPD",
        "puntType": "pickup_point",
        "bezettingsgraad": 50,
        "latitude": 49.956526,
        "longitude": 5.05775,
        "canPickup": true,
        "canDropoff": false,
        "openingstijden": {
          "ma": "10:00 - 18:00",
          "di": "gesloten",
          "wo": "10:00 - 18:00",
          "do": "gesloten",
          "vr": "gesloten",
          "za": "10:00 - 18:00",
          "zo": "10:00 - 13:00"
        }
      }
    },
    {
      "type": "Feature",
      "geometry": {
        "type": "Point",
        "coordinates": [
          5.014604,
          49.940481
        ]
      },
      "properties": {
        "type": "pakketpunt",
        "locatieNaam": "bpost - BIEVRE",
        "straatNaam": "RUE D' HOUDRÉMONT,21",
        "straatNr": "",
        "vervoerder": "Amazon",
        "puntType": "3p",
        "bezettingsgraad": 50,
        "latitude": 49.940481,
        "longitude": 5.014604,
        "canPickup": true,
        "canDropoff": false,
        "openingstijden": null
      }
    },
    {
      "type": "Feature",
      "geometry": {
        "type": "Point",
        "coordinates": [
          5.019561,
          49.94401
        ]
      },
      "properties": {
        "type": "pakketpunt",
        "locatieNaam": "bpost - BBOX 24/7 TOTAL ENERGIES BIEVRE",
        "straatNaam": "RUE DE DINANT,19",
        "straatNr": "",
        "vervoerder": "Amazon",
        "puntType": "3p",
        "bezettingsgraad": 50,
        "latitude": 49.94401,
        "longitude": 5.019561,
        "canPickup": true,
        "canDropoff": false,
        "openingstijden": null
      }
    },
    {
      "type": "Feature",
      "geometry": {
        "type": "MultiPolygon",
        "coordinates": [
          [
            [
              [
                5.026198079796375,
                49.93754395481768
              ],
              [
                5.026056455909433,
                49.937295546174205
              ],
              [
                5.025877790986801,
                49.93705729289064
              ],
              [
                5.0256638060812255,
                49.93683148930842
              ],
              [
                5.025416562286704,
                49.93662030984874
              ],
              [
                5.0251384408774005,
                49.936425788079184
              ],
              [
                5.02483212036771,
                49.936249797137194
              ],
              [
                5.024500550714674,
                49.93609403169898
              ],
              [
                5.024146924911221,
                49.935959991667005
              ],
              [
                5.023774648243762,
                49.93584896773302
              ],
              [
                5.023387305509836,
                49.93576202895502
              ],
              [
                5.0229886265110855,
                49.93570001246809
              ],
              [
                5.022582450153242,
                49.935663515427315
              ],
              [
                5.022172687498057,
                49.93565288926061
              ],
              [
                5.021763284122192,
                49.93566823628661
              ],
              [
                5.021358182144575,
                49.93570940872986
              ],
              [
                5.0209612822869705,
                49.935776010143066
              ],
              [
                5.020576406332181,
                49.93586739922251
              ],
              [
                5.020207260340457,
                49.935982695980236
              ],
              [
                5.019857398977544,
                49.93612079021343
              ],
              [
                5.019530191297138,
                49.93628035218981
              ],
              [
                5.019228788306675,
                49.93645984544638
              ],
              [
                5.018956092628391,
                49.93665754157849
              ],
              [
                5.0187147305475195,
                49.93687153687708
              ],
              [
                5.018507026716797,
                49.937099770654285
              ],
              [
                5.01833498176095,
                49.937340045081186
              ],
              [
                5.018200252997156,
                49.937590046346834
              ],
              [
                5.018104138457656,
                49.937847366935316
              ],
              [
                5.018047564368989,
                49.938109528806315
              ],
              [
                5.018031076209213,
                49.938374007256236
              ],
              [
                5.018054833430118,
                49.93863825523021
              ],
              [
                5.018118607896178,
                49.93889972785104
              ],
              [
                5.018207399119149,
                49.939120186047845
              ],
              [
                5.018058200667166,
                49.938962717664964
              ],
              [
                5.017810979394081,
                49.93875152186217
              ],
              [
                5.017532876489415,
                49.93855698170788
              ],
              [
                5.017226570289495,
                49.93838097051661
              ],
              [
                5.016895010613675,
                49.93822518315957
              ],
              [
                5.016541390358917,
                49.93809111975031
              ],
              [
                5.016169114758277,
                49.93798007120564
              ],
              [
                5.016166496466329,
                49.937979483369574
              ],
              [
                5.0161651149343625,
                49.937979071260045
              ],
              [
                5.015777768790516,
                49.93789210686153
              ],
              [
                5.015379081920944,
                49.93783006400388
              ],
              [
                5.014972893307191,
                49.937793540096095
              ],
              [
                5.014563114129018,
                49.93778288682483
              ],
              [
                5.014153690122164,
                49.937798206769656
              ],
              [
                5.013748563604171,
                49.93783935241593
              ],
              [
                5.013351635533041,
                49.93790592757434
              ],
              [
                5.012966727963174,
                49.93799729119403
              ],
              [
                5.012597547259154,
                49.93811256353216
              ],
              [
                5.012247648420885,
                49.93825063462107
              ],
              [
                5.011920400862819,
                49.93841017495138
              ],
              [
                5.011618955976292,
                49.938589648268525
              ],
              [
                5.011346216786881,
                49.938787326359886
              ],
              [
                5.011104809998727,
                49.939001305690155
              ],
              [
                5.0108970606950125,
                49.93922952572529
              ],
              [
                5.010724969938297,
                49.9394697887687
              ],
              [
                5.010590195486787,
                49.939719781119116
              ],
              [
                5.01049403581268,
                49.93997709534653
              ],
              [
                5.010437417577178,
                49.94023925347188
              ],
              [
                5.010420886683514,
                49.94050373082776
              ],
              [
                5.010444602995079,
                49.94076798036982
              ],
              [
                5.010508338770401,
                49.94102945720585
              ],
              [
                5.010611480831081,
                49.94128564310515
              ],
              [
                5.010753036442745,
                49.941534070753185
              ],
              [
                5.010931642853327,
                49.941772347517116
              ],
              [
                5.011145580397669,
                49.941998178493456
              ],
              [
                5.011392789042992,
                49.942209388615794
              ],
              [
                5.011670888216498,
                49.94240394360909
              ],
              [
                5.0119771997246145,
                49.942579969588884
              ],
              [
                5.012308773543387,
                49.942735771115935
              ],
              [
                5.012662416231775,
                49.942869847532464
              ],
              [
                5.0130347216940745,
                49.94298090742219
              ],
              [
                5.013037340220885,
                49.942981495329505
              ],
              [
                5.013038721870175,
                49.9429819074766
              ],
              [
                5.013426104186341,
                49.94306888109537
              ],
              [
                5.013824832115173,
                49.94313093071968
              ],
              [
                5.014231065097634,
                49.94316745868009
              ],
              [
                5.0146408902492245,
                49.94317811313378
              ],
              [
                5.015050360067751,
                49.94316279145531
              ],
              [
                5.015455530475361,
                49.9431216412256
              ],
              [
                5.0156352341904,
                49.94309150020559
              ],
              [
                5.015549821404163,
                49.94324995399476
              ],
              [
                5.0154536812788955,
                49.94350727236307
              ],
              [
                5.015397086006822,
                49.9437694329246
              ],
              [
                5.01538058127015,
                49.9440339109884
              ],
              [
                5.015404326680463,
                49.94429815950335
              ],
              [
                5.015468094216144,
                49.944559633587026
              ],
              [
                5.015571270392987,
                49.94481581503526
              ],
              [
                5.0157128621481055,
                49.945064236576364
              ],
              [
                5.015891506381368,
                49.945302505636235
              ],
              [
                5.016105483063354,
                49.945528327385595
              ],
              [
                5.016352731784334,
                49.94573952684687
              ],
              [
                5.016630871585502,
                49.945934069847695
              ],
              [
                5.016937223881935,
                49.946110082619036
              ],
              [
                5.017268838256768,
                49.94626586984892
              ],
              [
                5.01762252087827,
                49.94639993101727
              ],
              [
                5.017994865266032,
                49.946510974854604
              ],
              [
                5.018382285109659,
                49.94659793178488
              ],
              [
                5.018781048823451,
                49.94665996423239
              ],
              [
                5.019187315503615,
                49.94669647469311
              ],
              [
                5.019597171941007,
                49.94670711149281
              ],
              [
                5.019597581236503,
                49.94670709616183
              ],
              [
                5.0195981719972975,
                49.94670711149248
              ],
              [
                5.020007670387997,
                49.946691772172215
              ],
              [
                5.0204128663786785,
                49.946650604486365
              ],
              [
                5.020809857078385,
                49.94658400496808
              ],
              [
                5.021194818669558,
                49.946492615111474
              ],
              [
                5.021564043255803,
                49.946377315189665
              ],
              [
                5.021913974590385,
                49.94623921577196
              ],
              [
                5.022241242340677,
                49.94607964702197
              ],
              [
                5.022542694557931,
                49.945900145880074
              ],
              [
                5.022815428039235,
                49.94570244125394
              ],
              [
                5.023056816288996,
                49.94548843736002
              ],
              [
                5.023264534810556,
                49.945260195376676
              ],
              [
                5.023436583484526,
                49.94501991358606
              ],
              [
                5.023571305818586,
                49.944769906196335
              ],
              [
                5.023667404883869,
                49.944512581048286
              ],
              [
                5.023723955785072,
                49.94425041642133
              ],
              [
                5.023740414544981,
                49.94398593716268
              ],
              [
                5.023716623318711,
                49.94372169036933
              ],
              [
                5.023652811888405,
                49.94346022085757
              ],
              [
                5.023549595424955,
                49.94320404665587
              ],
              [
                5.023407968539286,
                49.942955634757496
              ],
              [
                5.023229295681428,
                49.942717377365994
              ],
              [
                5.023015297980686,
                49.94249156886228
              ],
              [
                5.0227680366543925,
                49.94228038371497
              ],
              [
                5.022489893145642,
                49.94208585554642
              ],
              [
                5.022183546181719,
                49.9419098575557
              ],
              [
                5.0218519459744595,
                49.941754084486895
              ],
              [
                5.021498285811048,
                49.94162003631594
              ],
              [
                5.021125971308761,
                49.941509003812925
              ],
              [
                5.020738587629445,
                49.9414220561184
              ],
              [
                5.020339864968974,
                49.94136003045328
              ],
              [
                5.019933642653446,
                49.94132352406099
              ],
              [
                5.019523832187077,
                49.94131288845957
              ],
              [
                5.019523422937625,
                49.94131290379028
              ],
              [
                5.019522832243361,
                49.94131288845926
              ],
              [
                5.019113379662784,
                49.94132822605455
              ],
              [
                5.0187082275604125,
                49.94136938916553
              ],
              [
                5.018528532236502,
                49.941399534985344
              ],
              [
                5.01861393187492,
                49.94124107898378
              ],
              [
                5.018710050483792,
                49.940983757972504
              ],
              [
                5.018766624341412,
                49.94072159577841
              ],
              [
                5.018783109249366,
                49.94045711722532
              ],
              [
                5.018759347110842,
                49.94019286940346
              ],
              [
                5.018695567427768,
                49.93993139713902
              ],
              [
                5.018606772455967,
                49.93971093931961
              ],
              [
                5.018755975040065,
                49.93986840699065
              ],
              [
                5.019003206239823,
                49.94007960076191
              ],
              [
                5.019281323949758,
                49.94027413736086
              ],
              [
                5.019587649797638,
                49.940450143080156
              ],
              [
                5.019919233621285,
                49.94060592267571
              ],
              [
                5.020272881883193,
                49.940739975700986
              ],
              [
                5.020645188433892,
                49.94085101096497
              ],
              [
                5.021032567327443,
                49.94093795897417
              ],
              [
                5.021431287372611,
                49.940999982238814
              ],
              [
                5.021837508086274,
                49.94103648334334
              ],
              [
                5.022247316702109,
                49.94104711070366
              ],
              [
                5.0226567658772145,
                49.94103176195527
              ],
              [
                5.023061911732623,
                49.94099058493981
              ],
              [
                5.023458851860371,
                49.940923976280324
              ],
              [
                5.023843762930097,
                49.940832577558915
              ],
              [
                5.024212937532103,
                49.94071726913414
              ],
              [
                5.024562819901166,
                49.94057916165717
              ],
              [
                5.024890040176337,
                49.94041958536921
              ],
              [
                5.0251914468661685,
                49.940240077283256
              ],
              [
                5.02546413720626,
                49.94004236637385
              ],
              [
                5.025705485116523,
                49.93982835691792
              ],
              [
                5.025913166488788,
                49.939600110147396
              ],
              [
                5.026085181561396,
                49.93935982439053
              ],
              [
                5.026219874165567,
                49.939109813893666
              ],
              [
                5.026315947658649,
                49.938852486527466
              ],
              [
                5.026372477391497,
                49.93859032059271
              ],
              [
                5.026388919590622,
                49.938325840949176
              ],
              [
                5.026365116570477,
                49.93806159469759
              ],
              [
                5.026301298226626,
                49.93780012664896
              ],
              [
                5.026198079796375,
                49.93754395481768
              ]
            ]
          ],
          [
            [
              [
                5.061597132542577,
                49.955470358136964
              ],
              [
                5.061418223100375,
                49.95523216010032
              ],
              [
                5.061203989517656,
                49.95500642267335
              ],
              [
                5.060956495282975,
                49.954795319640034
              ],
              [
                5.060678124081898,
                49.95460088383184
              ],
              [
                5.06037155683386,
                49.95442498755835
              ],
              [
                5.060039745871433,
                49.954269324584025
              ],
              [
                5.0596858865107315,
                49.95413539382461
              ],
              [
                5.059313386286647,
                49.95402448491955
              ],
              [
                5.058925832148881,
                49.95393766581918
              ],
              [
                5.05852695593422,
                49.95387577250617
              ],
              [
                5.0581205984469575,
                49.95383940094955
              ],
              [
                5.0577106724925605,
                49.95382890136893
              ],
              [
                5.057301125219799,
                49.95384437486408
              ],
              [
                5.056895900132979,
                49.95388567244176
              ],
              [
                5.056498899139189,
                49.95395239644974
              ],
              [
                5.0561139449951025,
                49.95404390440388
              ],
              [
                5.055744744514001,
                49.954159315171594
              ],
              [
                5.0553948528865815,
                49.95429751745218
              ],
              [
                5.055067639458335,
                49.95445718047293
              ],
              [
                5.054766255292532,
                49.95463676679783
              ],
              [
                5.054493602830707,
                49.954834547125955
              ],
              [
                5.054446293699996,
                49.95487651860235
              ],
              [
                5.054410001139847,
                49.95490284476144
              ],
              [
                5.0541687055341455,
                49.9551169143975
              ],
              [
                5.053961091531725,
                49.955345212135825
              ],
              [
                5.0537891588930135,
                49.95558553953146
              ],
              [
                5.0536545638543275,
                49.95583558226321
              ],
              [
                5.0535586031608535,
                49.9560929324157
              ],
              [
                5.053502201558245,
                49.95635511166369
              ],
              [
                5.053485902864085,
                49.956619595136054
              ],
              [
                5.053509864706063,
                49.95688383572941
              ],
              [
                5.053573856978468,
                49.957145288637335
              ],
              [
                5.053677264032884,
                49.957401435859424
              ],
              [
                5.053819090582917,
                49.957649810453375
              ],
              [
                5.053997971267055,
                49.95788802029708
              ],
              [
                5.054212183778412,
                49.95811377113137
              ],
              [
                5.0544596654356395,
                49.95832488866149
              ],
              [
                5.05473803303607,
                49.95851933950404
              ],
              [
                5.055044605800299,
                49.95869525077755
              ],
              [
                5.055376431187515,
                49.95885092814745
              ],
              [
                5.055730313333067,
                49.95898487215176
              ],
              [
                5.056102843834256,
                49.959095792649435
              ],
              [
                5.056490434587566,
                49.95918262125243
              ],
              [
                5.056889352360648,
                49.959244521620995
              ],
              [
                5.057295754765411,
                49.95928089752335
              ],
              [
                5.057705727285088,
                49.95929139858131
              ],
              [
                5.058115320997739,
                49.95927592364697
              ],
              [
                5.058520590631994,
                49.9592346217774
              ],
              [
                5.058917632587544,
                49.959167890798255
              ],
              [
                5.059302622553235,
                49.95907637346987
              ],
              [
                5.059671852359588,
                49.958960951293186
              ],
              [
                5.060021765709915,
                49.958822736015016
              ],
              [
                5.060348992445235,
                49.958663058914894
              ],
              [
                5.060650381012357,
                49.958483457976726
              ],
              [
                5.060923028822008,
                49.95828566306937
              ],
              [
                5.0609703356446465,
                49.958243688931944
              ],
              [
                5.061006627130381,
                49.9582173607049
              ],
              [
                5.061247907795108,
                49.95800327673881
              ],
              [
                5.061455498589058,
                49.9577749658616
              ],
              [
                5.061627400623692,
                49.95753462701886
              ],
              [
                5.061761958819655,
                49.957284574968064
              ],
              [
                5.061857877829515,
                49.957027217979864
              ],
              [
                5.061914234492619,
                49.95676503464022
              ],
              [
                5.061930486702893,
                49.95650054997629
              ],
              [
                5.061906478605039,
                49.95623631113696
              ],
              [
                5.061842442070058,
                49.95597486286166
              ],
              [
                5.061738994436841,
                49.95571872297412
              ],
              [
                5.061597132542577,
                49.955470358136964
              ]
            ]
          ]
        ]
      },
      "properties": {
        "type": "buffer_union_300m",
        "buffer_m": 300
      }
    },
    {
      "type": "Feature",
      "geometry": {
        "type": "MultiPolygon",
        "coordinates": [
          [
            [
              [
                5.027527409915171,
                49.93727524236843
              ],
              [
                5.027338570263768,
                49.93694403298671
              ],
              [
                5.027100344010395,
                49.93662636453489
              ],
              [
                5.026815026136269,
                49.936325296035136
              ],
              [
                5.026485364945988,
                49.93604372660263
              ],
              [
                5.026114535579223,
                49.935784367538616
              ],
              [
                5.025706109420006,
                49.935549716233055
              ],
              [
                5.0252640196987315,
                49.93534203212804
              ],
              [
                5.024792523618261,
                49.935163314972684
              ],
              [
                5.0242961613686745,
                49.93501528557829
              ],
              [
                5.023779712424856,
                49.93489936925885
              ],
              [
                5.02324814954693,
                49.93481668211566
              ],
              [
                5.022706590925424,
                49.93476802029758
              ],
              [
                5.022160250930657,
                49.934753852340556
              ],
              [
                5.021614389939125,
                49.934774314659165
              ],
              [
                5.02107426371839,
                49.93482921023422
              ],
              [
                5.0205450728562,
                49.934918010508305
              ],
              [
                5.020031912719141,
                49.93503986047175
              ],
              [
                5.019539724421057,
                49.93519358688954
              ],
              [
                5.019073247271977,
                49.935377709590874
              ],
              [
                5.0186369731640905,
                49.9355904557125
              ],
              [
                5.018235103333051,
                49.93582977675924
              ],
              [
                5.017871507910172,
                49.936093368318204
              ],
              [
                5.017549688654595,
                49.93637869223685
              ],
              [
                5.017272745224208,
                49.93668300105224
              ],
              [
                5.017043345310318,
                49.93700336443677
              ],
              [
                5.016928094286599,
                49.937217212699245
              ],
              [
                5.016690783377094,
                49.93714642353827
              ],
              [
                5.016688165124292,
                49.93714583571409
              ],
              [
                5.016686783611873,
                49.93714542361082
              ],
              [
                5.016170330120905,
                49.937029473131275
              ],
              [
                5.015638756748405,
                49.93694675082773
              ],
              [
                5.015097181785988,
                49.93689805318766
              ],
              [
                5.014550819761309,
                49.93688384909187
              ],
              [
                5.01400493126294,
                49.93690427530294
              ],
              [
                5.013464772323214,
                49.936959135149294
              ],
              [
                5.012935543844811,
                49.93704790041758
              ],
              [
                5.012422341556367,
                49.937169716435136
              ],
              [
                5.011930106977435,
                49.93732341029386
              ],
              [
                5.011463579863497,
                49.93750750213644
              ],
              [
                5.011027252587668,
                49.93772021939676
              ],
              [
                5.010625326897377,
                49.93795951385763
              ],
              [
                5.010261673461643,
                49.93822308136214
              ],
              [
                5.009939794598075,
                49.93850838398944
              ],
              [
                5.009662790538419,
                49.938812674481674
              ],
              [
                5.009433329557718,
                49.939133022687756
              ],
              [
                5.009253622255288,
                49.93946634376939
              ],
              [
                5.009125400236074,
                49.939809427898794
              ],
              [
                5.009049899398793,
                49.940158971161814
              ],
              [
                5.009027847993188,
                49.94051160736994
              ],
              [
                5.009059459562952,
                49.940863940474365
              ],
              [
                5.0091444308439765,
                49.941212577270726
              ],
              [
                5.009281944639883,
                49.94155416007915
              ],
              [
                5.009470677648891,
                49.94188539908508
              ],
              [
                5.009708813168303,
                49.942203104029055
              ],
              [
                5.009994058555767,
                49.94250421494018
              ],
              [
                5.010323667280507,
                49.94278583161677
              ],
              [
                5.01069446535321,
                49.94304524156993
              ],
              [
                5.011102881880877,
                49.94327994616036
              ],
              [
                5.011544983452792,
                49.943487684676214
              ],
              [
                5.012016512026657,
                49.94366645611953
              ],
              [
                5.012512925949793,
                49.943814538490905
              ],
              [
                5.012515544515757,
                49.94381512641011
              ],
              [
                5.012516926184596,
                49.94381553856345
              ],
              [
                5.013033443975091,
                49.94393150544059
              ],
              [
                5.013565090335831,
                49.94401423977991
              ],
              [
                5.013988379865567,
                49.94405230168338
              ],
              [
                5.014019091135003,
                49.944394179317044
              ],
              [
                5.014104104762156,
                49.944742812444076
              ],
              [
                5.014241664045628,
                49.945084389318176
              ],
              [
                5.014430445245645,
                49.94541562018189
              ],
              [
                5.014668631195432,
                49.945733314854124
              ],
              [
                5.014953928766953,
                49.94603441346289
              ],
              [
                5.015283590926807,
                49.946316015924936
              ],
              [
                5.015654443170968,
                49.94657540988822
              ],
              [
                5.016062914084593,
                49.94681009686744
              ],
              [
                5.016505069733023,
                49.94701781632035
              ],
              [
                5.0169766515529695,
                49.94719656743258
              ],
              [
                5.017473117378745,
                49.94734462840053
              ],
              [
                5.017989685207889,
                49.947460573026035
              ],
              [
                5.018521379283877,
                49.9475432844626
              ],
              [
                5.01906307805097,
                49.94759196598028
              ],
              [
                5.019609563517991,
                49.947606148645406
              ],
              [
                5.019609972821163,
                49.94760613331437
              ],
              [
                5.019610563593047,
                49.94760614864498
              ],
              [
                5.020156571628732,
                49.94758569583538
              ],
              [
                5.020696842703989,
                49.947530804571635
              ],
              [
                5.0212261725892935,
                49.94744200360365
              ],
              [
                5.021739462517155,
                49.94732014831879
              ],
              [
                5.022231768325689,
                49.947166412496934
              ],
              [
                5.0226983481081495,
                49.946982276996785
              ],
              [
                5.0231347079082544,
                49.946769515482934
              ],
              [
                5.023536645020101,
                49.94653017733147
              ],
              [
                5.023900288474922,
                49.9462665678793
              ],
              [
                5.024222136324255,
                49.94598122620788
              ],
              [
                5.02449908936035,
                49.94567690067592
              ],
              [
                5.024728480949283,
                49.94535652243733
              ],
              [
                5.024908102689978,
                49.94502317719971
              ],
              [
                5.025036225652902,
                49.944680075496244
              ],
              [
                5.025111616994987,
                49.9443305217574
              ],
              [
                5.025133551792205,
                49.943977882480795
              ],
              [
                5.025101819977312,
                49.943625553805965
              ],
              [
                5.025016728317695,
                49.94327692880654
              ],
              [
                5.024879097415964,
                49.94293536481478
              ],
              [
                5.02469025376394,
                49.94260415109315
              ],
              [
                5.024452016928194,
                49.94228647716398
              ],
              [
                5.0241666819920905,
                49.94198540210222
              ],
              [
                5.023916887878016,
                49.941772058320154
              ],
              [
                5.024388388191576,
                49.94166009825079
              ],
              [
                5.024880627352382,
                49.941506351091576
              ],
              [
                5.025347141845731,
                49.94132220484574
              ],
              [
                5.025783438344309,
                49.94110943328131
              ],
              [
                5.026185314752003,
                49.940870085871204
              ],
              [
                5.026548900684762,
                49.940606468041494
              ],
              [
                5.026870694748147,
                49.94032111895425
              ],
              [
                5.027147598252387,
                49.940016787039625
              ],
              [
                5.027376945040519,
                49.93969640351293
              ],
              [
                5.0275565271428055,
                49.9393630541327
              ],
              [
                5.027684616011283,
                49.93901994947196
              ],
              [
                5.027759979131026,
                49.93867039398967
              ],
              [
                5.0277818918495525,
                49.93831775420014
              ],
              [
                5.027750144311983,
                49.937965426247864
              ],
              [
                5.027665043436833,
                49.937616803199475
              ],
              [
                5.027527409915171,
                49.93727524236843
              ]
            ]
          ],
          [
            [
              [
                5.062879472377995,
                49.95511844893654
              ],
              [
                5.062640920101408,
                49.954800854149504
              ],
              [
                5.0623552706629535,
                49.95449987385852
              ],
              [
                5.062025275559782,
                49.9542184063291
              ],
              [
                5.061654113146481,
                49.95395916188088
              ],
              [
                5.061245358013449,
                49.95372463679999
              ],
              [
                5.0608029465580495,
                49.953517089312896
              ],
              [
                5.06033113908027,
                49.95333851785307
              ],
              [
                5.0598344787676925,
                49.95319064182883
              ],
              [
                5.059317747964272,
                49.953074885077356
              ],
              [
                5.058785922143189,
                49.95299236216341
              ],
              [
                5.058244122025946,
                49.95294386765462
              ],
              [
                5.057697564307429,
                49.9529298684759
              ],
              [
                5.05715151145995,
                49.95295049941685
              ],
              [
                5.056611221097989,
                49.95300556183464
              ],
              [
                5.056081895389562,
                49.95309452556551
              ],
              [
                5.055568630999663,
                49.9532165340259
              ],
              [
                5.055076370046203,
                49.95337041245472
              ],
              [
                5.054609852539249,
                49.95355467921745
              ],
              [
                5.05417357076026,
                49.95376756006365
              ],
              [
                5.053771726019608,
                49.95400700520085
              ],
              [
                5.053408188208028,
                49.95427070902118
              ],
              [
                5.053360878683184,
                49.954312680051565
              ],
              [
                5.053324585953718,
                49.9543390058685
              ],
              [
                5.053002855319986,
                49.95462442890435
              ],
              [
                5.052726031648316,
                49.95492882300244
              ],
              [
                5.052496781478095,
                49.955249257013676
              ],
              [
                5.052317313379982,
                49.955582645273225
              ],
              [
                5.052189356656723,
                49.955925777305985
              ],
              [
                5.052114144653422,
                49.956275348736106
              ],
              [
                5.052092402839331,
                49.95662799310336
              ],
              [
                5.052124341777507,
                49.95698031427997
              ],
              [
                5.052209655051739,
                49.95732891917598
              ],
              [
                5.052347522172399,
                49.95767045041833
              ],
              [
                5.052536616435023,
                49.95800161868862
              ],
              [
                5.05277511765756,
                49.958319234408286
              ],
              [
                5.053060729675157,
                49.95862023846538
              ],
              [
                5.053390702425329,
                49.958901731687085
              ],
              [
                5.053761858411901,
                49.959161002773236
              ],
              [
                5.054170623293664,
                49.959395554421846
              ],
              [
                5.054613060303609,
                49.95960312739399
              ],
              [
                5.055084908167438,
                49.95978172228612
              ],
              [
                5.0555816221559535,
                49.95992961879921
              ],
              [
                5.056098417875426,
                49.96004539231915
              ],
              [
                5.056630317373387,
                49.96012792764756
              ],
              [
                5.0571721971146655,
                49.9601764297509
              ],
              [
                5.057718837364276,
                49.96019043142366
              ],
              [
                5.058264972500026,
                49.960169797791906
              ],
              [
                5.058805341768599,
                49.96011472761323
              ],
              [
                5.059334739994599,
                49.960025751360995
              ],
              [
                5.059848067752428,
                49.95990372611103
              ],
              [
                5.06034038051619,
                49.95974982728034
              ],
              [
                5.060806936312724,
                49.95956553729776
              ],
              [
                5.061243241417541,
                49.959352631315895
              ],
              [
                5.061645093652486,
                49.959113160102206
              ],
              [
                5.062008622867357,
                49.95884943027519
              ],
              [
                5.0620559292955045,
                49.958807455691755
              ],
              [
                5.062092220611683,
                49.958781127122556
              ],
              [
                5.062413925002621,
                49.95849567868903
              ],
              [
                5.062690707723416,
                49.95819126130004
              ],
              [
                5.062919903781734,
                49.95787080699395
              ],
              [
                5.0630993066608925,
                49.95753740221069
              ],
              [
                5.063227189540347,
                49.957194258056624
              ],
              [
                5.063302321890275,
                49.956844679370725
              ],
              [
                5.063323981281801,
                49.95649203289046
              ],
              [
                5.063291960300705,
                49.95613971482438
              ],
              [
                5.063206568499672,
                49.95579111814356
              ],
              [
                5.063068629372052,
                49.95544959990712
              ],
              [
                5.062879472377995,
                49.95511844893654
              ]
            ]
          ]
        ]
      },
      "properties": {
        "type": "buffer_union_400m",
        "buffer_m": 400
      }
    },
    {
      "type": "Feature",
      "geometry": {
        "type": "Polygon",
        "coordinates": [
          [
            [
              4.9340377,
              49.884591
            ],
            [
              4.9342072,
              49.8835939
            ],
            [
              4.9362833,
              49.8834052
            ],
            [
              4.9353512,
              49.881923
            ],
            [
              4.9355207,
              49.881411
            ],
            [
              4.9367917,
              49.8807642
            ],
            [
              4.9389102,
              49.8805755
            ],
            [
              4.9414099,
              49.8816266
            ],
            [
              4.9429776,
              49.8816805
            ],
            [
              4.9440415,
              49.8812482
            ],
            [
              4.9442385,
              49.8812446
            ],
            [
              4.9445029,
              49.8810607
            ],
            [
              4.94463,
              49.8801448
            ],
            [
              4.9451808,
              49.8792016
            ],
            [
              4.9446456,
              49.8781766
            ],
            [
              4.9539088,
              49.876237
            ],
            [
              4.9677636,
              49.8661044
            ],
            [
              4.9747833,
              49.8586568
            ],
            [
              4.9773768,
              49.8576552
            ],
            [
              4.9768582,
              49.8574351
            ],
            [
              4.9782011,
              49.8567631
            ],
            [
              4.9785967,
              49.8564188
            ],
            [
              4.9775345,
              49.8555962
            ],
            [
              4.9753634,
              49.8533201
            ],
            [
              4.9737603,
              49.8518757
            ],
            [
              4.9746698,
              49.8498273
            ],
            [
              4.9747545,
              49.8498273
            ],
            [
              4.9752629,
              49.8492883
            ],
            [
              4.9758181,
              49.8479718
            ],
            [
              4.9761365,
              49.8475178
            ],
            [
              4.9771695,
              49.8476175
            ],
            [
              4.9788642,
              49.8470245
            ],
            [
              4.9798811,
              49.845704
            ],
            [
              4.9799659,
              49.845704
            ],
            [
              4.980898,
              49.8439254
            ],
            [
              4.9811947,
              49.8431439
            ],
            [
              4.9811968,
              49.8428746
            ],
            [
              4.9824956,
              49.8430594
            ],
            [
              4.9834443,
              49.8429926
            ],
            [
              4.9842219,
              49.8435135
            ],
            [
              4.9845985,
              49.843862
            ],
            [
              4.9851346,
              49.8447517
            ],
            [
              4.986366,
              49.8455242
            ],
            [
              4.9870988,
              49.8458545
            ],
            [
              4.9875659,
              49.8463397
            ],
            [
              4.9878627,
              49.8464098
            ],
            [
              4.9877393,
              49.846562
            ],
            [
              4.9879056,
              49.8468352
            ],
            [
              4.9885225,
              49.847368
            ],
            [
              4.9886374,
              49.8479253
            ],
            [
              4.9885211,
              49.848582
            ],
            [
              4.9889205,
              49.848584
            ],
            [
              4.9888551,
              49.8491796
            ],
            [
              4.988896,
              49.8498321
            ],
            [
              4.9893621,
              49.8513968
            ],
            [
              4.9894665,
              49.8528478
            ],
            [
              4.9957283,
              49.8531127
            ],
            [
              4.9958236,
              49.8540511
            ],
            [
              4.9962138,
              49.8548141
            ],
            [
              4.9985299,
              49.8562121
            ],
            [
              5.0002089,
              49.8568675
            ],
            [
              5.0035519,
              49.8574767
            ],
            [
              5.0048786,
              49.8577943
            ],
            [
              5.0097923,
              49.8574625
            ],
            [
              5.0112703,
              49.857694
            ],
            [
              5.0124602,
              49.8579915
            ],
            [
              5.0146933,
              49.8593437
            ],
            [
              5.0153712,
              49.86026
            ],
            [
              5.0162186,
              49.8609068
            ],
            [
              5.0179134,
              49.8619574
            ],
            [
              5.019722,
              49.862335
            ],
            [
              5.0210063,
              49.8627928
            ],
            [
              5.0227073,
              49.8637547
            ],
            [
              5.0237909,
              49.864268
            ],
            [
              5.0256604,
              49.8654592
            ],
            [
              5.0258374,
              49.8661871
            ],
            [
              5.0263421,
              49.8707899
            ],
            [
              5.0224045,
              49.8707159
            ],
            [
              5.0218538,
              49.87174
            ],
            [
              5.0205403,
              49.8728989
            ],
            [
              5.0217266,
              49.8731683
            ],
            [
              5.0229977,
              49.8732491
            ],
            [
              5.0282327,
              49.8732464
            ],
            [
              5.0338008,
              49.872809
            ],
            [
              5.0345253,
              49.8732196
            ],
            [
              5.035091,
              49.8731211
            ],
            [
              5.0362927,
              49.8732283
            ],
            [
              5.0373691,
              49.8729929
            ],
            [
              5.0376965,
              49.8739788
            ],
            [
              5.0381668,
              49.8742448
            ],
            [
              5.0395395,
              49.8748152
            ],
            [
              5.0405046,
              49.8750541
            ],
            [
              5.0419174,
              49.8752492
            ],
            [
              5.0428909,
              49.8755308
            ],
            [
              5.0445807,
              49.8768375
            ],
            [
              5.0474136,
              49.8786014
            ],
            [
              5.0501624,
              49.8801151
            ],
            [
              5.0520053,
              49.8807898
            ],
            [
              5.0542944,
              49.8812617
            ],
            [
              5.0555089,
              49.8814234
            ],
            [
              5.0577405,
              49.882717
            ],
            [
              5.062627,
              49.8863283
            ],
            [
              5.0623728,
              49.8867055
            ],
            [
              5.0612712,
              49.8866516
            ],
            [
              5.0559891,
              49.886993
            ],
            [
              5.053108,
              49.8872805
            ],
            [
              5.0496338,
              49.8882327
            ],
            [
              5.0481833,
              49.8881921
            ],
            [
              5.046926,
              49.8896034
            ],
            [
              5.0487891,
              49.889998
            ],
            [
              5.0456647,
              49.890822
            ],
            [
              5.044857,
              49.89111
            ],
            [
              5.0423236,
              49.892292
            ],
            [
              5.0429979,
              49.8924649
            ],
            [
              5.0442166,
              49.8932363
            ],
            [
              5.044313,
              49.893685
            ],
            [
              5.0459574,
              49.8956783
            ],
            [
              5.0470527,
              49.897194
            ],
            [
              5.0468536,
              49.8971834
            ],
            [
              5.0468589,
              49.8976101
            ],
            [
              5.0470041,
              49.8975918
            ],
            [
              5.0468941,
              49.8978057
            ],
            [
              5.0465935,
              49.898083
            ],
            [
              5.0470513,
              49.8981471
            ],
            [
              5.0472934,
              49.8979969
            ],
            [
              5.0473632,
              49.8978277
            ],
            [
              5.0473126,
              49.8977292
            ],
            [
              5.0475846,
              49.8976671
            ],
            [
              5.0481884,
              49.8977995
            ],
            [
              5.0487004,
              49.8975888
            ],
            [
              5.0490214,
              49.8975696
            ],
            [
              5.0494643,
              49.8976476
            ],
            [
              5.0506789,
              49.8981147
            ],
            [
              5.0522607,
              49.8981147
            ],
            [
              5.0546334,
              49.8976117
            ],
            [
              5.0559891,
              49.8977194
            ],
            [
              5.0567518,
              49.8976835
            ],
            [
              5.0572038,
              49.897378
            ],
            [
              5.0588985,
              49.8981147
            ],
            [
              5.062627,
              49.9000012
            ],
            [
              5.064124,
              49.901187
            ],
            [
              5.064802,
              49.9013846
            ],
            [
              5.0656493,
              49.9020313
            ],
            [
              5.0652821,
              49.9020494
            ],
            [
              5.0647737,
              49.9025704
            ],
            [
              5.0650279,
              49.9030739
            ],
            [
              5.0647172,
              49.9047447
            ],
            [
              5.0655929,
              49.9065953
            ],
            [
              5.066412,
              49.9073319
            ],
            [
              5.0678243,
              49.9081224
            ],
            [
              5.069632,
              49.9095956
            ],
            [
              5.0704229,
              49.9100807
            ],
            [
              5.0713833,
              49.9118414
            ],
            [
              5.071807,
              49.9119672
            ],
            [
              5.0720047,
              49.9125241
            ],
            [
              5.0732476,
              49.9126679
            ],
            [
              5.0735865,
              49.9129374
            ],
            [
              5.0741514,
              49.9130631
            ],
            [
              5.0753095,
              49.9129014
            ],
            [
              5.0760439,
              49.9130811
            ],
            [
              5.0762417,
              49.9127397
            ],
            [
              5.0768348,
              49.9130272
            ],
            [
              5.0778517,
              49.913117
            ],
            [
              5.0781624,
              49.9127936
            ],
            [
              5.0786426,
              49.9130272
            ],
            [
              5.0794334,
              49.913117
            ],
            [
              5.0803373,
              49.9128655
            ],
            [
              5.0812412,
              49.9128655
            ],
            [
              5.081679,
              49.9134047
            ],
            [
              5.0846024,
              49.9140784
            ],
            [
              5.0848143,
              49.9147252
            ],
            [
              5.0866361,
              49.9151025
            ],
            [
              5.0865091,
              49.9161265
            ],
            [
              5.0873988,
              49.9169619
            ],
            [
              5.0892207,
              49.9172045
            ],
            [
              5.0911697,
              49.9187676
            ],
            [
              5.0947287,
              49.9192257
            ],
            [
              5.095915,
              49.9198456
            ],
            [
              5.0971014,
              49.9198187
            ],
            [
              5.0983724,
              49.9204654
            ],
            [
              5.1007451,
              49.9205463
            ],
            [
              5.1026517,
              49.9200073
            ],
            [
              5.1038381,
              49.9201151
            ],
            [
              5.1046431,
              49.9204924
            ],
            [
              5.1060837,
              49.9204111
            ],
            [
              5.108075,
              49.9205459
            ],
            [
              5.1093461,
              49.9203303
            ],
            [
              5.1103206,
              49.9207076
            ],
            [
              5.1110832,
              49.9207076
            ],
            [
              5.1124814,
              49.9202764
            ],
            [
              5.1136677,
              49.9200338
            ],
            [
              5.1151083,
              49.920465
            ],
            [
              5.115725,
              49.9207285
            ],
            [
              5.1160669,
              49.9206486
            ],
            [
              5.1160574,
              49.9207895
            ],
            [
              5.1162165,
              49.920799
            ],
            [
              5.1164029,
              49.9207004
            ],
            [
              5.1169582,
              49.9209954
            ],
            [
              5.1172072,
              49.9210299
            ],
            [
              5.1172558,
              49.9210667
            ],
            [
              5.117198,
              49.9212019
            ],
            [
              5.1173059,
              49.9213797
            ],
            [
              5.1182372,
              49.9220838
            ],
            [
              5.1188832,
              49.9222373
            ],
            [
              5.1190599,
              49.9223833
            ],
            [
              5.1195994,
              49.9224323
            ],
            [
              5.1193876,
              49.9232138
            ],
            [
              5.1178199,
              49.9235642
            ],
            [
              5.117142,
              49.9232408
            ],
            [
              5.1162098,
              49.9234834
            ],
            [
              5.1144304,
              49.9241032
            ],
            [
              5.1130322,
              49.9241571
            ],
            [
              5.1115917,
              49.9243996
            ],
            [
              5.1098968,
              49.9253428
            ],
            [
              5.1097698,
              49.925828
            ],
            [
              5.1098545,
              49.9266903
            ],
            [
              5.1101935,
              49.927391
            ],
            [
              5.1096427,
              49.927957
            ],
            [
              5.1074394,
              49.9285498
            ],
            [
              5.1046855,
              49.9299243
            ],
            [
              5.1032026,
              49.9310023
            ],
            [
              5.1029483,
              49.9317029
            ],
            [
              5.1014231,
              49.9329426
            ],
            [
              5.0983725,
              49.9367691
            ],
            [
              5.098203,
              49.9377124
            ],
            [
              5.0989233,
              49.9403534
            ],
            [
              5.0988809,
              49.9422129
            ],
            [
              5.0992199,
              49.9429945
            ],
            [
              5.1026094,
              49.9466056
            ],
            [
              5.1028213,
              49.948007
            ],
            [
              5.1024399,
              49.9492463
            ],
            [
              5.1023548,
              49.9509083
            ],
            [
              5.1024823,
              49.9512675
            ],
            [
              5.1020438,
              49.9520346
            ],
            [
              5.1012959,
              49.9526689
            ],
            [
              5.1002367,
              49.9561723
            ],
            [
              5.1009146,
              49.9569269
            ],
            [
              5.102101,
              49.9594871
            ],
            [
              5.1023552,
              49.960565
            ],
            [
              5.1012959,
              49.9612927
            ],
            [
              5.1003639,
              49.9609154
            ],
            [
              5.0996072,
              49.9618263
            ],
            [
              5.0982655,
              49.9616467
            ],
            [
              5.0968533,
              49.9616467
            ],
            [
              5.0949466,
              49.9612874
            ],
            [
              5.0937462,
              49.9612874
            ],
            [
              5.0907097,
              49.962545
            ],
            [
              5.0870377,
              49.9647908
            ],
            [
              5.083507,
              49.9665425
            ],
            [
              5.0807307,
              49.9668925
            ],
            [
              5.0789848,
              49.9668858
            ],
            [
              5.0778442,
              49.9682816
            ],
            [
              5.0770503,
              49.9689037
            ],
            [
              5.076551,
              49.9691895
            ],
            [
              5.0760574,
              49.9692662
            ],
            [
              5.0750339,
              49.9697571
            ],
            [
              5.072792,
              49.9704595
            ],
            [
              5.0708155,
              49.9719037
            ],
            [
              5.069316,
              49.9725418
            ],
            [
              5.0677181,
              49.973425
            ],
            [
              5.0676728,
              49.9735393
            ],
            [
              5.0674235,
              49.9736948
            ],
            [
              5.0660493,
              49.9755608
            ],
            [
              5.0656209,
              49.9767262
            ],
            [
              5.0650607,
              49.9795937
            ],
            [
              5.0669391,
              49.9818627
            ],
            [
              5.0638133,
              49.9823455
            ],
            [
              5.0629774,
              49.982621
            ],
            [
              5.0617111,
              49.9832188
            ],
            [
              5.0608773,
              49.9838803
            ],
            [
              5.0605063,
              49.9844164
            ],
            [
              5.0528472,
              49.9833746
            ],
            [
              5.052446,
              49.9840817
            ],
            [
              5.0515747,
              49.9852657
            ],
            [
              5.0517495,
              49.9853331
            ],
            [
              5.0508487,
              49.9866047
            ],
            [
              5.0501257,
              49.9864289
            ],
            [
              5.0497508,
              49.986497
            ],
            [
              5.0496121,
              49.9866181
            ],
            [
              5.0496791,
              49.9866904
            ],
            [
              5.0495727,
              49.9867491
            ],
            [
              5.0490905,
              49.9865499
            ],
            [
              5.0489323,
              49.9866574
            ],
            [
              5.0486249,
              49.9865352
            ],
            [
              5.0486186,
              49.9860998
            ],
            [
              5.0483591,
              49.9860927
            ],
            [
              5.048108,
              49.9859783
            ],
            [
              5.0477648,
              49.9860009
            ],
            [
              5.0465843,
              49.9851268
            ],
            [
              5.0451014,
              49.9835547
            ],
            [
              5.0444094,
              49.981794
            ],
            [
              5.0424322,
              49.981228
            ],
            [
              5.0424322,
              49.9811651
            ],
            [
              5.0357096,
              49.9805363
            ],
            [
              5.0323483,
              49.9794673
            ],
            [
              5.0311619,
              49.9783984
            ],
            [
              5.0265155,
              49.9777067
            ],
            [
              5.0234508,
              49.9782726
            ],
            [
              5.0191998,
              49.977518
            ],
            [
              5.0172226,
              49.97909
            ],
            [
              5.0161491,
              49.9787842
            ],
            [
              5.0151746,
              49.9795388
            ],
            [
              5.0137764,
              49.9801047
            ],
            [
              5.0112343,
              49.9803203
            ],
            [
              5.0110224,
              49.980482
            ],
            [
              5.0094972,
              49.9811827
            ],
            [
              5.0087769,
              49.9813713
            ],
            [
              5.0078447,
              49.9823954
            ],
            [
              5.0071245,
              49.9829883
            ],
            [
              5.00776,
              49.9840124
            ],
            [
              5.0072092,
              49.9854138
            ],
            [
              5.0075482,
              49.9864648
            ],
            [
              5.0075905,
              49.9878122
            ],
            [
              5.0069127,
              49.9886747
            ],
            [
              5.0064466,
              49.9888094
            ],
            [
              5.0099209,
              49.9912883
            ],
            [
              5.0125477,
              49.9923933
            ],
            [
              5.0125477,
              49.9942258
            ],
            [
              5.0122935,
              49.9960045
            ],
            [
              5.0124206,
              49.997298
            ],
            [
              5.0114461,
              49.9974058
            ],
            [
              5.0097514,
              49.9971633
            ],
            [
              5.0090311,
              49.9975406
            ],
            [
              5.0084803,
              49.9981605
            ],
            [
              5.0039892,
              50.0008823
            ],
            [
              5.001786,
              50.0031461
            ],
            [
              5.0008115,
              50.0043858
            ],
            [
              4.9994557,
              50.0055443
            ],
            [
              4.9985659,
              50.0057868
            ],
            [
              4.9972524,
              50.0058138
            ],
            [
              4.9955577,
              50.0063528
            ],
            [
              4.994329,
              50.0071343
            ],
            [
              4.9943714,
              50.0077272
            ],
            [
              4.995473,
              50.0089399
            ],
            [
              4.9965322,
              50.009425
            ],
            [
              4.9978456,
              50.0132249
            ],
            [
              4.9975914,
              50.0138987
            ],
            [
              4.9969983,
              50.0142759
            ],
            [
              4.9969285,
              50.014629
            ],
            [
              4.995304,
              50.015112
            ],
            [
              4.9939477,
              50.0151922
            ],
            [
              4.9928038,
              50.0153808
            ],
            [
              4.991236,
              50.015839
            ],
            [
              4.990891,
              50.016012
            ],
            [
              4.9872678,
              50.0150547
            ],
            [
              4.9858697,
              50.0124136
            ],
            [
              4.9857849,
              50.0119825
            ],
            [
              4.9872678,
              50.0090449
            ],
            [
              4.9903184,
              50.0048411
            ],
            [
              4.9926487,
              50.0028199
            ],
            [
              4.993369,
              50.0018497
            ],
            [
              4.9967585,
              49.9992356
            ],
            [
              4.9973517,
              49.9986427
            ],
            [
              4.9972246,
              49.9980767
            ],
            [
              4.9959112,
              49.9977264
            ],
            [
              4.9950214,
              49.9971335
            ],
            [
              4.9947248,
              49.9965676
            ],
            [
              4.9959959,
              49.9950048
            ],
            [
              4.9969704,
              49.9930915
            ],
            [
              4.9954875,
              49.9920404
            ],
            [
              4.9940893,
              49.9904235
            ],
            [
              4.993369,
              49.9888873
            ],
            [
              4.9916319,
              49.987998
            ],
            [
              4.9918014,
              49.9869201
            ],
            [
              4.9926487,
              49.986408
            ],
            [
              4.9928606,
              49.9857073
            ],
            [
              4.9938774,
              49.9851952
            ],
            [
              4.9940045,
              49.9845215
            ],
            [
              4.994852,
              49.9836053
            ],
            [
              4.9954875,
              49.9826895
            ],
            [
              4.9958688,
              49.9810994
            ],
            [
              4.9960807,
              49.978135
            ],
            [
              4.9959959,
              49.9769762
            ],
            [
              5.0035376,
              49.9761946
            ],
            [
              5.0045544,
              49.9757904
            ],
            [
              5.0056561,
              49.9748741
            ],
            [
              5.0066729,
              49.9734188
            ],
            [
              5.0085795,
              49.972799
            ],
            [
              5.0094269,
              49.9728529
            ],
            [
              5.0084948,
              49.9716132
            ],
            [
              5.0076474,
              49.9709126
            ],
            [
              5.0068424,
              49.9705352
            ],
            [
              5.0039612,
              49.9696998
            ],
            [
              5.0030715,
              49.9695381
            ],
            [
              4.9938774,
              49.9662772
            ],
            [
              4.9936233,
              49.9653879
            ],
            [
              4.993708,
              49.9646064
            ],
            [
              4.9950214,
              49.9627203
            ],
            [
              4.994979,
              49.960726
            ],
            [
              4.997733,
              49.959136
            ],
            [
              4.9980296,
              49.9578694
            ],
            [
              4.9962925,
              49.9567644
            ],
            [
              4.9942588,
              49.9560099
            ],
            [
              4.994979,
              49.9548511
            ],
            [
              4.9958688,
              49.9541773
            ],
            [
              4.995657,
              49.953234
            ],
            [
              4.9952332,
              49.9525334
            ],
            [
              4.9951908,
              49.9515902
            ],
            [
              4.9940045,
              49.9515366
            ],
            [
              4.9907421,
              49.9505395
            ],
            [
              4.9890473,
              49.9501622
            ],
            [
              4.9881576,
              49.9491651
            ],
            [
              4.9870136,
              49.9482757
            ],
            [
              4.9845562,
              49.9471169
            ],
            [
              4.9763367,
              49.9448262
            ],
            [
              4.9762095,
              49.9435866
            ],
            [
              4.9757858,
              49.9430745
            ],
            [
              4.9767603,
              49.9405143
            ],
            [
              4.976845,
              49.9405143
            ],
            [
              4.9773111,
              49.9384661
            ],
            [
              4.974883,
              49.9358861
            ],
            [
              4.9741869,
              49.9340391
            ],
            [
              4.9738368,
              49.9334269
            ],
            [
              4.971859,
              49.9331887
            ],
            [
              4.9692856,
              49.9340607
            ],
            [
              4.967166,
              49.9345607
            ],
            [
              4.9661677,
              49.9324936
            ],
            [
              4.9648122,
              49.9314057
            ],
            [
              4.9631175,
              49.9307051
            ],
            [
              4.9610838,
              49.9305434
            ],
            [
              4.9591347,
              49.9291689
            ],
            [
              4.9580755,
              49.9286839
            ],
            [
              4.9576942,
              49.928037
            ],
            [
              4.9562537,
              49.9273094
            ],
            [
              4.9560418,
              49.9268513
            ],
            [
              4.9535844,
              49.9266627
            ],
            [
              4.9526947,
              49.9259889
            ],
            [
              4.9512542,
              49.9253152
            ],
            [
              4.9495593,
              49.9249109
            ],
            [
              4.9492628,
              49.9241833
            ],
            [
              4.9498136,
              49.922917
            ],
            [
              4.9485001,
              49.9218121
            ],
            [
              4.9482882,
              49.9209227
            ],
            [
              4.9475256,
              49.920249
            ],
            [
              4.9458308,
              49.9200065
            ],
            [
              4.9451953,
              49.9189824
            ],
            [
              4.9446869,
              49.9179044
            ],
            [
              4.9430624,
              49.9169026
            ],
            [
              4.9430199,
              49.9164175
            ],
            [
              4.9445029,
              49.9167409
            ],
            [
              4.9456892,
              49.9171991
            ],
            [
              4.9472569,
              49.916687
            ],
            [
              4.9492906,
              49.9152318
            ],
            [
              4.9505193,
              49.9139113
            ],
            [
              4.9510701,
              49.9124294
            ],
            [
              4.9525107,
              49.9108933
            ],
            [
              4.9524624,
              49.9094514
            ],
            [
              4.9512786,
              49.9094656
            ],
            [
              4.9495872,
              49.9090069
            ],
            [
              4.9485023,
              49.9075116
            ],
            [
              4.94843,
              49.9063825
            ],
            [
              4.9475477,
              49.9039611
            ],
            [
              4.9463248,
              49.9034553
            ],
            [
              4.9452231,
              49.9023773
            ],
            [
              4.9439521,
              49.9016226
            ],
            [
              4.9433166,
              49.9008411
            ],
            [
              4.9434861,
              49.8999518
            ],
            [
              4.9445029,
              49.8989816
            ],
            [
              4.9452655,
              49.8987391
            ],
            [
              4.9452231,
              49.8974728
            ],
            [
              4.9445876,
              49.8972573
            ],
            [
              4.9417489,
              49.8955325
            ],
            [
              4.9406897,
              49.8955594
            ],
            [
              4.9390373,
              49.8962332
            ],
            [
              4.9346309,
              49.8954247
            ],
            [
              4.9332327,
              49.895263
            ],
            [
              4.9319193,
              49.8945084
            ],
            [
              4.9316651,
              49.893673
            ],
            [
              4.9306482,
              49.8931609
            ],
            [
              4.9308177,
              49.8921638
            ],
            [
              4.9328514,
              49.8904121
            ],
            [
              4.9337412,
              49.890466
            ],
            [
              4.9338682,
              49.8899809
            ],
            [
              4.932809,
              49.8886604
            ],
            [
              4.9344614,
              49.8880944
            ],
            [
              4.934758,
              49.8877441
            ],
            [
              4.9342495,
              49.8858576
            ],
            [
              4.9343767,
              49.8850761
            ],
            [
              4.9340377,
              49.884591
            ]
          ]
        ]
      },
      "properties": {
        "type": "boundary",
        "gemeente": "Bièvre"
      }
    }
  ]
}