{"type":"FeatureCollection","metadata":{"gemeente":"Boutersem","slug":"boutersem","generated_at":"2026-09-26T10:41:00.640637Z","total_points":19,"providers":["bpost","DHL","GLS","InPost","VintedGo","PostNL","DPD","Amazon"],"bounds":[4.8263942,50.835856,4.84937,50.8449788]},"features":[{"type":"Feature","geometry":{"type":"Point","coordinates":[4.83681,50.84018]},"properties":{"type":"pakketpunt","locatieNaam":"Boutersem","straatNaam":"Leuvensesteenweg","straatNr":"290","vervoerder":"bpost","puntType":"postkantoor","bezettingsgraad":50,"latitude":50.84018,"longitude":4.83681,"canPickup":true,"canDropoff":true,"openingstijden":null}},{"type":"Feature","geometry":{"type":"Point","coordinates":[4.84159,50.84469]},"properties":{"type":"pakketpunt","locatieNaam":"Bbox 24/7 Bib Boutersem","straatNaam":"Kerkomsesteenweg","straatNr":"55","vervoerder":"bpost","puntType":"automaat","bezettingsgraad":50,"latitude":50.84469,"longitude":4.84159,"canPickup":true,"canDropoff":true,"openingstijden":null}},{"type":"Feature","geometry":{"type":"Point","coordinates":[4.83577,50.83586]},"properties":{"type":"pakketpunt","locatieNaam":"Pakjesautomaat 24/7 Station Vertrijk","straatNaam":"Stationsstraat","straatNr":"61","vervoerder":"bpost","puntType":"automaat","bezettingsgraad":50,"latitude":50.83586,"longitude":4.83577,"canPickup":true,"canDropoff":true,"openingstijden":null}},{"type":"Feature","geometry":{"type":"Point","coordinates":[4.84501,50.83721]},"properties":{"type":"pakketpunt","locatieNaam":"Bbox 24/7 Q8 Boutersem","straatNaam":"Leuvensesteenweg","straatNr":"232","vervoerder":"bpost","puntType":"automaat","bezettingsgraad":50,"latitude":50.83721,"longitude":4.84501,"canPickup":true,"canDropoff":true,"openingstijden":null}},{"type":"Feature","geometry":{"type":"Point","coordinates":[4.84781,50.83695]},"properties":{"type":"pakketpunt","locatieNaam":"Bbox 24/7 Armonea Vondelhof","straatNaam":"Leuvensesteenweg","straatNr":"215","vervoerder":"bpost","puntType":"automaat","bezettingsgraad":50,"latitude":50.83695,"longitude":4.84781,"canPickup":true,"canDropoff":true,"openingstijden":null}},{"type":"Feature","geometry":{"type":"Point","coordinates":[4.835769,50.835856]},"properties":{"type":"pakketpunt","locatieNaam":"PARCEL LOCKER 24/7 STATION VERTRIJK","straatNaam":"STATIONSSTRAAT","straatNr":"61","vervoerder":"DHL","puntType":"packStation","bezettingsgraad":50,"latitude":50.835856,"longitude":4.835769,"canPickup":true,"canDropoff":true,"openingstijden":{"ma":"00:00 - 23:59","di":"00:00 - 23:59","wo":"00:00 - 23:59","do":"00:00 - 23:59","vr":"00:00 - 23:59","za":"00:00 - 23:59","zo":"00:00 - 23:59"}}},{"type":"Feature","geometry":{"type":"Point","coordinates":[4.836806,50.840175]},"properties":{"type":"pakketpunt","locatieNaam":"BOUTERSEM","straatNaam":"LEUVENSESTEENWEG","straatNr":"290","vervoerder":"DHL","puntType":"postOffice","bezettingsgraad":50,"latitude":50.840175,"longitude":4.836806,"canPickup":true,"canDropoff":true,"openingstijden":{"ma":"09:30 - 12:30, 13:45 - 17:00","di":"09:30 - 12:30, 13:45 - 18:00","wo":"09:30 - 12:30","do":"14:00 - 18:00","vr":"09:30 - 12:30","za":"gesloten","zo":"gesloten"}}},{"type":"Feature","geometry":{"type":"Point","coordinates":[4.845009,50.837213]},"properties":{"type":"pakketpunt","locatieNaam":"BBOX 24/7 Q8 BOUTERSEM","straatNaam":"LEUVENSESTEENWEG","straatNr":"232","vervoerder":"DHL","puntType":"packStation","bezettingsgraad":50,"latitude":50.837213,"longitude":4.845009,"canPickup":true,"canDropoff":true,"openingstijden":{"ma":"00:00 - 23:59","di":"00:00 - 23:59","wo":"00:00 - 23:59","do":"00:00 - 23:59","vr":"00:00 - 23:59","za":"00:00 - 23:59","zo":"00:00 - 23:59"}}},{"type":"Feature","geometry":{"type":"Point","coordinates":[4.847808,50.836947]},"properties":{"type":"pakketpunt","locatieNaam":"BBOX 24/7 ARMONEA VONDELHOF","straatNaam":"LEUVENSESTEENWEG","straatNr":"215","vervoerder":"DHL","puntType":"packStation","bezettingsgraad":50,"latitude":50.836947,"longitude":4.847808,"canPickup":true,"canDropoff":true,"openingstijden":{"ma":"00:00 - 23:59","di":"00:00 - 23:59","wo":"00:00 - 23:59","do":"00:00 - 23:59","vr":"00:00 - 23:59","za":"00:00 - 23:59","zo":"00:00 - 23:59"}}},{"type":"Feature","geometry":{"type":"Point","coordinates":[4.841594,50.844692]},"properties":{"type":"pakketpunt","locatieNaam":"BBOX 24/7 BIB BOUTERSEM","straatNaam":"KERKOMSESTEENWEG","straatNr":"55","vervoerder":"DHL","puntType":"packStation","bezettingsgraad":50,"latitude":50.844692,"longitude":4.841594,"canPickup":true,"canDropoff":true,"openingstijden":{"ma":"00:00 - 23:59","di":"00:00 - 23:59","wo":"00:00 - 23:59","do":"00:00 - 23:59","vr":"00:00 - 23:59","za":"00:00 - 23:59","zo":"00:00 - 23:59"}}},{"type":"Feature","geometry":{"type":"Point","coordinates":[4.8416158,50.8449788]},"properties":{"type":"pakketpunt","locatieNaam":"GLS Parcel Locker powered by bbox","straatNaam":"Kerkomsesteenweg","straatNr":"55","vervoerder":"GLS","puntType":"locker","bezettingsgraad":50,"latitude":50.8449788,"longitude":4.8416158,"canPickup":true,"canDropoff":true,"openingstijden":"vr: 00:00 - 24:00; ma: 00:00 - 24:00"}},{"type":"Feature","geometry":{"type":"Point","coordinates":[4.82659,50.84494]},"properties":{"type":"pakketpunt","locatieNaam":"TEXACO VANMOL","straatNaam":"425 Leuvensesteenweg","straatNr":"","vervoerder":"InPost","puntType":"servicepunt","bezettingsgraad":50,"latitude":50.84494,"longitude":4.82659,"canPickup":true,"canDropoff":true,"openingstijden":null}},{"type":"Feature","geometry":{"type":"Point","coordinates":[4.8458292,50.8366756]},"properties":{"type":"pakketpunt","locatieNaam":"Hd Dynamica","straatNaam":"Leuvensesteenweg","straatNr":"230","vervoerder":"VintedGo","puntType":"locker","bezettingsgraad":50,"latitude":50.8366756,"longitude":4.8458292,"canPickup":true,"canDropoff":true,"openingstijden":null}},{"type":"Feature","geometry":{"type":"Point","coordinates":[4.84937,50.83605]},"properties":{"type":"pakketpunt","locatieNaam":"Bajwa Market","straatNaam":"Leuvensesteenweg","straatNr":"209A","vervoerder":"PostNL","puntType":"servicepunt","bezettingsgraad":50,"latitude":50.83605,"longitude":4.84937,"canPickup":true,"canDropoff":true,"openingstijden":"10:00 - 23:45"}},{"type":"Feature","geometry":{"type":"Point","coordinates":[4.8263942,50.844759]},"properties":{"type":"pakketpunt","locatieNaam":"TEXACO VANMOL","straatNaam":"LEUVENSESTEENWEG","straatNr":"425","vervoerder":"DPD","puntType":"pickup_point","bezettingsgraad":50,"latitude":50.844759,"longitude":4.8263942,"canPickup":true,"canDropoff":true,"openingstijden":{"ma":"06:00 - 18:00","di":"06:00 - 18:00","wo":"06:00 - 18:00","do":"06:00 - 18:00","vr":"06:00 - 18:00","za":"07:00 - 16:00","zo":"gesloten"}}},{"type":"Feature","geometry":{"type":"Point","coordinates":[4.845009,50.837213]},"properties":{"type":"pakketpunt","locatieNaam":"bpost - BBOX 24/7 Q8 BOUTERSEM","straatNaam":"LEUVENSESTEENWEG,232","straatNr":"","vervoerder":"Amazon","puntType":"3p","bezettingsgraad":50,"latitude":50.837213,"longitude":4.845009,"canPickup":true,"canDropoff":false,"openingstijden":null}},{"type":"Feature","geometry":{"type":"Point","coordinates":[4.836806,50.840175]},"properties":{"type":"pakketpunt","locatieNaam":"bpost - BOUTERSEM","straatNaam":"LEUVENSESTEENWEG,290","straatNr":"","vervoerder":"Amazon","puntType":"3p","bezettingsgraad":50,"latitude":50.840175,"longitude":4.836806,"canPickup":true,"canDropoff":false,"openingstijden":null}},{"type":"Feature","geometry":{"type":"Point","coordinates":[4.847808,50.836947]},"properties":{"type":"pakketpunt","locatieNaam":"bpost - BBOX 24/7 ARMONEA VONDELHOF","straatNaam":"LEUVENSESTEENWEG,215","straatNr":"","vervoerder":"Amazon","puntType":"3p","bezettingsgraad":50,"latitude":50.836947,"longitude":4.847808,"canPickup":true,"canDropoff":false,"openingstijden":null}},{"type":"Feature","geometry":{"type":"Point","coordinates":[4.841594,50.844692]},"properties":{"type":"pakketpunt","locatieNaam":"bpost - BBOX 24/7 BIB BOUTERSEM","straatNaam":"KERKOMSESTEENWEG,55","straatNr":"","vervoerder":"Amazon","puntType":"3p","bezettingsgraad":50,"latitude":50.844692,"longitude":4.841594,"canPickup":true,"canDropoff":false,"openingstijden":null}},{"type":"Feature","geometry":{"type":"Polygon","coordinates":[[[4.7960297,50.8469914],[4.7965722,50.8473212],[4.7965651,50.8474526],[4.7967021,50.8475572],[4.7971858,50.8473202],[4.7974095,50.8474813],[4.8003497,50.8478443],[4.8010378,50.8477679],[4.802921,50.847322],[4.8028233,50.8469991],[4.8025717,50.8468867],[4.8025664,50.8468219],[4.8034572,50.846263],[4.8046026,50.8457751],[4.8051678,50.8456183],[4.8081549,50.8458299],[4.8081526,50.8461084],[4.8110815,50.8461396],[4.8111197,50.8463087],[4.811008,50.846638],[4.8109702,50.8473256],[4.8110117,50.8474951],[4.8119989,50.8501313],[4.8126397,50.8523393],[4.8112222,50.8526733],[4.8098941,50.852855],[4.8099584,50.8569476],[4.8100763,50.8574484],[4.8100871,50.8585065],[4.8118893,50.858157],[4.8118506,50.8579646],[4.8122633,50.8579111],[4.8130517,50.8579695],[4.8132559,50.8577962],[4.8136553,50.857858],[4.814695,50.8574662],[4.8149377,50.8574478],[4.8156414,50.8567859],[4.8146999,50.856876],[4.8147188,50.8565875],[4.8145532,50.8565834],[4.814464,50.8563663],[4.8142549,50.8550064],[4.8140814,50.8526924],[4.8203819,50.8524218],[4.8206565,50.8523527],[4.8211383,50.8524184],[4.8222084,50.852838],[4.8240418,50.8541899],[4.8256062,50.8545605],[4.8247721,50.8552509],[4.8276055,50.8563404],[4.8282343,50.8554107],[4.8286905,50.8556069],[4.83116,50.8556734],[4.8320468,50.855812],[4.8328297,50.8559993],[4.8329294,50.856095],[4.8345941,50.8567145],[4.8357221,50.8567011],[4.8355347,50.8583335],[4.838266,50.8589067],[4.8391502,50.8595977],[4.8395501,50.8600525],[4.8401613,50.860224],[4.8413603,50.8601511],[4.8427133,50.8603423],[4.8440156,50.8603946],[4.8452315,50.8606944],[4.8462265,50.8607501],[4.8505893,50.8616759],[4.8504818,50.862146],[4.850598,50.8631058],[4.8503897,50.8636802],[4.8509514,50.8637581],[4.8509465,50.8644433],[4.8512497,50.8650416],[4.8520156,50.8653162],[4.8516073,50.8657786],[4.8535452,50.8668153],[4.8531997,50.8671291],[4.8528651,50.8678473],[4.85346,50.8680015],[4.8536346,50.8682027],[4.8550293,50.8685464],[4.8558984,50.8685855],[4.8566784,50.8687354],[4.8582319,50.8694052],[4.8601825,50.870074],[4.8637042,50.8710665],[4.8641146,50.8710038],[4.8647105,50.8711024],[4.8647682,50.8710323],[4.8651007,50.87109],[4.8663934,50.8710242],[4.8666167,50.8707473],[4.8683275,50.8711379],[4.8693497,50.8712466],[4.8692296,50.8714999],[4.8710926,50.8719886],[4.874299,50.8722929],[4.8744509,50.8717766],[4.8740577,50.871669],[4.8748937,50.8704518],[4.8760137,50.8705118],[4.8765513,50.8699107],[4.8759097,50.8697708],[4.8772544,50.8668526],[4.8781723,50.8662282],[4.8801437,50.8639342],[4.8804699,50.8623468],[4.8806572,50.8619845],[4.8811174,50.8620764],[4.8812403,50.8619433],[4.8811901,50.8612949],[4.8826483,50.8604403],[4.8829773,50.8601718],[4.8832891,50.8596996],[4.8858831,50.8580801],[4.8878384,50.8563274],[4.8891889,50.8546552],[4.8908802,50.8533315],[4.8920022,50.8525855],[4.89302,50.8517209],[4.8952649,50.8525651],[4.8966489,50.8513799],[4.8980836,50.8503158],[4.8987607,50.8495613],[4.8994374,50.848591],[4.8988078,50.8485213],[4.8985127,50.8487192],[4.8978542,50.8484964],[4.8974875,50.8485027],[4.8968662,50.8482019],[4.8969303,50.8479628],[4.8965503,50.8479952],[4.8963478,50.847797],[4.8957104,50.8478591],[4.8959271,50.8476047],[4.8956087,50.8476547],[4.8951441,50.847494],[4.8949109,50.8477992],[4.894737,50.8476554],[4.8943217,50.8477191],[4.8941013,50.8475971],[4.8929862,50.8474816],[4.8929308,50.8474027],[4.8933128,50.8473015],[4.8932646,50.847187],[4.8928685,50.8472218],[4.8927564,50.8470344],[4.8924027,50.8471293],[4.8920153,50.8469504],[4.8920666,50.8468117],[4.8920035,50.8467749],[4.8917681,50.8468322],[4.8914288,50.846787],[4.8908973,50.8465372],[4.8907921,50.8464035],[4.8902278,50.846385],[4.8890363,50.8458713],[4.887771,50.845571],[4.8850159,50.8447497],[4.8850263,50.844436],[4.8844347,50.8444267],[4.8837853,50.8442836],[4.8831828,50.8438798],[4.8824922,50.8446409],[4.881722,50.8443108],[4.8810669,50.8442275],[4.8808821,50.8440944],[4.880839,50.8439654],[4.8806669,50.8440405],[4.8804783,50.8439342],[4.880319,50.843958],[4.8800667,50.8437946],[4.8790682,50.8434265],[4.8785701,50.843177],[4.8779943,50.8427117],[4.8775656,50.8425817],[4.8763516,50.8417335],[4.875518,50.842181],[4.8752817,50.8421316],[4.875085,50.8419566],[4.8747788,50.8419262],[4.8747333,50.8416753],[4.8743414,50.8415565],[4.8741184,50.8413755],[4.8735745,50.841257],[4.873219,50.8412761],[4.8732154,50.8411026],[4.8728725,50.8405302],[4.8729096,50.8401014],[4.8728196,50.8400099],[4.8730957,50.839363],[4.872996,50.8391273],[4.8731369,50.8375207],[4.8729644,50.8369684],[4.8730876,50.8365742],[4.8734455,50.8362132],[4.8752788,50.8350559],[4.8774284,50.8339562],[4.8780896,50.8337635],[4.878521,50.8337648],[4.878039,50.8328268],[4.8784924,50.8321396],[4.8787905,50.8320684],[4.8791563,50.8315503],[4.8788826,50.8312362],[4.8787042,50.8312301],[4.8771855,50.8316683],[4.8760875,50.8303858],[4.8756959,50.8305436],[4.875093,50.8295127],[4.8745781,50.8276745],[4.8748621,50.8275814],[4.8729103,50.8271879],[4.8729016,50.8270331],[4.8731611,50.8263559],[4.866763,50.8272945],[4.8666459,50.826878],[4.8667836,50.8258834],[4.8656796,50.8257806],[4.8638349,50.8253384],[4.8640296,50.8249931],[4.8624164,50.8247049],[4.8626263,50.8240533],[4.8629605,50.8234372],[4.8609586,50.8229467],[4.8576107,50.822644],[4.8576921,50.82224],[4.855257,50.8223603],[4.8550012,50.8233093],[4.8534575,50.8231965],[4.8533769,50.8228876],[4.8535606,50.8221625],[4.851749,50.8217597],[4.8520677,50.8212591],[4.8524547,50.8203863],[4.8517936,50.8200393],[4.8517212,50.819856],[4.8518021,50.8196056],[4.8543427,50.8165564],[4.8553333,50.8154953],[4.8559513,50.8146387],[4.857678,50.8133604],[4.8581093,50.8127852],[4.85617,50.8123772],[4.8566431,50.8115233],[4.8543679,50.8101846],[4.8559791,50.8096045],[4.8557989,50.8091009],[4.8557094,50.807913],[4.8554757,50.8079086],[4.8554362,50.8076684],[4.8556956,50.8060524],[4.8572954,50.8059084],[4.8574247,50.8052021],[4.8576508,50.8052247],[4.858082,50.8040091],[4.8582258,50.8030717],[4.8567994,50.8030617],[4.8568355,50.8019937],[4.8556472,50.8020979],[4.8545073,50.8024259],[4.8537496,50.8022441],[4.8534894,50.8024591],[4.852946,50.8020808],[4.8528442,50.8020964],[4.8526893,50.8022286],[4.8524835,50.8022495],[4.8523419,50.8024198],[4.8521546,50.8024466],[4.851435,50.8028423],[4.8512847,50.8028237],[4.8503586,50.8031635],[4.8493657,50.8033791],[4.8490274,50.8035409],[4.8486234,50.8035632],[4.8482841,50.803751],[4.8481096,50.803716],[4.8478074,50.8038514],[4.8476024,50.8038232],[4.8466609,50.8040018],[4.8462183,50.8041736],[4.8460203,50.8041056],[4.8460481,50.8040074],[4.8459279,50.8040357],[4.8457102,50.8039253],[4.8455766,50.80402],[4.8451276,50.803965],[4.8446649,50.8042869],[4.8443291,50.8044107],[4.8442815,50.8045186],[4.84407,50.8045818],[4.8438049,50.8044391],[4.8436749,50.8044865],[4.8433193,50.8043995],[4.8416181,50.8044708],[4.8415452,50.8043404],[4.8411898,50.8042065],[4.8407135,50.804183],[4.8404455,50.8040169],[4.8400951,50.8040804],[4.8399103,50.8038807],[4.8395729,50.8037154],[4.8394283,50.803764],[4.838415,50.803498],[4.8377374,50.8034167],[4.8367771,50.8031121],[4.8364395,50.8030858],[4.8363419,50.8029984],[4.8355898,50.8030984],[4.8353744,50.8029581],[4.8351599,50.8029486],[4.8350958,50.8028333],[4.8348407,50.8027309],[4.8338871,50.8026268],[4.8332822,50.8026438],[4.8331934,50.802756],[4.8330563,50.8027399],[4.8330973,50.802174],[4.8316048,50.8020151],[4.8304691,50.8017315],[4.8302245,50.8017587],[4.8296958,50.8021894],[4.8296229,50.8021793],[4.8289288,50.801961],[4.8275348,50.8016951],[4.8264208,50.8012084],[4.8260358,50.8008991],[4.8257277,50.8005113],[4.8242626,50.7982484],[4.8237059,50.7977324],[4.8234345,50.797837],[4.8225173,50.7970404],[4.8222981,50.7970892],[4.8218279,50.7963049],[4.8205909,50.7967056],[4.8203323,50.7961178],[4.8206437,50.7956758],[4.8213213,50.795372],[4.8205801,50.7945082],[4.8207553,50.7944201],[4.8204222,50.7941124],[4.8191284,50.7949964],[4.8183039,50.7944984],[4.8177297,50.7950602],[4.8160319,50.794383],[4.8158457,50.7945521],[4.8147479,50.7941611],[4.8144002,50.7946089],[4.8140501,50.7944704],[4.8130685,50.7954948],[4.8124001,50.7952928],[4.8128239,50.7948531],[4.8114711,50.7943203],[4.8122335,50.79369],[4.810399,50.7926557],[4.8096331,50.793183],[4.8091207,50.792938],[4.8088637,50.7931259],[4.8055834,50.7914887],[4.8047986,50.7922607],[4.8037384,50.7930093],[4.8023405,50.791784],[4.800527,50.7903789],[4.8000424,50.7927733],[4.7964572,50.7954721],[4.7969661,50.7958703],[4.798041,50.7964009],[4.7994858,50.7967038],[4.8006304,50.7958482],[4.8025549,50.797338],[4.8012309,50.7981544],[4.8027248,50.7989903],[4.8043112,50.7994349],[4.8055262,50.7999014],[4.8085133,50.8006303],[4.8102647,50.8006247],[4.8120906,50.8011651],[4.812399,50.8010142],[4.8137366,50.80132],[4.814935,50.8017285],[4.8165129,50.8023924],[4.8161915,50.8027236],[4.8166008,50.8028626],[4.8168414,50.8025918],[4.8194503,50.803541],[4.8184961,50.8049276],[4.8181664,50.8056936],[4.8176259,50.8062625],[4.8169808,50.8071461],[4.8158368,50.808486],[4.8139357,50.809696],[4.8134298,50.8097518],[4.812958,50.8099402],[4.8126539,50.8104392],[4.8113288,50.811729],[4.806302,50.8142752],[4.8048174,50.8156103],[4.8043453,50.815711],[4.8035312,50.8154992],[4.8032894,50.8155823],[4.8049742,50.8161887],[4.8053847,50.8162267],[4.8057737,50.8164312],[4.8052073,50.8172094],[4.8058646,50.8172845],[4.8057514,50.8174808],[4.8056483,50.8174664],[4.8055455,50.8176252],[4.8051728,50.817534],[4.8043688,50.817996],[4.8044809,50.818185],[4.8042455,50.8186664],[4.8040081,50.8185605],[4.8031928,50.8192332],[4.8026067,50.819415],[4.8005898,50.8192622],[4.7982633,50.8193975],[4.7989393,50.8199034],[4.7995981,50.8208364],[4.799961,50.8211575],[4.8007926,50.8216156],[4.8006254,50.82173],[4.8019429,50.8224464],[4.8029106,50.8228243],[4.8021384,50.8234345],[4.8038156,50.8242271],[4.8034109,50.8244985],[4.8046023,50.8250623],[4.8032096,50.8261552],[4.8042541,50.8266509],[4.803021,50.8275922],[4.8037339,50.8279323],[4.8027689,50.8288606],[4.8027338,50.8290374],[4.8024537,50.8294235],[4.8026304,50.8294635],[4.8038737,50.829331],[4.8040294,50.8301859],[4.806912,50.8299056],[4.8082107,50.8316285],[4.807452,50.8326119],[4.806813,50.8345215],[4.812835,50.834976],[4.8156825,50.835391],[4.8148367,50.8363437],[4.8141141,50.8369706],[4.8130171,50.8376699],[4.8104047,50.8385715],[4.8095833,50.8389508],[4.8079693,50.8395319],[4.8065549,50.8398118],[4.8052461,50.8399265],[4.8052702,50.8407199],[4.8051809,50.8410238],[4.8049773,50.8414447],[4.8044697,50.84202],[4.8030639,50.8428316],[4.8022589,50.8434893],[4.8008886,50.8442711],[4.8000447,50.8448565],[4.7977012,50.8459666],[4.7960297,50.8469914]]]},"properties":{"type":"boundary","gemeente":"Boutersem"}}]}