{"type":"FeatureCollection","metadata":{"gemeente":"Burg-Reuland","slug":"burg-reuland","generated_at":"2026-09-26T14:20:59.740900Z","total_points":4,"providers":["bpost","DHL","GLS","Amazon"],"bounds":[6.086756,50.19453,6.1318,50.2215615]},"features":[{"type":"Feature","geometry":{"type":"Point","coordinates":[6.1318,50.19453]},"properties":{"type":"pakketpunt","locatieNaam":"Burg Reuland","straatNaam":"Talweg Burg-Reuland","straatNr":"48","vervoerder":"bpost","puntType":"postkantoor","bezettingsgraad":50,"latitude":50.19453,"longitude":6.1318,"canPickup":true,"canDropoff":true,"openingstijden":null}},{"type":"Feature","geometry":{"type":"Point","coordinates":[6.1318,50.19453]},"properties":{"type":"pakketpunt","locatieNaam":"BURG REULAND","straatNaam":"TALWEG BURG-REULAND","straatNr":"48","vervoerder":"DHL","puntType":"postOffice","bezettingsgraad":50,"latitude":50.19453,"longitude":6.1318,"canPickup":true,"canDropoff":true,"openingstijden":{"ma":"09:30 - 11:00","di":"15:30 - 18:00","wo":"09:30 - 11:00","do":"15:30 - 18:00","vr":"09:30 - 11:00","za":"gesloten","zo":"gesloten"}}},{"type":"Feature","geometry":{"type":"Point","coordinates":[6.086756,50.2215615]},"properties":{"type":"pakketpunt","locatieNaam":"Blumen Ecke","straatNaam":"St. Vither Strasse","straatNr":"15","vervoerder":"GLS","puntType":"parcel_shop","bezettingsgraad":50,"latitude":50.2215615,"longitude":6.086756,"canPickup":true,"canDropoff":true,"openingstijden":"di: 09:00 - 12:00, 13:00 - 18:00; wo: 09:00 - 12:00, 13:00 - 18:00"}},{"type":"Feature","geometry":{"type":"Point","coordinates":[6.1318,50.19453]},"properties":{"type":"pakketpunt","locatieNaam":"bpost - BURG REULAND","straatNaam":"TALWEG BURG-REULAND,48","straatNr":"","vervoerder":"Amazon","puntType":"3p","bezettingsgraad":50,"latitude":50.19453,"longitude":6.1318,"canPickup":true,"canDropoff":false,"openingstijden":null}},{"type":"Feature","geometry":{"type":"Polygon","coordinates":[[[6.0123907,50.2441668],[6.0134903,50.2455336],[6.013961,50.2466139],[6.0141766,50.2475456],[6.0149818,50.247493],[6.0149379,50.2482011],[6.0150201,50.248538],[6.0144796,50.2485951],[6.0151134,50.2502667],[6.0152768,50.2503797],[6.0160353,50.2522502],[6.0167492,50.2522993],[6.0167306,50.2527007],[6.0165098,50.2526946],[6.0153685,50.2557006],[6.0154103,50.2558588],[6.0146346,50.2575803],[6.0145215,50.2583283],[6.0139651,50.2593859],[6.0124506,50.2646049],[6.0322322,50.2637094],[6.0373305,50.262955],[6.0506555,50.2616929],[6.0517499,50.262612],[6.0530159,50.262077],[6.0526725,50.2618026],[6.05293,50.2615969],[6.0558362,50.2611963],[6.0558968,50.260959],[6.0560041,50.2608595],[6.055988,50.2606058],[6.0575652,50.2595323],[6.0577636,50.2592614],[6.0588794,50.2585721],[6.0597646,50.2578724],[6.0598987,50.257598],[6.0598128,50.2575157],[6.059845,50.2570562],[6.0601776,50.2568126],[6.0602024,50.2566263],[6.0610467,50.2566239],[6.0614383,50.2564524],[6.0618755,50.2564267],[6.0631535,50.2561253],[6.0636819,50.2556863],[6.0641929,50.2556327],[6.0650418,50.2553022],[6.0659176,50.2550822],[6.0663601,50.2546912],[6.0664406,50.2544031],[6.066391,50.2543572],[6.0668563,50.2540567],[6.0675899,50.2538513],[6.0676932,50.2536983],[6.0680741,50.2534479],[6.0681277,50.2532129],[6.0676395,50.2528288],[6.0678233,50.2521398],[6.0683517,50.2516818],[6.0685045,50.251627],[6.0687392,50.25169],[6.0688666,50.2516235],[6.068868,50.2515219],[6.0690168,50.251368],[6.0691845,50.2514687],[6.0693736,50.2513766],[6.0693722,50.2511635],[6.0692408,50.2511189],[6.0696753,50.251088],[6.069741,50.2509838],[6.0696297,50.250805],[6.0697585,50.2508084],[6.0698711,50.2507038],[6.0700696,50.2508702],[6.0709749,50.2504247],[6.0713598,50.2503985],[6.0714375,50.2504929],[6.0717017,50.2502515],[6.0719123,50.2502768],[6.0718908,50.2501001],[6.072029,50.2500542],[6.0731354,50.2499406],[6.0733956,50.249788],[6.0740017,50.2500178],[6.0739843,50.2498896],[6.0741251,50.249884],[6.0742405,50.2497605],[6.0743477,50.2498634],[6.0746025,50.249848],[6.0746696,50.2498308],[6.0746347,50.2497502],[6.0748051,50.2497284],[6.0747849,50.249649],[6.0748735,50.249613],[6.0749673,50.2497296],[6.0752047,50.2497524],[6.0754635,50.2496233],[6.0754635,50.2495135],[6.0756003,50.2494175],[6.0759276,50.2495461],[6.0760657,50.2495157],[6.0760965,50.2493746],[6.0763648,50.2493849],[6.0764211,50.2491705],[6.0764801,50.2492528],[6.0766343,50.2492018],[6.076751,50.249011],[6.0770487,50.2490024],[6.0771506,50.2488223],[6.0774779,50.2488652],[6.0778748,50.2485393],[6.0779888,50.2483151],[6.0777018,50.2470561],[6.0774819,50.2468966],[6.0777059,50.2468361],[6.0777085,50.2467041],[6.078072,50.2464078],[6.0780881,50.2462723],[6.078296,50.2462804],[6.0784569,50.2461569],[6.0785199,50.2459618],[6.0787171,50.2458739],[6.0786996,50.2456754],[6.0787734,50.2455995],[6.0785601,50.2454953],[6.0786057,50.2454164],[6.0784341,50.2453066],[6.0785065,50.2452122],[6.0784274,50.2451415],[6.0779955,50.2450403],[6.0781417,50.2449515],[6.0780197,50.2448859],[6.0779969,50.2446925],[6.0777568,50.2444742],[6.0774189,50.2443336],[6.0774564,50.2442718],[6.0776831,50.2442431],[6.0777649,50.2443387],[6.0779915,50.2442311],[6.0781323,50.244289],[6.0781297,50.2444073],[6.0789129,50.2443662],[6.0791006,50.2441277],[6.0795995,50.2441157],[6.0795968,50.2440094],[6.0799844,50.2440098],[6.0799375,50.2441432],[6.0802178,50.2441453],[6.080482,50.2439528],[6.0808038,50.2439648],[6.0809379,50.2442289],[6.0814757,50.243557],[6.0815428,50.243123],[6.0870056,50.2451941],[6.0872197,50.2447419],[6.0874718,50.2444434],[6.0876308,50.2433237],[6.0882236,50.2425579],[6.0904216,50.244173],[6.0915631,50.2449099],[6.0921985,50.2447344],[6.0919074,50.2445205],[6.0924103,50.2443784],[6.0942766,50.2433187],[6.0950855,50.2433179],[6.095459,50.2437721],[6.0980467,50.2437819],[6.0990989,50.2432654],[6.101485,50.2426519],[6.1028835,50.2418807],[6.1053297,50.2426286],[6.1056751,50.2421054],[6.1083026,50.242982],[6.1092028,50.2425531],[6.1105053,50.2421709],[6.1124858,50.241867],[6.1124643,50.2412975],[6.115485,50.2402143],[6.11661,50.2412275],[6.117019,50.2414862],[6.1178706,50.2419514],[6.1191272,50.2424502],[6.1193557,50.2424891],[6.12415,50.2420608],[6.1245171,50.2424248],[6.1257643,50.2425373],[6.1259081,50.2420807],[6.1262123,50.2421504],[6.1261973,50.2410847],[6.1265449,50.2403457],[6.128512,50.2409235],[6.1302206,50.2399182],[6.1313259,50.2401859],[6.1318141,50.2396643],[6.1320394,50.2390365],[6.1319857,50.2385458],[6.1316102,50.2381684],[6.1311972,50.2374307],[6.1311167,50.2370362],[6.1313474,50.2365695],[6.1316263,50.2363362],[6.1318194,50.2359279],[6.1319374,50.2353274],[6.1325865,50.234449],[6.1331981,50.233924],[6.1339276,50.2338622],[6.1339062,50.2325583],[6.1340027,50.232095],[6.1342388,50.2318342],[6.1376827,50.2315014],[6.1410731,50.2309112],[6.1421728,50.2308768],[6.1442099,50.2312564],[6.1451768,50.2315769],[6.1467057,50.2323044],[6.1470906,50.2327868],[6.1470423,50.2335486],[6.1472046,50.2344284],[6.147155,50.234856],[6.1470209,50.235079],[6.1455953,50.23612],[6.146062,50.2362985],[6.1467902,50.2357309],[6.148024,50.2359368],[6.148889,50.2358627],[6.1504179,50.2361715],[6.1511903,50.2360926],[6.1510455,50.2359313],[6.1511903,50.2356705],[6.1520057,50.2352897],[6.1526589,50.2351922],[6.153088,50.2353226],[6.1532717,50.2352759],[6.1534863,50.2346686],[6.1552821,50.2342315],[6.156076,50.2342829],[6.1570738,50.23418],[6.1582808,50.2338643],[6.1588011,50.2336687],[6.1594395,50.2330957],[6.1609576,50.2326564],[6.1615262,50.2326015],[6.1620949,50.2327285],[6.1625455,50.2330167],[6.1628942,50.2330888],[6.1644928,50.2328829],[6.1655925,50.232828],[6.1659143,50.2327113],[6.1661289,50.2324849],[6.166263,50.2321314],[6.1665205,50.2320045],[6.1666761,50.231699],[6.1666922,50.2313284],[6.1672286,50.2309029],[6.1676821,50.2302006],[6.1678787,50.2301068],[6.1687343,50.2303959],[6.1689702,50.2305713],[6.1694021,50.2305233],[6.1697035,50.2306575],[6.1701374,50.230955],[6.1702918,50.2311694],[6.1705342,50.2312777],[6.1706868,50.2316709],[6.1708846,50.2317659],[6.1720658,50.2321122],[6.1727568,50.2320506],[6.173207,50.2321744],[6.1733043,50.2320425],[6.1731949,50.2319039],[6.1732152,50.2318118],[6.1737675,50.2316471],[6.1739583,50.2314235],[6.174947,50.2309303],[6.1759299,50.2300522],[6.1764201,50.2294534],[6.1774912,50.2287351],[6.1775104,50.2284317],[6.177134,50.2267903],[6.1767869,50.226335],[6.1766202,50.2259445],[6.1764034,50.2257411],[6.1752163,50.225186],[6.1746573,50.2250342],[6.1726585,50.2246945],[6.170877,50.224748],[6.1701398,50.224983],[6.1697817,50.2249605],[6.1683779,50.2245737],[6.1678126,50.2242847],[6.1673687,50.2238623],[6.1665367,50.2223277],[6.166325,50.2207945],[6.1665043,50.2197571],[6.1667608,50.2193392],[6.1672389,50.2191586],[6.1681781,50.2193098],[6.1711263,50.2191505],[6.1725948,50.2187909],[6.1735335,50.2183276],[6.1752766,50.2172571],[6.1767599,50.2167001],[6.1778068,50.2166353],[6.178733,50.2153633],[6.178754,50.2149698],[6.1785916,50.2144968],[6.1790755,50.2141396],[6.179091,50.2139387],[6.1792386,50.2138137],[6.1804789,50.2129408],[6.181547,50.2120121],[6.1819645,50.2110598],[6.1821709,50.2095593],[6.1827055,50.2081494],[6.1829304,50.2078339],[6.1837515,50.2070264],[6.1854199,50.206072],[6.1888515,50.2053321],[6.1886598,50.2047153],[6.1878659,50.2044943],[6.187002,50.2044063],[6.187069,50.2042003],[6.1863001,50.2039453],[6.1856502,50.2035064],[6.1852673,50.2027095],[6.1855062,50.2021675],[6.1864911,50.2013856],[6.1863641,50.2007487],[6.1859592,50.2001348],[6.1850833,50.1992529],[6.1850593,50.1987269],[6.1854562,50.198063],[6.1861141,50.1964992],[6.1865811,50.1958313],[6.1865161,50.1952973],[6.1850093,50.1938895],[6.1847453,50.1934205],[6.1846034,50.1929586],[6.1839455,50.1926806],[6.1841284,50.1922147],[6.1844094,50.1921807],[6.1851613,50.1918297],[6.1859372,50.1912418],[6.186755,50.1903309],[6.187064,50.189541],[6.1883798,50.189018],[6.1889397,50.1885111],[6.1901645,50.1876642],[6.1903245,50.1872442],[6.1901735,50.1862453],[6.1900556,50.1861073],[6.1860661,50.1840136],[6.187078,50.1835516],[6.1895266,50.1829337],[6.1904285,50.1825178],[6.1910164,50.1823388],[6.1924961,50.1820679],[6.1884237,50.1797533],[6.187157,50.1792181],[6.1842014,50.1783102],[6.1805179,50.1781462],[6.1792751,50.1788022],[6.1787952,50.1791911],[6.1784752,50.1795841],[6.1782453,50.180443],[6.1771634,50.1788712],[6.1759296,50.1792331],[6.1749917,50.1793861],[6.1740739,50.1793171],[6.1713393,50.1787642],[6.1701964,50.1786882],[6.1688636,50.1788212],[6.1684967,50.1793711],[6.1676558,50.1797071],[6.1669329,50.1790961],[6.1652689,50.1789161],[6.165347,50.1786122],[6.1644661,50.1783765],[6.1643323,50.1786312],[6.1641523,50.1785772],[6.1620716,50.1777233],[6.1617887,50.1774673],[6.1616487,50.1770024],[6.1616587,50.1764674],[6.1617707,50.1761815],[6.1620854,50.175895],[6.1611702,50.174689],[6.1608078,50.1738167],[6.1602199,50.17181],[6.1599859,50.171757],[6.1585081,50.17186],[6.1570753,50.171814],[6.1558755,50.171879],[6.1547937,50.1733738],[6.1540188,50.1742097],[6.152654,50.1761285],[6.152417,50.1763075],[6.1510862,50.1768534],[6.1501833,50.1773873],[6.1493895,50.1775473],[6.1476797,50.1775053],[6.1469988,50.1777493],[6.1459228,50.1768075],[6.14546,50.1759795],[6.1447811,50.1744077],[6.1443662,50.1737557],[6.1444073,50.1729429],[6.1446911,50.1725049],[6.1452186,50.1721723],[6.1471428,50.171318],[6.1477657,50.1708751],[6.1477667,50.1704631],[6.1472708,50.1701322],[6.1464969,50.1698722],[6.1446561,50.1696242],[6.1430884,50.1696362],[6.1429322,50.169716],[6.1404578,50.1696282],[6.1399678,50.1694262],[6.1396769,50.1690823],[6.1395579,50.1681934],[6.1396099,50.1678274],[6.1405867,50.1663436],[6.1416751,50.1653251],[6.1434313,50.1640928],[6.1446461,50.1633869],[6.1451721,50.1632189],[6.145807,50.1631429],[6.1461659,50.162823],[6.1462519,50.162483],[6.1464153,50.1622446],[6.1460639,50.162254],[6.145939,50.1620521],[6.1459659,50.1619261],[6.1461959,50.1616671],[6.1476607,50.1605452],[6.1469768,50.1597213],[6.1461389,50.1589434],[6.145344,50.1580655],[6.1447731,50.1570476],[6.1440252,50.1563757],[6.1428394,50.1558338],[6.1418245,50.1555518],[6.13897,50.1550828],[6.1357224,50.1551968],[6.1326169,50.1555058],[6.13211,50.1553458],[6.131936,50.1551628],[6.131825,50.1547969],[6.13185,50.1541939],[6.132017,50.153507],[6.1325779,50.1529691],[6.1337927,50.1523971],[6.1341077,50.1518292],[6.1345366,50.1515842],[6.1359743,50.1513162],[6.1391809,50.1503144],[6.1405477,50.1495055],[6.1407557,50.1491315],[6.1406967,50.1480066],[6.1420965,50.1480296],[6.1429134,50.1490135],[6.1484666,50.1517832],[6.1491745,50.1514662],[6.1496814,50.1511113],[6.1504143,50.1509053],[6.1504353,50.1506423],[6.1529759,50.1501464],[6.1529889,50.1496734],[6.152508,50.1484336],[6.152361,50.1477277],[6.152392,50.1472777],[6.1532869,50.144928],[6.1535758,50.1439631],[6.1537178,50.1430972],[6.1539488,50.1425362],[6.1543447,50.1419983],[6.1545017,50.1416393],[6.1530709,50.1409374],[6.152144,50.1403195],[6.1513382,50.1395946],[6.1508112,50.1389577],[6.1507582,50.1382787],[6.1508082,50.1377148],[6.1507442,50.1375388],[6.1471798,50.135674],[6.1450291,50.1353261],[6.1440332,50.1353571],[6.1420825,50.1349221],[6.1396588,50.1349411],[6.1389065,50.1347989],[6.1384941,50.1345439],[6.138344,50.1340832],[6.1385775,50.1336314],[6.1386461,50.1327724],[6.1386145,50.1318385],[6.1383538,50.1308999],[6.1379199,50.1302989],[6.1377918,50.1298497],[6.1372606,50.1298881],[6.1368174,50.1301406],[6.1366891,50.1300922],[6.1366102,50.1298846],[6.1364996,50.1298241],[6.1362021,50.1299304],[6.1361001,50.1300865],[6.1355058,50.1301873],[6.1348084,50.1299783],[6.1349016,50.1297766],[6.1347688,50.1296764],[6.134564,50.1297282],[6.1342172,50.129548],[6.1341453,50.1296334],[6.1339929,50.1295479],[6.1334521,50.1294854],[6.132884,50.1296926],[6.1320114,50.1296118],[6.1314542,50.1297609],[6.1312745,50.12973],[6.1310969,50.1298351],[6.1308339,50.1298062],[6.1306802,50.1299393],[6.1306534,50.1300907],[6.1304959,50.1302665],[6.1305209,50.1303408],[6.1302883,50.1304093],[6.1300588,50.1306594],[6.1296442,50.1308877],[6.129564,50.1310978],[6.1291432,50.1315216],[6.1291611,50.1316694],[6.1286357,50.1321471],[6.1286345,50.1322529],[6.128415,50.1323004],[6.1282215,50.1325035],[6.1276641,50.132757],[6.1269365,50.1333838],[6.1269391,50.1335961],[6.1266224,50.1338076],[6.1265259,50.1339946],[6.124856,50.1346148],[6.1247415,50.1347241],[6.1241224,50.1346306],[6.1239197,50.1346971],[6.1228522,50.1352719],[6.1227295,50.1354211],[6.1226054,50.1353882],[6.1222763,50.1355625],[6.1223134,50.1357521],[6.121994,50.1357102],[6.1214944,50.135834],[6.1210983,50.1360104],[6.1209663,50.1361582],[6.1208019,50.1361406],[6.1206911,50.1363059],[6.1199956,50.1362994],[6.1198148,50.1362299],[6.1197774,50.1360919],[6.1193024,50.13614],[6.1191538,50.1360783],[6.1188237,50.1361195],[6.1187659,50.136205],[6.1182403,50.1361382],[6.1179074,50.136302],[6.1176896,50.1362451],[6.1168267,50.1363667],[6.1160865,50.1363517],[6.1159474,50.1365534],[6.1156577,50.1364755],[6.1156317,50.1363732],[6.1151039,50.136354],[6.1147928,50.1364225],[6.1137118,50.1363541],[6.1129517,50.1361218],[6.112688,50.136163],[6.1123957,50.1360256],[6.1120629,50.1361628],[6.1121429,50.1379924],[6.1127191,50.1384189],[6.1135098,50.1394923],[6.1136485,50.1399133],[6.1136832,50.1407102],[6.1140429,50.1419023],[6.114701,50.1428964],[6.1150681,50.144186],[6.1155317,50.1445056],[6.1170043,50.1445317],[6.1171131,50.1461688],[6.1172236,50.146603],[6.1174369,50.1469645],[6.1188832,50.1478996],[6.1212428,50.1489422],[6.1227768,50.1494957],[6.1239975,50.1495538],[6.1240989,50.1496278],[6.1249272,50.1497583],[6.1256812,50.1501128],[6.1250894,50.1503738],[6.1249516,50.1502959],[6.1248072,50.1505328],[6.1243564,50.1508616],[6.1243246,50.151028],[6.12421,50.151001],[6.1242667,50.1510977],[6.1241181,50.1512412],[6.1237886,50.1512735],[6.123638,50.1513953],[6.1235601,50.1513648],[6.1235771,50.1512193],[6.123496,50.151203],[6.1228474,50.1514363],[6.1221926,50.1514617],[6.1219989,50.1515327],[6.1220693,50.1516411],[6.1217933,50.1518528],[6.1214934,50.1518053],[6.1214291,50.1519176],[6.1215606,50.151959],[6.1214816,50.1520124],[6.1211805,50.1520542],[6.1211238,50.1519649],[6.1206585,50.1519255],[6.1204427,50.1519734],[6.1203361,50.1522285],[6.1199318,50.1524057],[6.1201012,50.1524694],[6.1199494,50.1526101],[6.1192947,50.1526491],[6.1194292,50.152842],[6.1192828,50.1529767],[6.1194121,50.1531784],[6.1191741,50.1532149],[6.1191677,50.1533732],[6.1189266,50.1533461],[6.118597,50.1534542],[6.1184156,50.1537898],[6.1184544,50.1539618],[6.1181332,50.1541505],[6.1176184,50.15476],[6.1167374,50.1550568],[6.1158293,50.1551509],[6.1152332,50.1550607],[6.1152247,50.1553464],[6.1150746,50.1554806],[6.1149764,50.155854],[6.1153667,50.156479],[6.1157472,50.1569355],[6.1167948,50.157765],[6.1170254,50.1582622],[6.1174669,50.1588165],[6.1204029,50.1618286],[6.1202077,50.1621631],[6.1197815,50.1633509],[6.1152809,50.1652849],[6.1024498,50.1705495],[6.1021449,50.170566],[6.1021605,50.1705082],[6.102025,50.1704852],[6.1015371,50.1706057],[6.1012383,50.1705148],[6.1010515,50.1706475],[6.1007272,50.1705523],[6.1002705,50.1706177],[6.1001959,50.1707555],[6.100007,50.1707347],[6.0989278,50.1702249],[6.0983892,50.1700624],[6.0982058,50.1700973],[6.0978062,50.1698371],[6.0977842,50.1697429],[6.097431,50.1696484],[6.0967444,50.1696394],[6.0966579,50.169523],[6.0959468,50.1695625],[6.0951139,50.1693078],[6.0947807,50.1692869],[6.0947739,50.1693784],[6.0945517,50.169354],[6.0944672,50.1694232],[6.0939907,50.1692872],[6.0936251,50.1693791],[6.0935594,50.1694848],[6.0933689,50.1695469],[6.0931636,50.1693983],[6.0927536,50.1694537],[6.0925626,50.1693843],[6.0924723,50.1695864],[6.0925586,50.1697828],[6.0924996,50.1698377],[6.0919164,50.1697888],[6.0910235,50.1702652],[6.0904092,50.170212],[6.089552,50.1705778],[6.0887931,50.1706372],[6.0870355,50.171273],[6.0866671,50.1716184],[6.085071,50.1720064],[6.0848011,50.1719456],[6.0842532,50.1720016],[6.0833502,50.1718524],[6.0792042,50.1707895],[6.0798304,50.1697681],[6.0799054,50.1694832],[6.0796739,50.169066],[6.079064,50.1684757],[6.0789292,50.1680557],[6.0791119,50.1677667],[6.0792882,50.1667363],[6.0802408,50.1640242],[6.0804365,50.1632817],[6.0805112,50.1625219],[6.0804248,50.1617685],[6.0802292,50.1611878],[6.0790729,50.1599772],[6.0786013,50.1585365],[6.0785193,50.1571782],[6.0787927,50.1565008],[6.0783373,50.156687],[6.0778209,50.1567333],[6.0776807,50.1568741],[6.0773611,50.1569367],[6.0768252,50.1568106],[6.0765465,50.1568826],[6.0762244,50.1568127],[6.0758915,50.1569109],[6.0756921,50.156887],[6.0756576,50.1569871],[6.0754734,50.1569821],[6.0754066,50.157092],[6.0748246,50.1570737],[6.0748277,50.1571772],[6.0746115,50.1572072],[6.0744221,50.1573174],[6.0744353,50.1573795],[6.0741896,50.1574736],[6.0720105,50.1573897],[6.0717053,50.1572752],[6.0716644,50.157178],[6.071174,50.1569041],[6.0710784,50.1569348],[6.0710209,50.1568276],[6.0709041,50.1568911],[6.070752,50.1568459],[6.0707668,50.1566524],[6.0706579,50.156713],[6.0702759,50.1566613],[6.0688713,50.1553126],[6.0671824,50.1545885],[6.0662278,50.1542992],[6.0657697,50.1540146],[6.0650449,50.1538161],[6.0645263,50.1537857],[6.0646255,50.1536308],[6.0641139,50.1534161],[6.0634433,50.153342],[6.0633528,50.1535918],[6.0628561,50.1536814],[6.0626258,50.153859],[6.0621031,50.1536879],[6.0619964,50.1537356],[6.0614502,50.1536408],[6.0603745,50.1538841],[6.0593237,50.1539617],[6.0590224,50.1540685],[6.058807,50.1540383],[6.0581535,50.1542462],[6.0570193,50.1543451],[6.0561255,50.1546685],[6.0553728,50.1551412],[6.0502913,50.1568191],[6.0486223,50.157222],[6.0457243,50.1576867],[6.0456537,50.1575906],[6.0451698,50.1576995],[6.0431444,50.1586283],[6.0400463,50.1594034],[6.0372425,50.1605584],[6.0352175,50.1619066],[6.0342231,50.1620749],[6.0335921,50.1622714],[6.0320977,50.1634962],[6.0313927,50.1639167],[6.0311602,50.1642328],[6.0307308,50.1645145],[6.0294101,50.1659836],[6.0292471,50.166374],[6.029577,50.1673653],[6.0293483,50.1689157],[6.029508,50.1698115],[6.029562,50.1707389],[6.0291488,50.1728591],[6.0281142,50.1752189],[6.0273731,50.1764621],[6.0266613,50.1770971],[6.0264466,50.1774896],[6.0254577,50.1803154],[6.0247809,50.1827989],[6.0261861,50.1832888],[6.0249815,50.1849357],[6.0243207,50.186296],[6.0238075,50.1869725],[6.0233329,50.1877997],[6.0220232,50.1896917],[6.020363,50.1917345],[6.0207717,50.1936265],[6.0237062,50.1946742],[6.0251499,50.1955888],[6.0275869,50.1968429],[6.0287392,50.1976061],[6.0292157,50.1980155],[6.0299914,50.1992464],[6.0305419,50.1998457],[6.0313138,50.200325],[6.0330978,50.2011982],[6.0324934,50.2028048],[6.0324577,50.2031531],[6.0325468,50.2034918],[6.0327139,50.2040413],[6.0330078,50.2043591],[6.0329594,50.2047317],[6.0343884,50.2059506],[6.0316911,50.2073165],[6.0286233,50.2076344],[6.0281482,50.2078626],[6.0265423,50.209125],[6.0274497,50.2095635],[6.0271076,50.2099185],[6.0244922,50.2088234],[6.0236497,50.2087142],[6.0233531,50.208349],[6.0221062,50.2079265],[6.0207002,50.2071276],[6.0204648,50.2064011],[6.0206423,50.2060721],[6.0207053,50.2056763],[6.0202688,50.205633],[6.0199947,50.2059186],[6.0196245,50.2060905],[6.0182125,50.2064696],[6.0185305,50.2067036],[6.0184272,50.2067134],[6.0166356,50.206466],[6.0153368,50.2061787],[6.0150136,50.2060671],[6.0144654,50.2055211],[6.0133766,50.206359],[6.0123636,50.2060094],[6.0120146,50.2077674],[6.0121271,50.2086137],[6.0123666,50.2092701],[6.0130005,50.209994],[6.0147919,50.2134541],[6.0150729,50.2144328],[6.0148005,50.2154183],[6.0141041,50.2158307],[6.0134173,50.2167167],[6.012475,50.2177297],[6.0121984,50.2181699],[6.0119317,50.2204148],[6.0125623,50.2205503],[6.012624,50.2210046],[6.0119962,50.2210485],[6.0118826,50.2222639],[6.0120856,50.2227516],[6.0121888,50.2234989],[6.0125424,50.2244619],[6.012807,50.2256697],[6.0124319,50.226515],[6.0118372,50.2274453],[6.0111984,50.2280206],[6.0101799,50.2286941],[6.0098598,50.2289971],[6.0097408,50.2292261],[6.0093426,50.2314602],[6.00933,50.2320727],[6.0100613,50.2331828],[6.0101431,50.2339298],[6.010071,50.2344848],[6.0089536,50.2371277],[6.0086923,50.238138],[6.0087665,50.2384819],[6.009217,50.238398],[6.0093413,50.238702],[6.008946,50.2393583],[6.0097882,50.2405674],[6.0101859,50.2403851],[6.0120243,50.2432143],[6.0123907,50.2441668]]]},"properties":{"type":"boundary","gemeente":"Burg-Reuland"}}]}