{
  "type": "FeatureCollection",
  "metadata": {
    "gemeente": "Chastre",
    "slug": "chastre",
    "generated_at": "2026-09-25T22:11:36.244881Z",
    "total_points": 7,
    "providers": [
      "bpost",
      "DHL",
      "PostNL",
      "Amazon"
    ],
    "bounds": [
      4.645497,
      50.608586480423,
      4.6499593893605,
      50.609814
    ]
  },
  "features": [
    {
      "type": "Feature",
      "geometry": {
        "type": "Point",
        "coordinates": [
          4.6455,
          50.60973
        ]
      },
      "properties": {
        "type": "pakketpunt",
        "locatieNaam": "Chastre",
        "straatNaam": "Avenue Du Castillon",
        "straatNr": "77",
        "vervoerder": "bpost",
        "puntType": "postkantoor",
        "bezettingsgraad": 50,
        "latitude": 50.60973,
        "longitude": 4.6455,
        "canPickup": true,
        "canDropoff": true,
        "openingstijden": null
      }
    },
    {
      "type": "Feature",
      "geometry": {
        "type": "Point",
        "coordinates": [
          4.64575,
          50.60981
        ]
      },
      "properties": {
        "type": "pakketpunt",
        "locatieNaam": "Bbox 24/7 Chastre Bpost",
        "straatNaam": "Avenue Du Castillon",
        "straatNr": "77",
        "vervoerder": "bpost",
        "puntType": "automaat",
        "bezettingsgraad": 50,
        "latitude": 50.60981,
        "longitude": 4.64575,
        "canPickup": true,
        "canDropoff": true,
        "openingstijden": null
      }
    },
    {
      "type": "Feature",
      "geometry": {
        "type": "Point",
        "coordinates": [
          4.645497,
          50.609734
        ]
      },
      "properties": {
        "type": "pakketpunt",
        "locatieNaam": "CHASTRE",
        "straatNaam": "AVENUE DU CASTILLON",
        "straatNr": "77",
        "vervoerder": "DHL",
        "puntType": "postOffice",
        "bezettingsgraad": 50,
        "latitude": 50.609734,
        "longitude": 4.645497,
        "canPickup": true,
        "canDropoff": true,
        "openingstijden": {
          "ma": "09:30 - 12:30, 13:45 - 17:00",
          "di": "09:30 - 12:30, 13:45 - 18:00",
          "wo": "09:30 - 12:30, 13:45 - 17:00",
          "do": "09:30 - 12:30, 13:45 - 18:00",
          "vr": "09:30 - 12:30, 13:45 - 17:00",
          "za": "09:30 - 13:00",
          "zo": "gesloten"
        }
      }
    },
    {
      "type": "Feature",
      "geometry": {
        "type": "Point",
        "coordinates": [
          4.645752,
          50.609814
        ]
      },
      "properties": {
        "type": "pakketpunt",
        "locatieNaam": "BBOX 24/7 CHASTRE BPOST",
        "straatNaam": "AVENUE DU CASTILLON",
        "straatNr": "77",
        "vervoerder": "DHL",
        "puntType": "packStation",
        "bezettingsgraad": 50,
        "latitude": 50.609814,
        "longitude": 4.645752,
        "canPickup": true,
        "canDropoff": true,
        "openingstijden": {
          "ma": "00:00 - 23:59",
          "di": "00:00 - 23:59",
          "wo": "00:00 - 23:59",
          "do": "00:00 - 23:59",
          "vr": "00:00 - 23:59",
          "za": "00:00 - 23:59",
          "zo": "00:00 - 23:59"
        }
      }
    },
    {
      "type": "Feature",
      "geometry": {
        "type": "Point",
        "coordinates": [
          4.6499593893605,
          50.608586480423
        ]
      },
      "properties": {
        "type": "pakketpunt",
        "locatieNaam": "Librairie de la gare",
        "straatNaam": "Rue Ledocte",
        "straatNr": "5bus3",
        "vervoerder": "PostNL",
        "puntType": "servicepunt",
        "bezettingsgraad": 50,
        "latitude": 50.608586480423,
        "longitude": 4.6499593893605,
        "canPickup": true,
        "canDropoff": true,
        "openingstijden": "08:00 - 12:30, 14:00 - 18:00"
      }
    },
    {
      "type": "Feature",
      "geometry": {
        "type": "Point",
        "coordinates": [
          4.645497,
          50.609734
        ]
      },
      "properties": {
        "type": "pakketpunt",
        "locatieNaam": "bpost - CHASTRE",
        "straatNaam": "AVENUE DU CASTILLON,77",
        "straatNr": "",
        "vervoerder": "Amazon",
        "puntType": "3p",
        "bezettingsgraad": 50,
        "latitude": 50.609734,
        "longitude": 4.645497,
        "canPickup": true,
        "canDropoff": false,
        "openingstijden": null
      }
    },
    {
      "type": "Feature",
      "geometry": {
        "type": "Point",
        "coordinates": [
          4.645752,
          50.609814
        ]
      },
      "properties": {
        "type": "pakketpunt",
        "locatieNaam": "bpost - BBOX 24/7 CHASTRE BPOST",
        "straatNaam": "AVENUE DU CASTILLON,77",
        "straatNr": "",
        "vervoerder": "Amazon",
        "puntType": "3p",
        "bezettingsgraad": 50,
        "latitude": 50.609814,
        "longitude": 4.645752,
        "canPickup": true,
        "canDropoff": false,
        "openingstijden": null
      }
    },
    {
      "type": "Feature",
      "geometry": {
        "type": "Polygon",
        "coordinates": [
          [
            [
              4.654113000167352,
              50.60804988831908
            ],
            [
              4.654010336665535,
              50.60779340361733
            ],
            [
              4.653868662284963,
              50.6075445572123
            ],
            [
              4.653689341951769,
              50.60730574549312
            ],
            [
              4.653474103047779,
              50.60707926817979
            ],
            [
              4.6532250187583974,
              50.60686730618206
            ],
            [
              4.652944488094515,
              50.60667190060348
            ],
            [
              4.652635212781305,
              50.606494933092286
            ],
            [
              4.652300171236784,
              50.6063381077284
            ],
            [
              4.651942589890795,
              50.60620293462041
            ],
            [
              4.651565912120534,
              50.606090715370286
            ],
            [
              4.651173765101515,
              50.60600253054552
            ],
            [
              4.650769924892668,
              50.60593922927898
            ],
            [
              4.650358280091267,
              50.605901421096554
            ],
            [
              4.649942794406825,
              50.60588947005086
            ],
            [
              4.64952746851358,
              50.60590349121759
            ],
            [
              4.649116301547947,
              50.60594334958799
            ],
            [
              4.64871325262072,
              50.60600866136825
            ],
            [
              4.648322202713738,
              50.606098797673134
            ],
            [
              4.647946917326928,
              50.606212890578526
            ],
            [
              4.647591010234656,
              50.60634984147475
            ],
            [
              4.64725790869957,
              50.60650833164037
            ],
            [
              4.646950820478394,
              50.60668683493481
            ],
            [
              4.646672702936896,
              50.60688363248807
            ],
            [
              4.646426234571204,
              50.60709682924607
            ],
            [
              4.646422936958415,
              50.60710036122623
            ],
            [
              4.6463108049872295,
              50.60708278045722
            ],
            [
              4.645899153792117,
              50.60704495655194
            ],
            [
              4.645483659180981,
              50.60703298963046
            ],
            [
              4.645068321914006,
              50.60704699492137
            ],
            [
              4.6446571412370945,
              50.60708683756878
            ],
            [
              4.644254076393038,
              50.60715213393027
            ],
            [
              4.643863008516891,
              50.607242255269036
            ],
            [
              4.643487703281558,
              50.60735633380513
            ],
            [
              4.64313177465247,
              50.60749327106723
            ],
            [
              4.6427986500996,
              50.607651748465166
            ],
            [
              4.642491537601257,
              50.60783023998134
            ],
            [
              4.6422133947569275,
              50.608027026859176
            ],
            [
              4.641966900306342,
              50.60824021414741
            ],
            [
              4.641754428328995,
              50.608467748941344
            ],
            [
              4.641751694694596,
              50.608471463344905
            ],
            [
              4.641751428092052,
              50.608471748846085
            ],
            [
              4.641575025105554,
              50.60871144004551
            ],
            [
              4.6414363904367475,
              50.60896097946409
            ],
            [
              4.6413368597444435,
              50.609217964036034
            ],
            [
              4.641277392168326,
              50.609479918959444
            ],
            [
              4.641258561068664,
              50.60974432152607
            ],
            [
              4.641280548479392,
              50.61000862541412
            ],
            [
              4.641343143328862,
              50.61027028520992
            ],
            [
              4.641445743446498,
              50.61052678092263
            ],
            [
              4.641587361336959,
              50.61077564225538
            ],
            [
              4.6417666336672045,
              50.61101447239975
            ],
            [
              4.64198183437597,
              50.611240971123514
            ],
            [
              4.642230891280177,
              50.61145295692958
            ],
            [
              4.6425114060189925,
              50.611648388072375
            ],
            [
              4.642820677143919,
              50.61182538222883
            ],
            [
              4.643155726132838,
              50.61198223463448
            ],
            [
              4.643513326077579,
              50.6121174345095
            ],
            [
              4.643718147208081,
              50.61217846409047
            ],
            [
              4.643718147208083,
              50.61217846409047
            ],
            [
              4.643768335582781,
              50.61219743880511
            ],
            [
              4.644145043517572,
              50.6123096830867
            ],
            [
              4.644537229766426,
              50.61239789141947
            ],
            [
              4.6449411168300685,
              50.61246121417372
            ],
            [
              4.64535281445043,
              50.61249904141673
            ],
            [
              4.645768357099224,
              50.6125110087906
            ],
            [
              4.646183742193318,
              50.61249700102352
            ],
            [
              4.646594968667953,
              50.6124571530407
            ],
            [
              4.646998075535294,
              50.61239184866405
            ],
            [
              4.647389180055962,
              50.61230171691334
            ],
            [
              4.647764515155001,
              50.61218762594441
            ],
            [
              4.648120465721031,
              50.61205067468304
            ],
            [
              4.648453603438243,
              50.61189218223531
            ],
            [
              4.648760719815143,
              50.61171367517655
            ],
            [
              4.6490388570915,
              50.61151687284162
            ],
            [
              4.649285336725572,
              50.61130367075857
            ],
            [
              4.649334697245299,
              50.61125080213895
            ],
            [
              4.649560453291115,
              50.611271536906706
            ],
            [
              4.649975986208785,
              50.61128348930062
            ],
            [
              4.650391359262448,
              50.61126946655276
            ],
            [
              4.650802571503344,
              50.61122960373267
            ],
            [
              4.651205662080773,
              50.61116428480514
            ],
            [
              4.651596748412303,
              50.6110741389301
            ],
            [
              4.6519720635982305,
              50.6109600343994
            ],
            [
              4.652327992719029,
              50.6108230702695
            ],
            [
              4.652661107665506,
              50.61066456577041
            ],
            [
              4.652968200165543,
              50.610486047593504
            ],
            [
              4.65324631268894,
              50.61028923518073
            ],
            [
              4.653492766932411,
              50.610076024157195
            ],
            [
              4.653705189610313,
              50.60984846806702
            ],
            [
              4.65388153530287,
              50.609608758588735
            ],
            [
              4.654020106142122,
              50.6093592044209
            ],
            [
              4.654119568146502,
              50.609102209041765
            ],
            [
              4.654178964047389,
              50.60884024755726
            ],
            [
              4.654197722484875,
              50.608575842860475
            ],
            [
              4.654175663485097,
              50.60831154133261
            ],
            [
              4.654113000167352,
              50.60804988831908
            ]
          ]
        ]
      },
      "properties": {
        "type": "buffer_union_300m",
        "buffer_m": 300
      }
    },
    {
      "type": "Feature",
      "geometry": {
        "type": "Polygon",
        "coordinates": [
          [
            [
              4.655497516136745,
              50.607870991415055
            ],
            [
              4.655360622213008,
              50.60752901340136
            ],
            [
              4.655171714945778,
              50.60719722032168
            ],
            [
              4.654932614547523,
              50.606878807279735
            ],
            [
              4.654645624448374,
              50.60657684046958
            ],
            [
              4.654313509083536,
              50.606294227657884
            ],
            [
              4.653939467248614,
              50.606033690193634
            ],
            [
              4.6535271012802895,
              50.60579773681408
            ],
            [
              4.653080382359657,
              50.60558863949888
            ],
            [
              4.6526036122725305,
              50.60540841160438
            ],
            [
              4.652101381994789,
              50.60525878848778
            ],
            [
              4.651578527501089,
              50.60514121080776
            ],
            [
              4.65104008322166,
              50.60505681066133
            ],
            [
              4.650491233594272,
              50.60500640069041
            ],
            [
              4.649937263176566,
              50.60499046626237
            ],
            [
              4.64938350579762,
              50.605009160800016
            ],
            [
              4.648835293236683,
              50.60506230430515
            ],
            [
              4.6482979039216215,
              50.60514938509069
            ],
            [
              4.647776512139282,
              50.60526956470399
            ],
            [
              4.647276138245239,
              50.60542168599461
            ],
            [
              4.646801600350855,
              50.60560428424892
            ],
            [
              4.646357467951538,
              50.60581560128466
            ],
            [
              4.6459480179416754,
              50.6060536023701
            ],
            [
              4.645820485413744,
              50.60614384416838
            ],
            [
              4.64547821265584,
              50.606133985842305
            ],
            [
              4.644924440112558,
              50.60615265921258
            ],
            [
              4.644376209270782,
              50.60620578175409
            ],
            [
              4.6438387987343335,
              50.60629284198159
            ],
            [
              4.64331738299431,
              50.60641300164037
            ],
            [
              4.642816982636873,
              50.606565103772155
            ],
            [
              4.642342416028094,
              50.606747683847786
            ],
            [
              4.641898252939756,
              50.60695898386003
            ],
            [
              4.641488770561645,
              50.60719696924115
            ],
            [
              4.641117912323077,
              50.60745934844276
            ],
            [
              4.640789249919739,
              50.60774359499008
            ],
            [
              4.640505948911404,
              50.608046971798665
            ],
            [
              4.640503215203204,
              50.60805068617328
            ],
            [
              4.64050294859549,
              50.60805097167163
            ],
            [
              4.640267737865865,
              50.608370557386635
            ],
            [
              4.640082883443319,
              50.60870327452428
            ],
            [
              4.639950166521231,
              50.609045919077076
            ],
            [
              4.639870866311102,
              50.609395191368414
            ],
            [
              4.639845747681743,
              50.60974772782347
            ],
            [
              4.639875053748422,
              50.61010013335805
            ],
            [
              4.639958503485068,
              50.61044901407384
            ],
            [
              4.640095294384309,
              50.61079100994501
            ],
            [
              4.640284110141497,
              50.61112282718147
            ],
            [
              4.64052313329046,
              50.611441269956906
            ],
            [
              4.640810062670828,
              50.61174327119576
            ],
            [
              4.641142135560123,
              50.61202592212225
            ],
            [
              4.641516154258595,
              50.61228650028652
            ],
            [
              4.6419285168716025,
              50.6125224957974
            ],
            [
              4.6423752519935855,
              50.61273163550867
            ],
            [
              4.642852056959793,
              50.612911904925355
            ],
            [
              4.643056880680364,
              50.61297293565696
            ],
            [
              4.643107069633453,
              50.61299191065288
            ],
            [
              4.643609353629258,
              50.613141572245844
            ],
            [
              4.644132276827205,
              50.61325918544317
            ],
            [
              4.644670802246454,
              50.613343617325064
            ],
            [
              4.645219742517485,
              50.61339405458857
            ],
            [
              4.645773809880639,
              50.61341001138705
            ],
            [
              4.646327667154911,
              50.61339133401328
            ],
            [
              4.646875979184402,
              50.61333820238095
            ],
            [
              4.647413464265202,
              50.61325112829068
            ],
            [
              4.647934945055661,
              50.613130950496476
            ],
            [
              4.6484353984780045,
              50.61297882662121
            ],
            [
              4.648910004129167,
              50.61279622199854
            ],
            [
              4.649354190733238,
              50.61258489554964
            ],
            [
              4.64976368018702,
              50.61234688283067
            ],
            [
              4.649996733882778,
              50.61218197831369
            ],
            [
              4.650535360132319,
              50.61216379457815
            ],
            [
              4.65108365318261,
              50.612110643162445
            ],
            [
              4.651621116542476,
              50.612023549670646
            ],
            [
              4.652142573079567,
              50.611903353043736
            ],
            [
              4.652642999949821,
              50.61175121108592
            ],
            [
              4.653117577006029,
              50.61156858930507
            ],
            [
              4.653561733247818,
              50.611357246787605
            ],
            [
              4.653971190864544,
              50.611119219244436
            ],
            [
              4.654342006446139,
              50.61085679939194
            ],
            [
              4.654670608964505,
              50.61057251485718
            ],
            [
              4.6549538341595,
              50.61026910382079
            ],
            [
              4.655188954998593,
              50.609949488632914
            ],
            [
              4.655373707917338,
              50.60961674765629
            ],
            [
              4.655506314588838,
              50.60927408560873
            ],
            [
              4.655585499013685,
              50.608924802690744
            ],
            [
              4.655610499767203,
              50.60857226279589
            ],
            [
              4.655581077287629,
              50.60821986111055
            ],
            [
              4.655497516136745,
              50.607870991415055
            ]
          ]
        ]
      },
      "properties": {
        "type": "buffer_union_400m",
        "buffer_m": 400
      }
    },
    {
      "type": "Feature",
      "geometry": {
        "type": "Polygon",
        "coordinates": [
          [
            [
              4.5732978,
              50.5685708
            ],
            [
              4.5738423,
              50.5673612
            ],
            [
              4.5746336,
              50.5660596
            ],
            [
              4.5748857,
              50.5647818
            ],
            [
              4.5750305,
              50.560811
            ],
            [
              4.5807436,
              50.5619058
            ],
            [
              4.5810869,
              50.5611288
            ],
            [
              4.5846489,
              50.5624101
            ],
            [
              4.5874384,
              50.5628054
            ],
            [
              4.5891228,
              50.5625158
            ],
            [
              4.5898631,
              50.5633643
            ],
            [
              4.5934465,
              50.5650681
            ],
            [
              4.5957425,
              50.5663084
            ],
            [
              4.597368,
              50.5672948
            ],
            [
              4.5980304,
              50.567242
            ],
            [
              4.5981511,
              50.5670153
            ],
            [
              4.5986876,
              50.5667649
            ],
            [
              4.6019303,
              50.5676935
            ],
            [
              4.6018499,
              50.5678808
            ],
            [
              4.6018338,
              50.5684328
            ],
            [
              4.602094,
              50.5693068
            ],
            [
              4.6031454,
              50.5691569
            ],
            [
              4.6039528,
              50.5691313
            ],
            [
              4.6039286,
              50.5689882
            ],
            [
              4.6066752,
              50.5689593
            ],
            [
              4.6079171,
              50.569259
            ],
            [
              4.6097074,
              50.5694669
            ],
            [
              4.611113,
              50.5673255
            ],
            [
              4.6132667,
              50.568199
            ],
            [
              4.6178755,
              50.5695723
            ],
            [
              4.6201379,
              50.5674504
            ],
            [
              4.6205556,
              50.5671423
            ],
            [
              4.6200594,
              50.5660528
            ],
            [
              4.6201479,
              50.5650314
            ],
            [
              4.6193513,
              50.5636846
            ],
            [
              4.6213445,
              50.5615608
            ],
            [
              4.622739,
              50.5620881
            ],
            [
              4.6264699,
              50.5640356
            ],
            [
              4.6264377,
              50.5641609
            ],
            [
              4.6266496,
              50.5642936
            ],
            [
              4.6281249,
              50.5643542
            ],
            [
              4.6292299,
              50.5635891
            ],
            [
              4.6293372,
              50.56363
            ],
            [
              4.6292835,
              50.5638822
            ],
            [
              4.632242,
              50.5651567
            ],
            [
              4.6319792,
              50.5653781
            ],
            [
              4.6336582,
              50.5662164
            ],
            [
              4.6359757,
              50.5643184
            ],
            [
              4.6376064,
              50.5626419
            ],
            [
              4.6401599,
              50.5636096
            ],
            [
              4.641383,
              50.5648364
            ],
            [
              4.6418765,
              50.5650408
            ],
            [
              4.6431854,
              50.5641685
            ],
            [
              4.6435717,
              50.5643457
            ],
            [
              4.6437648,
              50.5640185
            ],
            [
              4.6437004,
              50.5638959
            ],
            [
              4.6437862,
              50.5627918
            ],
            [
              4.6444085,
              50.5602292
            ],
            [
              4.652026,
              50.5620966
            ],
            [
              4.6605876,
              50.5644002
            ],
            [
              4.6619394,
              50.5646046
            ],
            [
              4.6624544,
              50.5647682
            ],
            [
              4.6639565,
              50.5656269
            ],
            [
              4.6646002,
              50.5658995
            ],
            [
              4.6686986,
              50.5658041
            ],
            [
              4.6684626,
              50.5664447
            ],
            [
              4.6685699,
              50.5668808
            ],
            [
              4.6730429,
              50.5708848
            ],
            [
              4.662052,
              50.5764783
            ],
            [
              4.6613494,
              50.5786585
            ],
            [
              4.6568218,
              50.5858832
            ],
            [
              4.6576399,
              50.5865814
            ],
            [
              4.6582756,
              50.5869016
            ],
            [
              4.6577257,
              50.5879676
            ],
            [
              4.6572777,
              50.5897352
            ],
            [
              4.6561298,
              50.5920272
            ],
            [
              4.6567788,
              50.5922519
            ],
            [
              4.6558374,
              50.5944842
            ],
            [
              4.6561539,
              50.5974723
            ],
            [
              4.6560359,
              50.5982623
            ],
            [
              4.6562371,
              50.5998695
            ],
            [
              4.6568599,
              50.6014598
            ],
            [
              4.6561503,
              50.6021204
            ],
            [
              4.6556672,
              50.6029626
            ],
            [
              4.6534218,
              50.6055536
            ],
            [
              4.6527284,
              50.6050735
            ],
            [
              4.6525697,
              50.6051837
            ],
            [
              4.6523814,
              50.6049578
            ],
            [
              4.6508361,
              50.6052967
            ],
            [
              4.6519704,
              50.6078676
            ],
            [
              4.6500286,
              50.609236
            ],
            [
              4.6491112,
              50.6104027
            ],
            [
              4.6496781,
              50.6110261
            ],
            [
              4.6504952,
              50.6108179
            ],
            [
              4.6511189,
              50.6109942
            ],
            [
              4.6514099,
              50.6112893
            ],
            [
              4.6513763,
              50.6115103
            ],
            [
              4.651615,
              50.6117416
            ],
            [
              4.6525819,
              50.6113086
            ],
            [
              4.6549959,
              50.6124928
            ],
            [
              4.6572611,
              50.6134206
            ],
            [
              4.6584251,
              50.6138108
            ],
            [
              4.6588706,
              50.6143101
            ],
            [
              4.6591678,
              50.6149019
            ],
            [
              4.6608246,
              50.6154729
            ],
            [
              4.6606117,
              50.6160133
            ],
            [
              4.660342,
              50.6163299
            ],
            [
              4.6616553,
              50.6166407
            ],
            [
              4.6622168,
              50.6166049
            ],
            [
              4.6631643,
              50.6167293
            ],
            [
              4.6618378,
              50.6187353
            ],
            [
              4.661767,
              50.6187081
            ],
            [
              4.6608854,
              50.6196677
            ],
            [
              4.6611673,
              50.6197794
            ],
            [
              4.6600575,
              50.6206308
            ],
            [
              4.6602802,
              50.620766
            ],
            [
              4.657743,
              50.6232446
            ],
            [
              4.6568914,
              50.6231047
            ],
            [
              4.6566214,
              50.6235823
            ],
            [
              4.6556535,
              50.6240629
            ],
            [
              4.6536696,
              50.6244878
            ],
            [
              4.6531185,
              50.6243564
            ],
            [
              4.6526322,
              50.6239886
            ],
            [
              4.6523427,
              50.6248316
            ],
            [
              4.6515257,
              50.6257828
            ],
            [
              4.651269,
              50.6262513
            ],
            [
              4.6511623,
              50.6265441
            ],
            [
              4.650829,
              50.628846
            ],
            [
              4.6460147,
              50.627225
            ],
            [
              4.6425422,
              50.625907
            ],
            [
              4.6426451,
              50.6264248
            ],
            [
              4.643525,
              50.6272371
            ],
            [
              4.6443187,
              50.6281302
            ],
            [
              4.6445125,
              50.6288069
            ],
            [
              4.644561,
              50.6293091
            ],
            [
              4.6444239,
              50.6295476
            ],
            [
              4.6433455,
              50.6289598
            ],
            [
              4.6434559,
              50.6287453
            ],
            [
              4.643187,
              50.6285823
            ],
            [
              4.640467,
              50.627595
            ],
            [
              4.640364,
              50.6277055
            ],
            [
              4.6392146,
              50.627347
            ],
            [
              4.6378877,
              50.6279472
            ],
            [
              4.6358779,
              50.628535
            ],
            [
              4.6356125,
              50.6283974
            ],
            [
              4.634464,
              50.6291855
            ],
            [
              4.6344684,
              50.6294492
            ],
            [
              4.6349111,
              50.6301599
            ],
            [
              4.635698,
              50.6306516
            ],
            [
              4.6352791,
              50.6312383
            ],
            [
              4.6351213,
              50.6312586
            ],
            [
              4.6343813,
              50.6310143
            ],
            [
              4.6340022,
              50.6306291
            ],
            [
              4.6339175,
              50.6300956
            ],
            [
              4.6334937,
              50.6293778
            ],
            [
              4.6336753,
              50.6291888
            ],
            [
              4.6329501,
              50.6288283
            ],
            [
              4.6324874,
              50.6287934
            ],
            [
              4.6309854,
              50.6276134
            ],
            [
              4.6304859,
              50.627076
            ],
            [
              4.6312303,
              50.6263775
            ],
            [
              4.6314569,
              50.6263128
            ],
            [
              4.6316366,
              50.6255052
            ],
            [
              4.6315742,
              50.6252594
            ],
            [
              4.6318746,
              50.6250161
            ],
            [
              4.6330728,
              50.6245259
            ],
            [
              4.6332764,
              50.6244731
            ],
            [
              4.633642,
              50.6245558
            ],
            [
              4.633773,
              50.6244753
            ],
            [
              4.6337006,
              50.624273
            ],
            [
              4.633837,
              50.62417
            ],
            [
              4.634563,
              50.6240777
            ],
            [
              4.6350965,
              50.6241346
            ],
            [
              4.6352644,
              50.6240698
            ],
            [
              4.6350996,
              50.6238677
            ],
            [
              4.635141,
              50.623823
            ],
            [
              4.6356344,
              50.6238912
            ],
            [
              4.6357387,
              50.6238551
            ],
            [
              4.6358146,
              50.6236625
            ],
            [
              4.6361309,
              50.6236645
            ],
            [
              4.6363285,
              50.6235482
            ],
            [
              4.6367444,
              50.623501
            ],
            [
              4.6372667,
              50.6231454
            ],
            [
              4.6369731,
              50.6225698
            ],
            [
              4.6368313,
              50.6225921
            ],
            [
              4.6365349,
              50.6219974
            ],
            [
              4.6362973,
              50.6210366
            ],
            [
              4.6363505,
              50.6208131
            ],
            [
              4.6353292,
              50.6204378
            ],
            [
              4.6350173,
              50.6204277
            ],
            [
              4.6331808,
              50.6205194
            ],
            [
              4.6323091,
              50.6207143
            ],
            [
              4.6315153,
              50.6202256
            ],
            [
              4.6338095,
              50.6186998
            ],
            [
              4.6324473,
              50.6179203
            ],
            [
              4.6330199,
              50.6175651
            ],
            [
              4.6340867,
              50.6170833
            ],
            [
              4.633213,
              50.6162615
            ],
            [
              4.632242,
              50.6155552
            ],
            [
              4.6299552,
              50.6140814
            ],
            [
              4.6267999,
              50.6123241
            ],
            [
              4.6272537,
              50.6119205
            ],
            [
              4.6260623,
              50.6113059
            ],
            [
              4.6265164,
              50.610963
            ],
            [
              4.6252052,
              50.6101794
            ],
            [
              4.6237384,
              50.6091358
            ],
            [
              4.6242023,
              50.6088582
            ],
            [
              4.621708,
              50.6067566
            ],
            [
              4.619897,
              50.607565
            ],
            [
              4.6193031,
              50.6069077
            ],
            [
              4.6173785,
              50.6073496
            ],
            [
              4.6174805,
              50.6074355
            ],
            [
              4.6161551,
              50.6080966
            ],
            [
              4.6158724,
              50.6078209
            ],
            [
              4.6141398,
              50.6083296
            ],
            [
              4.6141089,
              50.6084155
            ],
            [
              4.6111475,
              50.6091415
            ],
            [
              4.6108581,
              50.6083984
            ],
            [
              4.6109918,
              50.6079476
            ],
            [
              4.6100749,
              50.6079478
            ],
            [
              4.6100038,
              50.6080287
            ],
            [
              4.6102318,
              50.6084781
            ],
            [
              4.6098907,
              50.6090026
            ],
            [
              4.6085748,
              50.6093562
            ],
            [
              4.6075836,
              50.6088251
            ],
            [
              4.6063653,
              50.6088568
            ],
            [
              4.6062644,
              50.6093686
            ],
            [
              4.6056828,
              50.6092373
            ],
            [
              4.6048889,
              50.6092066
            ],
            [
              4.6016407,
              50.6102415
            ],
            [
              4.6006827,
              50.6102752
            ],
            [
              4.5998275,
              50.6105266
            ],
            [
              4.5982319,
              50.6112067
            ],
            [
              4.5961469,
              50.6115689
            ],
            [
              4.5932502,
              50.6112645
            ],
            [
              4.5938522,
              50.6107739
            ],
            [
              4.592482,
              50.6101916
            ],
            [
              4.5916154,
              50.6109274
            ],
            [
              4.5892041,
              50.6113037
            ],
            [
              4.5870281,
              50.6075669
            ],
            [
              4.5840025,
              50.6049494
            ],
            [
              4.5792486,
              50.6019615
            ],
            [
              4.5739892,
              50.5980656
            ],
            [
              4.5760659,
              50.597734
            ],
            [
              4.577584,
              50.5976234
            ],
            [
              4.5791022,
              50.5976625
            ],
            [
              4.5814813,
              50.5979537
            ],
            [
              4.5839785,
              50.5983844
            ],
            [
              4.5850165,
              50.5984558
            ],
            [
              4.5887783,
              50.5965532
            ],
            [
              4.5852525,
              50.5937634
            ],
            [
              4.5844881,
              50.5940461
            ],
            [
              4.5816691,
              50.5897176
            ],
            [
              4.5793302,
              50.5881237
            ],
            [
              4.5803977,
              50.587423
            ],
            [
              4.5800853,
              50.5872008
            ],
            [
              4.5803145,
              50.587073
            ],
            [
              4.5800061,
              50.5868824
            ],
            [
              4.5808684,
              50.5860581
            ],
            [
              4.5797117,
              50.5852441
            ],
            [
              4.5807436,
              50.5844237
            ],
            [
              4.5816745,
              50.5838238
            ],
            [
              4.5790298,
              50.5812196
            ],
            [
              4.5794911,
              50.5808722
            ],
            [
              4.5787187,
              50.5803919
            ],
            [
              4.5789278,
              50.5792849
            ],
            [
              4.5790137,
              50.578084
            ],
            [
              4.5797111,
              50.5762734
            ],
            [
              4.580269,
              50.5758816
            ],
            [
              4.579231,
              50.5755137
            ],
            [
              4.5800329,
              50.5745922
            ],
            [
              4.5796922,
              50.5745206
            ],
            [
              4.5801536,
              50.5740352
            ],
            [
              4.5808107,
              50.5742226
            ],
            [
              4.5816168,
              50.5734372
            ],
            [
              4.5808872,
              50.5731596
            ],
            [
              4.582109,
              50.5717849
            ],
            [
              4.5818407,
              50.5716248
            ],
            [
              4.5819011,
              50.5714834
            ],
            [
              4.5799926,
              50.5708877
            ],
            [
              4.5802608,
              50.570317
            ],
            [
              4.576833,
              50.5693767
            ],
            [
              4.5764917,
              50.5696977
            ],
            [
              4.5732978,
              50.5685708
            ]
          ]
        ]
      },
      "properties": {
        "type": "boundary",
        "gemeente": "Chastre"
      }
    }
  ]
}