{
  "type": "FeatureCollection",
  "metadata": {
    "gemeente": "Comblain-au-Pont",
    "slug": "comblain-au-pont",
    "generated_at": "2026-09-25T22:11:36.432031Z",
    "total_points": 10,
    "providers": [
      "bpost",
      "DHL",
      "GLS",
      "PostNL",
      "DPD",
      "Amazon"
    ],
    "bounds": [
      5.56833,
      50.471453,
      5.5809597,
      50.50607
    ]
  },
  "features": [
    {
      "type": "Feature",
      "geometry": {
        "type": "Point",
        "coordinates": [
          5.57798,
          50.47814
        ]
      },
      "properties": {
        "type": "pakketpunt",
        "locatieNaam": "Comblain-Au-Pont",
        "straatNaam": "Rue De La Gendarmerie",
        "straatNr": "5",
        "vervoerder": "bpost",
        "puntType": "postkantoor",
        "bezettingsgraad": 50,
        "latitude": 50.47814,
        "longitude": 5.57798,
        "canPickup": true,
        "canDropoff": true,
        "openingstijden": null
      }
    },
    {
      "type": "Feature",
      "geometry": {
        "type": "Point",
        "coordinates": [
          5.5774,
          50.47668
        ]
      },
      "properties": {
        "type": "pakketpunt",
        "locatieNaam": "Bbox 24/7 Spar Comblain-Au-Pont",
        "straatNaam": "Quai De L'Ourthe",
        "straatNr": "14",
        "vervoerder": "bpost",
        "puntType": "automaat",
        "bezettingsgraad": 50,
        "latitude": 50.47668,
        "longitude": 5.5774,
        "canPickup": true,
        "canDropoff": true,
        "openingstijden": null
      }
    },
    {
      "type": "Feature",
      "geometry": {
        "type": "Point",
        "coordinates": [
          5.5774,
          50.47668
        ]
      },
      "properties": {
        "type": "pakketpunt",
        "locatieNaam": "BBOX 24/7 SPAR COMBLAIN-AU-PONT",
        "straatNaam": "QUAI DE L'OURTHE",
        "straatNr": "14",
        "vervoerder": "DHL",
        "puntType": "packStation",
        "bezettingsgraad": 50,
        "latitude": 50.47668,
        "longitude": 5.5774,
        "canPickup": true,
        "canDropoff": true,
        "openingstijden": {
          "ma": "00:00 - 23:59",
          "di": "00:00 - 23:59",
          "wo": "00:00 - 23:59",
          "do": "00:00 - 23:59",
          "vr": "00:00 - 23:59",
          "za": "00:00 - 23:59",
          "zo": "00:00 - 23:59"
        }
      }
    },
    {
      "type": "Feature",
      "geometry": {
        "type": "Point",
        "coordinates": [
          5.577978,
          50.478138
        ]
      },
      "properties": {
        "type": "pakketpunt",
        "locatieNaam": "COMBLAIN-AU-PONT",
        "straatNaam": "RUE DE LA GENDARMERIE",
        "straatNr": "5",
        "vervoerder": "DHL",
        "puntType": "postOffice",
        "bezettingsgraad": 50,
        "latitude": 50.478138,
        "longitude": 5.577978,
        "canPickup": true,
        "canDropoff": true,
        "openingstijden": {
          "ma": "09:30 - 12:30",
          "di": "09:30 - 12:30, 13:45 - 18:00",
          "wo": "09:30 - 12:30",
          "do": "09:30 - 12:30, 13:45 - 18:00",
          "vr": "09:30 - 12:30",
          "za": "09:30 - 13:00",
          "zo": "gesloten"
        }
      }
    },
    {
      "type": "Feature",
      "geometry": {
        "type": "Point",
        "coordinates": [
          5.5809597,
          50.471593
        ]
      },
      "properties": {
        "type": "pakketpunt",
        "locatieNaam": "Rebelote",
        "straatNaam": "Rue Du Grand Pre",
        "straatNr": "25",
        "vervoerder": "GLS",
        "puntType": "parcel_shop",
        "bezettingsgraad": 50,
        "latitude": 50.471593,
        "longitude": 5.5809597,
        "canPickup": true,
        "canDropoff": true,
        "openingstijden": "vr: 10:00 - 18:00; za: 10:00 - 18:00"
      }
    },
    {
      "type": "Feature",
      "geometry": {
        "type": "Point",
        "coordinates": [
          5.5809222,
          50.471453
        ]
      },
      "properties": {
        "type": "pakketpunt",
        "locatieNaam": "Rebelote",
        "straatNaam": "Rue du Grand Pré",
        "straatNr": "25",
        "vervoerder": "PostNL",
        "puntType": "servicepunt",
        "bezettingsgraad": 50,
        "latitude": 50.471453,
        "longitude": 5.5809222,
        "canPickup": true,
        "canDropoff": true,
        "openingstijden": "10:00 - 18:00"
      }
    },
    {
      "type": "Feature",
      "geometry": {
        "type": "Point",
        "coordinates": [
          5.56833,
          50.50607
        ]
      },
      "properties": {
        "type": "pakketpunt",
        "locatieNaam": "ELECTRO PG",
        "straatNaam": "RUE D'ESNEUX",
        "straatNr": "61A",
        "vervoerder": "DPD",
        "puntType": "pickup_point",
        "bezettingsgraad": 50,
        "latitude": 50.50607,
        "longitude": 5.56833,
        "canPickup": true,
        "canDropoff": false,
        "openingstijden": {
          "ma": "gesloten",
          "di": "09:00 - 12:30, 13:30 - 18:00",
          "wo": "09:00 - 12:30, 13:30 - 18:00",
          "do": "09:00 - 12:30, 13:30 - 18:00",
          "vr": "09:00 - 12:30, 13:30 - 18:00",
          "za": "10:00 - 12:30, 13:30 - 17:00",
          "zo": "gesloten"
        }
      }
    },
    {
      "type": "Feature",
      "geometry": {
        "type": "Point",
        "coordinates": [
          5.58088,
          50.47148
        ]
      },
      "properties": {
        "type": "pakketpunt",
        "locatieNaam": "REBELOTE",
        "straatNaam": "RUE DU GRAND PRÉ",
        "straatNr": "25",
        "vervoerder": "DPD",
        "puntType": "pickup_point",
        "bezettingsgraad": 50,
        "latitude": 50.47148,
        "longitude": 5.58088,
        "canPickup": true,
        "canDropoff": false,
        "openingstijden": {
          "ma": "gesloten",
          "di": "gesloten",
          "wo": "10:00 - 18:00",
          "do": "10:00 - 18:00",
          "vr": "10:00 - 18:00",
          "za": "10:00 - 18:00",
          "zo": "gesloten"
        }
      }
    },
    {
      "type": "Feature",
      "geometry": {
        "type": "Point",
        "coordinates": [
          5.5774,
          50.47668
        ]
      },
      "properties": {
        "type": "pakketpunt",
        "locatieNaam": "bpost - BBOX 24/7 SPAR COMBLAIN-AU-PONT",
        "straatNaam": "QUAI DE L'OURTHE,14",
        "straatNr": "",
        "vervoerder": "Amazon",
        "puntType": "3p",
        "bezettingsgraad": 50,
        "latitude": 50.47668,
        "longitude": 5.5774,
        "canPickup": true,
        "canDropoff": false,
        "openingstijden": null
      }
    },
    {
      "type": "Feature",
      "geometry": {
        "type": "Point",
        "coordinates": [
          5.5779781,
          50.478138
        ]
      },
      "properties": {
        "type": "pakketpunt",
        "locatieNaam": "bpost - COMBLAIN-AU-PONT",
        "straatNaam": "RUE DE LA GENDARMERIE,5",
        "straatNr": "",
        "vervoerder": "Amazon",
        "puntType": "3p",
        "bezettingsgraad": 50,
        "latitude": 50.478138,
        "longitude": 5.5779781,
        "canPickup": true,
        "canDropoff": false,
        "openingstijden": null
      }
    },
    {
      "type": "Feature",
      "geometry": {
        "type": "MultiPolygon",
        "coordinates": [
          [
            [
              [
                5.584945525267576,
                50.470627645856915
              ],
              [
                5.584799383553468,
                50.47037994303908
              ],
              [
                5.584615904970712,
                50.47014257472336
              ],
              [
                5.584396856931489,
                50.469917826725826
              ],
              [
                5.584144349288251,
                50.469707863299725
              ],
              [
                5.583860814003153,
                50.469514706299954
              ],
              [
                5.58354898172019,
                50.46934021571953
              ],
              [
                5.583211855465909,
                50.469186071784975
              ],
              [
                5.582852681732036,
                50.46905375878314
              ],
              [
                5.582474919218381,
                50.468944550774395
              ],
              [
                5.582082205536717,
                50.46885949932997
              ],
              [
                5.581678322195794,
                50.468799423410964
              ],
              [
                5.581267158204046,
                50.46876490148629
              ],
              [
                5.580852672639705,
                50.46875626596534
              ],
              [
                5.5804388565479135,
                50.468773599998876
              ],
              [
                5.580029694530807,
                50.46881673667879
              ],
              [
                5.579629126399471,
                50.468885260644406
              ],
              [
                5.579241009256115,
                50.46897851207996
              ],
              [
                5.578869080370644,
                50.46909559306495
              ],
              [
                5.578516921208332,
                50.46923537621602
              ],
              [
                5.578187922954222,
                50.469396515537845
              ],
              [
                5.5778852538656984,
                50.46957745937827
              ],
              [
                5.5778716335609175,
                50.469587372649606
              ],
              [
                5.5778430538056,
                50.46960445828499
              ],
              [
                5.5775696283741025,
                50.46980346417041
              ],
              [
                5.577328080258231,
                50.47001861588907
              ],
              [
                5.577120735916651,
                50.47024784161583
              ],
              [
                5.5769495925282095,
                50.470488933967836
              ],
              [
                5.576816298744965,
                50.47073957125549
              ],
              [
                5.576722138797568,
                50.47099733983562
              ],
              [
                5.5766680201067285,
                50.4712597573509
              ],
              [
                5.576654464520847,
                50.471524296632836
              ],
              [
                5.576681603265147,
                50.47178841003759
              ],
              [
                5.576749175651847,
                50.472049553980625
              ],
              [
                5.576856531564875,
                50.47230521343385
              ],
              [
                5.577002637696117,
                50.47255292614946
              ],
              [
                5.5770577138767905,
                50.47262419387199
              ],
              [
                5.577082330254409,
                50.47266592878555
              ],
              [
                5.577265780869136,
                50.472903308882906
              ],
              [
                5.577484808885968,
                50.473128070195976
              ],
              [
                5.577737305245661,
                50.473338047957604
              ],
              [
                5.578020838445949,
                50.47353121975951
              ],
              [
                5.578332677951482,
                50.47370572503708
              ],
              [
                5.578669820488662,
                50.47385988299596
              ],
              [
                5.579029018972217,
                50.473992208807175
              ],
              [
                5.579406813784797,
                50.474101427914626
              ],
              [
                5.579799566108032,
                50.474186488316995
              ],
              [
                5.58020349298355,
                50.47424657070523
              ],
              [
                5.580614703765642,
                50.474281096358055
              ],
              [
                5.581029237613721,
                50.47428973271894
              ],
              [
                5.5814431016625905,
                50.47427239660098
              ],
              [
                5.5818523095019685,
                50.47422925498858
              ],
              [
                5.582252919593676,
                50.474160723428206
              ],
              [
                5.582641073255513,
                50.47406746202376
              ],
              [
                5.583013031845084,
                50.473950369075354
              ],
              [
                5.583365212784586,
                50.4738105724227
              ],
              [
                5.583694224078864,
                50.473649418576805
              ],
              [
                5.58399689699373,
                50.47346845974503
              ],
              [
                5.584270316579334,
                50.47326943887431
              ],
              [
                5.584511849744438,
                50.47305427285764
              ],
              [
                5.584719170611089,
                50.47282503406491
              ],
              [
                5.584890282905705,
                50.47258393037717
              ],
              [
                5.58502353917122,
                50.47233328391635
              ],
              [
                5.585117656615779,
                50.47207550867571
              ],
              [
                5.585171729446016,
                50.471813087266746
              ],
              [
                5.585185237566927,
                50.47154854700668
              ],
              [
                5.585158051565461,
                50.47128443557683
              ],
              [
                5.585090433930805,
                50.47102329648653
              ],
              [
                5.585087145037314,
                50.47101546755318
              ],
              [
                5.585052922178133,
                50.470883297805116
              ],
              [
                5.584945525267576,
                50.470627645856915
              ]
            ]
          ],
          [
            [
              [
                5.581277691022914,
                50.47560706133062
              ],
              [
                5.5810942098418685,
                50.47536968766482
              ],
              [
                5.580875154342648,
                50.47514493322954
              ],
              [
                5.58062263444967,
                50.47493496234004
              ],
              [
                5.580339082243164,
                50.47474179692311
              ],
              [
                5.580027228530159,
                50.47456729705279
              ],
              [
                5.57969007654363,
                50.47441314304511
              ],
              [
                5.579330873023134,
                50.47428081928387
              ],
              [
                5.57895307695532,
                50.47417159993305
              ],
              [
                5.578560326275057,
                50.47408653667312
              ],
              [
                5.578156402847332,
                50.47402644857892
              ],
              [
                5.57774519606653,
                50.473991914236606
              ],
              [
                5.577330665422839,
                50.473983266175125
              ],
              [
                5.576916802395394,
                50.47400058766601
              ],
              [
                5.5765075920381895,
                50.47404371192191
              ],
              [
                5.576106974627688,
                50.47411222370179
              ],
              [
                5.575718807740526,
                50.47420546330724
              ],
              [
                5.575346829125512,
                50.474322532931666
              ],
              [
                5.5749946207267005,
                50.474462305301095
              ],
              [
                5.574665574203184,
                50.474623434524034
              ],
              [
                5.574362858277107,
                50.47480436904564
              ],
              [
                5.5740893882239,
                50.47500336658208
              ],
              [
                5.5738477977982805,
                50.475218510891395
              ],
              [
                5.573640413866372,
                50.475447730219884
              ],
              [
                5.573469233988315,
                50.47568881724625
              ],
              [
                5.573335907167633,
                50.4759394503323
              ],
              [
                5.573241717953226,
                50.47619721587523
              ],
              [
                5.573187574047765,
                50.476459631547094
              ],
              [
                5.57317399754261,
                50.47672417019712
              ],
              [
                5.573201119864592,
                50.476988284187584
              ],
              [
                5.573268680484242,
                50.47724942992829
              ],
              [
                5.573376029398973,
                50.47750509237393
              ],
              [
                5.573522133368228,
                50.47775280924787
              ],
              [
                5.573705585841559,
                50.47799019475942
              ],
              [
                5.573758911725101,
                50.47804491667125
              ],
              [
                5.573751868037995,
                50.47818219117636
              ],
              [
                5.573778994415839,
                50.47844630496841
              ],
              [
                5.573846560299593,
                50.47870745031055
              ],
              [
                5.573953915636007,
                50.478963112161296
              ],
              [
                5.574100027122716,
                50.479210828249784
              ],
              [
                5.574283488136893,
                50.47944821279285
              ],
              [
                5.574502532262176,
                50.479672979477066
              ],
              [
                5.574502800029656,
                50.4796732021432
              ],
              [
                5.574504532180262,
                50.47967497953629
              ],
              [
                5.574757050221931,
                50.479884963538346
              ],
              [
                5.575040610450274,
                50.480078142393666
              ],
              [
                5.575352482069716,
                50.48025265546976
              ],
              [
                5.575689661497414,
                50.48040682189711
              ],
              [
                5.576048901292809,
                50.48053915676519
              ],
              [
                5.576426741440652,
                50.480648385430655
              ],
              [
                5.576819542685882,
                50.48073345580011
              ],
              [
                5.577223521598872,
                50.48079354846853
              ],
              [
                5.577634787032613,
                50.48082808461558
              ],
              [
                5.578049377620031,
                50.480836731583665
              ],
              [
                5.578463299949312,
                50.4808194060837
              ],
              [
                5.578872567048709,
                50.4807762749978
              ],
              [
                5.579273236809142,
                50.48070775377107
              ],
              [
                5.579661449973577,
                50.48061450240788
              ],
              [
                5.580033467326403,
                50.480497419111636
              ],
              [
                5.580385705723731,
                50.48035763162906
              ],
              [
                5.580714772616931,
                50.480196486382894
              ],
              [
                5.5810174987362595,
                50.48001553549762
              ],
              [
                5.581290968619416,
                50.479816521843745
              ],
              [
                5.5815325486907374,
                50.479601362244686
              ],
              [
                5.581739912620548,
                50.47937212900857
              ],
              [
                5.581911063720591,
                50.479131029962986
              ],
              [
                5.582044354160167,
                50.478880387185114
              ],
              [
                5.582138500818419,
                50.47862261463279
              ],
              [
                5.582192597620784,
                50.47836019489168
              ],
              [
                5.5822061242415595,
                50.478095655262905
              ],
              [
                5.5821789510897135,
                50.47783154342175
              ],
              [
                5.582111340530878,
                50.477570402881526
              ],
              [
                5.582003944334742,
                50.47731474849922
              ],
              [
                5.581857797373447,
                50.47706704225879
              ],
              [
                5.581674307632605,
                50.47682966956496
              ],
              [
                5.581672596205177,
                50.47682791370813
              ],
              [
                5.581672407529214,
                50.476827669624846
              ],
              [
                5.581618978864979,
                50.47677285385048
              ],
              [
                5.581625994564662,
                50.47663567631945
              ],
              [
                5.5815988254837565,
                50.47637156427906
              ],
              [
                5.581531220205415,
                50.47611042333877
              ],
              [
                5.5814238304484345,
                50.47585476835939
              ],
              [
                5.581277691022914,
                50.47560706133062
              ]
            ]
          ],
          [
            [
              [
                5.572210303192311,
                50.50499736890241
              ],
              [
                5.572026753587331,
                50.504759982120945
              ],
              [
                5.571807605169723,
                50.50453521173421
              ],
              [
                5.571554968759279,
                50.50432522221104
              ],
              [
                5.571271277558736,
                50.50413203565765
              ],
              [
                5.570959263713932,
                50.50395751235161
              ],
              [
                5.570621932000053,
                50.50380333283459
              ],
              [
                5.570262530887413,
                50.503670981735986
              ],
              [
                5.569884521265306,
                50.503561733483046
              ],
              [
                5.569491543124813,
                50.50347664003447
              ],
              [
                5.569087380520919,
                50.50341652075577
              ],
              [
                5.5686759251507265,
                50.503381954533346
              ],
              [
                5.568261138897701,
                50.503373274203135
              ],
              [
                5.567847015701806,
                50.50339056334739
              ],
              [
                5.5674375431217396,
                50.503433655490184
              ],
              [
                5.5670366639584685,
                50.50350213569973
              ],
              [
                5.566648238308631,
                50.503595344581655
              ],
              [
                5.566276006412325,
                50.50371238462521
              ],
              [
                5.565923552652193,
                50.50385212884133
              ],
              [
                5.565594271049769,
                50.50401323160966
              ],
              [
                5.5652913325907605,
                50.50419414163014
              ],
              [
                5.565017654693489,
                50.504393116854935
              ],
              [
                5.56477587311427,
                50.50460824125703
              ],
              [
                5.564568316560251,
                50.50483744327448
              ],
              [
                5.5643969842543,
                50.50507851575278
              ],
              [
                5.564263526668333,
                50.50532913719388
              ],
              [
                5.56416922961116,
                50.50558689410726
              ],
              [
                5.564115001824717,
                50.50584930424805
              ],
              [
                5.56410136620896,
                50.506113840518886
              ],
              [
                5.564128454760812,
                50.50637795530496
              ],
              [
                5.564196007276892,
                50.5066391050085
              ],
              [
                5.564303373833502,
                50.50689477454605
              ],
              [
                5.564449521021002,
                50.50714250157267
              ],
              [
                5.564633041873469,
                50.50737990019999
              ],
              [
                5.564852169398891,
                50.50760468397885
              ],
              [
                5.56510479358035,
                50.507814687925745
              ],
              [
                5.565388481685062,
                50.50800788938018
              ],
              [
                5.565700501686162,
                50.50818242749194
              ],
              [
                5.566037848571878,
                50.50833662115037
              ],
              [
                5.566397273288854,
                50.50846898518265
              ],
              [
                5.566775314040693,
                50.50857824466449
              ],
              [
                5.567168329640015,
                50.50866334720567
              ],
              [
                5.567572534592315,
                50.50872347309125
              ],
              [
                5.5679840355730645,
                50.508758043180926
              ],
              [
                5.56839886894601,
                50.50876672449014
              ],
              [
                5.568813038960397,
                50.50874943339906
              ],
              [
                5.569222556258314,
                50.50870633645837
              ],
              [
                5.569623476320318,
                50.50863784878426
              ],
              [
                5.570011937478052,
                50.508544630057976
              ],
              [
                5.570384198126871,
                50.508427578168565
              ],
              [
                5.570736672779191,
                50.50828782056033
              ],
              [
                5.5710659666105995,
                50.50812670336826
              ],
              [
                5.571368908165438,
                50.50794577844674
              ],
              [
                5.571642579906414,
                50.507746788416235
              ],
              [
                5.571884346313794,
                50.50753164987271
              ],
              [
                5.572091879263477,
                50.50730243492159
              ],
              [
                5.572263180439697,
                50.507061351214396
              ],
              [
                5.572396600566833,
                50.506810720680676
              ],
              [
                5.572490855275601,
                50.50655295716044
              ],
              [
                5.572545037451486,
                50.506290543152375
              ],
              [
                5.572558625947326,
                50.50602600590254
              ],
              [
                5.572531490576982,
                50.5057618930633
              ],
              [
                5.572463893343051,
                50.50550074815765
              ],
              [
                5.572356485887709,
                50.50524508608468
              ],
              [
                5.572210303192311,
                50.50499736890241
              ]
            ]
          ]
        ]
      },
      "properties": {
        "type": "buffer_union_300m",
        "buffer_m": 300
      }
    },
    {
      "type": "Feature",
      "geometry": {
        "type": "MultiPolygon",
        "coordinates": [
          [
            [
              [
                5.5862866025450115,
                50.47035249686689
              ],
              [
                5.5860917390506515,
                50.470022228631386
              ],
              [
                5.585847094564375,
                50.46970574017647
              ],
              [
                5.58555502588072,
                50.46940607915572
              ],
              [
                5.585218346314201,
                50.4691261311258
              ],
              [
                5.584840298585065,
                50.46886859177007
              ],
              [
                5.584424523578143,
                50.46863594095199
              ],
              [
                5.583975025276132,
                50.46843041884725
              ],
              [
                5.583496132205127,
                50.46825400438422
              ],
              [
                5.5829924557634705,
                50.46810839619972
              ],
              [
                5.5824688458346685,
                50.46799499629289
              ],
              [
                5.581930344110949,
                50.46791489653428
              ],
              [
                5.581382135575798,
                50.46786886815939
              ],
              [
                5.580829498611327,
                50.46785735434783
              ],
              [
                5.580277754209361,
                50.467880465958935
              ],
              [
                5.57973221477364,
                50.46793798046523
              ],
              [
                5.579198133004434,
                50.46802934409346
              ],
              [
                5.578680651356079,
                50.46815367715306
              ],
              [
                5.578184752552477,
                50.468309782500725
              ],
              [
                5.577715211635605,
                50.4684961570598
              ],
              [
                5.577276550007473,
                50.468711006284195
              ],
              [
                5.576872991907067,
                50.46895226142752
              ],
              [
                5.576859371570225,
                50.468962174581364
              ],
              [
                5.576830791826999,
                50.468979259969814
              ],
              [
                5.576466223216576,
                50.469244597861135
              ],
              [
                5.576144155693454,
                50.4695314636778
              ],
              [
                5.575867691331917,
                50.469837095107074
              ],
              [
                5.575639493238372,
                50.47015854908214
              ],
              [
                5.575461759881009,
                50.47049273011285
              ],
              [
                5.57533620388677,
                50.47083642008577
              ],
              [
                5.575264035511042,
                50.47118630924763
              ],
              [
                5.575245950940627,
                50.47153902807338
              ],
              [
                5.57528212554429,
                50.471891179712934
              ],
              [
                5.5753722121375775,
                50.472239372703555
              ],
              [
                5.575515344280394,
                50.47258025363355
              ],
              [
                5.575710144577363,
                50.47291053944208
              ],
              [
                5.575765219229791,
                50.47298180777223
              ],
              [
                5.575789834654822,
                50.4730235429568
              ],
              [
                5.575935417584485,
                50.47321193035411
              ],
              [
                5.575675997311472,
                50.473256294834925
              ],
              [
                5.575158449340435,
                50.473380612121204
              ],
              [
                5.574662484232971,
                50.47353670232153
              ],
              [
                5.574192877669346,
                50.47372306250513
              ],
              [
                5.5737541516835645,
                50.473937898264325
              ],
              [
                5.573350531134231,
                50.47417914098245
              ],
              [
                5.572985903028867,
                50.47444446774161
              ],
              [
                5.5726637790929425,
                50.474731323678974
              ],
              [
                5.572387261944,
                50.475036946576935
              ],
              [
                5.572159015196856,
                50.475358393450904
              ],
              [
                5.57198123778835,
                50.475692568879104
              ],
              [
                5.571855642769803,
                50.47603625480214
              ],
              [
                5.571783440772612,
                50.476386141505756
              ],
              [
                5.571765328307602,
                50.476738859488655
              ],
              [
                5.571801481012432,
                50.47709101190885
              ],
              [
                5.571891551913827,
                50.477439207296136
              ],
              [
                5.5720346747230955,
                50.4777800922158
              ],
              [
                5.572229472135041,
                50.47811038356856
              ],
              [
                5.57235033208787,
                50.478266781012486
              ],
              [
                5.572379313745872,
                50.47854903961563
              ],
              [
                5.5724693916655115,
                50.47889723447157
              ],
              [
                5.57261252303655,
                50.47923811859812
              ],
              [
                5.572807330471387,
                50.47956840890366
              ],
              [
                5.573051938775839,
                50.47988492426
              ],
              [
                5.573343992973374,
                50.480184616148
              ],
              [
                5.573344260738299,
                50.48018483881677
              ],
              [
                5.573345992864149,
                50.48018661622695
              ],
              [
                5.573682680873373,
                50.48046659810122
              ],
              [
                5.5740607604923245,
                50.48072417321912
              ],
              [
                5.574476590686631,
                50.4809568606101
              ],
              [
                5.574926166626615,
                50.48116241898838
              ],
              [
                5.57540515826206,
                50.4813388683525
              ],
              [
                5.575908952037867,
                50.48148450906756
              ],
              [
                5.5764326953483145,
                50.481597938246516
              ],
              [
                5.576971343300911,
                50.48167806327166
              ],
              [
                5.577519707338289,
                50.48172411232621
              ],
              [
                5.57807250524849,
                50.48173564183365
              ],
              [
                5.5786244120803845,
                50.48171254073358
              ],
              [
                5.579170111472186,
                50.48165503155216
              ],
              [
                5.5797043468969445,
                50.48156366825716
              ],
              [
                5.580221972329729,
                50.4814393309182
              ],
              [
                5.580718001846856,
                50.481283217223925
              ],
              [
                5.581187657677949,
                50.48109683093782
              ],
              [
                5.581626416246734,
                50.480881967404564
              ],
              [
                5.582030051756057,
                50.480640696246695
              ],
              [
                5.582394676896624,
                50.48037534141875
              ],
              [
                5.58271678028693,
                50.48008845881173
              ],
              [
                5.582993260283703,
                50.47978281162389
              ],
              [
                5.583221454837484,
                50.479461343735736
              ],
              [
                5.583399167106396,
                50.47912715134605
              ],
              [
                5.583524686582317,
                50.47878345314286
              ],
              [
                5.583596805527168,
                50.478433559296704
              ],
              [
                5.583614830562467,
                50.47808083957546
              ],
              [
                5.583578589302121,
                50.47772869088779
              ],
              [
                5.583488431966283,
                50.47738050456803
              ],
              [
                5.583345227962549,
                50.4770396337179
              ],
              [
                5.583150357469167,
                50.47670936091883
              ],
              [
                5.583027395959602,
                50.47655029702914
              ],
              [
                5.582998421829075,
                50.47626871869852
              ],
              [
                5.5829082715344525,
                50.47592053184526
              ],
              [
                5.582765076116738,
                50.47557966019895
              ],
              [
                5.582570215671432,
                50.475249386348736
              ],
              [
                5.582424600103983,
                50.47506100731707
              ],
              [
                5.582684023937869,
                50.47501662780255
              ],
              [
                5.5832015700311235,
                50.47489227707515
              ],
              [
                5.583697521194815,
                50.474736150511276
              ],
              [
                5.5841671004134374,
                50.47454975199842
              ],
              [
                5.584605784848766,
                50.47433487699895
              ],
              [
                5.585009349417777,
                50.474093595245826
              ],
              [
                5.5853739074944855,
                50.47382823079563
              ],
              [
                5.585695948343305,
                50.473541339632014
              ],
              [
                5.58597237092325,
                50.47323568503562
              ],
              [
                5.586200513737739,
                50.47291421095823
              ],
              [
                5.586378180443025,
                50.472580013658224
              ],
              [
                5.58650366096958,
                50.472236311870894
              ],
              [
                5.586575747954174,
                50.471886415801265
              ],
              [
                5.586593748325824,
                50.47153369523857
              ],
              [
                5.5865574899356325,
                50.471181547099526
              ],
              [
                5.586467323168378,
                50.470833362713215
              ],
              [
                5.586464034060596,
                50.47082553381855
              ],
              [
                5.5864298074983285,
                50.4706933644714
              ],
              [
                5.5862866025450115,
                50.47035249686689
              ]
            ]
          ],
          [
            [
              [
                5.573503698524442,
                50.50463979642146
              ],
              [
                5.5732589593297215,
                50.50432328334548
              ],
              [
                5.572966756798253,
                50.50402359247264
              ],
              [
                5.572629905534727,
                50.50374360964708
              ],
              [
                5.572251649913784,
                50.50348603088721
              ],
              [
                5.571835632822884,
                50.50325333643591
              ],
              [
                5.571385860576302,
                50.50304776688895
              ],
              [
                5.5709066643381915,
                50.50287130163147
              ],
              [
                5.57040265842603,
                50.50272563978936
              ],
              [
                5.56987869589545,
                50.50261218387833
              ],
              [
                5.569339821833274,
                50.502532026308145
              ],
              [
                5.568791224807409,
                50.5024859388709
              ],
              [
                5.56823818693975,
                50.50247436531483
              ],
              [
                5.567686033081301,
                50.50249741707455
              ],
              [
                5.567140079577286,
                50.50255487219885
              ],
              [
                5.566605583113882,
                50.50264617748627
              ],
              [
                5.566087690137419,
                50.502770453808026
              ],
              [
                5.5655913873315175,
                50.50292650456718
              ],
              [
                5.56512145362752,
                50.503112827212796
              ],
              [
                5.564682414209039,
                50.503327627698745
              ],
              [
                5.56427849695254,
                50.50356883774812
              ],
              [
                5.563913591722601,
                50.50383413475769
              ],
              [
                5.563591212913454,
                50.504120964151205
              ],
              [
                5.563314465597415,
                50.50442656396682
              ],
              [
                5.563086015606427,
                50.504747991442336
              ],
              [
                5.562908063835445,
                50.505082151342926
              ],
              [
                5.5627823250160064,
                50.50542582575885
              ],
              [
                5.562710011165602,
                50.50577570508676
              ],
              [
                5.562691819873637,
                50.506128419896534
              ],
              [
                5.562727927538392,
                50.506480573376834
              ],
              [
                5.562817987621876,
                50.50682877404735
              ],
              [
                5.5629611339411005,
                50.507169668422485
              ],
              [
                5.563155988965895,
                50.50749997331201
              ],
              [
                5.5634006770450375,
                50.50781650744728
              ],
              [
                5.56369284243484,
                50.508116222128336
              ],
              [
                5.564029671957946,
                50.508396230596084
              ],
              [
                5.564407922075192,
                50.508653835846694
              ],
              [
                5.5648239501106165,
                50.508886556619295
              ],
              [
                5.565273749329354,
                50.509092151306554
              ],
              [
                5.565752987530728,
                50.50926863955722
              ],
              [
                5.566257048784635,
                50.50941432136183
              ],
              [
                5.566781077908691,
                50.509527793437464
              ],
              [
                5.5673200272569225,
                50.50960796275322
              ],
              [
                5.5678687053682205,
                50.509654057065575
              ],
              [
                5.568421827004626,
                50.509665632362115
              ],
              [
                5.568974064095948,
                50.509642577141335
              ],
              [
                5.5695200970983665,
                50.509585113487454
              ],
              [
                5.57005466627063,
                50.50949379492971
              ],
              [
                5.570572622372242,
                50.509369501106875
              ],
              [
                5.571068976293723,
                50.50921342928843
              ],
              [
                5.571538947139386,
                50.50902708283459
              ],
              [
                5.5719780082982835,
                50.508812256706456
              ],
              [
                5.572381931058481,
                50.508571020166336
              ],
              [
                5.572746825343893,
                50.50830569683549
              ],
              [
                5.573069177180884,
                50.508018842301674
              ],
              [
                5.573345882533659,
                50.50771321949284
              ],
              [
                5.573574277182901,
                50.507391772054845
              ],
              [
                5.5737521623604085,
                50.50705759598965
              ],
              [
                5.573877825893793,
                50.506713909828164
              ],
              [
                5.573950058658762,
                50.50636402362513
              ],
              [
                5.5739681661819835,
                50.506011307074886
              ],
              [
                5.573931975284357,
                50.505659157055646
              ],
              [
                5.573841835702469,
                50.50531096491471
              ],
              [
                5.573698616674388,
                50.50497008380991
              ],
              [
                5.573503698524442,
                50.50463979642146
              ]
            ]
          ]
        ]
      },
      "properties": {
        "type": "buffer_union_400m",
        "buffer_m": 400
      }
    },
    {
      "type": "Feature",
      "geometry": {
        "type": "Polygon",
        "coordinates": [
          [
            [
              5.541962,
              50.4613532
            ],
            [
              5.5430109,
              50.4615654
            ],
            [
              5.5531901,
              50.4591746
            ],
            [
              5.5579408,
              50.4601982
            ],
            [
              5.5614673,
              50.46084
            ],
            [
              5.5636962,
              50.4606328
            ],
            [
              5.5645516,
              50.4606491
            ],
            [
              5.5673732,
              50.4613519
            ],
            [
              5.5677088,
              50.4610649
            ],
            [
              5.56823,
              50.4613513
            ],
            [
              5.5693549,
              50.4611687
            ],
            [
              5.5702687,
              50.461407
            ],
            [
              5.5720293,
              50.4616107
            ],
            [
              5.5722475,
              50.4618238
            ],
            [
              5.5726259,
              50.4620044
            ],
            [
              5.573488,
              50.4622452
            ],
            [
              5.5760634,
              50.4625023
            ],
            [
              5.577653,
              50.4629121
            ],
            [
              5.5792249,
              50.4631354
            ],
            [
              5.5803022,
              50.4634156
            ],
            [
              5.5818912,
              50.4635301
            ],
            [
              5.5827247,
              50.4636892
            ],
            [
              5.5829698,
              50.4635947
            ],
            [
              5.5819182,
              50.463015
            ],
            [
              5.584288,
              50.4633521
            ],
            [
              5.6030273,
              50.4649675
            ],
            [
              5.6061101,
              50.4641296
            ],
            [
              5.6076257,
              50.46406
            ],
            [
              5.6086988,
              50.4641459
            ],
            [
              5.6100657,
              50.4640698
            ],
            [
              5.6100894,
              50.4641991
            ],
            [
              5.6110015,
              50.4641104
            ],
            [
              5.6113236,
              50.4640038
            ],
            [
              5.6113368,
              50.4632584
            ],
            [
              5.611121,
              50.4622149
            ],
            [
              5.6113165,
              50.4612979
            ],
            [
              5.611125,
              50.4604539
            ],
            [
              5.6109023,
              50.4603762
            ],
            [
              5.6108823,
              50.4600467
            ],
            [
              5.6118867,
              50.4598724
            ],
            [
              5.6130481,
              50.4597806
            ],
            [
              5.6143358,
              50.4597852
            ],
            [
              5.6150151,
              50.4599243
            ],
            [
              5.6169567,
              50.4599114
            ],
            [
              5.6217662,
              50.4596686
            ],
            [
              5.6231063,
              50.4598165
            ],
            [
              5.6239631,
              50.4601706
            ],
            [
              5.6237823,
              50.4614553
            ],
            [
              5.6238783,
              50.4616524
            ],
            [
              5.6238359,
              50.4617635
            ],
            [
              5.6239893,
              50.4619064
            ],
            [
              5.6239553,
              50.4619761
            ],
            [
              5.6243201,
              50.4625848
            ],
            [
              5.6251971,
              50.4629912
            ],
            [
              5.6267294,
              50.4632237
            ],
            [
              5.6273439,
              50.4632004
            ],
            [
              5.6271248,
              50.4641047
            ],
            [
              5.6267269,
              50.4640942
            ],
            [
              5.6264568,
              50.4650559
            ],
            [
              5.6262901,
              50.4650409
            ],
            [
              5.6258892,
              50.4668152
            ],
            [
              5.6262014,
              50.4698125
            ],
            [
              5.6260873,
              50.4705502
            ],
            [
              5.6264203,
              50.4716866
            ],
            [
              5.6262539,
              50.4718604
            ],
            [
              5.6263932,
              50.4720412
            ],
            [
              5.6267548,
              50.4722317
            ],
            [
              5.6269392,
              50.472245
            ],
            [
              5.6275025,
              50.4725774
            ],
            [
              5.6276953,
              50.472794
            ],
            [
              5.6282213,
              50.4731211
            ],
            [
              5.6286255,
              50.4735625
            ],
            [
              5.6295309,
              50.4743186
            ],
            [
              5.6303825,
              50.4747415
            ],
            [
              5.6306098,
              50.4751478
            ],
            [
              5.6311173,
              50.4756311
            ],
            [
              5.6314353,
              50.4762317
            ],
            [
              5.6319161,
              50.4766307
            ],
            [
              5.6320837,
              50.4769875
            ],
            [
              5.6320791,
              50.4772363
            ],
            [
              5.632481,
              50.477809
            ],
            [
              5.632875,
              50.4786432
            ],
            [
              5.6328401,
              50.47872
            ],
            [
              5.6331599,
              50.4790121
            ],
            [
              5.6336823,
              50.4793705
            ],
            [
              5.6345004,
              50.4796408
            ],
            [
              5.6349476,
              50.4799535
            ],
            [
              5.6356654,
              50.4802224
            ],
            [
              5.6348064,
              50.4809796
            ],
            [
              5.632588,
              50.4837302
            ],
            [
              5.6321897,
              50.4843676
            ],
            [
              5.631423,
              50.48633
            ],
            [
              5.6309699,
              50.4869648
            ],
            [
              5.6303912,
              50.4875624
            ],
            [
              5.6296188,
              50.4880395
            ],
            [
              5.6272723,
              50.4885671
            ],
            [
              5.62448,
              50.4882561
            ],
            [
              5.6226853,
              50.4873368
            ],
            [
              5.6220108,
              50.4868075
            ],
            [
              5.6200096,
              50.4830162
            ],
            [
              5.6200512,
              50.4810572
            ],
            [
              5.6198018,
              50.4803635
            ],
            [
              5.6189395,
              50.4789511
            ],
            [
              5.6181153,
              50.4772263
            ],
            [
              5.6173535,
              50.476952
            ],
            [
              5.61497,
              50.4767818
            ],
            [
              5.6140329,
              50.4768565
            ],
            [
              5.6121916,
              50.4772122
            ],
            [
              5.6111645,
              50.477611
            ],
            [
              5.6103035,
              50.47843
            ],
            [
              5.6085217,
              50.4804781
            ],
            [
              5.6076846,
              50.481263
            ],
            [
              5.6065994,
              50.4819653
            ],
            [
              5.6057535,
              50.4822586
            ],
            [
              5.6045084,
              50.4825046
            ],
            [
              5.6025921,
              50.4825605
            ],
            [
              5.6015028,
              50.4823491
            ],
            [
              5.6004424,
              50.4820276
            ],
            [
              5.5997603,
              50.4817053
            ],
            [
              5.5990236,
              50.4814753
            ],
            [
              5.5974611,
              50.4813393
            ],
            [
              5.5960287,
              50.4811005
            ],
            [
              5.5947634,
              50.4812755
            ],
            [
              5.5934213,
              50.4816066
            ],
            [
              5.5921282,
              50.4818092
            ],
            [
              5.5894876,
              50.4818626
            ],
            [
              5.5881627,
              50.4821537
            ],
            [
              5.5860712,
              50.482918
            ],
            [
              5.5839655,
              50.4842338
            ],
            [
              5.583332,
              50.4852875
            ],
            [
              5.5834035,
              50.4864174
            ],
            [
              5.5835987,
              50.4877029
            ],
            [
              5.5844484,
              50.4892107
            ],
            [
              5.5853437,
              50.4905044
            ],
            [
              5.5872023,
              50.4926225
            ],
            [
              5.5873579,
              50.4932388
            ],
            [
              5.5880452,
              50.493883
            ],
            [
              5.5891374,
              50.4946663
            ],
            [
              5.5902408,
              50.495444
            ],
            [
              5.5916188,
              50.4962703
            ],
            [
              5.5940034,
              50.4983625
            ],
            [
              5.5948697,
              50.4992508
            ],
            [
              5.5955312,
              50.5001821
            ],
            [
              5.5958443,
              50.5011133
            ],
            [
              5.5960112,
              50.502198
            ],
            [
              5.5960426,
              50.5042259
            ],
            [
              5.5955302,
              50.5054138
            ],
            [
              5.5941291,
              50.5075444
            ],
            [
              5.5932811,
              50.5083525
            ],
            [
              5.5923815,
              50.5086689
            ],
            [
              5.5917762,
              50.5091083
            ],
            [
              5.5913723,
              50.5100571
            ],
            [
              5.5893541,
              50.511125
            ],
            [
              5.5881853,
              50.5116271
            ],
            [
              5.5869166,
              50.5118821
            ],
            [
              5.5839022,
              50.5116387
            ],
            [
              5.5808094,
              50.5111655
            ],
            [
              5.577257,
              50.5109939
            ],
            [
              5.5762285,
              50.5107898
            ],
            [
              5.5753168,
              50.5105347
            ],
            [
              5.5739381,
              50.5100105
            ],
            [
              5.5685695,
              50.5076725
            ],
            [
              5.5671617,
              50.5069581
            ],
            [
              5.5665782,
              50.5068699
            ],
            [
              5.5660457,
              50.5070184
            ],
            [
              5.5641783,
              50.5081178
            ],
            [
              5.5624204,
              50.50899
            ],
            [
              5.5612022,
              50.5097646
            ],
            [
              5.5601956,
              50.5104836
            ],
            [
              5.5600381,
              50.5106792
            ],
            [
              5.5598144,
              50.5106834
            ],
            [
              5.5593697,
              50.5103517
            ],
            [
              5.5592689,
              50.5104192
            ],
            [
              5.5566245,
              50.5091743
            ],
            [
              5.5564193,
              50.5092241
            ],
            [
              5.5546953,
              50.5085039
            ],
            [
              5.5537022,
              50.507726
            ],
            [
              5.5534045,
              50.5076301
            ],
            [
              5.5530002,
              50.5073198
            ],
            [
              5.5526662,
              50.5072177
            ],
            [
              5.5519125,
              50.5071785
            ],
            [
              5.5507323,
              50.5067503
            ],
            [
              5.5498365,
              50.5065985
            ],
            [
              5.5493675,
              50.5063916
            ],
            [
              5.5485731,
              50.5063341
            ],
            [
              5.5478889,
              50.5060647
            ],
            [
              5.5467132,
              50.505911
            ],
            [
              5.5456401,
              50.5056198
            ],
            [
              5.5458266,
              50.5052389
            ],
            [
              5.5464997,
              50.5031378
            ],
            [
              5.5470247,
              50.5019599
            ],
            [
              5.5475211,
              50.5013595
            ],
            [
              5.548231,
              50.5008322
            ],
            [
              5.5496642,
              50.5001751
            ],
            [
              5.5504208,
              50.4994948
            ],
            [
              5.5509301,
              50.4988747
            ],
            [
              5.5512211,
              50.4982453
            ],
            [
              5.5517911,
              50.496419
            ],
            [
              5.5501766,
              50.4960246
            ],
            [
              5.5490271,
              50.4958684
            ],
            [
              5.5486525,
              50.4957515
            ],
            [
              5.5486525,
              50.4956763
            ],
            [
              5.5487179,
              50.4956057
            ],
            [
              5.5496528,
              50.4955294
            ],
            [
              5.5511473,
              50.4954879
            ],
            [
              5.5509896,
              50.4945783
            ],
            [
              5.5510157,
              50.4941047
            ],
            [
              5.5511455,
              50.4936726
            ],
            [
              5.5528431,
              50.4934169
            ],
            [
              5.5537862,
              50.4912456
            ],
            [
              5.5527355,
              50.4885549
            ],
            [
              5.5508318,
              50.487953
            ],
            [
              5.550951,
              50.4872899
            ],
            [
              5.5508091,
              50.4867251
            ],
            [
              5.5495724,
              50.4857739
            ],
            [
              5.5492668,
              50.4851559
            ],
            [
              5.5495986,
              50.4840111
            ],
            [
              5.5487447,
              50.4838344
            ],
            [
              5.5489482,
              50.4805041
            ],
            [
              5.5466144,
              50.4804247
            ],
            [
              5.5467688,
              50.4794411
            ],
            [
              5.5467397,
              50.4786217
            ],
            [
              5.5464778,
              50.4775522
            ],
            [
              5.5461068,
              50.4768623
            ],
            [
              5.5453502,
              50.4744848
            ],
            [
              5.5451839,
              50.4736127
            ],
            [
              5.5451693,
              50.472902
            ],
            [
              5.5413812,
              50.4719814
            ],
            [
              5.535316,
              50.4672729
            ],
            [
              5.5389437,
              50.4635868
            ],
            [
              5.5394838,
              50.4631153
            ],
            [
              5.5401474,
              50.462719
            ],
            [
              5.541962,
              50.4613532
            ]
          ]
        ]
      },
      "properties": {
        "type": "boundary",
        "gemeente": "Comblain-au-Pont"
      }
    }
  ]
}