{
  "type": "FeatureCollection",
  "metadata": {
    "gemeente": "De Panne",
    "slug": "de-panne",
    "generated_at": "2026-09-25T22:11:36.619497Z",
    "total_points": 14,
    "providers": [
      "bpost",
      "DHL",
      "GLS",
      "PostNL",
      "Amazon"
    ],
    "bounds": [
      2.55907914458912,
      51.0730252,
      2.60186,
      51.103381747286
    ]
  },
  "features": [
    {
      "type": "Feature",
      "geometry": {
        "type": "Point",
        "coordinates": [
          2.60186,
          51.07734
        ]
      },
      "properties": {
        "type": "pakketpunt",
        "locatieNaam": "Pakjesautomaat 24/7 Station De Panne",
        "straatNaam": "Stationsplein",
        "straatNr": "9",
        "vervoerder": "bpost",
        "puntType": "automaat",
        "bezettingsgraad": 50,
        "latitude": 51.07734,
        "longitude": 2.60186,
        "canPickup": true,
        "canDropoff": true,
        "openingstijden": null
      }
    },
    {
      "type": "Feature",
      "geometry": {
        "type": "Point",
        "coordinates": [
          2.59226,
          51.10035
        ]
      },
      "properties": {
        "type": "pakketpunt",
        "locatieNaam": "Press Shop De Panne",
        "straatNaam": "Zeelaan",
        "straatNr": "122",
        "vervoerder": "bpost",
        "puntType": "servicepunt",
        "bezettingsgraad": 50,
        "latitude": 51.10035,
        "longitude": 2.59226,
        "canPickup": true,
        "canDropoff": true,
        "openingstijden": null
      }
    },
    {
      "type": "Feature",
      "geometry": {
        "type": "Point",
        "coordinates": [
          2.59196,
          51.10139
        ]
      },
      "properties": {
        "type": "pakketpunt",
        "locatieNaam": "De Panne Centrum",
        "straatNaam": "Zeelaan",
        "straatNr": "152",
        "vervoerder": "bpost",
        "puntType": "postkantoor",
        "bezettingsgraad": 50,
        "latitude": 51.10139,
        "longitude": 2.59196,
        "canPickup": true,
        "canDropoff": true,
        "openingstijden": null
      }
    },
    {
      "type": "Feature",
      "geometry": {
        "type": "Point",
        "coordinates": [
          2.601858,
          51.077338
        ]
      },
      "properties": {
        "type": "pakketpunt",
        "locatieNaam": "PARCEL LOCKER 24/7 STATION PANNE",
        "straatNaam": "STATIONSPLEIN",
        "straatNr": "9",
        "vervoerder": "DHL",
        "puntType": "packStation",
        "bezettingsgraad": 50,
        "latitude": 51.077338,
        "longitude": 2.601858,
        "canPickup": true,
        "canDropoff": true,
        "openingstijden": {
          "ma": "00:00 - 23:59",
          "di": "00:00 - 23:59",
          "wo": "00:00 - 23:59",
          "do": "00:00 - 23:59",
          "vr": "00:00 - 23:59",
          "za": "00:00 - 23:59",
          "zo": "00:00 - 23:59"
        }
      }
    },
    {
      "type": "Feature",
      "geometry": {
        "type": "Point",
        "coordinates": [
          2.591957,
          51.101387
        ]
      },
      "properties": {
        "type": "pakketpunt",
        "locatieNaam": "DE PANNE CENTRUM",
        "straatNaam": "ZEELAAN",
        "straatNr": "152",
        "vervoerder": "DHL",
        "puntType": "postOffice",
        "bezettingsgraad": 50,
        "latitude": 51.101387,
        "longitude": 2.591957,
        "canPickup": true,
        "canDropoff": true,
        "openingstijden": {
          "ma": "09:30 - 12:30, 13:30 - 17:00",
          "di": "09:30 - 12:30, 13:30 - 18:00",
          "wo": "09:30 - 12:30, 13:30 - 17:00",
          "do": "09:30 - 12:30, 13:30 - 18:00",
          "vr": "09:30 - 12:30, 13:30 - 17:00",
          "za": "09:30 - 13:00",
          "zo": "gesloten"
        }
      }
    },
    {
      "type": "Feature",
      "geometry": {
        "type": "Point",
        "coordinates": [
          2.592262,
          51.100349
        ]
      },
      "properties": {
        "type": "pakketpunt",
        "locatieNaam": "PRESS SHOP DE PANNE",
        "straatNaam": "ZEELAAN",
        "straatNr": "122",
        "vervoerder": "DHL",
        "puntType": "parcelShop",
        "bezettingsgraad": 50,
        "latitude": 51.100349,
        "longitude": 2.592262,
        "canPickup": true,
        "canDropoff": true,
        "openingstijden": {
          "ma": "08:00 - 12:30, 14:00 - 18:30",
          "di": "08:00 - 12:30, 14:00 - 18:30",
          "wo": "08:00 - 12:30, 14:00 - 18:30",
          "do": "08:00 - 12:30, 14:00 - 18:30",
          "vr": "08:00 - 12:30, 14:00 - 18:30",
          "za": "08:00 - 12:30, 14:00 - 18:30",
          "zo": "gesloten"
        }
      }
    },
    {
      "type": "Feature",
      "geometry": {
        "type": "Point",
        "coordinates": [
          2.598452,
          51.0730252
        ]
      },
      "properties": {
        "type": "pakketpunt",
        "locatieNaam": "Total Energies Adinkerke",
        "straatNaam": "Dijk",
        "straatNr": "16",
        "vervoerder": "GLS",
        "puntType": "parcel_shop",
        "bezettingsgraad": 50,
        "latitude": 51.0730252,
        "longitude": 2.598452,
        "canPickup": true,
        "canDropoff": true,
        "openingstijden": "vr: 09:00 - 18:00; za: 09:00 - 18:00"
      }
    },
    {
      "type": "Feature",
      "geometry": {
        "type": "Point",
        "coordinates": [
          2.58263,
          51.09815
        ]
      },
      "properties": {
        "type": "pakketpunt",
        "locatieNaam": "Sanistorms",
        "straatNaam": "Leopold I Esplanade",
        "straatNr": "2",
        "vervoerder": "GLS",
        "puntType": "parcel_shop",
        "bezettingsgraad": 50,
        "latitude": 51.09815,
        "longitude": 2.58263,
        "canPickup": false,
        "canDropoff": true,
        "openingstijden": "vr: 08:00 - 12:00, 14:00 - 17:00; ma: 08:00 - 12:00, 14:00 - 17:00"
      }
    },
    {
      "type": "Feature",
      "geometry": {
        "type": "Point",
        "coordinates": [
          2.5914963711641,
          51.103381747286
        ]
      },
      "properties": {
        "type": "pakketpunt",
        "locatieNaam": "AKMAL",
        "straatNaam": "Nieuwpoortlaan",
        "straatNr": "23",
        "vervoerder": "PostNL",
        "puntType": "servicepunt",
        "bezettingsgraad": 50,
        "latitude": 51.103381747286,
        "longitude": 2.5914963711641,
        "canPickup": true,
        "canDropoff": true,
        "openingstijden": "10:00 - 22:00"
      }
    },
    {
      "type": "Feature",
      "geometry": {
        "type": "Point",
        "coordinates": [
          2.591478,
          51.09709
        ]
      },
      "properties": {
        "type": "pakketpunt",
        "locatieNaam": "IDEAL Home De Panne",
        "straatNaam": "Kasteelstraat",
        "straatNr": "46",
        "vervoerder": "PostNL",
        "puntType": "servicepunt",
        "bezettingsgraad": 50,
        "latitude": 51.09709,
        "longitude": 2.591478,
        "canPickup": true,
        "canDropoff": true,
        "openingstijden": "09:00 - 12:30, 14:00 - 18:00"
      }
    },
    {
      "type": "Feature",
      "geometry": {
        "type": "Point",
        "coordinates": [
          2.58231,
          51.098174
        ]
      },
      "properties": {
        "type": "pakketpunt",
        "locatieNaam": "De Relax",
        "straatNaam": "Leopold I Esplanade",
        "straatNr": "6",
        "vervoerder": "PostNL",
        "puntType": "servicepunt",
        "bezettingsgraad": 50,
        "latitude": 51.098174,
        "longitude": 2.58231,
        "canPickup": true,
        "canDropoff": true,
        "openingstijden": "10:00 - 17:00"
      }
    },
    {
      "type": "Feature",
      "geometry": {
        "type": "Point",
        "coordinates": [
          2.55907914458912,
          51.0760444358388
        ]
      },
      "properties": {
        "type": "pakketpunt",
        "locatieNaam": "Wimpie bv",
        "straatNaam": "Duinhoekstraat",
        "straatNr": "175",
        "vervoerder": "PostNL",
        "puntType": "servicepunt",
        "bezettingsgraad": 50,
        "latitude": 51.0760444358388,
        "longitude": 2.55907914458912,
        "canPickup": true,
        "canDropoff": true,
        "openingstijden": "09:00 - 19:00"
      }
    },
    {
      "type": "Feature",
      "geometry": {
        "type": "Point",
        "coordinates": [
          2.591957,
          51.101387
        ]
      },
      "properties": {
        "type": "pakketpunt",
        "locatieNaam": "bpost - DE PANNE CENTRUM",
        "straatNaam": "ZEELAAN,152",
        "straatNr": "",
        "vervoerder": "Amazon",
        "puntType": "3p",
        "bezettingsgraad": 50,
        "latitude": 51.101387,
        "longitude": 2.591957,
        "canPickup": true,
        "canDropoff": false,
        "openingstijden": null
      }
    },
    {
      "type": "Feature",
      "geometry": {
        "type": "Point",
        "coordinates": [
          2.592262,
          51.100349
        ]
      },
      "properties": {
        "type": "pakketpunt",
        "locatieNaam": "bpost - PRESS SHOP DE PANNE",
        "straatNaam": "ZEELAAN,122",
        "straatNr": "",
        "vervoerder": "Amazon",
        "puntType": "3p",
        "bezettingsgraad": 50,
        "latitude": 51.100349,
        "longitude": 2.592262,
        "canPickup": true,
        "canDropoff": false,
        "openingstijden": null
      }
    },
    {
      "type": "Feature",
      "geometry": {
        "type": "MultiPolygon",
        "coordinates": [
          [
            [
              [
                2.5632043940955365,
                51.075324344400656
              ],
              [
                2.563072480462894,
                51.07507309080828
              ],
              [
                2.562902111211025,
                51.074831192234555
              ],
              [
                2.5626949275563784,
                51.07460097813489
              ],
              [
                2.562452925148484,
                51.074384665411706
              ],
              [
                2.5621784348370134,
                51.07418433707152
              ],
              [
                2.5618741002154333,
                51.074001922172236
              ],
              [
                2.5615428521578445,
                51.07383917725344
              ],
              [
                2.5611878805944057,
                51.07369766942837
              ],
              [
                2.5608126037970784,
                51.07357876129964
              ],
              [
                2.5604206354712655,
                51.07348359784426
              ],
              [
                2.560015749969814,
                51.073413095393484
              ],
              [
                2.5596018459637695,
                51.0733679328136
              ],
              [
                2.5591829089190137,
                51.07334854497236
              ],
              [
                2.558762972739251,
                51.07335511855373
              ],
              [
                2.558346080943783,
                51.07338759026125
              ],
              [
                2.5579362477529406,
                51.073445647427185
              ],
              [
                2.5575374194549028,
                51.07352873102169
              ],
              [
                2.55715343642497,
                51.073636041033
              ],
              [
                2.556787996162139,
                51.07376654416706
              ],
              [
                2.556444617698129,
                51.07391898379255
              ],
              [
                2.556126607720936,
                51.0740918920358
              ],
              [
                2.55583702873862,
                51.07428360390944
              ],
              [
                2.5555786695896,
                51.074492273338905
              ],
              [
                2.5553540185832913,
                51.07471589093284
              ],
              [
                2.5551652395298126,
                51.0749523033267
              ],
              [
                2.5550141508898623,
                51.07519923391315
              ],
              [
                2.554902208245993,
                51.07545430476055
              ],
              [
                2.5548304902647208,
                51.0757150595081
              ],
              [
                2.55479968828541,
                51.07597898701763
              ],
              [
                2.554810099637092,
                51.076243545554505
              ],
              [
                2.554861624748541,
                51.076506187264705
              ],
              [
                2.5549537680804613,
                51.07676438271242
              ],
              [
                2.555085642871832,
                51.07701564524195
              ],
              [
                2.5552559796557017,
                51.07725755492911
              ],
              [
                2.5554631384633497,
                51.07748778189136
              ],
              [
                2.5557051246001024,
                51.07770410873196
              ],
              [
                2.5559796078415786,
                51.07790445190189
              ],
              [
                2.556283944866007,
                51.0780868817734
              ],
              [
                2.5566152047069477,
                51.078249641231444
              ],
              [
                2.556970196981413,
                51.07839116260412
              ],
              [
                2.5573455026215304,
                51.07851008276812
              ],
              [
                2.557737506813482,
                51.07860525628397
              ],
              [
                2.558142433826109,
                51.0786757664338
              ],
              [
                2.5585563833931113,
                51.07872093405542
              ],
              [
                2.558975368297726,
                51.078740324087356
              ],
              [
                2.5593953527970217,
                51.07873374976144
              ],
              [
                2.5598122915148034,
                51.07870127440276
              ],
              [
                2.560222168427542,
                51.078643210819344
              ],
              [
                2.5606210355668515,
                51.07856011828767
              ],
              [
                2.5610050510647833,
                51.07845279716294
              ],
              [
                2.5613705161746125,
                51.0783222811663
              ],
              [
                2.5617139109097637,
                51.078169827423395
              ],
              [
                2.5620319279569514,
                51.07799690435036
              ],
              [
                2.5623215045364187,
                51.07780517750452
              ],
              [
                2.5625798519020866,
                51.07759649353582
              ],
              [
                2.562804482197368,
                51.07737286239428
              ],
              [
                2.5629932324080564,
                51.077136437965144
              ],
              [
                2.5631442851818678,
                51.076889497318234
              ],
              [
                2.5632561863145624,
                51.07663441877177
              ],
              [
                2.563327858734878,
                51.07637365898248
              ],
              [
                2.56335861285433,
                51.076109729282265
              ],
              [
                2.5633481531831155,
                51.07584517148992
              ],
              [
                2.5632965811493524,
                51.0755825334309
              ],
              [
                2.5632043940955365,
                51.075324344400656
              ]
            ]
          ],
          [
            [
              [
                2.595472459844808,
                51.096117564538815
              ],
              [
                2.595301846300325,
                51.095875714605015
              ],
              [
                2.5950944098856974,
                51.095645559177356
              ],
              [
                2.5948521486844722,
                51.095429314593055
              ],
              [
                2.5945773960382814,
                51.09522906320235
              ],
              [
                2.5942727980665037,
                51.09504673332199
              ],
              [
                2.5939412881788115,
                51.094884080672806
              ],
              [
                2.593586058826186,
                51.09474267147938
              ],
              [
                2.593210530762421,
                51.09462386739456
              ],
              [
                2.5928183201118937,
                51.09452881239341
              ],
              [
                2.5924132035602914,
                51.09445842176285
              ],
              [
                2.5919990820029537,
                51.09441337329243
              ],
              [
                2.591579943000103,
                51.0943941007511
              ],
              [
                2.5911598223997014,
                51.09440078971263
              ],
              [
                2.5907427654965285,
                51.09443337576956
              ],
              [
                2.5903327881005307,
                51.09449154515312
              ],
              [
                2.5899338378883567,
                51.09457473775292
              ],
              [
                2.5895497564092635,
                51.09468215250759
              ],
              [
                2.5891842421103988,
                51.094812755114475
              ],
              [
                2.5888408147366904,
                51.094965287984415
              ],
              [
                2.5885227814475207,
                51.09513828234582
              ],
              [
                2.588233204975971,
                51.095330072382026
              ],
              [
                2.5879748741369157,
                51.09553881126574
              ],
              [
                2.5877502769678715,
                51.09576248893671
              ],
              [
                2.587561576761296,
                51.09599895145175
              ],
              [
                2.5874105912194096,
                51.09624592172077
              ],
              [
                2.5872987749327474,
                51.096501021429845
              ],
              [
                2.587227205351787,
                51.09676179394003
              ],
              [
                2.5871965723875108,
                51.09702572794197
              ],
              [
                2.587207171741955,
                51.0972902816383
              ],
              [
                2.5872589020339176,
                51.09755290722144
              ],
              [
                2.587351265748564,
                51.09781107541071
              ],
              [
                2.587483374002774,
                51.098062299812725
              ],
              [
                2.587653955081362,
                51.09830416087032
              ],
              [
                2.5878613666628856,
                51.09853432916911
              ],
              [
                2.5881036116181195,
                51.098750587877255
              ],
              [
                2.5883783572297556,
                51.098950854101766
              ],
              [
                2.588521025322964,
                51.09903626067128
              ],
              [
                2.5883432854203936,
                51.09925897867976
              ],
              [
                2.588192293479653,
                51.099505949664426
              ],
              [
                2.588080473661299,
                51.099761049820025
              ],
              [
                2.588008903449912,
                51.100021822503315
              ],
              [
                2.587978272762642,
                51.10028575640325
              ],
              [
                2.5879824675739584,
                51.10039040568476
              ],
              [
                2.58788920872284,
                51.10054293952244
              ],
              [
                2.5877773847703476,
                51.10079803929673
              ],
              [
                2.5877058112807974,
                51.10105881170005
              ],
              [
                2.5876751782029372,
                51.10132274542405
              ],
              [
                2.587685781240024,
                51.101587298674076
              ],
              [
                2.5877375189755187,
                51.1018499236468
              ],
              [
                2.5877994659989505,
                51.10202305230421
              ],
              [
                2.587768145914322,
                51.10205423975932
              ],
              [
                2.5875794204017644,
                51.102290701775246
              ],
              [
                2.587428414633529,
                51.10253767151587
              ],
              [
                2.587316583395082,
                51.10279277067232
              ],
              [
                2.5872450042810557,
                51.10305354261102
              ],
              [
                2.587214367294418,
                51.103317476028074
              ],
              [
                2.587224968176129,
                51.10358202913181
              ],
              [
                2.5872767055304644,
                51.103844654120294
              ],
              [
                2.5873690817747583,
                51.104102821718605
              ],
              [
                2.587501207905392,
                51.10435404553904
              ],
              [
                2.587671812035171,
                51.104595906030035
              ],
              [
                2.5878792516207825,
                51.10482607378263
              ],
              [
                2.5881215292634034,
                51.10504233197027
              ],
              [
                2.58839631193099,
                51.10524259770494
              ],
              [
                2.5887009534176553,
                51.10542494210455
              ],
              [
                2.58903251982417,
                51.105587608877194
              ],
              [
                2.589387817814364,
                51.10572903124358
              ],
              [
                2.5897634253752555,
                51.10584784703396
              ],
              [
                2.5901557247843896,
                51.105942911814076
              ],
              [
                2.5905609374664924,
                51.10601330991334
              ],
              [
                2.5909751604030973,
                51.10605836324886
              ],
              [
                2.5913944037437724,
                51.10607763785995
              ],
              [
                2.5918146292558104,
                51.10607094809016
              ],
              [
                2.592231789241145,
                51.106038358376594
              ],
              [
                2.5926418655446812,
                51.10598018262875
              ],
              [
                2.593040908277312,
                51.10589698120348
              ],
              [
                2.5934250738797404,
                51.105789555504906
              ],
              [
                2.593790662159558,
                51.10565894026142
              ],
              [
                2.594134151944099,
                51.105506393554585
              ],
              [
                2.594452235004999,
                51.10533338469596
              ],
              [
                2.5947418479272355,
                51.10514158006907
              ],
              [
                2.59500020161538,
                51.10493282707298
              ],
              [
                2.595224808152746,
                51.10470913632246
              ],
              [
                2.5954135047548275,
                51.10447266227682
              ],
              [
                2.5955644745865936,
                51.10422568248355
              ],
              [
                2.5956762642435978,
                51.10397057563785
              ],
              [
                2.595747797729158,
                51.1037097986688
              ],
              [
                2.595778386793783,
                51.103445863073595
              ],
              [
                2.59576773753813,
                51.103181310727614
              ],
              [
                2.595715953216905,
                51.102918689403666
              ],
              [
                2.5956555559601657,
                51.102749979215154
              ],
              [
                2.5956882913001955,
                51.102717375322904
              ],
              [
                2.5958769775182393,
                51.10248090036801
              ],
              [
                2.5960279384692857,
                51.10223391980636
              ],
              [
                2.5961397208343753,
                51.10197881234052
              ],
              [
                2.596211248687005,
                51.10171803490556
              ],
              [
                2.59624183383188,
                51.101454099003114
              ],
              [
                2.596237407521425,
                51.10134416182527
              ],
              [
                2.5963298533382195,
                51.101192909702974
              ],
              [
                2.5964416315667074,
                51.10093780185659
              ],
              [
                2.5965131561425263,
                51.10067702414203
              ],
              [
                2.596543738901909,
                51.10041308806367
              ],
              [
                2.5965330860061493,
                51.10014853550157
              ],
              [
                2.5964813007449172,
                51.0998859142306
              ],
              [
                2.596388882514754,
                51.09962775338433
              ],
              [
                2.596256721983628,
                51.09937653910028
              ],
              [
                2.5960860924891174,
                51.099134690580414
              ],
              [
                2.5958786377539735,
                51.09890453679801
              ],
              [
                2.5956363560382147,
                51.09868829407447
              ],
              [
                2.5953615808810615,
                51.09848804474204
              ],
              [
                2.5952180884817446,
                51.09840215953238
              ],
              [
                2.5953946060179764,
                51.09818091804786
              ],
              [
                2.5955455556330813,
                51.09793393772663
              ],
              [
                2.595657330349503,
                51.09767883032864
              ],
              [
                2.595728854314285,
                51.09741805278831
              ],
              [
                2.5957594393694494,
                51.09715411660829
              ],
              [
                2.5957487916540796,
                51.09688956366968
              ],
              [
                2.595697014407863,
                51.09662694175091
              ],
              [
                2.5956046069500567,
                51.096368779991884
              ],
              [
                2.595472459844808,
                51.096117564538815
              ]
            ]
          ],
          [
            [
              [
                2.5866247344195865,
                51.09717786462573
              ],
              [
                2.5864541627744293,
                51.09693600198286
              ],
              [
                2.586246765210934,
                51.09670583107874
              ],
              [
                2.5860045394386497,
                51.09648956839966
              ],
              [
                2.585729818458176,
                51.0962892964701
              ],
              [
                2.585425248084101,
                51.09610694380465
              ],
              [
                2.585093761460481,
                51.09594426634354
              ],
              [
                2.584738550814405,
                51.09580283055032
              ],
              [
                2.584363036719649,
                51.09568399833397
              ],
              [
                2.583970835166176,
                51.09558891394045
              ],
              [
                2.5835657227521502,
                51.0955184929397
              ],
              [
                2.5831516003331236,
                51.09547341341371
              ],
              [
                2.5827324554776423,
                51.09545410943045
              ],
              [
                2.5823123240900254,
                51.09546076686648
              ],
              [
                2.5820080508383705,
                51.09548451717879
              ],
              [
                2.5819923423322533,
                51.0954847660273
              ],
              [
                2.581575269374264,
                51.09551731964663
              ],
              [
                2.581165271071603,
                51.09557545713295
              ],
              [
                2.580766295302158,
                51.09565861868305
              ],
              [
                2.580382183861188,
                51.09576600353451
              ],
              [
                2.58001663548424,
                51.09589657767266
              ],
              [
                2.579673170244268,
                51.09604908378244
              ],
              [
                2.579355095665156,
                51.096222053350004
              ],
              [
                2.5790654748774533,
                51.09641382079741
              ],
              [
                2.5788070971226524,
                51.09662253951496
              ],
              [
                2.5785824508899373,
                51.09684619963661
              ],
              [
                2.5783936999441313,
                51.09708264738819
              ],
              [
                2.5782426624759838,
                51.09732960582185
              ],
              [
                2.5781307935760163,
                51.09758469673767
              ],
              [
                2.578059171201342,
                51.09784546358142
              ],
              [
                2.578028485771347,
                51.09810939509841
              ],
              [
                2.5780390334933476,
                51.09837394951525
              ],
              [
                2.5780907134834323,
                51.098636579017445
              ],
              [
                2.5781830287112735,
                51.09889475428663
              ],
              [
                2.5783150907608094,
                51.0991459888613
              ],
              [
                2.578485628361959,
                51.09938786308635
              ],
              [
                2.578692999612141,
                51.09961804742064
              ],
              [
                2.5789352077707073,
                51.0998343248779
              ],
              [
                2.5792099204748946,
                51.10003461238462
              ],
              [
                2.579514492192751,
                51.100216980849
              ],
              [
                2.5798459896971364,
                51.10037967374742
              ],
              [
                2.580201220315654,
                51.100521124048946
              ],
              [
                2.580576762684369,
                51.100639969314784
              ],
              [
                2.5809689997088934,
                51.10073506482681
              ],
              [
                2.5813741534149837,
                51.10080549461843
              ],
              [
                2.5817883213523665,
                51.100850580301476
              ],
              [
                2.5822075142004857,
                51.1008698876037
              ],
              [
                2.582627694213084,
                51.1008632305538
              ],
              [
                2.58293200215704,
                51.10083947868778
              ],
              [
                2.5829477124573783,
                51.10083922971457
              ],
              [
                2.583364831937708,
                51.10080667130226
              ],
              [
                2.58377487338215,
                51.10074852627581
              ],
              [
                2.5841738872373794,
                51.1006653546962
              ],
              [
                2.5845580302222313,
                51.10055795768001
              ],
              [
                2.584923602362096,
                51.10042736967941
              ],
              [
                2.585267082639682,
                51.100274848513536
              ],
              [
                2.5855851629180786,
                51.100101863247986
              ],
              [
                2.5858747798089166,
                51.09991008003903
              ],
              [
                2.586133144178376,
                51.09970134607945
              ],
              [
                2.5863577680067014,
                51.099477671800734
              ],
              [
                2.5865464883426483,
                51.09924121150351
              ],
              [
                2.586697488122389,
                51.09899424260297
              ],
              [
                2.586809313652834,
                51.09873914368938
              ],
              [
                2.586880888591602,
                51.098478371615485
              ],
              [
                2.586911524289781,
                51.09821443783139
              ],
              [
                2.5869009263987435,
                51.09794988419507
              ],
              [
                2.586849197678378,
                51.09768725849183
              ],
              [
                2.586756836980685,
                51.09742908989801
              ],
              [
                2.5866247344195865,
                51.09717786462573
              ]
            ]
          ],
          [
            [
              [
                2.602576376533492,
                51.07230372989833
              ],
              [
                2.6024442599700515,
                51.07205252014267
              ],
              [
                2.6022736981514063,
                51.07181067825998
              ],
              [
                2.6020663341479198,
                51.07158053315959
              ],
              [
                2.6018241653452994,
                51.07136430107933
              ],
              [
                2.601549524194965,
                51.071164064248975
              ],
              [
                2.601245055742296,
                51.070981750845085
              ],
              [
                2.60091369214953,
                51.07081911642987
              ],
              [
                2.6005586244587966,
                51.070677727052335
              ],
              [
                2.6001832718671873,
                51.070558944174564
              ],
              [
                2.599791248809509,
                51.07046391156744
              ],
              [
                2.599386330165272,
                51.070393544302256
              ],
              [
                2.5989724149244093,
                51.070348519943565
              ],
              [
                2.5985534886608326,
                51.07032927202821
              ],
              [
                2.5981335851743994,
                51.0703359858928
              ],
              [
                2.5977167476696867,
                51.070368596890134
              ],
              [
                2.5973069898444403,
                51.07042679101122
              ],
              [
                2.5969082572614277,
                51.070510007907515
              ],
              [
                2.596524389374671,
                51.07061744628363
              ],
              [
                2.596159082574883,
                51.070748071609444
              ],
              [
                2.5958158546091434,
                51.07090062607698
              ],
              [
                2.595498010716792,
                51.07107364070665
              ],
              [
                2.5952086118071476,
                51.071265449486546
              ],
              [
                2.5949504449851606,
                51.07147420540882
              ],
              [
                2.5947259967087266,
                51.07169789824911
              ],
              [
                2.5945374288361958,
                51.071934373918076
              ],
              [
                2.594386557795016,
                51.07218135519891
              ],
              [
                2.5942748370725757,
                51.07243646367155
              ],
              [
                2.594203343198467,
                51.07269724261264
              ],
              [
                2.594172765353941,
                51.072961180650815
              ],
              [
                2.5941833987095118,
                51.07322573594982
              ],
              [
                2.5942351415558047,
                51.073488360686575
              ],
              [
                2.594327496256351,
                51.073746525588525
              ],
              [
                2.59445957401414,
                51.073997744293926
              ],
              [
                2.5946301034070274,
                51.074239597300476
              ],
              [
                2.5948374426107557,
                51.07446975527132
              ],
              [
                2.5950795951926557,
                51.07468600147406
              ],
              [
                2.5953542293246614,
                51.074886253136214
              ],
              [
                2.595658700231106,
                51.07506858151118
              ],
              [
                2.5959900756554513,
                51.07523123046148
              ],
              [
                2.5963451641008892,
                51.075372633379494
              ],
              [
                2.596720545572735,
                51.075491428282824
              ],
              [
                2.5971126045263317,
                51.07558647093841
              ],
              [
                2.5975175647027084,
                51.075656845888865
              ],
              [
                2.5979315255158766,
                51.07570187527421
              ],
              [
                2.5983504996406044,
                51.07572112536449
              ],
              [
                2.59843936788561,
                51.075719704571775
              ],
              [
                2.5983560092009887,
                51.075787108918206
              ],
              [
                2.5981315565159906,
                51.07601080790921
              ],
              [
                2.5979429884737986,
                51.076247288672825
              ],
              [
                2.597792121503623,
                51.076494273943204
              ],
              [
                2.5976804090537837,
                51.07674938526185
              ],
              [
                2.5976089275743464,
                51.07701016587798
              ],
              [
                2.597578366127338,
                51.077274104404076
              ],
              [
                2.597589019725492,
                51.07753865899917
              ],
              [
                2.5976407864646096,
                51.077801281846945
              ],
              [
                2.5977331684782325,
                51.078059443693
              ],
              [
                2.5978652767063974,
                51.07831065820503
              ],
              [
                2.598035839433579,
                51.07855250592108
              ],
              [
                2.5982432145145293,
                51.078782657555244
              ],
              [
                2.598244226099689,
                51.0787835607499
              ],
              [
                2.5982452144217323,
                51.078784657615564
              ],
              [
                2.598487405097882,
                51.079000896492175
              ],
              [
                2.598762079155568,
                51.07920113991294
              ],
              [
                2.5990665914345725,
                51.079383459210696
              ],
              [
                2.5993980092798497,
                51.079546098335314
              ],
              [
                2.5997531407859586,
                51.07968749077383
              ],
              [
                2.6001285655434048,
                51.07980627464475
              ],
              [
                2.600520667590539,
                51.0799013058213
              ],
              [
                2.6009256702532375,
                51.0799716689566
              ],
              [
                2.6013396725362017,
                51.080016686304546
              ],
              [
                2.6017586867146822,
                51.08003592425107
              ],
              [
                2.602178676763667,
                51.080029197492934
              ],
              [
                2.6025955972535155,
                51.07999657082348
              ],
              [
                2.603005432336405,
                51.079938358508166
              ],
              [
                2.6034042344470985,
                51.07985512125609
              ],
              [
                2.603788162344361,
                51.07974766081637
              ],
              [
                2.6041535181256794,
                51.079617012252015
              ],
              [
                2.604496782858039,
                51.079464433965484
              ],
              [
                2.6048146504808973,
                51.07929139557246
              ],
              [
                2.605104059654321,
                51.07909956374086
              ],
              [
                2.6053622232452502,
                51.078890786131666
              ],
              [
                2.6055866551677362,
                51.078667073596726
              ],
              [
                2.605775194318752,
                51.07843058080499
              ],
              [
                2.605926025379301,
                51.078183585484474
              ],
              [
                2.6060376962809313,
                51.077928466479825
              ],
              [
                2.606109132170074,
                51.07766768083715
              ],
              [
                2.6061396457364787,
                51.07740374013709
              ],
              [
                2.606128943807151,
                51.077139186304166
              ],
              [
                2.606077130143288,
                51.0768765671254
              ],
              [
                2.605984704414254,
                51.07661841171423
              ],
              [
                2.6058525573595404,
                51.07636720615573
              ],
              [
                2.60568196218628,
                51.07612536956785
              ],
              [
                2.6054745622861,
                51.075895230808925
              ],
              [
                2.605473550623798,
                51.07589432767541
              ],
              [
                2.6054725621933277,
                51.07589323086925
              ],
              [
                2.605230355317252,
                51.07567700611174
              ],
              [
                2.6049556742646423,
                51.07547677751857
              ],
              [
                2.604651164465115,
                51.07529447318699
              ],
              [
                2.604319758479029,
                51.07513184859179
              ],
              [
                2.6039646477566936,
                51.07499046968748
              ],
              [
                2.603589251909504,
                51.074871697835185
              ],
              [
                2.603197185788714,
                51.074776676699656
              ],
              [
                2.602792224688417,
                51.074706321241706
              ],
              [
                2.602378268007278,
                51.07466130891224
              ],
              [
                2.6019593017181597,
                51.07464207313223
              ],
              [
                2.6018704356274776,
                51.074643496579405
              ],
              [
                2.60195378720986,
                51.07457608972076
              ],
              [
                2.6021782147315893,
                51.07435238333998
              ],
              [
                2.6023667537238833,
                51.07411589564547
              ],
              [
                2.6025175888691443,
                51.07386890431615
              ],
              [
                2.602629268059445,
                51.073613788158276
              ],
              [
                2.6027007163612503,
                51.073353004190515
              ],
              [
                2.6027312463446246,
                51.07308906397742
              ],
              [
                2.6027205646783345,
                51.07282450943881
              ],
              [
                2.6026687749283064,
                51.07256188836857
              ],
              [
                2.602576376533492,
                51.07230372989833
              ]
            ]
          ]
        ]
      },
      "properties": {
        "type": "buffer_union_300m",
        "buffer_m": 300
      }
    },
    {
      "type": "Feature",
      "geometry": {
        "type": "MultiPolygon",
        "coordinates": [
          [
            [
              [
                2.564579449038233,
                51.07508428179697
              ],
              [
                2.564403555564497,
                51.07474927899352
              ],
              [
                2.564176389348265,
                51.07442675003176
              ],
              [
                2.5639001389552916,
                51.07411980075738
              ],
              [
                2.5635774654636805,
                51.07383138693046
              ],
              [
                2.5632114768118286,
                51.073564285772385
              ],
              [
                2.5628056978512954,
                51.07332106923376
              ],
              [
                2.562364036393617,
                51.07310407923953
              ],
              [
                2.5618907455783244,
                51.07291540514983
              ],
              [
                2.561390382924482,
                51.07275686365252
              ],
              [
                2.5608677664596695,
                51.072629981280855
              ],
              [
                2.560327928348109,
                51.07253597972392
              ],
              [
                2.5597760664634506,
                51.07247576407104
              ],
              [
                2.5592174943712247,
                51.072449914102826
              ],
              [
                2.5586575902011077,
                51.07245867871256
              ],
              [
                2.558101744899652,
                51.072501973511265
              ],
              [
                2.557555310360036,
                51.07257938163986
              ],
              [
                2.55702354792655,
                51.072690157779974
              ],
              [
                2.556511577767966,
                51.07283323532559
              ],
              [
                2.556024329605712,
                51.073007236646156
              ],
              [
                2.5555664952698938,
                51.07321048634307
              ],
              [
                2.5551424835388525,
                51.073441027372
              ],
              [
                2.554756377696225,
                51.07369663987641
              ],
              [
                2.5544118962136624,
                51.07397486255134
              ],
              [
                2.5541123569375666,
                51.074273016332576
              ],
              [
                2.5538606451248413,
                51.07458823018298
              ],
              [
                2.553659185635943,
                51.07491746872897
              ],
              [
                2.5535099195537896,
                51.075257561480925
              ],
              [
                2.5534142854548136,
                51.07560523335685
              ],
              [
                2.5533732055138567,
                51.07595713621563
              ],
              [
                2.553387076578318,
                51.07630988109646
              ],
              [
                2.5534557662992152,
                51.07666007085433
              ],
              [
                2.5535786143582424,
                51.07700433287702
              ],
              [
                2.5537544387808286,
                51.07733935156877
              ],
              [
                2.5539815472761744,
                51.07766190028771
              ],
              [
                2.5542577534967066,
                51.07796887242888
              ],
              [
                2.5545803980618436,
                51.078257311353475
              ],
              [
                2.554946374144816,
                51.07852443887556
              ],
              [
                2.5553521573770794,
                51.07876768203145
              ],
              [
                2.555793839782938,
                51.078984697873246
              ],
              [
                2.5562671674178348,
                51.07917339604754
              ],
              [
                2.556767581347747,
                51.0793319589409
              ],
              [
                2.557290261574586,
                51.07945885919784
              ],
              [
                2.5578301734837896,
                51.079552874441966
              ],
              [
                2.558382116365706,
                51.07961309905796
              ],
              [
                2.5589407735421257,
                51.079638952920746
              ],
              [
                2.5595007636136344,
                51.079630186987394
              ],
              [
                2.5600566923325374,
                51.079586885697715
              ],
              [
                2.56060320459997,
                51.07950946616026
              ],
              [
                2.5611350360846057,
                51.07939867413184
              ],
              [
                2.5616470639640756,
                51.079255576829055
              ],
              [
                2.562134356298771,
                51.07908155264167
              ],
              [
                2.5625922195610635,
                51.078878277847096
              ],
              [
                2.5630162438609836,
                51.07864771045414
              ],
              [
                2.563402345431879,
                51.07839207133251
              ],
              [
                2.56374680596626,
                51.07811382280998
              ],
              [
                2.5640463084227516,
                51.07781564494417
              ],
              [
                2.564297968959406,
                51.0775004096977
              ],
              [
                2.5644993646862786,
                51.07717115326643
              ],
              [
                2.5646485569707886,
                51.076831046827294
              ],
              [
                2.5647441100725077,
                51.07648336598826
              ],
              [
                2.5647851049292716,
                51.07613145923492
              ],
              [
                2.5647711479634197,
                51.0757787156777
              ],
              [
                2.564702374825076,
                51.0754285324108
              ],
              [
                2.564579449038233,
                51.07508428179697
              ]
            ]
          ],
          [
            [
              [
                2.5968039095347795,
                51.095793389242466
              ],
              [
                2.596576417595532,
                51.09547092513626
              ],
              [
                2.5962998301923403,
                51.09516405409313
              ],
              [
                2.5959768116485438,
                51.09487573111949
              ],
              [
                2.59561047322494,
                51.094608732561596
              ],
              [
                2.595204343140671,
                51.094365629381876
              ],
              [
                2.5947623325876514,
                51.094148762413525
              ],
              [
                2.5942886980660713,
                51.0939602198319
              ],
              [
                2.593788000403618,
                51.09380181705845
              ],
              [
                2.593265060852657,
                51.0936750792906
              ],
              [
                2.5927249146873534,
                51.09358122682503
              ],
              [
                2.5921727627465727,
                51.09352116331551
              ],
              [
                2.5916139213878306,
                51.09349546707772
              ],
              [
                2.591053771332728,
                51.09350438552471
              ],
              [
                2.5904977058947614,
                51.09354783278639
              ],
              [
                2.5899510790863296,
                51.09362539053566
              ],
              [
                2.5894191541028313,
                51.09373631201354
              ],
              [
                2.5889070526782336,
                51.09387952921465
              ],
              [
                2.5884197057981826,
                51.094053663163756
              ],
              [
                2.5879618062438468,
                51.094257037185166
              ],
              [
                2.587537763422298,
                51.09448769303741
              ],
              [
                2.587151660917501,
                51.09474340975823
              ],
              [
                2.586807217170095,
                51.0950217250391
              ],
              [
                2.586507749664392,
                51.09531995892385
              ],
              [
                2.5864017758030786,
                51.09545275212621
              ],
              [
                2.5863569431597355,
                51.095425910020765
              ],
              [
                2.585914963623112,
                51.0952090099701
              ],
              [
                2.58544135404149,
                51.09502043192244
              ],
              [
                2.584940675002617,
                51.094861991640784
              ],
              [
                2.584417747579703,
                51.0947352146837
              ],
              [
                2.583877606930273,
                51.09464132172525
              ],
              [
                2.5833254538401715,
                51.09458121680904
              ],
              [
                2.5827666046780324,
                51.09455547864947
              ],
              [
                2.5822064402405918,
                51.09456435506325
              ],
              [
                2.5819021727686313,
                51.094588105109885
              ],
              [
                2.5818864645631026,
                51.09458835394437
              ],
              [
                2.5813303777198477,
                51.09463175795669
              ],
              [
                2.5807837230374546,
                51.09470927317703
              ],
              [
                2.58025176397958,
                51.094820153255974
              ],
              [
                2.579739622608119,
                51.09496333058669
              ],
              [
                2.5792522302931604,
                51.09513742657785
              ],
              [
                2.5787942802531436,
                51.095340764919314
              ],
              [
                2.578370182381039,
                51.095571387713186
              ],
              [
                2.5779840207906672,
                51.09582707431556
              ],
              [
                2.5776395144913886,
                51.096105362707966
              ],
              [
                2.5773399815696436,
                51.09640357319325
              ],
              [
                2.577088307222344,
                51.096718834188145
              ],
              [
                2.5768869159504537,
                51.097048109864936
              ],
              [
                2.576737748181312,
                51.097388229376286
              ],
              [
                2.5766422415459482,
                51.09773591738232
              ],
              [
                2.5766013169930266,
                51.098087825586354
              ],
              [
                2.576615369874746,
                51.09844056497591
              ],
              [
                2.576684266092259,
                51.09879073845858
              ],
              [
                2.5768073433395324,
                51.09913497357865
              ],
              [
                2.5769834174355117,
                51.09946995499923
              ],
              [
                2.5772107936853885,
                51.099792456437136
              ],
              [
                2.5774872831631805,
                51.100099371742544
              ],
              [
                2.577810223760319,
                51.10038774482385
              ],
              [
                2.578176505798748,
                51.100654798129106
              ],
              [
                2.5785826019628106,
                51.10089795940923
              ],
              [
                2.5790246012622737,
                51.10111488650482
              ],
              [
                2.5794982466996825,
                51.10130348991715
              ],
              [
                2.579998976279201,
                51.10146195294544
              ],
              [
                2.580521966961538,
                51.10158874919611
              ],
              [
                2.581062181140886,
                51.101682657294425
              ],
              [
                2.5816144151951623,
                51.101742772657204
              ],
              [
                2.582173349640642,
                51.1017685162117
              ],
              [
                2.5827336004063848,
                51.10175963997759
              ],
              [
                2.5830379141315474,
                51.10173588784585
              ],
              [
                2.58305362473257,
                51.10173563885861
              ],
              [
                2.5836097944764034,
                51.10169222682857
              ],
              [
                2.5841565261257062,
                51.10161469869829
              ],
              [
                2.584688553235664,
                51.10150380127061
              ],
              [
                2.585200751099456,
                51.10136060277743
              ],
              [
                2.585688186140228,
                51.10118648258326
              ],
              [
                2.5861461634560876,
                51.10098311789022
              ],
              [
                2.5863028993259713,
                51.10089787795612
              ],
              [
                2.5862887616398718,
                51.10094938153706
              ],
              [
                2.5862479068879263,
                51.10130129268464
              ],
              [
                2.5862620335217574,
                51.10165403051933
              ],
              [
                2.5863074879762156,
                51.10188479709236
              ],
              [
                2.5862738107777394,
                51.10192699093551
              ],
              [
                2.5860724617688344,
                51.10225628168879
              ],
              [
                2.5859233442116283,
                51.10259641218832
              ],
              [
                2.5858278952539764,
                51.10294410698831
              ],
              [
                2.5857870352894388,
                51.103296017726585
              ],
              [
                2.5858011590485104,
                51.103648755366166
              ],
              [
                2.585870131750016,
                51.10399892283141
              ],
              [
                2.585993290351534,
                51.10434314772443
              ],
              [
                2.5861694498886423,
                51.10467811480674
              ],
              [
                2.5863969148437254,
                51.105000597933206
              ],
              [
                2.5866734954364787,
                51.10530749113023
              ],
              [
                2.586996528680727,
                51.10559583851907
              ],
              [
                2.587362904005973,
                51.10586286279519
              ],
              [
                2.587769093197896,
                51.10610599198902
              ],
              [
                2.588211184370032,
                51.10632288425019
              ],
              [
                2.588684919639778,
                51.106511450415425
              ],
              [
                2.589185736145767,
                51.106669874142696
              ],
              [
                2.5897088100111487,
                51.10679662941692
              ],
              [
                2.5902491028286048,
                51.10689049525814
              ],
              [
                2.590801410218331,
                51.10695056749012
              ],
              [
                2.5913604119899785,
                51.106976267455636
              ],
              [
                2.5919207234239012,
                51.10696734759419
              ],
              [
                2.5924769471761158,
                51.106923893828345
              ],
              [
                2.593023725305285,
                51.106846324735436
              ],
              [
                2.593555790918842,
                51.10673538751286
              ],
              [
                2.5940680189391125,
                51.10659215077586
              ],
              [
                2.5945554754988494,
                51.106417994257335
              ],
              [
                2.595013465489035,
                51.10621459550931
              ],
              [
                2.595437577799775,
                51.105983913734505
              ],
              [
                2.595823727817683,
                51.10572817090433
              ],
              [
                2.596168196769853,
                51.1054498303454
              ],
              [
                2.596467667535245,
                51.10515157300162
              ],
              [
                2.5967192565787123,
                51.10483627160103
              ],
              [
                2.596920541700561,
                51.10450696297639
              ],
              [
                2.5970695853352015,
                51.1041668188071
              ],
              [
                2.5971649531755805,
                51.103819115064255
              ],
              [
                2.59720572794543,
                51.10346720045371
              ],
              [
                2.5971915181882386,
                51.10311446416126
              ],
              [
                2.5971470778129335,
                51.10288912245046
              ],
              [
                2.5971826773140374,
                51.102844504819174
              ],
              [
                2.597383950595517,
                51.102515195170085
              ],
              [
                2.5975329845083244,
                51.102175050174
              ],
              [
                2.5976283448389497,
                51.10182734580998
              ],
              [
                2.5976653817041213,
                51.101507650795924
              ],
              [
                2.597685837085616,
                51.10147418169956
              ],
              [
                2.5978348654833208,
                51.10113403619609
              ],
              [
                2.5979302214452864,
                51.100786331459325
              ],
              [
                2.597970987809496,
                51.10043441620468
              ],
              [
                2.597956773200235,
                51.100081679624104
              ],
              [
                2.597887715750103,
                51.099731518744285
              ],
              [
                2.5977644817221486,
                51.09938730571203
              ],
              [
                2.5975882590472006,
                51.09905235532237
              ],
              [
                2.597360745840413,
                51.098729893101535
              ],
              [
                2.597084134009291,
                51.0984230242522
              ],
              [
                2.596883743684107,
                51.09824417515436
              ],
              [
                2.5969014401418153,
                51.09821521906691
              ],
              [
                2.5970504638581695,
                51.097875074161315
              ],
              [
                2.5971458190069097,
                51.097527369656795
              ],
              [
                2.597186588433677,
                51.09717545426657
              ],
              [
                2.5971723807330904,
                51.09682271718389
              ],
              [
                2.597103333971043,
                51.096472555440286
              ],
              [
                2.5969801143074904,
                51.09612834119089
              ],
              [
                2.5968039095347795,
                51.095793389242466
              ]
            ]
          ],
          [
            [
              [
                2.603951140439016,
                51.07206320775158
              ],
              [
                2.6037749763988,
                51.071728263399855
              ],
              [
                2.6035475534362553,
                51.07140581002847
              ],
              [
                2.6032710625886586,
                51.071098952754916
              ],
              [
                2.602948167248616,
                51.07081064645297
              ],
              [
                2.602581977489758,
                51.070543667308435
              ],
              [
                2.6021760200990887,
                51.07030058609677
              ],
              [
                2.601734204605222,
                51.0700837434397
              ],
              [
                2.601260785629907,
                51.069895227278515
              ],
              [
                2.6007603219253426,
                51.06973685278032
              ],
              [
                2.600237632491322,
                51.069610144870325
              ],
              [
                2.5996977501940406,
                51.06951632355775
              ],
              [
                2.5991458733321435,
                51.06945629219645
              ],
              [
                2.598587315615111,
                51.069430628792574
              ],
              [
                2.598027455034145,
                51.06943958044309
              ],
              [
                2.597471682116235,
                51.069483060958135
              ],
              [
                2.596925348057943,
                51.06956065169046
              ],
              [
                2.596393713236575,
                51.06967160556349
              ],
              [
                2.5958818965928394,
                51.069814854259846
              ],
              [
                2.5953948263708155,
                51.06998901850101
              ],
              [
                2.5949371926881555,
                51.07019242131953
              ],
              [
                2.594513402392091,
                51.07042310419656
              ],
              [
                2.594127536635042,
                51.07067884590954
              ],
              [
                2.5937833115778064,
                51.07095718390919
              ],
              [
                2.5934840425985044,
                51.07125543802046
              ],
              [
                2.593232612352055,
                51.07157073623984
              ],
              [
                2.593031442988233,
                51.07190004238099
              ],
              [
                2.5928824727966555,
                51.072240185302995
              ],
              [
                2.5927871375047045,
                51.072587889440335
              ],
              [
                2.5927463564098403,
                51.07293980634082
              ],
              [
                2.592760523481441,
                51.07329254690802
              ],
              [
                2.592829503519591,
                51.07364271403804
              ],
              [
                2.592952633409594,
                51.07398693533619
              ],
              [
                2.5931287284619846,
                51.074321895598565
              ],
              [
                2.5933560937787394,
                51.07464436874567
              ],
              [
                2.5936325405378753,
                51.07495124890007
              ],
              [
                2.5939554070410815,
                51.07523958030863
              ],
              [
                2.5943215843229117,
                51.07550658582077
              ],
              [
                2.5947275460758457,
                51.075749693647715
              ],
              [
                2.595169382603632,
                51.07596656214492
              ],
              [
                2.595642838476199,
                51.076155102378095
              ],
              [
                2.5961433535234075,
                51.07631349825505
              ],
              [
                2.596368905791931,
                51.07636817697561
              ],
              [
                2.596287902104691,
                51.076553147419645
              ],
              [
                2.5961925833367707,
                51.07690085379061
              ],
              [
                2.5961518241031594,
                51.07725277134194
              ],
              [
                2.59616601816294,
                51.07760551097091
              ],
              [
                2.5962350300565094,
                51.07795567558262
              ],
              [
                2.596358196362579,
                51.07829989280656
              ],
              [
                2.596534332041135,
                51.07863484747809
              ],
              [
                2.5967617418030176,
                51.078957313571465
              ],
              [
                2.5970382363982814,
                51.079264185277175
              ],
              [
                2.5970392479705864,
                51.07926508848204
              ],
              [
                2.5970402362745464,
                51.07926618535762
              ],
              [
                2.5973631535703494,
                51.07955450699819
              ],
              [
                2.597729384087108,
                51.07982150152199
              ],
              [
                2.598135401004543,
                51.08006459724604
              ],
              [
                2.5985772940950125,
                51.08028145264237
              ],
              [
                2.5990508073835503,
                51.08046997890282
              ],
              [
                2.5995513801468686,
                51.08062836006979
              ],
              [
                2.6000741908560387,
                51.080755070538196
              ],
              [
                2.600614203638874,
                51.0808488897597
              ],
              [
                2.6011662168134637,
                51.080908914007146
              ],
              [
                2.601724913024096,
                51.080934565085585
              ],
              [
                2.602284910495161,
                51.08092559590544
              ],
              [
                2.6028408149077054,
                51.08088209286432
              ],
              [
                2.6033872713972306,
                51.08080447501421
              ],
              [
                2.6039190161701318,
                51.080693490022156
              ],
              [
                2.604430927239919,
                51.08055020696345
              ],
              [
                2.604918073792934,
                51.08037600601713
              ],
              [
                2.6053757637066983,
                51.08017256516309
              ],
              [
                2.6057995887620056,
                51.07994184400953
              ],
              [
                2.60618546711244,
                51.07968606490704
              ],
              [
                2.606529682601676,
                51.079407691531465
              ],
              [
                2.606828920549659,
                51.07910940514271
              ],
              [
                2.6070802996631186,
                51.07879407874836
              ],
              [
                2.6072813997635578,
                51.078464749421805
              ],
              [
                2.6074302850664495,
                51.07812458904168
              ],
              [
                2.6075255227885554,
                51.07777687373507
              ],
              [
                2.607566196905531,
                51.07742495231909
              ],
              [
                2.6075519169288928,
                51.07707221404491
              ],
              [
                2.6074828216195294,
                51.07672205595542
              ],
              [
                2.607359577603835,
                51.076377850170495
              ],
              [
                2.6071833729075875,
                51.07604291141529
              ],
              [
                2.6069559054716254,
                51.07572046510395
              ],
              [
                2.6066793667616013,
                51.075413616285914
              ],
              [
                2.6066783550864545,
                51.07541271316258
              ],
              [
                2.606677366637911,
                51.075411616366324
              ],
              [
                2.6063544205335254,
                51.07512331982827
              ],
              [
                2.6059881775723226,
                51.07485635166681
              ],
              [
                2.605582165053595,
                51.07461328255162
              ],
              [
                2.605140293036744,
                51.074396452987955
              ],
              [
                2.6046668166877005,
                51.07420795079098
              ],
              [
                2.6041662953110025,
                51.07404959099334
              ],
              [
                2.603940745109007,
                51.07399492715009
              ],
              [
                2.6040217141047135,
                51.07380995128337
              ],
              [
                2.604116968379235,
                51.073462238209736
              ],
              [
                2.6041576643876088,
                51.07311031744273
              ],
              [
                2.6041434114302837,
                51.072757578227346
              ],
              [
                2.604074348007715,
                51.072407417615565
              ],
              [
                2.603951140439016,
                51.07206320775158
              ]
            ]
          ]
        ]
      },
      "properties": {
        "type": "buffer_union_400m",
        "buffer_m": 400
      }
    },
    {
      "type": "Feature",
      "geometry": {
        "type": "Polygon",
        "coordinates": [
          [
            [
              2.5413608,
              51.093793
            ],
            [
              2.545805,
              51.088632
            ],
            [
              2.5553724,
              51.0758416
            ],
            [
              2.5594187,
              51.0707155
            ],
            [
              2.5594582,
              51.0706014
            ],
            [
              2.5591025,
              51.0701743
            ],
            [
              2.5593209,
              51.0695383
            ],
            [
              2.5605923,
              51.0679953
            ],
            [
              2.5628473,
              51.0649268
            ],
            [
              2.5619934,
              51.0584375
            ],
            [
              2.5658779,
              51.0461658
            ],
            [
              2.5704494,
              51.0483728
            ],
            [
              2.5734843,
              51.0499511
            ],
            [
              2.5733462,
              51.05058
            ],
            [
              2.5730657,
              51.0509004
            ],
            [
              2.573132,
              51.0510228
            ],
            [
              2.6017517,
              51.0586427
            ],
            [
              2.600944,
              51.0593133
            ],
            [
              2.6009153,
              51.0595021
            ],
            [
              2.6008167,
              51.0595799
            ],
            [
              2.6010672,
              51.0596621
            ],
            [
              2.6019801,
              51.0595417
            ],
            [
              2.6045296,
              51.0601571
            ],
            [
              2.6048578,
              51.059952
            ],
            [
              2.604901,
              51.0595776
            ],
            [
              2.6052645,
              51.0587406
            ],
            [
              2.6055523,
              51.0586625
            ],
            [
              2.6093817,
              51.0596151
            ],
            [
              2.6209836,
              51.0621909
            ],
            [
              2.6217613,
              51.0623181
            ],
            [
              2.6230033,
              51.0623826
            ],
            [
              2.623183,
              51.0625462
            ],
            [
              2.6230026,
              51.0629008
            ],
            [
              2.6230086,
              51.063054
            ],
            [
              2.6233761,
              51.0634871
            ],
            [
              2.6266175,
              51.0643932
            ],
            [
              2.6301518,
              51.0656862
            ],
            [
              2.632045,
              51.0662212
            ],
            [
              2.6336272,
              51.0668259
            ],
            [
              2.6191987,
              51.0692942
            ],
            [
              2.6226418,
              51.071992
            ],
            [
              2.6229238,
              51.0721015
            ],
            [
              2.6248987,
              51.0723007
            ],
            [
              2.6255552,
              51.07207
            ],
            [
              2.6264419,
              51.0718804
            ],
            [
              2.628451,
              51.0714846
            ],
            [
              2.6292367,
              51.0714324
            ],
            [
              2.6312104,
              51.0716231
            ],
            [
              2.6318883,
              51.0718828
            ],
            [
              2.6323504,
              51.0722664
            ],
            [
              2.6343345,
              51.0725316
            ],
            [
              2.6336529,
              51.0731355
            ],
            [
              2.6335601,
              51.0733158
            ],
            [
              2.6334177,
              51.0740337
            ],
            [
              2.6328783,
              51.0754936
            ],
            [
              2.6331893,
              51.0760527
            ],
            [
              2.6339558,
              51.0768409
            ],
            [
              2.6345234,
              51.0781002
            ],
            [
              2.6345124,
              51.0785815
            ],
            [
              2.6341183,
              51.079376
            ],
            [
              2.6333995,
              51.0801322
            ],
            [
              2.632797,
              51.0805121
            ],
            [
              2.6315025,
              51.0804648
            ],
            [
              2.629829,
              51.0809037
            ],
            [
              2.6287412,
              51.0810596
            ],
            [
              2.6274906,
              51.0814579
            ],
            [
              2.6262812,
              51.0815722
            ],
            [
              2.6255675,
              51.0822751
            ],
            [
              2.6253931,
              51.0827454
            ],
            [
              2.6254514,
              51.0839464
            ],
            [
              2.625148,
              51.0845348
            ],
            [
              2.6229064,
              51.0865821
            ],
            [
              2.621283,
              51.0885482
            ],
            [
              2.6207006,
              51.0895283
            ],
            [
              2.6196565,
              51.0904594
            ],
            [
              2.6180688,
              51.0922206
            ],
            [
              2.6175362,
              51.092165
            ],
            [
              2.6075461,
              51.1059942
            ],
            [
              2.601783,
              51.1137815
            ],
            [
              2.5905758,
              51.1097091
            ],
            [
              2.5827065,
              51.1067214
            ],
            [
              2.5691812,
              51.1023032
            ],
            [
              2.5643545,
              51.1004525
            ],
            [
              2.5617517,
              51.0995625
            ],
            [
              2.5431418,
              51.0943792
            ],
            [
              2.5413608,
              51.093793
            ]
          ]
        ]
      },
      "properties": {
        "type": "boundary",
        "gemeente": "De Panne"
      }
    }
  ]
}