{"type":"FeatureCollection","metadata":{"gemeente":"Faimes","slug":"faimes","generated_at":"2026-09-26T12:42:20.185466Z","total_points":3,"providers":["bpost","DHL","Amazon"],"bounds":[5.21957,50.639729,5.219572,50.63973]},"features":[{"type":"Feature","geometry":{"type":"Point","coordinates":[5.21957,50.63973]},"properties":{"type":"pakketpunt","locatieNaam":"Les Waleffes","straatNaam":"Rue De Borlez","straatNr":"2","vervoerder":"bpost","puntType":"postkantoor","bezettingsgraad":50,"latitude":50.63973,"longitude":5.21957,"canPickup":true,"canDropoff":true,"openingstijden":null}},{"type":"Feature","geometry":{"type":"Point","coordinates":[5.219572,50.639729]},"properties":{"type":"pakketpunt","locatieNaam":"LES WALEFFES","straatNaam":"RUE DE BORLEZ","straatNr":"2","vervoerder":"DHL","puntType":"postOffice","bezettingsgraad":50,"latitude":50.639729,"longitude":5.219572,"canPickup":true,"canDropoff":true,"openingstijden":{"ma":"15:00 - 17:00","di":"16:00 - 18:00","wo":"15:00 - 17:00","do":"16:00 - 18:00","vr":"15:00 - 17:00","za":"gesloten","zo":"gesloten"}}},{"type":"Feature","geometry":{"type":"Point","coordinates":[5.219572,50.639729]},"properties":{"type":"pakketpunt","locatieNaam":"bpost - LES WALEFFES","straatNaam":"RUE DE BORLEZ,2","straatNr":"","vervoerder":"Amazon","puntType":"3p","bezettingsgraad":50,"latitude":50.639729,"longitude":5.219572,"canPickup":true,"canDropoff":false,"openingstijden":null}},{"type":"Feature","geometry":{"type":"Polygon","coordinates":[[[5.195949,50.6326435],[5.1933414,50.6336657],[5.1967037,50.636044],[5.1937364,50.6378334],[5.1944437,50.6382334],[5.1933784,50.6389681],[5.1922285,50.63961],[5.195889,50.6411954],[5.1940187,50.6426798],[5.1955373,50.6438196],[5.1964476,50.6433492],[5.1985348,50.6443887],[5.1976709,50.6450327],[5.1985423,50.6455615],[5.1993933,50.644951],[5.2027378,50.6472357],[5.2034901,50.646758],[5.2046412,50.6477183],[5.2062267,50.6469087],[5.2084455,50.6486704],[5.2094624,50.6482123],[5.2108575,50.6493683],[5.211285,50.6491987],[5.2135934,50.6511423],[5.2134049,50.6512419],[5.2145244,50.6520349],[5.2125295,50.6529378],[5.2132964,50.6534816],[5.2124802,50.6539316],[5.2114968,50.6531581],[5.2094789,50.6539157],[5.2114292,50.6556208],[5.2111815,50.6557481],[5.2116656,50.6562702],[5.2089979,50.657417],[5.211835,50.660097],[5.2143348,50.6619022],[5.2170041,50.6628724],[5.2178514,50.663088],[5.219292,50.6636539],[5.2222154,50.6654595],[5.2252237,50.6675076],[5.2269113,50.6702002],[5.2275617,50.6708452],[5.2288003,50.671475],[5.2340233,50.6746614],[5.2372693,50.6764964],[5.240249,50.677965],[5.2428306,50.6766853],[5.2453057,50.674869],[5.247776,50.673205],[5.249288,50.6717686],[5.2509111,50.6705172],[5.2528792,50.6701011],[5.2559865,50.6696063],[5.2586533,50.6689373],[5.2620715,50.6681984],[5.2635596,50.668033],[5.2632958,50.6676646],[5.2650547,50.6667693],[5.2657361,50.6670917],[5.266347,50.6667979],[5.2672777,50.6674903],[5.2680306,50.6672455],[5.2683797,50.6674707],[5.2720125,50.6661933],[5.2761085,50.6650351],[5.2768723,50.6647124],[5.2778875,50.6645438],[5.2778516,50.6644508],[5.2804589,50.6639595],[5.2774885,50.6596523],[5.2759067,50.655556],[5.2761188,50.6554924],[5.2796649,50.6558145],[5.2844552,50.6565533],[5.2845411,50.6557801],[5.2846223,50.6558035],[5.2846445,50.6549562],[5.2845189,50.6544881],[5.284269,50.6544823],[5.2841615,50.6536645],[5.2855368,50.6536403],[5.2852794,50.6527373],[5.2855747,50.6526811],[5.2854197,50.6521802],[5.2851687,50.6521849],[5.2846474,50.6500566],[5.2852285,50.6479888],[5.28477,50.6478684],[5.2849427,50.6469627],[5.2859429,50.6470657],[5.2857741,50.6481025],[5.2859144,50.648154],[5.2862943,50.6479246],[5.2867641,50.6459965],[5.2861868,50.6460102],[5.2860607,50.6453223],[5.2863568,50.6453062],[5.2863363,50.6437721],[5.2864223,50.6437551],[5.2854589,50.6403223],[5.2838361,50.6390096],[5.2826625,50.6383036],[5.2821584,50.6376608],[5.2813894,50.6371641],[5.2799593,50.6365862],[5.2797652,50.6367136],[5.2781515,50.6364233],[5.2744862,50.6344053],[5.2735072,50.6341314],[5.2713184,50.6331619],[5.269401,50.6317298],[5.2709691,50.6307774],[5.2716153,50.6312272],[5.2730532,50.6302784],[5.2735628,50.6306324],[5.2752753,50.6295621],[5.2762358,50.6301918],[5.2764898,50.6299972],[5.2763978,50.6297429],[5.2755246,50.6291876],[5.2774688,50.6280693],[5.2759212,50.6270741],[5.2727121,50.6255465],[5.2749738,50.6239075],[5.2743378,50.6235234],[5.2766004,50.6220091],[5.2756067,50.621513],[5.275153,50.6217743],[5.2745024,50.6212679],[5.2753707,50.6206741],[5.2741134,50.6198541],[5.2738883,50.6199892],[5.2726258,50.6190007],[5.2727482,50.6189436],[5.2721008,50.6182887],[5.2714149,50.6184181],[5.2721936,50.6192535],[5.2712327,50.6197979],[5.2715519,50.6200259],[5.2711152,50.6202435],[5.269452,50.6184061],[5.2679551,50.6188279],[5.26653,50.6189547],[5.265702,50.6191495],[5.2651404,50.6193867],[5.265209,50.6172876],[5.2631469,50.6169552],[5.2602943,50.6160952],[5.2581167,50.6157492],[5.258047,50.6159313],[5.2573722,50.6159093],[5.2571862,50.6161847],[5.2562996,50.6164489],[5.2564048,50.6164957],[5.2549445,50.6174792],[5.2561083,50.6182289],[5.2556099,50.6186005],[5.2519781,50.6162489],[5.249968,50.6184955],[5.2490771,50.618232],[5.2496283,50.6175226],[5.2493045,50.6174049],[5.2487543,50.6181438],[5.2473287,50.6218365],[5.2478067,50.6219954],[5.2460672,50.6229894],[5.2441591,50.6223616],[5.2424644,50.6235473],[5.2421366,50.6233091],[5.2403567,50.6242228],[5.2390459,50.6231537],[5.2370997,50.6241128],[5.2362774,50.6235432],[5.2353442,50.6242299],[5.2355416,50.6243839],[5.2350305,50.6248342],[5.233673,50.6242146],[5.2335727,50.6242949],[5.2317723,50.6235521],[5.2316125,50.6237788],[5.2306342,50.6235445],[5.2305748,50.6236265],[5.227679,50.6227691],[5.2259607,50.6220482],[5.2260766,50.6219902],[5.2245904,50.6217149],[5.2216241,50.6213505],[5.219541,50.6219305],[5.2173615,50.6239483],[5.2155595,50.6234758],[5.2150532,50.6234101],[5.2121148,50.6240934],[5.2107248,50.6242291],[5.2100703,50.6243805],[5.2101056,50.6244639],[5.2092195,50.6249426],[5.209509,50.6251726],[5.2086622,50.6256335],[5.2089304,50.6258361],[5.2083978,50.626128],[5.2092774,50.6268669],[5.2090978,50.6269813],[5.2094646,50.6272434],[5.2080831,50.6280652],[5.207108,50.6273109],[5.2068399,50.6274851],[5.2058703,50.6266532],[5.202382,50.6297526],[5.2013029,50.6290159],[5.2010831,50.6291632],[5.2002233,50.6285563],[5.2006493,50.6282666],[5.1991217,50.627391],[5.198145,50.6280125],[5.1967716,50.6268245],[5.1955286,50.6274421],[5.1961025,50.628121],[5.1938339,50.6289871],[5.1951544,50.6310414],[5.1947716,50.6311991],[5.195949,50.6326435]]]},"properties":{"type":"boundary","gemeente":"Faimes"}}]}