{
  "type": "FeatureCollection",
  "metadata": {
    "gemeente": "Ferrières",
    "slug": "ferrieres",
    "generated_at": "2026-09-25T22:11:37.502095Z",
    "total_points": 11,
    "providers": [
      "bpost",
      "DHL",
      "GLS",
      "InPost",
      "VintedGo",
      "PostNL",
      "Amazon"
    ],
    "bounds": [
      5.60594500000002,
      50.38016,
      5.68465,
      50.400492
    ]
  },
  "features": [
    {
      "type": "Feature",
      "geometry": {
        "type": "Point",
        "coordinates": [
          5.60846,
          50.39933
        ]
      },
      "properties": {
        "type": "pakketpunt",
        "locatieNaam": "Bbox 24/7 Delhaize Ferrières",
        "straatNaam": "Pré Du Fa",
        "straatNr": "6A",
        "vervoerder": "bpost",
        "puntType": "automaat",
        "bezettingsgraad": 50,
        "latitude": 50.39933,
        "longitude": 5.60846,
        "canPickup": true,
        "canDropoff": true,
        "openingstijden": null
      }
    },
    {
      "type": "Feature",
      "geometry": {
        "type": "Point",
        "coordinates": [
          5.68465,
          50.38016
        ]
      },
      "properties": {
        "type": "pakketpunt",
        "locatieNaam": "Werbomont",
        "straatNaam": "Route De Stavelot",
        "straatNr": "8",
        "vervoerder": "bpost",
        "puntType": "postkantoor",
        "bezettingsgraad": 50,
        "latitude": 50.38016,
        "longitude": 5.68465,
        "canPickup": true,
        "canDropoff": true,
        "openingstijden": null
      }
    },
    {
      "type": "Feature",
      "geometry": {
        "type": "Point",
        "coordinates": [
          5.60846,
          50.39933
        ]
      },
      "properties": {
        "type": "pakketpunt",
        "locatieNaam": "BBOX 24/7 DELHAIZE FERRIÈRES",
        "straatNaam": "PRÉ DU FA",
        "straatNr": "6A",
        "vervoerder": "DHL",
        "puntType": "packStation",
        "bezettingsgraad": 50,
        "latitude": 50.39933,
        "longitude": 5.60846,
        "canPickup": true,
        "canDropoff": true,
        "openingstijden": {
          "ma": "00:00 - 23:59",
          "di": "00:00 - 23:59",
          "wo": "00:00 - 23:59",
          "do": "00:00 - 23:59",
          "vr": "00:00 - 23:59",
          "za": "00:00 - 23:59",
          "zo": "00:00 - 23:59"
        }
      }
    },
    {
      "type": "Feature",
      "geometry": {
        "type": "Point",
        "coordinates": [
          5.684649,
          50.380165
        ]
      },
      "properties": {
        "type": "pakketpunt",
        "locatieNaam": "WERBOMONT",
        "straatNaam": "ROUTE DE STAVELOT",
        "straatNr": "8",
        "vervoerder": "DHL",
        "puntType": "postOffice",
        "bezettingsgraad": 50,
        "latitude": 50.380165,
        "longitude": 5.684649,
        "canPickup": true,
        "canDropoff": true,
        "openingstijden": {
          "ma": "13:45 - 17:00",
          "di": "13:45 - 18:00",
          "wo": "13:45 - 17:00",
          "do": "13:45 - 18:00",
          "vr": "13:45 - 17:00",
          "za": "gesloten",
          "zo": "gesloten"
        }
      }
    },
    {
      "type": "Feature",
      "geometry": {
        "type": "Point",
        "coordinates": [
          5.6091715,
          50.3993053
        ]
      },
      "properties": {
        "type": "pakketpunt",
        "locatieNaam": "GLS Parcel Locker powered by bbox",
        "straatNaam": "Pre Du Fa",
        "straatNr": "6 A",
        "vervoerder": "GLS",
        "puntType": "locker",
        "bezettingsgraad": 50,
        "latitude": 50.3993053,
        "longitude": 5.6091715,
        "canPickup": true,
        "canDropoff": true,
        "openingstijden": "vr: 00:00 - 24:00; za: 00:00 - 24:00"
      }
    },
    {
      "type": "Feature",
      "geometry": {
        "type": "Point",
        "coordinates": [
          5.6059476,
          50.400243
        ]
      },
      "properties": {
        "type": "pakketpunt",
        "locatieNaam": "La folie",
        "straatNaam": "Place De Chablis",
        "straatNr": "3 1",
        "vervoerder": "GLS",
        "puntType": "parcel_shop",
        "bezettingsgraad": 50,
        "latitude": 50.400243,
        "longitude": 5.6059476,
        "canPickup": true,
        "canDropoff": true,
        "openingstijden": "vr: 10:00 - 18:00; za: 10:00 - 18:00"
      }
    },
    {
      "type": "Feature",
      "geometry": {
        "type": "Point",
        "coordinates": [
          5.6088,
          50.39909
        ]
      },
      "properties": {
        "type": "pakketpunt",
        "locatieNaam": "",
        "straatNaam": "Pré du Fa",
        "straatNr": "6a",
        "vervoerder": "InPost",
        "puntType": "automaat",
        "bezettingsgraad": 50,
        "latitude": 50.39909,
        "longitude": 5.6088,
        "canPickup": true,
        "canDropoff": true,
        "openingstijden": "24/7"
      }
    },
    {
      "type": "Feature",
      "geometry": {
        "type": "Point",
        "coordinates": [
          5.60641,
          50.39998
        ]
      },
      "properties": {
        "type": "pakketpunt",
        "locatieNaam": "Librairie du Bati",
        "straatNaam": "Place de Chablis",
        "straatNr": "17",
        "vervoerder": "VintedGo",
        "puntType": "parcel_shop",
        "bezettingsgraad": 50,
        "latitude": 50.39998,
        "longitude": 5.60641,
        "canPickup": true,
        "canDropoff": true,
        "openingstijden": null
      }
    },
    {
      "type": "Feature",
      "geometry": {
        "type": "Point",
        "coordinates": [
          5.60594500000002,
          50.400492
        ]
      },
      "properties": {
        "type": "pakketpunt",
        "locatieNaam": "La Folie",
        "straatNaam": "Place de Chablis",
        "straatNr": "3A",
        "vervoerder": "PostNL",
        "puntType": "servicepunt",
        "bezettingsgraad": 50,
        "latitude": 50.400492,
        "longitude": 5.60594500000002,
        "canPickup": true,
        "canDropoff": true,
        "openingstijden": "10:00 - 18:00"
      }
    },
    {
      "type": "Feature",
      "geometry": {
        "type": "Point",
        "coordinates": [
          5.60846,
          50.39933
        ]
      },
      "properties": {
        "type": "pakketpunt",
        "locatieNaam": "bpost - BBOX 24/7 DELHAIZE FERRIÈRES",
        "straatNaam": "PRÉ DU FA,6A",
        "straatNr": "",
        "vervoerder": "Amazon",
        "puntType": "3p",
        "bezettingsgraad": 50,
        "latitude": 50.39933,
        "longitude": 5.60846,
        "canPickup": true,
        "canDropoff": false,
        "openingstijden": null
      }
    },
    {
      "type": "Feature",
      "geometry": {
        "type": "Point",
        "coordinates": [
          5.684649,
          50.380165
        ]
      },
      "properties": {
        "type": "pakketpunt",
        "locatieNaam": "bpost - WERBOMONT",
        "straatNaam": "ROUTE DE STAVELOT,8",
        "straatNr": "",
        "vervoerder": "Amazon",
        "puntType": "3p",
        "bezettingsgraad": 50,
        "latitude": 50.380165,
        "longitude": 5.684649,
        "canPickup": true,
        "canDropoff": false,
        "openingstijden": null
      }
    },
    {
      "type": "Feature",
      "geometry": {
        "type": "MultiPolygon",
        "coordinates": [
          [
            [
              [
                5.605517422884547,
                50.39734390364551
              ],
              [
                5.605117494791485,
                50.39741251611067
              ],
              [
                5.604730012216624,
                50.3975058535873
              ],
              [
                5.604358706320469,
                50.39762301732631
              ],
              [
                5.60400715257018,
                50.39776287914736
              ],
              [
                5.603678736321669,
                50.397924092297465
              ],
              [
                5.603376620228267,
                50.39810510441346
              ],
              [
                5.6033627838310345,
                50.39811519724912
              ],
              [
                5.603216341217167,
                50.39818708150245
              ],
              [
                5.602914221686173,
                50.398368092409086
              ],
              [
                5.602641311795591,
                50.39856715936602
              ],
              [
                5.602400239905704,
                50.39878236546259
              ],
              [
                5.602193327888635,
                50.39901163834985
              ],
              [
                5.602022568759089,
                50.39925277019057
              ],
              [
                5.601889607467501,
                50.399503438914756
              ],
              [
                5.601795725041111,
                50.39976123057622
              ],
              [
                5.601741826226319,
                50.400023662595224
              ],
              [
                5.601728430752155,
                50.40028820766346
              ],
              [
                5.601735128468722,
                50.40035315272397
              ],
              [
                5.6017258086132244,
                50.40053720756703
              ],
              [
                5.601753046289258,
                50.40080131797599
              ],
              [
                5.601820655557766,
                50.4010624501795
              ],
              [
                5.601927985945415,
                50.401318089262496
              ],
              [
                5.602074004387931,
                50.40156577317326
              ],
              [
                5.602257305156547,
                50.40180311643853
              ],
              [
                5.602476123376396,
                50.40202783314234
              ],
              [
                5.602728352007389,
                50.40223775894717
              ],
              [
                5.603011562124664,
                50.40243087194517
              ],
              [
                5.603323026303751,
                50.40260531213813
              ],
              [
                5.603659744885465,
                50.402759399358644
              ],
              [
                5.604018474867676,
                50.402891649459086
              ],
              [
                5.604395761145585,
                50.40300078861268
              ],
              [
                5.604787969799283,
                50.403085765588266
              ],
              [
                5.605191323107572,
                50.403145761880445
              ],
              [
                5.605601935950129,
                50.40318019959723
              ],
              [
                5.606015853246699,
                50.403188747029134
              ],
              [
                5.606429088071814,
                50.40317132184586
              ],
              [
                5.606837660077034,
                50.40312809188967
              ],
              [
                5.607237633849687,
                50.40305947355793
              ],
              [
                5.607625156837656,
                50.4029661277903
              ],
              [
                5.607996496474115,
                50.40284895369938
              ],
              [
                5.60834807614371,
                50.402709079906344
              ],
              [
                5.608676509643159,
                50.402547853665055
              ],
              [
                5.608978633803713,
                50.402366827880016
              ],
              [
                5.609251538960918,
                50.40216774614292
              ],
              [
                5.609446785855894,
                50.401993426978294
              ],
              [
                5.609655758126013,
                50.40198460885107
              ],
              [
                5.6100643169748885,
                50.40194136754004
              ],
              [
                5.6104642760799806,
                50.40187273808802
              ],
              [
                5.610851783030492,
                50.40177938154178
              ],
              [
                5.611223105414106,
                50.40166219711773
              ],
              [
                5.611574666781695,
                50.40152231353657
              ],
              [
                5.6119030811062975,
                50.401361078146465
              ],
              [
                5.6122051854039015,
                50.40118004394
              ],
              [
                5.612478070201398,
                50.40098095458997
              ],
              [
                5.612719107558092,
                50.40076572764869
              ],
              [
                5.612925976370757,
                50.40053643607266
              ],
              [
                5.61309668471875,
                50.400295288251094
              ],
              [
                5.613229589034255,
                50.400044606730745
              ],
              [
                5.61332340991356,
                50.39978680584236
              ],
              [
                5.613377244417759,
                50.39952436844421
              ],
              [
                5.613390574745192,
                50.399259822007345
              ],
              [
                5.613363273193028,
                50.398995714272374
              ],
              [
                5.613295603361155,
                50.398734588712934
              ],
              [
                5.613188217587773,
                50.39847896004159
              ],
              [
                5.613042150642413,
                50.39823128999457
              ],
              [
                5.612858809738021,
                50.39799396362798
              ],
              [
                5.612639960959198,
                50.39776926635388
              ],
              [
                5.612387712238036,
                50.39755936193703
              ],
              [
                5.612104493042099,
                50.397366271664104
              ],
              [
                5.611793030970619,
                50.39719185488559
              ],
              [
                5.611792773855269,
                50.39719173724003
              ],
              [
                5.6117329949149015,
                50.397150980984854
              ],
              [
                5.611421535621421,
                50.39697656320495
              ],
              [
                5.611084832868555,
                50.396822498355284
              ],
              [
                5.610726129069665,
                50.39669026996116
              ],
              [
                5.610348878399423,
                50.39658115126834
              ],
              [
                5.609956713541254,
                50.39649619298807
              ],
              [
                5.609553410719768,
                50.39643621318441
              ],
              [
                5.609142853354313,
                50.39640178940082
              ],
              [
                5.608728994682841,
                50.39639325310173
              ],
              [
                5.6083158197152105,
                50.39641068648252
              ],
              [
                5.607907306881294,
                50.396453921678436
              ],
              [
                5.60750738974231,
                50.396522542380154
              ],
              [
                5.607119919133103,
                50.39661588784043
              ],
              [
                5.606748626098991,
                50.39673305923324
              ],
              [
                5.606397085983312,
                50.3968729283046
              ],
              [
                5.606068684010723,
                50.39703414823169
              ],
              [
                5.60576658269712,
                50.397215166586065
              ],
              [
                5.605602441207137,
                50.397334907773164
              ],
              [
                5.605517422884547,
                50.39734390364551
              ]
            ]
          ],
          [
            [
              [
                5.688517380467981,
                50.3790834728027
              ],
              [
                5.68833373634087,
                50.37884626505076
              ],
              [
                5.688114618754424,
                50.37862170948919
              ],
              [
                5.687862138228021,
                50.37841196851784
              ],
              [
                5.687578726460167,
                50.3782190618492
              ],
              [
                5.68726711290326,
                50.37804484706557
              ],
              [
                5.68693029847587,
                50.37789100173759
              ],
              [
                5.6865715266657055,
                50.3777590072767
              ],
              [
                5.686194252301504,
                50.37765013467595
              ],
              [
                5.685802108294192,
                50.37756543227693
              ],
              [
                5.685398870667168,
                50.377505715679774
              ],
              [
                5.684988422211794,
                50.37747155989349
              ],
              [
                5.684574715117328,
                50.37746329380203
              ],
              [
                5.684161732934305,
                50.377480996998926
              ],
              [
                5.683753452236698,
                50.377524499021426
              ],
              [
                5.683353804351083,
                50.37759338099088
              ],
              [
                5.682966637520405,
                50.37768697964428
              ],
              [
                5.682595679865749,
                50.377804393717525
              ],
              [
                5.682244503501992,
                50.37794449261974
              ],
              [
                5.681916490152139,
                50.37810592731484
              ],
              [
                5.681614798590908,
                50.378287143306174
              ],
              [
                5.681342334230665,
                50.378486395599076
              ],
              [
                5.681101721142336,
                50.37870176549797
              ],
              [
                5.68089527678071,
                50.37893117907623
              ],
              [
                5.680724989657666,
                50.37917242714142
              ],
              [
                5.680592500178655,
                50.37942318650392
              ],
              [
                5.680499084827523,
                50.37968104234428
              ],
              [
                5.6804456438525985,
                50.379943511464276
              ],
              [
                5.680445638280404,
                50.379943625287666
              ],
              [
                5.680444643414407,
                50.37994851142821
              ],
              [
                5.680431692128347,
                50.38021306616143
              ],
              [
                5.680459355945314,
                50.380477158715266
              ],
              [
                5.680527369117952,
                50.380738245705395
              ],
              [
                5.680635077282097,
                50.380993812651695
              ],
              [
                5.680781443734059,
                50.381241398196835
              ],
              [
                5.680965059392172,
                50.38147861781454
              ],
              [
                5.681184156347516,
                50.38170318677936
              ],
              [
                5.681436624874083,
                50.38191294217644
              ],
              [
                5.681720033735152,
                50.382105863738936
              ],
              [
                5.682031653590771,
                50.3822800933123
              ],
              [
                5.682368483281159,
                50.38243395275756
              ],
              [
                5.682727278732984,
                50.38256596012086
              ],
              [
                5.683104584209981,
                50.3826748439134
              ],
              [
                5.6834967656066535,
                50.38275955536359
              ],
              [
                5.683900045463891,
                50.38281927852359
              ],
              [
                5.684310539368632,
                50.38285343813222
              ],
              [
                5.684724293386252,
                50.382861705158795
              ],
              [
                5.685137322164234,
                50.38284399997389
              ],
              [
                5.685545647339249,
                50.38280049311683
              ],
              [
                5.685945335876746,
                50.38273160365209
              ],
              [
                5.6863325379728025,
                50.38263799513088
              ],
              [
                5.686703524152337,
                50.382520569196565
              ],
              [
                5.687054721205475,
                50.38238045689595
              ],
              [
                5.687382746615278,
                50.382219007780094
              ],
              [
                5.687684441144665,
                50.38203777689992
              ],
              [
                5.687956899268228,
                50.381838509822344
              ],
              [
                5.688197497155665,
                50.38162312581119
              ],
              [
                5.688403917937205,
                50.38139369933545
              ],
              [
                5.688574174007905,
                50.381152440083255
              ],
              [
                5.6887066261563,
                50.380901671674216
              ],
              [
                5.688799999333695,
                50.38064380927545
              ],
              [
                5.688853394912911,
                50.38038133633726
              ],
              [
                5.688853400465001,
                50.38038122251347
              ],
              [
                5.688853400465001,
                50.38038122251347
              ],
              [
                5.6888543944747045,
                50.380376336301175
              ],
              [
                5.688867298874071,
                50.38011178063614
              ],
              [
                5.688839588503366,
                50.37984769007392
              ],
              [
                5.6887715308989,
                50.37958660792232
              ],
              [
                5.688663782132376,
                50.379331048475535
              ],
              [
                5.688517380467981,
                50.3790834728027
              ]
            ]
          ]
        ]
      },
      "properties": {
        "type": "buffer_union_300m",
        "buffer_m": 300
      }
    },
    {
      "type": "Feature",
      "geometry": {
        "type": "MultiPolygon",
        "coordinates": [
          [
            [
              [
                5.6046866907964645,
                50.396556684744816
              ],
              [
                5.604170055211002,
                50.39668113252518
              ],
              [
                5.603674987034938,
                50.39683734821138
              ],
              [
                5.603206253313719,
                50.39702382766418
              ],
              [
                5.6027683676779665,
                50.39723877532722
              ],
              [
                5.602435765167512,
                50.39743805118457
              ],
              [
                5.602305974205773,
                50.39750176093389
              ],
              [
                5.601903148839662,
                50.39774310550029
              ],
              [
                5.601539267614238,
                50.398008524822096
              ],
              [
                5.60121783506252,
                50.39829546314486
              ],
              [
                5.600941947143272,
                50.39860115745728
              ],
              [
                5.600714261410343,
                50.39892266408666
              ],
              [
                5.600536971395833,
                50.399256887035435
              ],
              [
                5.600411785454673,
                50.3996006077862
              ],
              [
                5.600339910275547,
                50.399950516288925
              ],
              [
                5.600322039218329,
                50.40030324283207
              ],
              [
                5.600328735012449,
                50.400368187973505
              ],
              [
                5.600319409699733,
                50.40055224270331
              ],
              [
                5.600355716244353,
                50.400904390350476
              ],
              [
                5.600445852045316,
                50.40125256769007
              ],
              [
                5.600588950184952,
                50.401593421460916
              ],
              [
                5.600783633591823,
                50.401923668863596
              ],
              [
                5.601028028262638,
                50.40224012918301
              ],
              [
                5.601319781275149,
                50.40253975443004
              ],
              [
                5.601656083419946,
                50.402819658706996
              ],
              [
                5.602033696234236,
                50.40307714601357
              ],
              [
                5.602448983178064,
                50.40330973622504
              ],
              [
                5.602897944653172,
                50.40351518899177
              ],
              [
                5.603376256527383,
                50.40369152532963
              ],
              [
                5.603879311793261,
                50.4038370466926
              ],
              [
                5.6044022649592575,
                50.40395035134335
              ],
              [
                5.604940078744989,
                50.40403034786386
              ],
              [
                5.6054875726297135,
                50.40407626567518
              ],
              [
                5.606039472785094,
                50.40408766246513
              ],
              [
                5.606590462909753,
                50.40406442845173
              ],
              [
                5.607135235474331,
                50.40400678744143
              ],
              [
                5.607668542881761,
                50.40391529467178
              ],
              [
                5.6081852480483,
                50.403790831459496
              ],
              [
                5.6086803739164965,
                50.403634596705494
              ],
              [
                5.609149151421732,
                50.40344809533918
              ],
              [
                5.609587065449048,
                50.403233123813465
              ],
              [
                5.609989898336585,
                50.40299175279077
              ],
              [
                5.610202065807519,
                50.4028369766223
              ],
              [
                5.61036194467459,
                50.40282005497524
              ],
              [
                5.610895232524367,
                50.4027285473783
              ],
              [
                5.6114119163066345,
                50.40260406979433
              ],
              [
                5.611907019170001,
                50.402447821262676
              ],
              [
                5.612375772271516,
                50.40226130684546
              ],
              [
                5.61281366073136,
                50.402046323121255
              ],
              [
                5.613216467134022,
                50.401804940869994
              ],
              [
                5.613580312156225,
                50.40153948511595
              ],
              [
                5.613901691929911,
                50.401252512721854
              ],
              [
                5.614177511780296,
                50.40094678775035
              ],
              [
                5.614405116014364,
                50.40062525483071
              ],
              [
                5.614582313473455,
                50.40029101078767
              ],
              [
                5.614707398604779,
                50.3999472748063
              ],
              [
                5.614779167850085,
                50.3995973574206
              ],
              [
                5.61479693119508,
                50.3992446286248
              ],
              [
                5.6147605187699545,
                50.39889248541456
              ],
              [
                5.614670282439165,
                50.39854431907125
              ],
              [
                5.614527092366957,
                50.39820348250392
              ],
              [
                5.614332328593428,
                50.39787325796368
              ],
              [
                5.614087867703983,
                50.3975568254412
              ],
              [
                5.613796064722061,
                50.397257232051395
              ],
              [
                5.613459730400883,
                50.396977362699566
              ],
              [
                5.613082104133963,
                50.396719912311546
              ],
              [
                5.612770169328406,
                50.396545233048634
              ],
              [
                5.612710606631499,
                50.39650462473919
              ],
              [
                5.612295328947487,
                50.396272070986576
              ],
              [
                5.611846395311184,
                50.39606665432601
              ],
              [
                5.611368128810974,
                50.395890352670634
              ],
              [
                5.610865134812041,
                50.39574486357119
              ],
              [
                5.610342256627338,
                50.3956315878803
              ],
              [
                5.609804528904367,
                50.39555161627255
              ],
              [
                5.609257129175461,
                50.395505718749625
              ],
              [
                5.608705328036807,
                50.395494337231284
              ],
              [
                5.6081544384343776,
                50.395517581303125
              ],
              [
                5.60760976454349,
                50.39557522716225
              ],
              [
                5.607076550732518,
                50.39566671977061
              ],
              [
                5.606559931100523,
                50.395791178195665
              ],
              [
                5.606064880073076,
                50.39594740408684
              ],
              [
                5.605596164530563,
                50.39613389320665
              ],
              [
                5.605158297928623,
                50.39634884990563
              ],
              [
                5.604861486545727,
                50.39652669678022
              ],
              [
                5.6046866907964645,
                50.396556684744816
              ]
            ]
          ],
          [
            [
              [
                5.68980646831841,
                50.378724601745965
              ],
              [
                5.689561603153988,
                50.37840832738012
              ],
              [
                5.689269441784669,
                50.37810892294294
              ],
              [
                5.688932798412514,
                50.377829271519765
              ],
              [
                5.688554915404756,
                50.37757206593747
              ],
              [
                5.688139432056215,
                50.377339782845226
              ],
              [
                5.687690349538036,
                50.3771346588777
              ],
              [
                5.687211992370402,
                50.376958669129536
              ],
              [
                5.686708966790026,
                50.376813508148075
              ],
              [
                5.686186116412802,
                50.37670057362653
              ],
              [
                5.6856484756176995,
                50.37662095295451
              ],
              [
                5.685101221099668,
                50.37657541275468
              ],
              [
                5.68454962205673,
                50.376564391506385
              ],
              [
                5.683998989489367,
                50.376587995326396
              ],
              [
                5.683454625098784,
                50.376645996948
              ],
              [
                5.682921770274401,
                50.3767378379077
              ],
              [
                5.682405555660101,
                50.37686263391879
              ],
              [
                5.68191095178326,
                50.37701918338009
              ],
              [
                5.681442721220492,
                50.377205978938406
              ],
              [
                5.681005372759444,
                50.377421221993416
              ],
              [
                5.680603117997032,
                50.37766284000604
              ],
              [
                5.680239830791289,
                50.377928506443865
              ],
              [
                5.679919009956891,
                50.37821566317243
              ],
              [
                5.679643745563514,
                50.37852154507673
              ],
              [
                5.679416689161806,
                50.37884320667704
              ],
              [
                5.679240028224307,
                50.37917755048275
              ],
              [
                5.6791154650483335,
                50.379521356811885
              ],
              [
                5.67904420032521,
                50.37987131478949
              ],
              [
                5.679044194749665,
                50.37987142861282
              ],
              [
                5.679043199740958,
                50.37987631474141
              ],
              [
                5.679025920941952,
                50.38022905417826
              ],
              [
                5.679062795686274,
                50.380581178025494
              ],
              [
                5.679153470041692,
                50.38092929508705
              ],
              [
                5.6792970719021625,
                50.381270052681494
              ],
              [
                5.679492219342973,
                50.38160016893501
              ],
              [
                5.6797370338894675,
                50.38191646439491
              ],
              [
                5.68002915857312,
                50.382215892659325
              ],
              [
                5.680365780602378,
                50.38249556972731
              ],
              [
                5.680743658431058,
                50.382752801786566
              ],
              [
                5.681159152964359,
                50.3829851111705
              ],
              [
                5.681608262602431,
                50.38319026023419
              ],
              [
                5.682086661784126,
                50.383366272918664
              ],
              [
                5.6825897426594985,
                50.38351145379522
              ],
              [
                5.683112659489135,
                50.38362440440629
              ],
              [
                5.683650375341857,
                50.38370403674402
              ],
              [
                5.684197710639874,
                50.38374958373757
              ],
              [
                5.684749393082465,
                50.383760606646675
              ],
              [
                5.685300108465815,
                50.38373699929088
              ],
              [
                5.685844551907828,
                50.38367898907291
              ],
              [
                5.686377478982871,
                50.38358713478675
              ],
              [
                5.686893756272181,
                50.383462321231356
              ],
              [
                5.687388410841455,
                50.38330575068225
              ],
              [
                5.687856678167596,
                50.38311893130316
              ],
              [
                5.688294048051691,
                50.38290366260996
              ],
              [
                5.688696308075006,
                50.38266201812709
              ],
              [
                5.689059584178702,
                50.382396325404294
              ],
              [
                5.689380377976013,
                50.382109143586256
              ],
              [
                5.689655600437428,
                50.38180323875224
              ],
              [
                5.68988260162474,
                50.38148155726321
              ],
              [
                5.6900591961881535,
                50.38114719737416
              ],
              [
                5.690183684381809,
                50.380803379385206
              ],
              [
                5.690254868396496,
                50.3804534146194
              ],
              [
                5.690254873945234,
                50.38045330079555
              ],
              [
                5.690254873945234,
                50.38045330079555
              ],
              [
                5.690255867812216,
                50.38044841457135
              ],
              [
                5.690273063260185,
                50.380095673478024
              ],
              [
                5.6902361057548365,
                50.37974355317141
              ],
              [
                5.690145352408762,
                50.37939544471149
              ],
              [
                5.6900016783636325,
                50.37905470044917
              ],
              [
                5.68980646831841,
                50.378724601745965
              ]
            ]
          ]
        ]
      },
      "properties": {
        "type": "buffer_union_400m",
        "buffer_m": 400
      }
    },
    {
      "type": "Feature",
      "geometry": {
        "type": "Polygon",
        "coordinates": [
          [
            [
              5.5200413,
              50.4077718
            ],
            [
              5.5199406,
              50.4073893
            ],
            [
              5.5199781,
              50.4072782
            ],
            [
              5.5201095,
              50.4071654
            ],
            [
              5.520951,
              50.4069746
            ],
            [
              5.5211382,
              50.4068269
            ],
            [
              5.5211757,
              50.4066842
            ],
            [
              5.5209115,
              50.4061594
            ],
            [
              5.5187121,
              50.404815
            ],
            [
              5.5186482,
              50.4039521
            ],
            [
              5.5187483,
              50.4036446
            ],
            [
              5.519423,
              50.4028713
            ],
            [
              5.52219,
              50.4020578
            ],
            [
              5.5254103,
              50.4016369
            ],
            [
              5.5273463,
              50.4017009
            ],
            [
              5.5301225,
              50.4031889
            ],
            [
              5.5318034,
              50.4039174
            ],
            [
              5.5324486,
              50.4041676
            ],
            [
              5.533224,
              50.4041173
            ],
            [
              5.5347291,
              50.4031745
            ],
            [
              5.5358922,
              50.4021802
            ],
            [
              5.5364748,
              50.4015532
            ],
            [
              5.5369221,
              50.4006763
            ],
            [
              5.5362886,
              50.3998877
            ],
            [
              5.5343725,
              50.3991147
            ],
            [
              5.5323851,
              50.3989738
            ],
            [
              5.5309228,
              50.398737
            ],
            [
              5.5299667,
              50.398504
            ],
            [
              5.5292969,
              50.3980897
            ],
            [
              5.5289072,
              50.3973881
            ],
            [
              5.529272,
              50.396316
            ],
            [
              5.5293329,
              50.3958933
            ],
            [
              5.5299747,
              50.3951328
            ],
            [
              5.5306506,
              50.394536
            ],
            [
              5.5311817,
              50.394194
            ],
            [
              5.532673,
              50.3940059
            ],
            [
              5.5352479,
              50.3931698
            ],
            [
              5.5361196,
              50.3926602
            ],
            [
              5.5362216,
              50.3924653
            ],
            [
              5.5360184,
              50.3920562
            ],
            [
              5.5373749,
              50.3919625
            ],
            [
              5.5385645,
              50.3916985
            ],
            [
              5.5393195,
              50.3911264
            ],
            [
              5.5457032,
              50.3904902
            ],
            [
              5.5466366,
              50.3902748
            ],
            [
              5.5469127,
              50.3900941
            ],
            [
              5.5476837,
              50.3899432
            ],
            [
              5.5492276,
              50.3901995
            ],
            [
              5.5493778,
              50.3903397
            ],
            [
              5.5497909,
              50.3903124
            ],
            [
              5.5504668,
              50.3904971
            ],
            [
              5.5512647,
              50.3904667
            ],
            [
              5.5538467,
              50.3885276
            ],
            [
              5.5589195,
              50.3906947
            ],
            [
              5.5624171,
              50.3918714
            ],
            [
              5.5662913,
              50.394314
            ],
            [
              5.5666399,
              50.39446
            ],
            [
              5.5667961,
              50.3944437
            ],
            [
              5.5671608,
              50.3941975
            ],
            [
              5.5671287,
              50.3939752
            ],
            [
              5.567266,
              50.3939573
            ],
            [
              5.568839,
              50.3948221
            ],
            [
              5.5679843,
              50.395562
            ],
            [
              5.5678475,
              50.3954893
            ],
            [
              5.5677576,
              50.3955705
            ],
            [
              5.5693924,
              50.396357
            ],
            [
              5.5692489,
              50.3965579
            ],
            [
              5.570346,
              50.3969905
            ],
            [
              5.5704365,
              50.3969037
            ],
            [
              5.5718091,
              50.3971863
            ],
            [
              5.5720559,
              50.3969059
            ],
            [
              5.5731904,
              50.3971743
            ],
            [
              5.5743634,
              50.3972807
            ],
            [
              5.5745369,
              50.3969059
            ],
            [
              5.5763714,
              50.3970612
            ],
            [
              5.577895,
              50.3973197
            ],
            [
              5.578689,
              50.3976308
            ],
            [
              5.580014,
              50.3980036
            ],
            [
              5.5802471,
              50.3976241
            ],
            [
              5.5822741,
              50.3981726
            ],
            [
              5.5847615,
              50.3990226
            ],
            [
              5.5849968,
              50.3987033
            ],
            [
              5.5861529,
              50.398963
            ],
            [
              5.5863708,
              50.3993782
            ],
            [
              5.586802,
              50.3994748
            ],
            [
              5.5875778,
              50.3992346
            ],
            [
              5.5886614,
              50.3990499
            ],
            [
              5.5890783,
              50.3986923
            ],
            [
              5.5925399,
              50.3982087
            ],
            [
              5.5929767,
              50.397941
            ],
            [
              5.5936262,
              50.3981951
            ],
            [
              5.5954796,
              50.3965195
            ],
            [
              5.5960375,
              50.3962356
            ],
            [
              5.5973397,
              50.3950114
            ],
            [
              5.5967168,
              50.3940334
            ],
            [
              5.5973732,
              50.3935545
            ],
            [
              5.5993313,
              50.3929749
            ],
            [
              5.5995378,
              50.3928381
            ],
            [
              5.5995619,
              50.3926397
            ],
            [
              5.6006333,
              50.3922982
            ],
            [
              5.6015789,
              50.3921353
            ],
            [
              5.6024533,
              50.3921147
            ],
            [
              5.6039983,
              50.390769
            ],
            [
              5.6045482,
              50.3904509
            ],
            [
              5.6078231,
              50.3868391
            ],
            [
              5.6139297,
              50.3824933
            ],
            [
              5.6222481,
              50.3798217
            ],
            [
              5.6292582,
              50.3771714
            ],
            [
              5.635018,
              50.3762998
            ],
            [
              5.636203,
              50.3760361
            ],
            [
              5.6372998,
              50.3750826
            ],
            [
              5.6367239,
              50.3749604
            ],
            [
              5.636791,
              50.3747466
            ],
            [
              5.635938,
              50.3746354
            ],
            [
              5.6357878,
              50.3744011
            ],
            [
              5.6345969,
              50.3741359
            ],
            [
              5.6345093,
              50.3739287
            ],
            [
              5.6339934,
              50.3739922
            ],
            [
              5.6339157,
              50.3738828
            ],
            [
              5.633449,
              50.3738451
            ],
            [
              5.633347,
              50.3736741
            ],
            [
              5.6329876,
              50.3736587
            ],
            [
              5.6326221,
              50.3733955
            ],
            [
              5.6321025,
              50.3734243
            ],
            [
              5.632073,
              50.3733439
            ],
            [
              5.631786,
              50.3732703
            ],
            [
              5.6317511,
              50.3731147
            ],
            [
              5.6312978,
              50.3727811
            ],
            [
              5.6309411,
              50.3726921
            ],
            [
              5.6309009,
              50.3724663
            ],
            [
              5.630984,
              50.3722884
            ],
            [
              5.6306073,
              50.3720398
            ],
            [
              5.6315164,
              50.3717487
            ],
            [
              5.6313904,
              50.3715776
            ],
            [
              5.6319107,
              50.3715177
            ],
            [
              5.6320749,
              50.3716434
            ],
            [
              5.6335911,
              50.3715451
            ],
            [
              5.6338561,
              50.3716923
            ],
            [
              5.6372671,
              50.370298
            ],
            [
              5.6381388,
              50.369697
            ],
            [
              5.6391621,
              50.3692518
            ],
            [
              5.6408063,
              50.3687488
            ],
            [
              5.642982,
              50.3678341
            ],
            [
              5.6456695,
              50.3660221
            ],
            [
              5.6461492,
              50.3658129
            ],
            [
              5.6474197,
              50.3655279
            ],
            [
              5.6502449,
              50.365517
            ],
            [
              5.6540242,
              50.3653424
            ],
            [
              5.661191,
              50.3657308
            ],
            [
              5.6638535,
              50.3660397
            ],
            [
              5.6650749,
              50.366434
            ],
            [
              5.6703494,
              50.3672717
            ],
            [
              5.6710627,
              50.3674944
            ],
            [
              5.6755786,
              50.3684476
            ],
            [
              5.6756958,
              50.368526
            ],
            [
              5.6758258,
              50.3684956
            ],
            [
              5.6785939,
              50.3727669
            ],
            [
              5.6823376,
              50.373012
            ],
            [
              5.6842983,
              50.3734884
            ],
            [
              5.6850171,
              50.3737793
            ],
            [
              5.6855482,
              50.37384
            ],
            [
              5.6858416,
              50.3737816
            ],
            [
              5.6862105,
              50.3739529
            ],
            [
              5.6867471,
              50.3740072
            ],
            [
              5.6872179,
              50.373976
            ],
            [
              5.6887574,
              50.3741068
            ],
            [
              5.6891987,
              50.3742916
            ],
            [
              5.6894548,
              50.3742771
            ],
            [
              5.6896748,
              50.3744096
            ],
            [
              5.6908241,
              50.374632
            ],
            [
              5.6914973,
              50.3745482
            ],
            [
              5.6918674,
              50.3746132
            ],
            [
              5.6937048,
              50.3745345
            ],
            [
              5.6945926,
              50.3743908
            ],
            [
              5.694834,
              50.3744267
            ],
            [
              5.6953704,
              50.3742796
            ],
            [
              5.6957325,
              50.3743754
            ],
            [
              5.6960973,
              50.374283
            ],
            [
              5.6975302,
              50.3745185
            ],
            [
              5.6983316,
              50.3745328
            ],
            [
              5.6983691,
              50.3744695
            ],
            [
              5.6991604,
              50.3745328
            ],
            [
              5.6995842,
              50.3744541
            ],
            [
              5.7016039,
              50.3745841
            ],
            [
              5.7019511,
              50.374543
            ],
            [
              5.7022208,
              50.3746423
            ],
            [
              5.7033908,
              50.3746934
            ],
            [
              5.7040982,
              50.3749814
            ],
            [
              5.7076951,
              50.3751509
            ],
            [
              5.7085057,
              50.3753085
            ],
            [
              5.7083422,
              50.37597
            ],
            [
              5.7085228,
              50.3763155
            ],
            [
              5.7089956,
              50.37669
            ],
            [
              5.7088058,
              50.3772
            ],
            [
              5.708937,
              50.3775109
            ],
            [
              5.7086333,
              50.3780515
            ],
            [
              5.7088698,
              50.378844
            ],
            [
              5.7088566,
              50.3791796
            ],
            [
              5.7089719,
              50.3791974
            ],
            [
              5.7089357,
              50.3792368
            ],
            [
              5.7079663,
              50.3793375
            ],
            [
              5.7073089,
              50.3790726
            ],
            [
              5.7057198,
              50.3786738
            ],
            [
              5.704956,
              50.3783868
            ],
            [
              5.7037278,
              50.3787907
            ],
            [
              5.7019951,
              50.3798001
            ],
            [
              5.6991085,
              50.3820222
            ],
            [
              5.6991148,
              50.3830174
            ],
            [
              5.6988882,
              50.3836066
            ],
            [
              5.6989367,
              50.3839211
            ],
            [
              5.6999161,
              50.3857697
            ],
            [
              5.7002816,
              50.3867981
            ],
            [
              5.700624,
              50.3872703
            ],
            [
              5.7006115,
              50.3875352
            ],
            [
              5.7008347,
              50.387846
            ],
            [
              5.7026491,
              50.3885019
            ],
            [
              5.7031683,
              50.3888953
            ],
            [
              5.7044146,
              50.3904211
            ],
            [
              5.7048999,
              50.391283
            ],
            [
              5.705237,
              50.3924461
            ],
            [
              5.7052796,
              50.3938663
            ],
            [
              5.7051532,
              50.3951676
            ],
            [
              5.7053435,
              50.3959377
            ],
            [
              5.705606,
              50.3964397
            ],
            [
              5.7066631,
              50.3971079
            ],
            [
              5.7074333,
              50.397754
            ],
            [
              5.7080323,
              50.3991623
            ],
            [
              5.7085928,
              50.4000486
            ],
            [
              5.7090336,
              50.4002023
            ],
            [
              5.7093382,
              50.4004263
            ],
            [
              5.7080799,
              50.4016179
            ],
            [
              5.7070002,
              50.402351
            ],
            [
              5.7065123,
              50.4025702
            ],
            [
              5.7036129,
              50.4033966
            ],
            [
              5.7025787,
              50.4039143
            ],
            [
              5.7023562,
              50.4037712
            ],
            [
              5.7019472,
              50.4031198
            ],
            [
              5.7017675,
              50.4029728
            ],
            [
              5.7014849,
              50.4028934
            ],
            [
              5.7015611,
              50.4025692
            ],
            [
              5.7012592,
              50.4023902
            ],
            [
              5.7013992,
              50.4022307
            ],
            [
              5.7013799,
              50.402118
            ],
            [
              5.7010862,
              50.4020342
            ],
            [
              5.7010723,
              50.4018581
            ],
            [
              5.7008374,
              50.4017107
            ],
            [
              5.7009991,
              50.401594
            ],
            [
              5.7008596,
              50.4014837
            ],
            [
              5.7007013,
              50.401494
            ],
            [
              5.7006435,
              50.4014029
            ],
            [
              5.7006859,
              50.4012636
            ],
            [
              5.7003835,
              50.4011187
            ],
            [
              5.7004484,
              50.400958
            ],
            [
              5.6997934,
              50.4007114
            ],
            [
              5.6998549,
              50.4005974
            ],
            [
              5.6996807,
              50.4004703
            ],
            [
              5.6996975,
              50.400378
            ],
            [
              5.6998444,
              50.4003412
            ],
            [
              5.6998014,
              50.4003027
            ],
            [
              5.6996197,
              50.4002972
            ],
            [
              5.6992449,
              50.3999926
            ],
            [
              5.699086,
              50.3999428
            ],
            [
              5.698947,
              50.4000033
            ],
            [
              5.6987917,
              50.3998631
            ],
            [
              5.6986478,
              50.3999097
            ],
            [
              5.6984691,
              50.3997112
            ],
            [
              5.6983081,
              50.3996565
            ],
            [
              5.6976812,
              50.3995979
            ],
            [
              5.6974974,
              50.3997315
            ],
            [
              5.6974099,
              50.3995294
            ],
            [
              5.6972989,
              50.3994992
            ],
            [
              5.6969744,
              50.3995659
            ],
            [
              5.6963629,
              50.3994825
            ],
            [
              5.6960283,
              50.3995388
            ],
            [
              5.6959189,
              50.3994338
            ],
            [
              5.6955931,
              50.3994432
            ],
            [
              5.695128,
              50.3992942
            ],
            [
              5.6950385,
              50.3991807
            ],
            [
              5.6945077,
              50.3991457
            ],
            [
              5.6943431,
              50.3992645
            ],
            [
              5.6939113,
              50.3991705
            ],
            [
              5.6927157,
              50.3992673
            ],
            [
              5.692594,
              50.3993955
            ],
            [
              5.6923858,
              50.399378
            ],
            [
              5.6919831,
              50.3997819
            ],
            [
              5.6918667,
              50.3997719
            ],
            [
              5.6916373,
              50.3999579
            ],
            [
              5.691355,
              50.3998015
            ],
            [
              5.6902463,
              50.4001845
            ],
            [
              5.6902836,
              50.4002561
            ],
            [
              5.6899282,
              50.4002006
            ],
            [
              5.6895453,
              50.4002844
            ],
            [
              5.6889593,
              50.4002083
            ],
            [
              5.6885308,
              50.4003985
            ],
            [
              5.6883947,
              50.4003822
            ],
            [
              5.6877536,
              50.4008161
            ],
            [
              5.6876863,
              50.400719
            ],
            [
              5.6874197,
              50.4007891
            ],
            [
              5.6870697,
              50.4005964
            ],
            [
              5.686544,
              50.4005609
            ],
            [
              5.6862717,
              50.4004275
            ],
            [
              5.685978,
              50.4004682
            ],
            [
              5.6858003,
              50.4003233
            ],
            [
              5.6855832,
              50.4004127
            ],
            [
              5.6850359,
              50.400325
            ],
            [
              5.6848562,
              50.400419
            ],
            [
              5.6847194,
              50.4002053
            ],
            [
              5.6846141,
              50.4001908
            ],
            [
              5.6845625,
              50.4003339
            ],
            [
              5.6838611,
              50.4002617
            ],
            [
              5.6832565,
              50.4000517
            ],
            [
              5.6825882,
              50.3999878
            ],
            [
              5.6821453,
              50.4000597
            ],
            [
              5.681311,
              50.4003786
            ],
            [
              5.6806863,
              50.400878
            ],
            [
              5.6807856,
              50.4010331
            ],
            [
              5.680678,
              50.4012025
            ],
            [
              5.6805988,
              50.4012631
            ],
            [
              5.68034,
              50.4012119
            ],
            [
              5.6803568,
              50.4013995
            ],
            [
              5.6801974,
              50.4014397
            ],
            [
              5.6801046,
              50.4016008
            ],
            [
              5.679827,
              50.4016624
            ],
            [
              5.6796249,
              50.401564
            ],
            [
              5.6792286,
              50.4016064
            ],
            [
              5.679066,
              50.4017393
            ],
            [
              5.678715,
              50.4018397
            ],
            [
              5.6781406,
              50.4017316
            ],
            [
              5.6771737,
              50.4018974
            ],
            [
              5.6767817,
              50.4020834
            ],
            [
              5.6767204,
              50.4022101
            ],
            [
              5.6765014,
              50.4021929
            ],
            [
              5.6759633,
              50.4023306
            ],
            [
              5.6758862,
              50.4024758
            ],
            [
              5.6760059,
              50.4025439
            ],
            [
              5.6759878,
              50.4026941
            ],
            [
              5.6758711,
              50.4027956
            ],
            [
              5.6758996,
              50.4029223
            ],
            [
              5.6755675,
              50.4030266
            ],
            [
              5.6753171,
              50.4033789
            ],
            [
              5.6751225,
              50.4033646
            ],
            [
              5.6747976,
              50.4031592
            ],
            [
              5.6721256,
              50.403018
            ],
            [
              5.6703863,
              50.4025056
            ],
            [
              5.6658566,
              50.4009426
            ],
            [
              5.6666613,
              50.39982
            ],
            [
              5.6666483,
              50.3988671
            ],
            [
              5.6664168,
              50.3983915
            ],
            [
              5.6658259,
              50.3976018
            ],
            [
              5.6628426,
              50.3959225
            ],
            [
              5.6613215,
              50.395499
            ],
            [
              5.6601892,
              50.3957584
            ],
            [
              5.6602228,
              50.3960669
            ],
            [
              5.6596595,
              50.3966434
            ],
            [
              5.6585597,
              50.3970557
            ],
            [
              5.6552927,
              50.399083
            ],
            [
              5.6546326,
              50.3992347
            ],
            [
              5.6545278,
              50.3993265
            ],
            [
              5.6540484,
              50.3993855
            ],
            [
              5.6539772,
              50.399609
            ],
            [
              5.6533583,
              50.4000865
            ],
            [
              5.6534522,
              50.4002023
            ],
            [
              5.6533054,
              50.4004549
            ],
            [
              5.6531518,
              50.4005605
            ],
            [
              5.6528195,
              50.4006128
            ],
            [
              5.652666,
              50.4007973
            ],
            [
              5.6522519,
              50.4009729
            ],
            [
              5.6516927,
              50.4015074
            ],
            [
              5.6514245,
              50.4015034
            ],
            [
              5.6513413,
              50.4017025
            ],
            [
              5.6511214,
              50.4017179
            ],
            [
              5.6503663,
              50.4024437
            ],
            [
              5.6504595,
              50.4027437
            ],
            [
              5.6503345,
              50.4029491
            ],
            [
              5.6506124,
              50.4032331
            ],
            [
              5.6508069,
              50.4040019
            ],
            [
              5.6503898,
              50.4045695
            ],
            [
              5.6508252,
              50.40466
            ],
            [
              5.651237,
              50.4045845
            ],
            [
              5.6512642,
              50.4048943
            ],
            [
              5.6519135,
              50.4051699
            ],
            [
              5.6524806,
              50.405355
            ],
            [
              5.6532762,
              50.4054463
            ],
            [
              5.6545477,
              50.4052552
            ],
            [
              5.655262,
              50.4052724
            ],
            [
              5.6573072,
              50.4057192
            ],
            [
              5.6590343,
              50.4055283
            ],
            [
              5.6599465,
              50.4060722
            ],
            [
              5.6615784,
              50.4064999
            ],
            [
              5.6604769,
              50.4069957
            ],
            [
              5.6589313,
              50.4073756
            ],
            [
              5.6585719,
              50.4076278
            ],
            [
              5.6601846,
              50.4083157
            ],
            [
              5.6606435,
              50.4089038
            ],
            [
              5.660833,
              50.4092927
            ],
            [
              5.6612731,
              50.4096861
            ],
            [
              5.6612903,
              50.409838
            ],
            [
              5.6611991,
              50.4099055
            ],
            [
              5.6609014,
              50.4106628
            ],
            [
              5.6609657,
              50.4106961
            ],
            [
              5.6606157,
              50.4109508
            ],
            [
              5.6605674,
              50.4110491
            ],
            [
              5.6606626,
              50.411126
            ],
            [
              5.6600706,
              50.4113939
            ],
            [
              5.6599344,
              50.4116644
            ],
            [
              5.6598325,
              50.4117187
            ],
            [
              5.6597929,
              50.4119144
            ],
            [
              5.6594831,
              50.4121238
            ],
            [
              5.6593728,
              50.4123142
            ],
            [
              5.6589594,
              50.4124541
            ],
            [
              5.6588986,
              50.4125692
            ],
            [
              5.6589688,
              50.4127584
            ],
            [
              5.6588941,
              50.4128481
            ],
            [
              5.6584505,
              50.4129985
            ],
            [
              5.6584565,
              50.4131703
            ],
            [
              5.65837,
              50.413257
            ],
            [
              5.6582218,
              50.4132839
            ],
            [
              5.6578591,
              50.4135578
            ],
            [
              5.6574822,
              50.4141433
            ],
            [
              5.6574621,
              50.4145257
            ],
            [
              5.6567594,
              50.4151696
            ],
            [
              5.6567728,
              50.4154076
            ],
            [
              5.6565096,
              50.4155208
            ],
            [
              5.6561683,
              50.4159298
            ],
            [
              5.6560161,
              50.4159926
            ],
            [
              5.6550683,
              50.4156616
            ],
            [
              5.6552154,
              50.4155296
            ],
            [
              5.6548905,
              50.4153927
            ],
            [
              5.654336,
              50.4153363
            ],
            [
              5.6539974,
              50.4151359
            ],
            [
              5.6533563,
              50.4152652
            ],
            [
              5.6528327,
              50.4151851
            ],
            [
              5.6523666,
              50.4150735
            ],
            [
              5.6518512,
              50.4147433
            ],
            [
              5.6514325,
              50.414653
            ],
            [
              5.6502765,
              50.4147171
            ],
            [
              5.6497042,
              50.4148889
            ],
            [
              5.6489756,
              50.4149102
            ],
            [
              5.6481689,
              50.414694
            ],
            [
              5.6462572,
              50.4137815
            ],
            [
              5.6460277,
              50.41397
            ],
            [
              5.6459048,
              50.4142102
            ],
            [
              5.6455162,
              50.4143898
            ],
            [
              5.6444111,
              50.4151752
            ],
            [
              5.6442483,
              50.4153741
            ],
            [
              5.6440467,
              50.4159792
            ],
            [
              5.6440197,
              50.41641
            ],
            [
              5.6442341,
              50.4165177
            ],
            [
              5.6450248,
              50.416551
            ],
            [
              5.6458019,
              50.4172637
            ],
            [
              5.6461049,
              50.4174151
            ],
            [
              5.6465485,
              50.4181535
            ],
            [
              5.6465623,
              50.4183464
            ],
            [
              5.6450882,
              50.4196534
            ],
            [
              5.6444668,
              50.4206019
            ],
            [
              5.6434174,
              50.4211184
            ],
            [
              5.6423247,
              50.4213954
            ],
            [
              5.6416153,
              50.4219517
            ],
            [
              5.6409759,
              50.4221403
            ],
            [
              5.6400414,
              50.4226282
            ],
            [
              5.6393404,
              50.4226504
            ],
            [
              5.6384899,
              50.4228318
            ],
            [
              5.6379563,
              50.4228465
            ],
            [
              5.6376775,
              50.4235664
            ],
            [
              5.6374573,
              50.4258955
            ],
            [
              5.6464999,
              50.4256135
            ],
            [
              5.6485397,
              50.425787
            ],
            [
              5.653211,
              50.426457
            ],
            [
              5.6499995,
              50.4287737
            ],
            [
              5.6494738,
              50.4290703
            ],
            [
              5.6408266,
              50.4365375
            ],
            [
              5.6376463,
              50.4398498
            ],
            [
              5.636048,
              50.4408171
            ],
            [
              5.6311509,
              50.4462028
            ],
            [
              5.6283073,
              50.4515959
            ],
            [
              5.6276839,
              50.4531327
            ],
            [
              5.6277389,
              50.4536057
            ],
            [
              5.6287818,
              50.4575888
            ],
            [
              5.6285881,
              50.4574908
            ],
            [
              5.6280536,
              50.4574245
            ],
            [
              5.6274166,
              50.4575517
            ],
            [
              5.626395,
              50.4579876
            ],
            [
              5.6251381,
              50.4587139
            ],
            [
              5.6244033,
              50.4589532
            ],
            [
              5.6241249,
              50.4592524
            ],
            [
              5.6239969,
              50.4595548
            ],
            [
              5.6240934,
              50.4600347
            ],
            [
              5.6239631,
              50.4601706
            ],
            [
              5.6231063,
              50.4598165
            ],
            [
              5.6217662,
              50.4596686
            ],
            [
              5.6169567,
              50.4599114
            ],
            [
              5.6150151,
              50.4599243
            ],
            [
              5.6143358,
              50.4597852
            ],
            [
              5.6130481,
              50.4597806
            ],
            [
              5.6118867,
              50.4598724
            ],
            [
              5.6108823,
              50.4600467
            ],
            [
              5.6108071,
              50.459501
            ],
            [
              5.6110311,
              50.4584398
            ],
            [
              5.6107789,
              50.457668
            ],
            [
              5.6103239,
              50.4571632
            ],
            [
              5.6102264,
              50.4565443
            ],
            [
              5.6102157,
              50.4555095
            ],
            [
              5.6105625,
              50.4539393
            ],
            [
              5.6104785,
              50.4536463
            ],
            [
              5.6078795,
              50.4523672
            ],
            [
              5.6077945,
              50.4521958
            ],
            [
              5.6048045,
              50.4527245
            ],
            [
              5.5987366,
              50.4525536
            ],
            [
              5.5966276,
              50.4523433
            ],
            [
              5.5961931,
              50.4524082
            ],
            [
              5.5958962,
              50.4523507
            ],
            [
              5.5957171,
              50.4526903
            ],
            [
              5.584723,
              50.4556697
            ],
            [
              5.5832846,
              50.4563628
            ],
            [
              5.5827611,
              50.4563392
            ],
            [
              5.5813279,
              50.4559108
            ],
            [
              5.5826687,
              50.4542392
            ],
            [
              5.5832058,
              50.4530247
            ],
            [
              5.5833394,
              50.4529953
            ],
            [
              5.5839407,
              50.4524594
            ],
            [
              5.5857275,
              50.4487626
            ],
            [
              5.5861159,
              50.4475415
            ],
            [
              5.5810589,
              50.4467634
            ],
            [
              5.5735441,
              50.4446711
            ],
            [
              5.5728708,
              50.4452197
            ],
            [
              5.5723441,
              50.4453156
            ],
            [
              5.5713231,
              50.4450965
            ],
            [
              5.5702644,
              50.4453566
            ],
            [
              5.5695972,
              50.4458954
            ],
            [
              5.5694851,
              50.4462257
            ],
            [
              5.5692089,
              50.4462121
            ],
            [
              5.5691427,
              50.4463545
            ],
            [
              5.5692128,
              50.4465483
            ],
            [
              5.5689783,
              50.4467563
            ],
            [
              5.5689048,
              50.4471464
            ],
            [
              5.5676724,
              50.4476898
            ],
            [
              5.5675086,
              50.4474949
            ],
            [
              5.5674628,
              50.4471169
            ],
            [
              5.5667281,
              50.4464461
            ],
            [
              5.566131,
              50.4461471
            ],
            [
              5.5655238,
              50.4460239
            ],
            [
              5.5646739,
              50.4459835
            ],
            [
              5.5627091,
              50.445553
            ],
            [
              5.5667417,
              50.4395675
            ],
            [
              5.5770149,
              50.4367844
            ],
            [
              5.583806,
              50.4350526
            ],
            [
              5.5844933,
              50.4347769
            ],
            [
              5.5901751,
              50.4333513
            ],
            [
              5.5927384,
              50.4325421
            ],
            [
              5.5931757,
              50.4322823
            ],
            [
              5.5941653,
              50.4320227
            ],
            [
              5.5957512,
              50.4318893
            ],
            [
              5.597365,
              50.432123
            ],
            [
              5.5976844,
              50.4322722
            ],
            [
              5.5984408,
              50.4321321
            ],
            [
              5.5992692,
              50.4321507
            ],
            [
              5.6021378,
              50.4316821
            ],
            [
              5.6042981,
              50.4315246
            ],
            [
              5.6067669,
              50.4310951
            ],
            [
              5.6096107,
              50.4300127
            ],
            [
              5.6120435,
              50.4293553
            ],
            [
              5.6120062,
              50.4292961
            ],
            [
              5.6164688,
              50.4281784
            ],
            [
              5.6165689,
              50.4279981
            ],
            [
              5.6164922,
              50.427849
            ],
            [
              5.6165651,
              50.4277627
            ],
            [
              5.6165478,
              50.4272773
            ],
            [
              5.616685,
              50.4272075
            ],
            [
              5.6166948,
              50.4270847
            ],
            [
              5.6168069,
              50.4269732
            ],
            [
              5.616976,
              50.4270722
            ],
            [
              5.6170704,
              50.4268705
            ],
            [
              5.6173865,
              50.4267756
            ],
            [
              5.6178512,
              50.4261651
            ],
            [
              5.6182693,
              50.4259245
            ],
            [
              5.6183527,
              50.4257316
            ],
            [
              5.6188051,
              50.4255248
            ],
            [
              5.6187562,
              50.4254383
            ],
            [
              5.6188818,
              50.425377
            ],
            [
              5.6190686,
              50.4254146
            ],
            [
              5.619222,
              50.4253018
            ],
            [
              5.6191846,
              50.4252329
            ],
            [
              5.6193282,
              50.4251577
            ],
            [
              5.6193517,
              50.4249185
            ],
            [
              5.6195646,
              50.4248932
            ],
            [
              5.6197774,
              50.424654
            ],
            [
              5.6200559,
              50.4246152
            ],
            [
              5.6201031,
              50.4245225
            ],
            [
              5.6203548,
              50.4245576
            ],
            [
              5.6213991,
              50.4244273
            ],
            [
              5.6222143,
              50.424176
            ],
            [
              5.6222252,
              50.4240426
            ],
            [
              5.6223516,
              50.4239102
            ],
            [
              5.6227282,
              50.4238048
            ],
            [
              5.6228998,
              50.4236006
            ],
            [
              5.6230661,
              50.4235989
            ],
            [
              5.6230137,
              50.4233551
            ],
            [
              5.6188427,
              50.4222934
            ],
            [
              5.6139922,
              50.4240209
            ],
            [
              5.6135952,
              50.4240073
            ],
            [
              5.6122756,
              50.4244909
            ],
            [
              5.6118464,
              50.4247267
            ],
            [
              5.6085125,
              50.4258048
            ],
            [
              5.6078044,
              50.426485
            ],
            [
              5.6060076,
              50.4275419
            ],
            [
              5.6041758,
              50.4267774
            ],
            [
              5.6036228,
              50.4263979
            ],
            [
              5.6029898,
              50.4261262
            ],
            [
              5.6009106,
              50.4254555
            ],
            [
              5.6007783,
              50.4252701
            ],
            [
              5.5999267,
              50.4249317
            ],
            [
              5.5999213,
              50.4250121
            ],
            [
              5.5969387,
              50.4237851
            ],
            [
              5.5959227,
              50.4232504
            ],
            [
              5.5950773,
              50.4226795
            ],
            [
              5.5920554,
              50.4212112
            ],
            [
              5.5874571,
              50.4187899
            ],
            [
              5.5870205,
              50.4184892
            ],
            [
              5.5846681,
              50.4202304
            ],
            [
              5.5846341,
              50.4206561
            ],
            [
              5.5841137,
              50.4216234
            ],
            [
              5.5841888,
              50.4215875
            ],
            [
              5.5842055,
              50.4217388
            ],
            [
              5.5835917,
              50.4225251
            ],
            [
              5.5825905,
              50.4222734
            ],
            [
              5.5819839,
              50.4223675
            ],
            [
              5.5794843,
              50.4220842
            ],
            [
              5.5776456,
              50.421485
            ],
            [
              5.5726141,
              50.4195791
            ],
            [
              5.5697022,
              50.4179696
            ],
            [
              5.5647994,
              50.4155169
            ],
            [
              5.5621354,
              50.4143567
            ],
            [
              5.5609694,
              50.4137695
            ],
            [
              5.5589272,
              50.4152239
            ],
            [
              5.5576198,
              50.4144162
            ],
            [
              5.5573895,
              50.4145842
            ],
            [
              5.5562354,
              50.4139851
            ],
            [
              5.556116,
              50.4140624
            ],
            [
              5.5552492,
              50.4135728
            ],
            [
              5.5543251,
              50.4132788
            ],
            [
              5.5534601,
              50.4128528
            ],
            [
              5.5522598,
              50.4134609
            ],
            [
              5.5525348,
              50.413701
            ],
            [
              5.5506068,
              50.4151406
            ],
            [
              5.5492356,
              50.4146829
            ],
            [
              5.5487609,
              50.414606
            ],
            [
              5.548677,
              50.414711
            ],
            [
              5.5463071,
              50.4139934
            ],
            [
              5.5454894,
              50.4138726
            ],
            [
              5.5417141,
              50.412976
            ],
            [
              5.5386644,
              50.4120453
            ],
            [
              5.5362275,
              50.4111778
            ],
            [
              5.5309745,
              50.4090703
            ],
            [
              5.5275848,
              50.4082133
            ],
            [
              5.5269814,
              50.4079415
            ],
            [
              5.5262698,
              50.4082176
            ],
            [
              5.5255785,
              50.4079293
            ],
            [
              5.5245298,
              50.407738
            ],
            [
              5.5241835,
              50.4074847
            ],
            [
              5.5227354,
              50.4072996
            ],
            [
              5.5214781,
              50.407738
            ],
            [
              5.5205749,
              50.4075807
            ],
            [
              5.5200413,
              50.4077718
            ]
          ]
        ]
      },
      "properties": {
        "type": "boundary",
        "gemeente": "Ferrières"
      }
    }
  ]
}