{"type":"FeatureCollection","metadata":{"gemeente":"Fexhe-le-Haut-Clocher","slug":"fexhe-le-haut-clocher","generated_at":"2026-09-26T12:42:20.232894Z","total_points":6,"providers":["bpost","DHL","Amazon"],"bounds":[5.377428,50.647385,5.429813,50.65624]},"features":[{"type":"Feature","geometry":{"type":"Point","coordinates":[5.42981,50.65624]},"properties":{"type":"pakketpunt","locatieNaam":"Voroux-Goreux","straatNaam":"Rue De La Gare","straatNr":"11","vervoerder":"bpost","puntType":"postkantoor","bezettingsgraad":50,"latitude":50.65624,"longitude":5.42981,"canPickup":true,"canDropoff":true,"openingstijden":null}},{"type":"Feature","geometry":{"type":"Point","coordinates":[5.37743,50.64739]},"properties":{"type":"pakketpunt","locatieNaam":"Bbox 24/7 Legiapark","straatNaam":"Boulevard Patience Et Beaujonc","straatNr":"3","vervoerder":"bpost","puntType":"automaat","bezettingsgraad":50,"latitude":50.64739,"longitude":5.37743,"canPickup":true,"canDropoff":true,"openingstijden":null}},{"type":"Feature","geometry":{"type":"Point","coordinates":[5.377428,50.647385]},"properties":{"type":"pakketpunt","locatieNaam":"BBOX 24/7 LEGIAPARK","straatNaam":"BOULEVARD PATIENCE ET BEAUJONC","straatNr":"3","vervoerder":"DHL","puntType":"packStation","bezettingsgraad":50,"latitude":50.647385,"longitude":5.377428,"canPickup":true,"canDropoff":true,"openingstijden":{"ma":"00:00 - 23:59","di":"00:00 - 23:59","wo":"00:00 - 23:59","do":"00:00 - 23:59","vr":"00:00 - 23:59","za":"00:00 - 23:59","zo":"00:00 - 23:59"}}},{"type":"Feature","geometry":{"type":"Point","coordinates":[5.429813,50.656235]},"properties":{"type":"pakketpunt","locatieNaam":"VOROUX-GOREUX","straatNaam":"RUE DE LA GARE","straatNr":"11","vervoerder":"DHL","puntType":"postOffice","bezettingsgraad":50,"latitude":50.656235,"longitude":5.429813,"canPickup":true,"canDropoff":true,"openingstijden":{"ma":"09:30 - 12:30, 13:45 - 17:00","di":"09:30 - 12:30, 13:45 - 18:00","wo":"09:30 - 12:30, 13:45 - 17:00","do":"09:30 - 12:30, 13:45 - 18:00","vr":"09:30 - 12:30, 13:45 - 17:00","za":"09:30 - 13:00","zo":"gesloten"}}},{"type":"Feature","geometry":{"type":"Point","coordinates":[5.429813,50.656235]},"properties":{"type":"pakketpunt","locatieNaam":"bpost - VOROUX-GOREUX","straatNaam":"RUE DE LA GARE,11","straatNr":"","vervoerder":"Amazon","puntType":"3p","bezettingsgraad":50,"latitude":50.656235,"longitude":5.429813,"canPickup":true,"canDropoff":false,"openingstijden":null}},{"type":"Feature","geometry":{"type":"Point","coordinates":[5.3774281,50.6473851]},"properties":{"type":"pakketpunt","locatieNaam":"bpost - BBOX 24/7 LEGIAPARK","straatNaam":"BOULEVARD PATIENCE ET BEAUJONC,3","straatNr":"","vervoerder":"Amazon","puntType":"3p","bezettingsgraad":50,"latitude":50.6473851,"longitude":5.3774281,"canPickup":true,"canDropoff":false,"openingstijden":null}},{"type":"Feature","geometry":{"type":"Polygon","coordinates":[[[5.3484242,50.6716259],[5.3483941,50.6718257],[5.3498413,50.6733252],[5.3639466,50.6704974],[5.3783356,50.6677969],[5.3809051,50.6667756],[5.3819587,50.6664613],[5.3909951,50.6818308],[5.3965425,50.6918017],[5.3998818,50.6910995],[5.4001078,50.6914409],[5.4137548,50.6881207],[5.4273189,50.6850829],[5.426608,50.6844626],[5.426519,50.6844976],[5.4262427,50.6842409],[5.4263287,50.6842273],[5.4246304,50.6827673],[5.4239086,50.6819992],[5.4237965,50.6820391],[5.423179,50.6813657],[5.4227593,50.6807795],[5.4228438,50.6807346],[5.4207133,50.6787504],[5.4216414,50.6783623],[5.4228771,50.6784335],[5.4227427,50.6763278],[5.4293613,50.6732346],[5.4306432,50.6728792],[5.4323495,50.67218],[5.4315379,50.6715712],[5.4325938,50.6709134],[5.4313674,50.670469],[5.4299572,50.6696506],[5.4313975,50.668688],[5.4340696,50.6704909],[5.4355993,50.6693377],[5.4364117,50.6696421],[5.4392237,50.6664814],[5.4379523,50.6653424],[5.4397805,50.6645064],[5.4393167,50.6639944],[5.4388627,50.6629919],[5.4383216,50.6620403],[5.4405695,50.6610705],[5.4390912,50.6589901],[5.4407665,50.6578337],[5.4398622,50.6571241],[5.4367619,50.6527101],[5.4362418,50.652852],[5.4356105,50.6515849],[5.4337517,50.6517215],[5.4331575,50.6511101],[5.4324104,50.6514739],[5.4311021,50.6502537],[5.431316,50.6501423],[5.4305101,50.6494148],[5.4308862,50.6491377],[5.4302513,50.6487849],[5.4280659,50.6500832],[5.4279614,50.6497595],[5.4255874,50.6480539],[5.423648,50.6493362],[5.4222434,50.6485285],[5.4219637,50.648787],[5.4187783,50.6469077],[5.419445,50.6466021],[5.4172209,50.6450799],[5.4161054,50.645813],[5.4144623,50.6446503],[5.4120394,50.6460437],[5.411833,50.6459062],[5.4111553,50.6462932],[5.409806,50.6454699],[5.410541,50.6449553],[5.409364,50.6440604],[5.4103348,50.643353],[5.409645,50.6429172],[5.4102439,50.6424125],[5.4091111,50.6417801],[5.4088001,50.64213],[5.3942118,50.6404966],[5.3923866,50.6414266],[5.3892311,50.6391845],[5.3874139,50.6399991],[5.385644,50.6411637],[5.3844448,50.6416988],[5.3831098,50.6421142],[5.3820583,50.6425443],[5.3817664,50.64274],[5.3822362,50.6433391],[5.3814957,50.6435625],[5.3813425,50.6433456],[5.3792361,50.6441989],[5.379015,50.644215],[5.3736598,50.6464159],[5.3740052,50.6467126],[5.3733842,50.6468516],[5.3728289,50.6471873],[5.3729649,50.647528],[5.3749739,50.6493759],[5.3752125,50.6494599],[5.3762973,50.6491858],[5.3765648,50.6494514],[5.3754894,50.6497518],[5.3757502,50.6499968],[5.3753606,50.6501397],[5.3748196,50.6495334],[5.3738118,50.649809],[5.3740597,50.6500928],[5.373014,50.6504405],[5.3758198,50.655405],[5.3734596,50.6559914],[5.3735645,50.6561752],[5.370434,50.6569442],[5.37056,50.6572185],[5.3685918,50.657841],[5.3694223,50.6590152],[5.3679835,50.6593905],[5.3684523,50.6600289],[5.3666423,50.6605105],[5.366736,50.6606726],[5.3655277,50.6609353],[5.3656952,50.661196],[5.3647811,50.6613918],[5.3651887,50.6622885],[5.3615721,50.6625233],[5.3621216,50.6635306],[5.3531589,50.6668337],[5.355101,50.6686976],[5.3532477,50.6693748],[5.3542747,50.6705941],[5.3519678,50.6711901],[5.3484242,50.6716259]]]},"properties":{"type":"boundary","gemeente":"Fexhe-le-Haut-Clocher"}}]}