{
  "type": "FeatureCollection",
  "metadata": {
    "gemeente": "Floreffe",
    "slug": "floreffe",
    "generated_at": "2026-09-25T22:11:37.570996Z",
    "total_points": 7,
    "providers": [
      "bpost",
      "DHL",
      "VintedGo",
      "Amazon"
    ],
    "bounds": [
      4.71702,
      50.422,
      4.760162,
      50.435951
    ]
  },
  "features": [
    {
      "type": "Feature",
      "geometry": {
        "type": "Point",
        "coordinates": [
          4.76016,
          50.43595
        ]
      },
      "properties": {
        "type": "pakketpunt",
        "locatieNaam": "Floreffe",
        "straatNaam": "Place Roi Baudouin",
        "straatNr": "11",
        "vervoerder": "bpost",
        "puntType": "postkantoor",
        "bezettingsgraad": 50,
        "latitude": 50.43595,
        "longitude": 4.76016,
        "canPickup": true,
        "canDropoff": true,
        "openingstijden": null
      }
    },
    {
      "type": "Feature",
      "geometry": {
        "type": "Point",
        "coordinates": [
          4.71702,
          50.42887
        ]
      },
      "properties": {
        "type": "pakketpunt",
        "locatieNaam": "Bbox 24/7 Transports Nicolas",
        "straatNaam": "Rue Du Château D'Eau",
        "straatNr": "34",
        "vervoerder": "bpost",
        "puntType": "automaat",
        "bezettingsgraad": 50,
        "latitude": 50.42887,
        "longitude": 4.71702,
        "canPickup": true,
        "canDropoff": true,
        "openingstijden": null
      }
    },
    {
      "type": "Feature",
      "geometry": {
        "type": "Point",
        "coordinates": [
          4.717024,
          50.428871
        ]
      },
      "properties": {
        "type": "pakketpunt",
        "locatieNaam": "BBOX 24/7 TRANSPORTS NICOLAS",
        "straatNaam": "RUE DU CHÂTEAU D'EAU",
        "straatNr": "34",
        "vervoerder": "DHL",
        "puntType": "packStation",
        "bezettingsgraad": 50,
        "latitude": 50.428871,
        "longitude": 4.717024,
        "canPickup": true,
        "canDropoff": true,
        "openingstijden": {
          "ma": "00:00 - 23:59",
          "di": "00:00 - 23:59",
          "wo": "00:00 - 23:59",
          "do": "00:00 - 23:59",
          "vr": "00:00 - 23:59",
          "za": "00:00 - 23:59",
          "zo": "00:00 - 23:59"
        }
      }
    },
    {
      "type": "Feature",
      "geometry": {
        "type": "Point",
        "coordinates": [
          4.760162,
          50.435951
        ]
      },
      "properties": {
        "type": "pakketpunt",
        "locatieNaam": "FLOREFFE",
        "straatNaam": "PLACE ROI BAUDOUIN",
        "straatNr": "11",
        "vervoerder": "DHL",
        "puntType": "postOffice",
        "bezettingsgraad": 50,
        "latitude": 50.435951,
        "longitude": 4.760162,
        "canPickup": true,
        "canDropoff": true,
        "openingstijden": {
          "ma": "09:30 - 12:30, 13:45 - 17:00",
          "di": "09:30 - 12:30, 13:45 - 18:00",
          "wo": "09:30 - 12:30, 13:45 - 17:00",
          "do": "09:30 - 12:00",
          "vr": "09:30 - 12:30, 13:45 - 17:00",
          "za": "09:30 - 13:00",
          "zo": "gesloten"
        }
      }
    },
    {
      "type": "Feature",
      "geometry": {
        "type": "Point",
        "coordinates": [
          4.75716,
          50.422
        ]
      },
      "properties": {
        "type": "pakketpunt",
        "locatieNaam": "Isafleur ",
        "straatNaam": "Rue de Sovimont",
        "straatNr": "13",
        "vervoerder": "VintedGo",
        "puntType": "parcel_shop",
        "bezettingsgraad": 50,
        "latitude": 50.422,
        "longitude": 4.75716,
        "canPickup": true,
        "canDropoff": true,
        "openingstijden": null
      }
    },
    {
      "type": "Feature",
      "geometry": {
        "type": "Point",
        "coordinates": [
          4.760162,
          50.435951
        ]
      },
      "properties": {
        "type": "pakketpunt",
        "locatieNaam": "bpost - FLOREFFE",
        "straatNaam": "PLACE ROI BAUDOUIN,11",
        "straatNr": "",
        "vervoerder": "Amazon",
        "puntType": "3p",
        "bezettingsgraad": 50,
        "latitude": 50.435951,
        "longitude": 4.760162,
        "canPickup": true,
        "canDropoff": false,
        "openingstijden": null
      }
    },
    {
      "type": "Feature",
      "geometry": {
        "type": "Point",
        "coordinates": [
          4.717024,
          50.428871
        ]
      },
      "properties": {
        "type": "pakketpunt",
        "locatieNaam": "bpost - BBOX 24/7 TRANSPORTS NICOLAS",
        "straatNaam": "RUE DU CHÂTEAU D'EAU,34",
        "straatNr": "",
        "vervoerder": "Amazon",
        "puntType": "3p",
        "bezettingsgraad": 50,
        "latitude": 50.428871,
        "longitude": 4.717024,
        "canPickup": true,
        "canDropoff": false,
        "openingstijden": null
      }
    },
    {
      "type": "Feature",
      "geometry": {
        "type": "MultiPolygon",
        "coordinates": [
          [
            [
              [
                4.76129605610526,
                50.42145957496024
              ],
              [
                4.761193216998863,
                50.421203176376785
              ],
              [
                4.761051537759119,
                50.420954452173504
              ],
              [
                4.760872383353589,
                50.420715797562316
              ],
              [
                4.760657479561232,
                50.42048951074998
              ],
              [
                4.76040889633592,
                50.42027777081163
              ],
              [
                4.760129027859631,
                50.420082616712286
              ],
              [
                4.7598205694778795,
                50.419905927678585
              ],
              [
                4.759486491739809,
                50.4197494051088
              ],
              [
                4.759130011793007,
                50.419614556195945
              ],
              [
                4.758754562408446,
                50.41950267942034
              ],
              [
                4.758363758933543,
                50.419414852051865
              ],
              [
                4.75796136449111,
                50.41935191978154
              ],
              [
                4.757551253758742,
                50.419314488582266
              ],
              [
                4.757137375676619,
                50.4193029188768
              ],
              [
                4.756723715442056,
                50.41931732206896
              ],
              [
                4.756314256155802,
                50.41935755947148
              ],
              [
                4.755912940488471,
                50.41942324364074
              ],
              [
                4.755523632735304,
                50.41951374210564
              ],
              [
                4.755150081623712,
                50.419628183454556
              ],
              [
                4.754795884230928,
                50.41976546572232
              ],
              [
                4.754464451358488,
                50.41992426699622
              ],
              [
                4.754158974696374,
                50.42010305813948
              ],
              [
                4.7538823960925916,
                50.420300117509704
              ],
              [
                4.7536373792238376,
                50.42051354753111
              ],
              [
                4.753426283940026,
                50.420741292960834
              ],
              [
                4.753251143529819,
                50.420981160674366
              ],
              [
                4.753113645126434,
                50.4212308407791
              ],
              [
                4.753015113442909,
                50.421487928853786
              ],
              [
                4.752956497994092,
                50.42174994909893
              ],
              [
                4.752938363929204,
                50.422014378176584
              ],
              [
                4.75296088656416,
                50.422278669508934
              ],
              [
                4.753023849667228,
                50.42254027780265
              ],
              [
                4.753126647515588,
                50.42279668356229
              ],
              [
                4.753268290703929,
                50.423045417356896
              ],
              [
                4.753447415650125,
                50.42328408360594
              ],
              [
                4.753662297707323,
                50.423510383655426
              ],
              [
                4.753910867756921,
                50.423722137921565
              ],
              [
                4.754190732123274,
                50.42391730688866
              ],
              [
                4.754499195618814,
                50.42409401075881
              ],
              [
                4.754833287497874,
                50.424250547563474
              ],
              [
                4.755189790069438,
                50.424385409562674
              ],
              [
                4.755565269693076,
                50.424497297773165
              ],
              [
                4.755956109859301,
                50.42458513448564
              ],
              [
                4.756358546035272,
                50.42464807364999
              ],
              [
                4.7567687019396,
                50.42468550902837
              ],
              [
                4.757182626896172,
                50.42469708003744
              ],
              [
                4.757596333906312,
                50.42468267522329
              ],
              [
                4.758005838071713,
                50.42464243333548
              ],
              [
                4.758407194997081,
                50.42457674199002
              ],
              [
                4.758796538801649,
                50.4244862339338
              ],
              [
                4.759170119372575,
                50.42437178094701
              ],
              [
                4.759524338500519,
                50.424234485442085
              ],
              [
                4.759855784548674,
                50.42407566984043
              ],
              [
                4.760161265320723,
                50.42389686382939
              ],
              [
                4.760437838810717,
                50.42369978962275
              ],
              [
                4.76068284153848,
                50.423486345366456
              ],
              [
                4.76089391419753,
                50.42325858685038
              ],
              [
                4.761069024368661,
                50.42301870770197
              ],
              [
                4.761206486080724,
                50.42276901825322
              ],
              [
                4.76130497603071,
                50.422511923284524
              ],
              [
                4.761363546307567,
                50.422249898860265
              ],
              [
                4.761381633498007,
                50.421985468479015
              ],
              [
                4.761359064087475,
                50.42172117876868
              ],
              [
                4.76129605610526,
                50.42145957496024
              ]
            ]
          ],
          [
            [
              [
                4.717823721366522,
                50.42622219965075
              ],
              [
                4.717413582967725,
                50.426184626855914
              ],
              [
                4.716999654791475,
                50.4261729142233
              ],
              [
                4.716585922517389,
                50.426187174532984
              ],
              [
                4.716176369939724,
                50.42622727047349
              ],
              [
                4.7157749406271305,
                50.42629281596336
              ],
              [
                4.715385499968796,
                50.42638317986683
              ],
              [
                4.715011797971456,
                50.426497492068016
              ],
              [
                4.7146574331647635,
                50.426634651845355
              ],
              [
                4.714325817961803,
                50.42679333846571
              ],
              [
                4.714020145807739,
                50.42697202389642
              ],
              [
                4.713743360432525,
                50.427168987513156
              ],
              [
                4.713498127503473,
                50.427382332662305
              ],
              [
                4.7132868089506355,
                50.427610004918456
              ],
              [
                4.713111440212328,
                50.42784981186194
              ],
              [
                4.712973710620259,
                50.42809944418556
              ],
              [
                4.712874947113633,
                50.42835649792835
              ],
              [
                4.712816101439716,
                50.42861849762174
              ],
              [
                4.712797740964906,
                50.4288829201259
              ],
              [
                4.712820043185697,
                50.42914721892653
              ],
              [
                4.7128827939933435,
                50.42940884865866
              ],
              [
                4.712985389709954,
                50.42966528962055
              ],
              [
                4.713126842877378,
                50.42991407204246
              ],
              [
                4.7133057917441175,
                50.430152799875714
              ],
              [
                4.713520513359754,
                50.430379173873355
              ],
              [
                4.713768940151566,
                50.43059101373954
              ],
              [
                4.71404867982432,
                50.43078627913427
              ],
              [
                4.714357038392059,
                50.43096308933097
              ],
              [
                4.714691046120338,
                50.4311197413371
              ],
              [
                4.7150474861291976,
                50.43125472630314
              ],
              [
                4.715422925381271,
                50.43136674406151
              ],
              [
                4.715425565698167,
                50.4313673383853
              ],
              [
                4.715426925558169,
                50.43136774411609
              ],
              [
                4.715817747948864,
                50.43145571569623
              ],
              [
                4.716220189099471,
                50.43151879376193
              ],
              [
                4.716630372680858,
                50.431556370737454
              ],
              [
                4.71704434775038,
                50.43156808467554
              ],
              [
                4.717458126826617,
                50.4315538227456
              ],
              [
                4.717867724316954,
                50.4315137223209
              ],
              [
                4.718269194926917,
                50.431448169654864
              ],
              [
                4.71865867168037,
                50.43135779615862
              ],
              [
                4.71903240318348,
                50.43124347231631
              ],
              [
                4.719386789772652,
                50.43110629929648
              ],
              [
                4.719718418197598,
                50.430947598340836
              ],
              [
                4.720024094504851,
                50.4307688980326
              ],
              [
                4.720300874804608,
                50.43057191956753
              ],
              [
                4.720546093624293,
                50.4303585601696
              ],
              [
                4.720757389575699,
                50.4301308748115
              ],
              [
                4.720932728088645,
                50.42989105641627
              ],
              [
                4.7210704209924925,
                50.42964141473093
              ],
              [
                4.721169142757422,
                50.42938435407614
              ],
              [
                4.721227943239711,
                50.42912235018596
              ],
              [
                4.721246256809051,
                50.4288579263615
              ],
              [
                4.721223907770868,
                50.4285936291677
              ],
              [
                4.7211611120324175,
                50.42833200390787
              ],
              [
                4.721058474997584,
                50.42807557011191
              ],
              [
                4.720916985711668,
                50.42782679727431
              ],
              [
                4.720738007313491,
                50.42758808107552
              ],
              [
                4.72052326388766,
                50.42736172031561
              ],
              [
                4.720274823844371,
                50.4271498947819
              ],
              [
                4.719995079987436,
                50.42695464426387
              ],
              [
                4.7196867264629665,
                50.42677784891665
              ],
              [
                4.71935273281098,
                50.42662121116242
              ],
              [
                4.718996315369907,
                50.426486239303365
              ],
              [
                4.7186209063093045,
                50.4263742330037
              ],
              [
                4.718618266230312,
                50.42637363875203
              ],
              [
                4.71861690648619,
                50.42637323305827
              ],
              [
                4.718226120781225,
                50.426285270821666
              ],
              [
                4.717823721366522,
                50.42622219965075
              ]
            ]
          ],
          [
            [
              [
                4.762487033697143,
                50.4336993497744
              ],
              [
                4.762130440362811,
                50.433564510347466
              ],
              [
                4.761754873464882,
                50.43345264349902
              ],
              [
                4.761363949482187,
                50.43336482640331
              ],
              [
                4.760961432697755,
                50.43330190465246
              ],
              [
                4.7605511989670175,
                50.43326448411805
              ],
              [
                4.7601371984142995,
                50.43325292512015
              ],
              [
                4.759723417415974,
                50.433267338959446
              ],
              [
                4.7593138402354205,
                50.4333075868462
              ],
              [
                4.758912410678275,
                50.433373281235816
              ],
              [
                4.758522994136277,
                50.43346378955878
              ],
              [
                4.758149340384263,
                50.433578240308584
              ],
              [
                4.757795047487744,
                50.433715531429534
              ],
              [
                4.757463527167871,
                50.43387434092368
              ],
              [
                4.757157971956735,
                50.43405313957511
              ],
              [
                4.756881324458831,
                50.43425020566916
              ],
              [
                4.756636249014442,
                50.43446364156527
              ],
              [
                4.756425106037769,
                50.43469139196405
              ],
              [
                4.756249929277021,
                50.43493126369312
              ],
              [
                4.756112406215792,
                50.43518094682126
              ],
              [
                4.756013861804931,
                50.435438036898
              ],
              [
                4.755955245682236,
                50.435700058104665
              ],
              [
                4.755937123003818,
                50.43596448709397
              ],
              [
                4.755959668976335,
                50.43622877728895
              ],
              [
                4.75602266714369,
                50.43649038340722
              ],
              [
                4.756125511445742,
                50.43674678597426
              ],
              [
                4.756267212030127,
                50.43699551558984
              ],
              [
                4.756446404762233,
                50.437234176713666
              ],
              [
                4.7566613643426,
                50.43746047074103
              ],
              [
                4.7569100209061705,
                50.437672218146126
              ],
              [
                4.757189979944184,
                50.43786737947936
              ],
              [
                4.7574985453573095,
                50.43804407501627
              ],
              [
                4.7574999383404215,
                50.43804472744594
              ],
              [
                4.757500545389501,
                50.43804507506173
              ],
              [
                4.757834745464105,
                50.43820160290826
              ],
              [
                4.758191361453053,
                50.438336455416
              ],
              [
                4.758566958623407,
                50.43844833369316
              ],
              [
                4.758957919333343,
                50.43853616012605
              ],
              [
                4.759360477888772,
                50.43859908876355
              ],
              [
                4.759770756829345,
                50.438636513469234
              ],
              [
                4.760184804293643,
                50.43864807376255
              ],
              [
                4.760598632102774,
                50.438633658292765
              ],
              [
                4.761008254194678,
                50.43859340591214
              ],
              [
                4.761409725038002,
                50.43852770433771
              ],
              [
                4.761799177654564,
                50.43843718641492
              ],
              [
                4.762172860883331,
                50.438322724019
              ],
              [
                4.762527175526105,
                50.438185419653045
              ],
              [
                4.7628587090260845,
                50.43802659582378
              ],
              [
                4.763164268344685,
                50.43784778229785
              ],
              [
                4.763440910719531,
                50.43765070136141
              ],
              [
                4.763685972007146,
                50.43743725122527
              ],
              [
                4.763897092337254,
                50.43720948773591
              ],
              [
                4.764072238831792,
                50.43696960456869
              ],
              [
                4.764209725170097,
                50.43671991209431
              ],
              [
                4.7643082278123385,
                50.43646281512232
              ],
              [
                4.764366798725613,
                50.43620078973635
              ],
              [
                4.764384874490898,
                50.43593635944426
              ],
              [
                4.764362281704074,
                50.435672070873046
              ],
              [
                4.7642992386199445,
                50.43541046924275
              ],
              [
                4.764196353024427,
                50.43515407385543
              ],
              [
                4.764054616356394,
                50.43490535383546
              ],
              [
                4.763875394136743,
                50.43466670435446
              ],
              [
                4.763660412797726,
                50.434440423569754
              ],
              [
                4.763411743040169,
                50.43422869049842
              ],
              [
                4.763131779879458,
                50.434033544039295
              ],
              [
                4.7628232195729545,
                50.433856863345376
              ],
              [
                4.762821826639621,
                50.43385621097906
              ],
              [
                4.762821219605156,
                50.433855863390846
              ],
              [
                4.762487033697143,
                50.4336993497744
              ]
            ]
          ]
        ]
      },
      "properties": {
        "type": "buffer_union_300m",
        "buffer_m": 300
      }
    },
    {
      "type": "Feature",
      "geometry": {
        "type": "MultiPolygon",
        "coordinates": [
          [
            [
              [
                4.762674720530352,
                50.42127940056182
              ],
              [
                4.762537592554316,
                50.42093753737896
              ],
              [
                4.762348678891101,
                50.420605907239626
              ],
              [
                4.762109799805224,
                50.42028770367778
              ],
              [
                4.761823256586762,
                50.419985990869755
              ],
              [
                4.761491809359705,
                50.41970367413595
              ],
              [
                4.761118650479098,
                50.419443471974105
              ],
              [
                4.7607073737739665,
                50.4192078898927
              ],
              [
                4.76026193993276,
                50.418999196296184
              ],
              [
                4.759786638364796,
                50.41881940065363
              ],
              [
                4.759286045904817,
                50.41867023416042
              ],
              [
                4.758764982757841,
                50.418553133078724
              ],
              [
                4.758228466107678,
                50.418469224916834
              ],
              [
                4.7576816618348055,
                50.418419317579755
              ],
              [
                4.757129834807146,
                50.41840389159546
              ],
              [
                4.756578298220938,
                50.418423095491256
              ],
              [
                4.756032362477833,
                50.418476744364646
              ],
              [
                4.755497284088834,
                50.418564321662416
              ],
              [
                4.754978215095341,
                50.41868498415104
              ],
              [
                4.754480153492755,
                50.41883757003025
              ],
              [
                4.754007895132503,
                50.41902061011249
              ],
              [
                4.753565987564339,
                50.41923234196053
              ],
              [
                4.753158686262349,
                50.41947072684766
              ],
              [
                4.7527899136553655,
                50.419733469377675
              ],
              [
                4.752463221355896,
                50.42001803957615
              ],
              [
                4.752181755951139,
                50.42032169724088
              ],
              [
                4.751948228685739,
                50.4206415183176
              ],
              [
                4.7517648893287765,
                50.420974423047205
              ],
              [
                4.751633504477535,
                50.42131720561437
              ],
              [
                4.751555340508136,
                50.421666565012124
              ],
              [
                4.751531151338591,
                50.42201913682554
              ],
              [
                4.7515611711237336,
                50.42237152562868
              ],
              [
                4.751645111954069,
                50.422720337683295
              ],
              [
                4.751782166582486,
                50.42306221362381
              ],
              [
                4.751971016154318,
                50.42339386081438
              ],
              [
                4.752209842868046,
                50.423712085065766
              ],
              [
                4.752496347446225,
                50.424013821406525
              ],
              [
                4.752827771249789,
                50.42429616361192
              ],
              [
                4.7532009228238445,
                50.42455639220537
              ],
              [
                4.7536122086201535,
                50.42479200066261
              ],
              [
                4.754057667600898,
                50.42500071956562
              ],
              [
                4.754533009390661,
                50.42518053847278
              ],
              [
                4.755033655608997,
                50.425329725294674
              ],
              [
                4.755554783984991,
                50.42544684298793
              ],
              [
                4.756091374828112,
                50.42553076340584
              ],
              [
                4.756638259406691,
                50.42558067817246
              ],
              [
                4.7571901697667025,
                50.42559610647427
              ],
              [
                4.757741789509494,
                50.42557689969492
              ],
              [
                4.758287805037748,
                50.42552324284769
              ],
              [
                4.758822956774368,
                50.42543565279224
              ],
              [
                4.759342089859243,
                50.4253149732524
              ],
              [
                4.759840203833978,
                50.42516236668366
              ],
              [
                4.760312500834513,
                50.42497930306868
              ],
              [
                4.760754431826169,
                50.42476754574904
              ],
              [
                4.7611617404347095,
                50.424529134430315
              ],
              [
                4.761530503950515,
                50.42426636552445
              ],
              [
                4.761857171110447,
                50.423981770019495
              ],
              [
                4.762138596293404,
                50.42367808909013
              ],
              [
                4.7623720698004455,
                50.42335824768474
              ],
              [
                4.762555343928392,
                50.42302532634359
              ],
              [
                4.762686654586674,
                50.422682531520394
              ],
              [
                4.762764738250368,
                50.422333164693086
              ],
              [
                4.762788844087561,
                50.42198059056218
              ],
              [
                4.762758741145839,
                50.42162820464259
              ],
              [
                4.762674720530352,
                50.42127940056182
              ]
            ]
          ],
          [
            [
              [
                4.718091608548956,
                50.425339598065555
              ],
              [
                4.717544767387247,
                50.425289501937876
              ],
              [
                4.716992873569443,
                50.42527388538764
              ],
              [
                4.716441240934771,
                50.42529289877701
              ],
              [
                4.715895180809398,
                50.42534635903776
              ],
              [
                4.71535995090147,
                50.42543375143274
              ],
              [
                4.714840704710667,
                50.42555423450875
              ],
              [
                4.714342441937793,
                50.425706648193106
              ],
              [
                4.71386996037042,
                50.42588952495633
              ],
              [
                4.713427809706597,
                50.42610110393385
              ],
              [
                4.713020247760201,
                50.426339347871085
              ],
              [
                4.712651199468889,
                50.42660196272922
              ],
              [
                4.712324219098898,
                50.426886419763484
              ],
              [
                4.71204245601057,
                50.427189979861616
              ],
              [
                4.711808624314426,
                50.42750971990916
              ],
              [
                4.711624976710609,
                50.42784256092769
              ],
              [
                4.711493282764444,
                50.42818529771579
              ],
              [
                4.711414811828511,
                50.428534629707734
              ],
              [
                4.711390320777047,
                50.42888719275288
              ],
              [
                4.711420046672405,
                50.4292395915102
              ],
              [
                4.711503704435899,
                50.42958843214597
              ],
              [
                4.711640489547228,
                50.429930355019756
              ],
              [
                4.7118290857482545,
                50.43026206704408
              ],
              [
                4.712067677678662,
                50.4305803734056
              ],
              [
                4.712353968323333,
                50.430882208342396
              ],
              [
                4.712685201104812,
                50.43116466468031
              ],
              [
                4.713058186409204,
                50.43142502184376
              ],
              [
                4.713469332290862,
                50.43166077207029
              ],
              [
                4.713914679060685,
                50.431869644576466
              ],
              [
                4.714389937425046,
                50.43204962744129
              ],
              [
                4.714890529807907,
                50.4321989869961
              ],
              [
                4.714893170164463,
                50.43219958133192
              ],
              [
                4.714894530043772,
                50.432199987068884
              ],
              [
                4.715415634714336,
                50.432317284588564
              ],
              [
                4.715952232187763,
                50.43240139021155
              ],
              [
                4.716499153668822,
                50.43245149377782
              ],
              [
                4.717051130848126,
                50.43246711265524
              ],
              [
                4.717602846683284,
                50.43244809639171
              ],
              [
                4.718148986651069,
                50.432394628165355
              ],
              [
                4.718684289975237,
                50.432307223018874
              ],
              [
                4.719203600334878,
                50.432186722894976
              ],
              [
                4.719701915563237,
                50.432034288521
              ],
              [
                4.720174435856839,
                50.431851388221006
              ],
              [
                4.720616610029253,
                50.43163978376359
              ],
              [
                4.72102417936293,
                50.431401513382085
              ],
              [
                4.721393218635997,
                50.431138872131136
              ],
              [
                4.721720173928367,
                50.430854389769415
              ],
              [
                4.722001896842927,
                50.43055080638217
              ],
              [
                4.722235674812442,
                50.43023104597859
              ],
              [
                4.72241925720082,
                50.42989818831912
              ],
              [
                4.722550876948233,
                50.4295554392445
              ],
              [
                4.7226292675527635,
                50.429206099792516
              ],
              [
                4.722653675226465,
                50.428853534400396
              ],
              [
                4.722623866110304,
                50.42850113849932
              ],
              [
                4.72254012848022,
                50.42815230581332
              ],
              [
                4.722403269924845,
                50.427810395677376
              ],
              [
                4.722214609523816,
                50.42747870068962
              ],
              [
                4.721975965103701,
                50.42716041500887
              ],
              [
                4.721689635695848,
                50.426858603602525
              ],
              [
                4.721358379366452,
                50.426576172740745
              ],
              [
                4.720985386633459,
                50.426315842020465
              ],
              [
                4.720574249727128,
                50.42608011818825
              ],
              [
                4.7201289279908245,
                50.42587127101369
              ],
              [
                4.719653709755374,
                50.42569131144472
              ],
              [
                4.719153171053956,
                50.42554197225519
              ],
              [
                4.719150531014616,
                50.42554137801553
              ],
              [
                4.719149171289801,
                50.42554097232795
              ],
              [
                4.718628131831354,
                50.42542369142499
              ],
              [
                4.718091608548956,
                50.425339598065555
              ]
            ]
          ],
          [
            [
              [
                4.763262662515369,
                50.432949122510486
              ],
              [
                4.762787209767732,
                50.432769339515964
              ],
              [
                4.7622864606278625,
                50.43262018625901
              ],
              [
                4.7617652368091585,
                50.43250309887434
              ],
              [
                4.761228557042175,
                50.43241920473831
              ],
              [
                4.760681588777619,
                50.43236931162088
              ],
              [
                4.7601295984620355,
                50.432353899913096
              ],
              [
                4.7595779008634995,
                50.4323731180048
              ],
              [
                4.759031807933608,
                50.43242678085678
              ],
              [
                4.758496577696512,
                50.43251437178132
              ],
              [
                4.757977363655415,
                50.432635047413626
              ],
              [
                4.757479165202125,
                50.432787645826934
              ],
              [
                4.757006779505651,
                50.43297069771303
              ],
              [
                4.756564755341822,
                50.43318244052103
              ],
              [
                4.7561573493074984,
                50.43342083541874
              ],
              [
                4.755788484840179,
                50.43368358691357
              ],
              [
                4.7554617144372076,
                50.43396816494478
              ],
              [
                4.75518018543827,
                50.43427182923479
              ],
              [
                4.754946609700883,
                50.4345916556655
              ],
              [
                4.754763237461467,
                50.43492456442627
              ],
              [
                4.754631835634598,
                50.43526734966299
              ],
              [
                4.754553670760553,
                50.435616710342934
              ],
              [
                4.754529496766765,
                50.435969282038776
              ],
              [
                4.7545595476626294,
                50.436321669325736
              ],
              [
                4.754643535239735,
                50.436670478480096
              ],
              [
                4.754780651801418,
                50.43701235016422
              ],
              [
                4.7549695778971355,
                50.437343991783166
              ],
              [
                4.755208494988883,
                50.43766220920128
              ],
              [
                4.755495102929196,
                50.43796393751297
              ],
              [
                4.755826642083812,
                50.438246270570694
              ],
              [
                4.756199919887051,
                50.43850648898597
              ],
              [
                4.756611341574982,
                50.43874208633251
              ],
              [
                4.756612734566391,
                50.43874273877277
              ],
              [
                4.7566133416179035,
                50.43874308639312
              ],
              [
                4.7570589448620275,
                50.43895179335215
              ],
              [
                4.757534437878672,
                50.4391315996042
              ],
              [
                4.758035240830567,
                50.43928077318171
              ],
              [
                4.758556529936835,
                50.439397877168815
              ],
              [
                4.759093283958415,
                50.43948178355087
              ],
              [
                4.759640332591466,
                50.439531684087044
              ],
              [
                4.760192406301316,
                50.439547098100924
              ],
              [
                4.7607441871154546,
                50.43952787711376
              ],
              [
                4.761290359884662,
                50.43947420627576
              ],
              [
                4.76182566351688,
                50.4393866025813
              ],
              [
                4.762344941688584,
                50.439265909885634
              ],
              [
                4.762843192543632,
                50.43911329077099
              ],
              [
                4.763315616899367,
                50.438930215340875
              ],
              [
                4.763757664494366,
                50.43871844705073
              ],
              [
                4.764165077831336,
                50.43848002571183
              ],
              [
                4.764533933192099,
                50.43821724783264
              ],
              [
                4.764860678429175,
                50.43793264448766
              ],
              [
                4.7651421671698415,
                50.43762895692711
              ],
              [
                4.7653756891034895,
                50.43730911016324
              ],
              [
                4.765558996061097,
                50.43697618478794
              ],
              [
                4.765690323636539,
                50.436633387293746
              ],
              [
                4.765768408142643,
                50.436284019184356
              ],
              [
                4.765792498740094,
                50.435931445172564
              ],
              [
                4.765762364623957,
                50.435579060772135
              ],
              [
                4.765678297200306,
                50.43523025959588
              ],
              [
                4.765541107233787,
                50.43488840067491
              ],
              [
                4.76535211699535,
                50.43455677611373
              ],
              [
                4.765113147487454,
                50.43423857939255
              ],
              [
                4.764826500871354,
                50.433936874621764
              ],
              [
                4.76449493826706,
                50.43365456704434
              ],
              [
                4.764121653140865,
                50.43339437506977
              ],
              [
                4.763710240537575,
                50.433158804108395
              ],
              [
                4.763708847612542,
                50.433158151752636
              ],
              [
                4.763708240580511,
                50.43315780416901
              ],
              [
                4.763262662515369,
                50.432949122510486
              ]
            ]
          ]
        ]
      },
      "properties": {
        "type": "buffer_union_400m",
        "buffer_m": 400
      }
    },
    {
      "type": "Feature",
      "geometry": {
        "type": "Polygon",
        "coordinates": [
          [
            [
              4.6951825,
              50.4281664
            ],
            [
              4.6958359,
              50.4284361
            ],
            [
              4.6970222,
              50.4286247
            ],
            [
              4.697234,
              50.429002
            ],
            [
              4.6981662,
              50.4294332
            ],
            [
              4.6990136,
              50.4305381
            ],
            [
              4.6985899,
              50.4309423
            ],
            [
              4.6986322,
              50.4320742
            ],
            [
              4.6984204,
              50.43326
            ],
            [
              4.697912,
              50.4347153
            ],
            [
              4.700666,
              50.437545
            ],
            [
              4.7017252,
              50.4385151
            ],
            [
              4.7023183,
              50.4394315
            ],
            [
              4.7023183,
              50.4411293
            ],
            [
              4.7028268,
              50.4421533
            ],
            [
              4.7039284,
              50.4432309
            ],
            [
              4.7045639,
              50.4437159
            ],
            [
              4.7076993,
              50.4428266
            ],
            [
              4.7090975,
              50.4443358
            ],
            [
              4.7095211,
              50.4451982
            ],
            [
              4.7092902,
              50.4458153
            ],
            [
              4.709055,
              50.4471116
            ],
            [
              4.7096482,
              50.4477854
            ],
            [
              4.7103685,
              50.4481626
            ],
            [
              4.7112582,
              50.4492136
            ],
            [
              4.7135886,
              50.4508306
            ],
            [
              4.7139699,
              50.451666
            ],
            [
              4.712953,
              50.453849
            ],
            [
              4.7129954,
              50.4544688
            ],
            [
              4.7133767,
              50.4547652
            ],
            [
              4.714563,
              50.4551695
            ],
            [
              4.7159188,
              50.4563822
            ],
            [
              4.716046,
              50.4571907
            ],
            [
              4.7163425,
              50.4577027
            ],
            [
              4.7156647,
              50.4577297
            ],
            [
              4.7156223,
              50.4585112
            ],
            [
              4.7167582,
              50.4601871
            ],
            [
              4.7165104,
              50.4611869
            ],
            [
              4.7159864,
              50.4615208
            ],
            [
              4.7154603,
              50.4616902
            ],
            [
              4.7150291,
              50.4615831
            ],
            [
              4.7151549,
              50.4618475
            ],
            [
              4.71621,
              50.4621494
            ],
            [
              4.7161783,
              50.4622227
            ],
            [
              4.7156371,
              50.462853
            ],
            [
              4.7147749,
              50.4641433
            ],
            [
              4.714097,
              50.4647901
            ],
            [
              4.7132919,
              50.4652483
            ],
            [
              4.7125293,
              50.4665958
            ],
            [
              4.7118514,
              50.4670269
            ],
            [
              4.7118938,
              50.4672964
            ],
            [
              4.7129106,
              50.4674312
            ],
            [
              4.7144234,
              50.4674581
            ],
            [
              4.7156223,
              50.4679433
            ],
            [
              4.7167662,
              50.4679971
            ],
            [
              4.7182067,
              50.4686978
            ],
            [
              4.7187871,
              50.4696166
            ],
            [
              4.7191987,
              50.4697383
            ],
            [
              4.7226485,
              50.4700782
            ],
            [
              4.726246,
              50.4707018
            ],
            [
              4.7317226,
              50.4714735
            ],
            [
              4.7329913,
              50.4719129
            ],
            [
              4.7334725,
              50.4711856
            ],
            [
              4.7331195,
              50.4701076
            ],
            [
              4.7343199,
              50.4675025
            ],
            [
              4.7336844,
              50.4662
            ],
            [
              4.7386981,
              50.4652567
            ],
            [
              4.7507026,
              50.4645829
            ],
            [
              4.7624954,
              50.4692093
            ],
            [
              4.7703335,
              50.4696584
            ],
            [
              4.7719576,
              50.4688949
            ],
            [
              4.771431,
              50.4685831
            ],
            [
              4.7718347,
              50.4683097
            ],
            [
              4.7723128,
              50.468122
            ],
            [
              4.7766889,
              50.4636847
            ],
            [
              4.7781011,
              50.4611245
            ],
            [
              4.7841379,
              50.4555867
            ],
            [
              4.7908119,
              50.4493115
            ],
            [
              4.7934281,
              50.4487564
            ],
            [
              4.7912356,
              50.4457182
            ],
            [
              4.7901057,
              50.4445504
            ],
            [
              4.7907413,
              50.4438766
            ],
            [
              4.7918711,
              50.4435174
            ],
            [
              4.7926478,
              50.4428436
            ],
            [
              4.7927664,
              50.4424665
            ],
            [
              4.7927157,
              50.4420273
            ],
            [
              4.7912605,
              50.4410274
            ],
            [
              4.7894719,
              50.4404619
            ],
            [
              4.7881992,
              50.4402385
            ],
            [
              4.7848096,
              50.4332315
            ],
            [
              4.7840336,
              50.4302739
            ],
            [
              4.7836603,
              50.4284096
            ],
            [
              4.7834679,
              50.4279315
            ],
            [
              4.7842521,
              50.4255408
            ],
            [
              4.7841614,
              50.4243289
            ],
            [
              4.7845585,
              50.4235199
            ],
            [
              4.7855158,
              50.4191729
            ],
            [
              4.785214,
              50.4181013
            ],
            [
              4.7852348,
              50.4179043
            ],
            [
              4.7849008,
              50.4172766
            ],
            [
              4.7847347,
              50.4164878
            ],
            [
              4.7844481,
              50.4162428
            ],
            [
              4.7843859,
              50.4157144
            ],
            [
              4.784551,
              50.4146353
            ],
            [
              4.7851831,
              50.4147066
            ],
            [
              4.7871584,
              50.4151965
            ],
            [
              4.7876435,
              50.4149997
            ],
            [
              4.787677,
              50.4146265
            ],
            [
              4.7895408,
              50.4147711
            ],
            [
              4.7936365,
              50.414277
            ],
            [
              4.7957894,
              50.4149573
            ],
            [
              4.7963904,
              50.4146813
            ],
            [
              4.7984326,
              50.4147542
            ],
            [
              4.8003449,
              50.4137381
            ],
            [
              4.8042994,
              50.4157144
            ],
            [
              4.8047231,
              50.4162085
            ],
            [
              4.8046524,
              50.4162982
            ],
            [
              4.8078302,
              50.4176457
            ],
            [
              4.8093292,
              50.4173542
            ],
            [
              4.8087481,
              50.4167474
            ],
            [
              4.8103723,
              50.4167474
            ],
            [
              4.8140442,
              50.4188585
            ],
            [
              4.8146798,
              50.418589
            ],
            [
              4.8153859,
              50.4194873
            ],
            [
              4.8148128,
              50.4198523
            ],
            [
              4.8155435,
              50.4210904
            ],
            [
              4.8177511,
              50.4205517
            ],
            [
              4.8184152,
              50.4216442
            ],
            [
              4.819136,
              50.4223931
            ],
            [
              4.8207489,
              50.4233271
            ],
            [
              4.8215716,
              50.4237242
            ],
            [
              4.8224648,
              50.4240268
            ],
            [
              4.8292538,
              50.4109012
            ],
            [
              4.8283829,
              50.4106604
            ],
            [
              4.8296116,
              50.4085853
            ],
            [
              4.8255018,
              50.4088279
            ],
            [
              4.8243154,
              50.409232
            ],
            [
              4.8233834,
              50.4076151
            ],
            [
              4.8221546,
              50.4067258
            ],
            [
              4.8192735,
              50.4057287
            ],
            [
              4.8188113,
              50.4053155
            ],
            [
              4.8165195,
              50.4040847
            ],
            [
              4.8165618,
              50.4040578
            ],
            [
              4.8148671,
              50.402845
            ],
            [
              4.8149094,
              50.4027911
            ],
            [
              4.8127487,
              50.4020366
            ],
            [
              4.811879,
              50.4008877
            ],
            [
              4.810842,
              50.4010664
            ],
            [
              4.8095286,
              50.3999615
            ],
            [
              4.8077914,
              50.398857
            ],
            [
              4.8043172,
              50.3958926
            ],
            [
              4.8010548,
              50.3938444
            ],
            [
              4.7989821,
              50.3928824
            ],
            [
              4.785677,
              50.4055956
            ],
            [
              4.7601284,
              50.4079402
            ],
            [
              4.7578172,
              50.4140124
            ],
            [
              4.7539849,
              50.4124947
            ],
            [
              4.753307,
              50.4129259
            ],
            [
              4.7316563,
              50.4198788
            ],
            [
              4.7258941,
              50.4157825
            ],
            [
              4.7248772,
              50.4159981
            ],
            [
              4.7236909,
              50.4159172
            ],
            [
              4.7194782,
              50.4127586
            ],
            [
              4.7147934,
              50.4181807
            ],
            [
              4.7140308,
              50.4187467
            ],
            [
              4.711531,
              50.4197438
            ],
            [
              4.7097515,
              50.4206062
            ],
            [
              4.7062772,
              50.4217111
            ],
            [
              4.7023369,
              50.4226813
            ],
            [
              4.7014895,
              50.423921
            ],
            [
              4.7009387,
              50.4243253
            ],
            [
              4.6993711,
              50.424972
            ],
            [
              4.6951825,
              50.4281664
            ]
          ]
        ]
      },
      "properties": {
        "type": "boundary",
        "gemeente": "Floreffe"
      }
    }
  ]
}