{"type":"FeatureCollection","metadata":{"gemeente":"Ganshoren","slug":"ganshoren","generated_at":"2026-09-26T12:42:20.370853Z","total_points":14,"providers":["bpost","DHL","GLS","Amazon"],"bounds":[4.298375,50.86934,4.31203,50.872285]},"features":[{"type":"Feature","geometry":{"type":"Point","coordinates":[4.31203,50.86934]},"properties":{"type":"pakketpunt","locatieNaam":"Ganshoren Basiliek","straatNaam":"A.En M. Hellinckxstraat","straatNr":"26","vervoerder":"bpost","puntType":"postkantoor","bezettingsgraad":50,"latitude":50.86934,"longitude":4.31203,"canPickup":true,"canDropoff":true,"openingstijden":null}},{"type":"Feature","geometry":{"type":"Point","coordinates":[4.30799,50.86955]},"properties":{"type":"pakketpunt","locatieNaam":"Bbox Meet & Wash","straatNaam":"Keizer Karellaan","straatNr":"171","vervoerder":"bpost","puntType":"automaat","bezettingsgraad":50,"latitude":50.86955,"longitude":4.30799,"canPickup":true,"canDropoff":true,"openingstijden":null}},{"type":"Feature","geometry":{"type":"Point","coordinates":[4.29969,50.87173]},"properties":{"type":"pakketpunt","locatieNaam":"Epicerie De La Toison D'Or","straatNaam":"Keizer Karellaan","straatNr":"359","vervoerder":"bpost","puntType":"servicepunt","bezettingsgraad":50,"latitude":50.87173,"longitude":4.29969,"canPickup":true,"canDropoff":true,"openingstijden":null}},{"type":"Feature","geometry":{"type":"Point","coordinates":[4.29838,50.87228]},"properties":{"type":"pakketpunt","locatieNaam":"Louis Delhaize Ganshoren","straatNaam":"Margaretha Van Oostenrijkplein","straatNr":"6","vervoerder":"bpost","puntType":"servicepunt","bezettingsgraad":50,"latitude":50.87228,"longitude":4.29838,"canPickup":true,"canDropoff":true,"openingstijden":null}},{"type":"Feature","geometry":{"type":"Point","coordinates":[4.298375,50.872285]},"properties":{"type":"pakketpunt","locatieNaam":"LOUIS DELHAIZE GANSHOREN","straatNaam":"PLACE MARGUERITE D'AUTRICHE","straatNr":"6","vervoerder":"DHL","puntType":"parcelShop","bezettingsgraad":50,"latitude":50.872285,"longitude":4.298375,"canPickup":true,"canDropoff":true,"openingstijden":{"ma":"07:00 - 21:00","di":"07:00 - 21:00","wo":"07:00 - 21:00","do":"07:00 - 21:00","vr":"07:00 - 21:00","za":"08:00 - 21:00","zo":"08:00 - 21:00"}}},{"type":"Feature","geometry":{"type":"Point","coordinates":[4.299687,50.87173]},"properties":{"type":"pakketpunt","locatieNaam":"EPICERIE DE LA TOISON D'OR","straatNaam":"AVENUE CHARLES QUINT","straatNr":"359","vervoerder":"DHL","puntType":"parcelShop","bezettingsgraad":50,"latitude":50.87173,"longitude":4.299687,"canPickup":true,"canDropoff":true,"openingstijden":{"ma":"08:00 - 20:00","di":"08:00 - 20:00","wo":"08:00 - 20:00","do":"08:00 - 20:00","vr":"08:00 - 20:00","za":"08:00 - 20:00","zo":"gesloten"}}},{"type":"Feature","geometry":{"type":"Point","coordinates":[4.307993,50.869555]},"properties":{"type":"pakketpunt","locatieNaam":"BBOX MEET & WASH","straatNaam":"AVENUE CHARLES QUINT","straatNr":"171","vervoerder":"DHL","puntType":"packStation","bezettingsgraad":50,"latitude":50.869555,"longitude":4.307993,"canPickup":true,"canDropoff":true,"openingstijden":{"ma":"06:00 - 22:00","di":"06:00 - 22:00","wo":"06:00 - 22:00","do":"06:00 - 22:00","vr":"06:00 - 22:00","za":"06:00 - 22:00","zo":"06:00 - 22:00"}}},{"type":"Feature","geometry":{"type":"Point","coordinates":[4.312026,50.869344]},"properties":{"type":"pakketpunt","locatieNaam":"GANSHOREN BASILIQUE","straatNaam":"RUE A. ET M. HELLINCKX","straatNr":"26","vervoerder":"DHL","puntType":"postOffice","bezettingsgraad":50,"latitude":50.869344,"longitude":4.312026,"canPickup":true,"canDropoff":true,"openingstijden":{"ma":"09:30 - 12:30, 13:30 - 17:00","di":"09:30 - 12:30, 13:30 - 18:00","wo":"09:30 - 12:30, 13:30 - 17:00","do":"09:30 - 12:30, 13:30 - 18:00","vr":"09:30 - 12:30, 13:30 - 17:00","za":"gesloten","zo":"gesloten"}}},{"type":"Feature","geometry":{"type":"Point","coordinates":[4.308079,50.8695424]},"properties":{"type":"pakketpunt","locatieNaam":"GLS Parcel Locker powered by bbox","straatNaam":"Avenue Charles-Quint","straatNr":"171","vervoerder":"GLS","puntType":"locker","bezettingsgraad":50,"latitude":50.8695424,"longitude":4.308079,"canPickup":true,"canDropoff":true,"openingstijden":"vr: 06:00 - 12:30, 13:00 - 22:00; za: 06:00 - 12:30, 13:00 - 22:00"}},{"type":"Feature","geometry":{"type":"Point","coordinates":[4.29966,50.87158]},"properties":{"type":"pakketpunt","locatieNaam":"Number 7","straatNaam":"Avenue Charles-Quint","straatNr":"359","vervoerder":"GLS","puntType":"parcel_shop","bezettingsgraad":50,"latitude":50.87158,"longitude":4.29966,"canPickup":true,"canDropoff":true,"openingstijden":"vr: 08:30 - 20:30; za: 08:30 - 20:30"}},{"type":"Feature","geometry":{"type":"Point","coordinates":[4.298375,50.872285]},"properties":{"type":"pakketpunt","locatieNaam":"bpost - LOUIS DELHAIZE GANSHOREN","straatNaam":"PLACE MARGUERITE D'AUTRICHE,6","straatNr":"","vervoerder":"Amazon","puntType":"3p","bezettingsgraad":50,"latitude":50.872285,"longitude":4.298375,"canPickup":true,"canDropoff":false,"openingstijden":null}},{"type":"Feature","geometry":{"type":"Point","coordinates":[4.299687,50.87173]},"properties":{"type":"pakketpunt","locatieNaam":"bpost - EPICERIE DE LA TOISON D'OR","straatNaam":"AVENUE CHARLES QUINT,359","straatNr":"","vervoerder":"Amazon","puntType":"3p","bezettingsgraad":50,"latitude":50.87173,"longitude":4.299687,"canPickup":true,"canDropoff":false,"openingstijden":null}},{"type":"Feature","geometry":{"type":"Point","coordinates":[4.307993,50.869555]},"properties":{"type":"pakketpunt","locatieNaam":"bpost - BBOX MEET & WASH","straatNaam":"AVENUE CHARLES QUINT,171","straatNr":"","vervoerder":"Amazon","puntType":"3p","bezettingsgraad":50,"latitude":50.869555,"longitude":4.307993,"canPickup":true,"canDropoff":false,"openingstijden":null}},{"type":"Feature","geometry":{"type":"Point","coordinates":[4.312026,50.869344]},"properties":{"type":"pakketpunt","locatieNaam":"bpost - GANSHOREN BASILIQUE","straatNaam":"RUE A. ET M. HELLINCKX,26","straatNr":"","vervoerder":"Amazon","puntType":"3p","bezettingsgraad":50,"latitude":50.869344,"longitude":4.312026,"canPickup":true,"canDropoff":false,"openingstijden":null}},{"type":"Feature","geometry":{"type":"Polygon","coordinates":[[[4.2915308,50.8752766],[4.2931506,50.8745623],[4.29354,50.8743011],[4.2959795,50.8731214],[4.2971991,50.8722107],[4.2985797,50.8717226],[4.3018054,50.8701421],[4.3044739,50.869143],[4.3047658,50.8690949],[4.3063366,50.8693102],[4.3074153,50.8692647],[4.3087619,50.8693247],[4.3100798,50.8691357],[4.3099821,50.8689578],[4.3103281,50.8687658],[4.3125814,50.8679117],[4.314013,50.8674615],[4.3140584,50.8671372],[4.3151619,50.8672006],[4.3172308,50.867074],[4.3225188,50.8661863],[4.3233793,50.8659132],[4.3248226,50.8650896],[4.3261445,50.8656558],[4.3251312,50.8666445],[4.3252223,50.8666754],[4.3250214,50.8669743],[4.324878,50.8669387],[4.3248478,50.8671216],[4.3240525,50.8669691],[4.3205646,50.8721694],[4.3233704,50.8727068],[4.3225281,50.8739669],[4.322258,50.8742436],[4.320416,50.875186],[4.3207345,50.8770497],[4.321098,50.8777277],[4.319339,50.8784703],[4.3195236,50.8793801],[4.3197187,50.8798977],[4.3196577,50.8802379],[4.3159334,50.8799587],[4.3142847,50.8799118],[4.3133079,50.8799656],[4.3081023,50.8810494],[4.3060137,50.8813978],[4.2982052,50.8821012],[4.2985873,50.8809279],[4.2988327,50.8804435],[4.2988999,50.8799278],[4.2988483,50.8797647],[4.2986106,50.879648],[4.2983531,50.8791289],[4.2976125,50.8786109],[4.2966932,50.8782169],[4.2958613,50.8777289],[4.2957112,50.877719],[4.2956918,50.8776437],[4.294875,50.8774221],[4.2947893,50.8772857],[4.2942853,50.8771342],[4.2944166,50.8769852],[4.2943829,50.8769116],[4.2946041,50.8769026],[4.2945749,50.8768291],[4.2941356,50.8766177],[4.2940249,50.8764218],[4.2936647,50.8763934],[4.293696,50.8761968],[4.2930537,50.875846],[4.293051,50.8757306],[4.2924983,50.875642],[4.2924462,50.8755359],[4.2921712,50.8755354],[4.2919152,50.8753475],[4.2915308,50.8752766]]]},"properties":{"type":"boundary","gemeente":"Ganshoren"}}]}