{
  "type": "FeatureCollection",
  "metadata": {
    "gemeente": "Gedinne",
    "slug": "gedinne",
    "generated_at": "2026-09-25T22:11:37.794962Z",
    "total_points": 11,
    "providers": [
      "bpost",
      "DHL",
      "InPost",
      "VintedGo",
      "Amazon"
    ],
    "bounds": [
      4.93335,
      49.97592,
      4.97903,
      49.9828
    ]
  },
  "features": [
    {
      "type": "Feature",
      "geometry": {
        "type": "Point",
        "coordinates": [
          4.97903,
          49.9828
        ]
      },
      "properties": {
        "type": "pakketpunt",
        "locatieNaam": "Bbox 24/7 Total Energies Gedinne",
        "straatNaam": "Station",
        "straatNr": "59A",
        "vervoerder": "bpost",
        "puntType": "automaat",
        "bezettingsgraad": 50,
        "latitude": 49.9828,
        "longitude": 4.97903,
        "canPickup": true,
        "canDropoff": true,
        "openingstijden": null
      }
    },
    {
      "type": "Feature",
      "geometry": {
        "type": "Point",
        "coordinates": [
          4.94203,
          49.9802
        ]
      },
      "properties": {
        "type": "pakketpunt",
        "locatieNaam": "Bbox 24/7 Delhaize Gedinne",
        "straatNaam": "Rue Raymond Gridlet",
        "straatNr": "45",
        "vervoerder": "bpost",
        "puntType": "automaat",
        "bezettingsgraad": 50,
        "latitude": 49.9802,
        "longitude": 4.94203,
        "canPickup": true,
        "canDropoff": true,
        "openingstijden": null
      }
    },
    {
      "type": "Feature",
      "geometry": {
        "type": "Point",
        "coordinates": [
          4.93699,
          49.98048
        ]
      },
      "properties": {
        "type": "pakketpunt",
        "locatieNaam": "Gedinne",
        "straatNaam": "Rue De Charleville",
        "straatNr": "2",
        "vervoerder": "bpost",
        "puntType": "postkantoor",
        "bezettingsgraad": 50,
        "latitude": 49.98048,
        "longitude": 4.93699,
        "canPickup": true,
        "canDropoff": true,
        "openingstijden": null
      }
    },
    {
      "type": "Feature",
      "geometry": {
        "type": "Point",
        "coordinates": [
          4.936994,
          49.98048
        ]
      },
      "properties": {
        "type": "pakketpunt",
        "locatieNaam": "GEDINNE",
        "straatNaam": "RUE DE CHARLEVILLE",
        "straatNr": "2",
        "vervoerder": "DHL",
        "puntType": "postOffice",
        "bezettingsgraad": 50,
        "latitude": 49.98048,
        "longitude": 4.936994,
        "canPickup": true,
        "canDropoff": true,
        "openingstijden": {
          "ma": "13:30 - 17:00",
          "di": "09:30 - 12:30, 13:30 - 18:00",
          "wo": "13:30 - 17:00",
          "do": "13:30 - 18:00",
          "vr": "13:30 - 17:00",
          "za": "09:30 - 13:00",
          "zo": "gesloten"
        }
      }
    },
    {
      "type": "Feature",
      "geometry": {
        "type": "Point",
        "coordinates": [
          4.942026,
          49.9802
        ]
      },
      "properties": {
        "type": "pakketpunt",
        "locatieNaam": "BBOX 24/7 DELHAIZE GEDINNE",
        "straatNaam": "RUE RAYMOND GRIDLET",
        "straatNr": "45",
        "vervoerder": "DHL",
        "puntType": "packStation",
        "bezettingsgraad": 50,
        "latitude": 49.9802,
        "longitude": 4.942026,
        "canPickup": true,
        "canDropoff": true,
        "openingstijden": {
          "ma": "00:00 - 23:59",
          "di": "00:00 - 23:59",
          "wo": "00:00 - 23:59",
          "do": "00:00 - 23:59",
          "vr": "00:00 - 23:59",
          "za": "00:00 - 23:59",
          "zo": "00:00 - 23:59"
        }
      }
    },
    {
      "type": "Feature",
      "geometry": {
        "type": "Point",
        "coordinates": [
          4.979029,
          49.9828
        ]
      },
      "properties": {
        "type": "pakketpunt",
        "locatieNaam": "BBOX 24/7 TOTAL ENERGIES GEDINNE",
        "straatNaam": "STATION",
        "straatNr": "59A",
        "vervoerder": "DHL",
        "puntType": "packStation",
        "bezettingsgraad": 50,
        "latitude": 49.9828,
        "longitude": 4.979029,
        "canPickup": true,
        "canDropoff": true,
        "openingstijden": {
          "ma": "00:00 - 23:59",
          "di": "00:00 - 23:59",
          "wo": "00:00 - 23:59",
          "do": "00:00 - 23:59",
          "vr": "00:00 - 23:59",
          "za": "00:00 - 23:59",
          "zo": "00:00 - 23:59"
        }
      }
    },
    {
      "type": "Feature",
      "geometry": {
        "type": "Point",
        "coordinates": [
          4.93348,
          49.97596
        ]
      },
      "properties": {
        "type": "pakketpunt",
        "locatieNaam": "",
        "straatNaam": "Rue de Charleville",
        "straatNr": "48",
        "vervoerder": "InPost",
        "puntType": "automaat",
        "bezettingsgraad": 50,
        "latitude": 49.97596,
        "longitude": 4.93348,
        "canPickup": true,
        "canDropoff": true,
        "openingstijden": "24/7"
      }
    },
    {
      "type": "Feature",
      "geometry": {
        "type": "Point",
        "coordinates": [
          4.93335,
          49.97592
        ]
      },
      "properties": {
        "type": "pakketpunt",
        "locatieNaam": "Intermarché Gedinne ",
        "straatNaam": "Rue de Charleville",
        "straatNr": "48",
        "vervoerder": "VintedGo",
        "puntType": "parcel_shop",
        "bezettingsgraad": 50,
        "latitude": 49.97592,
        "longitude": 4.93335,
        "canPickup": true,
        "canDropoff": true,
        "openingstijden": null
      }
    },
    {
      "type": "Feature",
      "geometry": {
        "type": "Point",
        "coordinates": [
          4.979029,
          49.9828
        ]
      },
      "properties": {
        "type": "pakketpunt",
        "locatieNaam": "bpost - BBOX 24/7 TOTAL ENERGIES GEDINNE",
        "straatNaam": "STATION,59A",
        "straatNr": "",
        "vervoerder": "Amazon",
        "puntType": "3p",
        "bezettingsgraad": 50,
        "latitude": 49.9828,
        "longitude": 4.979029,
        "canPickup": true,
        "canDropoff": false,
        "openingstijden": null
      }
    },
    {
      "type": "Feature",
      "geometry": {
        "type": "Point",
        "coordinates": [
          4.942026,
          49.9802
        ]
      },
      "properties": {
        "type": "pakketpunt",
        "locatieNaam": "bpost - BBOX 24/7 DELHAIZE GEDINNE",
        "straatNaam": "RUE RAYMOND GRIDLET,45",
        "straatNr": "",
        "vervoerder": "Amazon",
        "puntType": "3p",
        "bezettingsgraad": 50,
        "latitude": 49.9802,
        "longitude": 4.942026,
        "canPickup": true,
        "canDropoff": false,
        "openingstijden": null
      }
    },
    {
      "type": "Feature",
      "geometry": {
        "type": "Point",
        "coordinates": [
          4.936994,
          49.98048
        ]
      },
      "properties": {
        "type": "pakketpunt",
        "locatieNaam": "bpost - GEDINNE",
        "straatNaam": "RUE DE CHARLEVILLE,2",
        "straatNr": "",
        "vervoerder": "Amazon",
        "puntType": "3p",
        "bezettingsgraad": 50,
        "latitude": 49.98048,
        "longitude": 4.936994,
        "canPickup": true,
        "canDropoff": false,
        "openingstijden": null
      }
    },
    {
      "type": "Feature",
      "geometry": {
        "type": "MultiPolygon",
        "coordinates": [
          [
            [
              [
                4.934533030539499,
                49.97333294096166
              ],
              [
                4.934134154109039,
                49.97327061660688
              ],
              [
                4.933727727095191,
                49.97323380588029
              ],
              [
                4.933317662973098,
                49.973222863230305
              ],
              [
                4.932907910221804,
                49.97323789402288
              ],
              [
                4.932502414323693,
                49.97327875352761
              ],
              [
                4.932105079792721,
                49.973345048310456
              ],
              [
                4.931719732596151,
                49.97343614002036
              ],
              [
                4.9313500833307256,
                49.97355115153278
              ],
              [
                4.930999691507097,
                49.973688975391724
              ],
              [
                4.930671931285697,
                49.97384828446853
              ],
              [
                4.9303699589934205,
                49.97402754473575
              ],
              [
                4.930096682733518,
                49.97422503003249
              ],
              [
                4.929854734381085,
                49.974438838680285
              ],
              [
                4.929646444233777,
                49.97466691178905
              ],
              [
                4.929473818561982,
                49.97490705307746
              ],
              [
                4.929338520274958,
                49.97515695001712
              ],
              [
                4.929241852889589,
                49.9754141960973
              ],
              [
                4.9291847479568265,
                49.97567631399571
              ],
              [
                4.929167756067609,
                49.97594077943273
              ],
              [
                4.929191041525828,
                49.97620504547935
              ],
              [
                4.929254380740507,
                49.976466567084785
              ],
              [
                4.929357164353726,
                49.9767228255877
              ],
              [
                4.92949840308472,
                49.9769713529747
              ],
              [
                4.929676737234847,
                49.97720975565272
              ],
              [
                4.929890449762719,
                49.977435737505914
              ],
              [
                4.930137482804329,
                49.977647122015
              ],
              [
                4.930415457479709,
                49.9778418732256
              ],
              [
                4.930721696795801,
                49.978018115363554
              ],
              [
                4.931053251425231,
                49.97817415090779
              ],
              [
                4.931406928112849,
                49.97830847694665
              ],
              [
                4.931522852989587,
                49.97834313163663
              ],
              [
                4.9315369329742555,
                49.978348479139136
              ],
              [
                4.93190932591107,
                49.97845980143149
              ],
              [
                4.932296847659561,
                49.978547048118706
              ],
              [
                4.93269576565289,
                49.9786093788341
              ],
              [
                4.933102237501386,
                49.97864619320072
              ],
              [
                4.93351234801959,
                49.97865713661706
              ],
              [
                4.933922146956206,
                49.97864210367436
              ],
              [
                4.933936112078277,
                49.97864069649502
              ],
              [
                4.933736244057357,
                49.97878513299802
              ],
              [
                4.933494288914761,
                49.978998949279664
              ],
              [
                4.933285996266914,
                49.979227028957176
              ],
              [
                4.933113372408403,
                49.979467175686
              ],
              [
                4.932978080231154,
                49.979717076885365
              ],
              [
                4.932881423193353,
                49.97997432600343
              ],
              [
                4.932824332746437,
                49.98023644568868
              ],
              [
                4.932807359341982,
                49.98050091164424
              ],
              [
                4.93283066710599,
                49.98076517693611
              ],
              [
                4.932894032232785,
                49.98102669652078
              ],
              [
                4.932996845115002,
                49.98128295175628
              ],
              [
                4.93313811619008,
                49.98153147466071
              ],
              [
                4.933316485447938,
                49.98176987168412
              ],
              [
                4.93353023550911,
                49.981995846765166
              ],
              [
                4.933777308148122,
                49.98220722344972
              ],
              [
                4.934055324103636,
                49.982401965858756
              ],
              [
                4.934361605984986,
                49.98257819830287
              ],
              [
                4.934693204054795,
                49.982734223354335
              ],
              [
                4.935046924639455,
                49.98286853820257
              ],
              [
                4.935419360893752,
                49.982979849134736
              ],
              [
                4.935806925623039,
                49.983067084002194
              ],
              [
                4.936205885846413,
                49.983129402552116
              ],
              [
                4.936612398767361,
                49.98316620452472
              ],
              [
                4.937022548804737,
                49.983177135437884
              ],
              [
                4.937024231363134,
                49.983177073672785
              ],
              [
                4.937026549030071,
                49.98317713543676
              ],
              [
                4.9374363855506,
                49.983162089987886
              ],
              [
                4.937841960942718,
                49.983121213111474
              ],
              [
                4.9382393686602075,
                49.983054898539535
              ],
              [
                4.938624780867795,
                49.98296378502164
              ],
              [
                4.938994485327676,
                49.98284875016927
              ],
              [
                4.9393449211698846,
                49.98271090199871
              ],
              [
                4.939672713201331,
                49.982551568253754
              ],
              [
                4.939794754192793,
                49.98247911582358
              ],
              [
                4.940083187239332,
                49.98258862318886
              ],
              [
                4.940455633023967,
                49.98269991783266
              ],
              [
                4.94084320466247,
                49.98278713575005
              ],
              [
                4.941242169107349,
                49.98284943685148
              ],
              [
                4.941648683521402,
                49.98288622104522
              ],
              [
                4.942058832309087,
                49.98289713402039
              ],
              [
                4.94206051209989,
                49.98289707228283
              ],
              [
                4.94206283253442,
                49.98289713401927
              ],
              [
                4.942472665074495,
                49.98288207064607
              ],
              [
                4.942878233793748,
                49.98284117603162
              ],
              [
                4.943275632210261,
                49.98277484407884
              ],
              [
                4.943661032578387,
                49.982683713704674
              ],
              [
                4.944030722774404,
                49.982568662682965
              ],
              [
                4.944381142065789,
                49.98243079918574
              ],
              [
                4.944708915418931,
                49.98227145110438
              ],
              [
                4.9450108860142405,
                49.98209215325409
              ],
              [
                4.945284145655075,
                49.98189463258468
              ],
              [
                4.945526062777374,
                49.981680791541145
              ],
              [
                4.9457343077901355,
                49.98145268973365
              ],
              [
                4.945906875502847,
                49.98121252409471
              ],
              [
                4.946042104424156,
                49.98096260771415
              ],
              [
                4.9461386927464055,
                49.980705347556686
              ],
              [
                4.9461957108627415,
                49.98044322127627
              ],
              [
                4.946212610296999,
                49.98017875335124
              ],
              [
                4.946189228961245,
                49.97991449076991
              ],
              [
                4.946125792691312,
                49.979652978501065
              ],
              [
                4.946022913046472,
                49.97939673498533
              ],
              [
                4.945881581395457,
                49.979148227883904
              ],
              [
                4.94570315934669,
                49.97890985031745
              ],
              [
                4.945489365615754,
                49.978683897824524
              ],
              [
                4.945242259457339,
                49.97847254626058
              ],
              [
                4.944964220821794,
                49.97827783085072
              ],
              [
                4.944657927427886,
                49.97810162659723
              ],
              [
                4.944326328972802,
                49.97794563023053
              ],
              [
                4.943972618727867,
                49.97781134387686
              ],
              [
                4.943600202793395,
                49.97770006059986
              ],
              [
                4.943212667308486,
                49.977612851954845
              ],
              [
                4.942813743931061,
                49.977550557675436
              ],
              [
                4.942407273919973,
                49.97751377759159
              ],
              [
                4.941997171164295,
                49.97750286585663
              ],
              [
                4.941995491562642,
                49.97750292759327
              ],
              [
                4.941993171389602,
                49.977502865855485
              ],
              [
                4.941583384739048,
                49.97751792752351
              ],
              [
                4.941177860001462,
                49.97755881758102
              ],
              [
                4.940780501968473,
                49.97762514229978
              ],
              [
                4.9403951368336525,
                49.9777162630405
              ],
              [
                4.940025475366507,
                49.977831302399096
              ],
              [
                4.939675077195248,
                49.97796915265142
              ],
              [
                4.93934731654152,
                49.9781284864147
              ],
              [
                4.939225285961669,
                49.97820093837565
              ],
              [
                4.938936881307313,
                49.97809142885398
              ],
              [
                4.938564474898746,
                49.97798012928993
              ],
              [
                4.938176946319575,
                49.977892903696464
              ],
              [
                4.937778027161268,
                49.97783059197038
              ],
              [
                4.937371558642079,
                49.97779379410962
              ],
              [
                4.936961454636729,
                49.977782864438694
              ],
              [
                4.936959772267796,
                49.97778292620286
              ],
              [
                4.936957454862038,
                49.97778286443756
              ],
              [
                4.93654766423228,
                49.97779790818326
              ],
              [
                4.936533699432764,
                49.97779931567935
              ],
              [
                4.936733554900363,
                49.97765487431843
              ],
              [
                4.9369754887867074,
                49.97744105122587
              ],
              [
                4.9371837560916,
                49.97721296486826
              ],
              [
                4.937356351409651,
                49.97697281202933
              ],
              [
                4.937491612983459,
                49.97672290567568
              ],
              [
                4.937588238690721,
                49.97646565267547
              ],
              [
                4.937645298564368,
                49.9762035306138
              ],
              [
                4.937662243725934,
                49.97593906392841
              ],
              [
                4.937638911646979,
                49.9756747995957
              ],
              [
                4.937575527688864,
                49.975413282601394
              ],
              [
                4.937472702907005,
                49.975157031431685
              ],
              [
                4.937331428141745,
                49.97490851382152
              ],
              [
                4.937153064453674,
                49.9746701229928
              ],
              [
                4.936939329996378,
                49.97444415461184
              ],
              [
                4.93669228345379,
                49.974232784687125
              ],
              [
                4.936414304202243,
                49.97403804862062
              ],
              [
                4.936108069388743,
                49.97386182161357
              ],
              [
                4.935776528146485,
                49.97370580061548
              ],
              [
                4.935422873195984,
                49.97357148798983
              ],
              [
                4.935306957048157,
                49.97353683722403
              ],
              [
                4.935292878057245,
                49.97353149018217
              ],
              [
                4.934920515579668,
                49.97342017882507
              ],
              [
                4.934533030539499,
                49.97333294096166
              ]
            ]
          ],
          [
            [
              [
                4.978178772906649,
                49.98015909057119
              ],
              [
                4.977781444596903,
                49.98022554297192
              ],
              [
                4.977396128995948,
                49.980316787536445
              ],
              [
                4.977026536396627,
                49.98043194566842
              ],
              [
                4.976676225764388,
                49.98056990849995
              ],
              [
                4.976348570478385,
                49.98072934756419
              ],
              [
                4.976046725855665,
                49.98090872758185
              ],
              [
                4.975773598770747,
                49.981106321238826
              ],
              [
                4.975531819662925,
                49.981320225813086
              ],
              [
                4.975323717200776,
                49.98154838149062
              ],
              [
                4.975151295847984,
                49.98178859119481
              ],
              [
                4.975016216546849,
                49.982038541738234
              ],
              [
                4.9749197807059655,
                49.98229582609372
              ],
              [
                4.974862917646922,
                49.98255796657013
              ],
              [
                4.974846175631695,
                49.98282243867014
              ],
              [
                4.974869716558009,
                49.98308669540033
              ],
              [
                4.974933314374686,
                49.9833481917994
              ],
              [
                4.975036357233261,
                49.98360440944845
              ],
              [
                4.9751778533560636,
                49.98385288072734
              ],
              [
                4.975356440565245,
                49.98409121258311
              ],
              [
                4.975570399381797,
                49.98431710958186
              ],
              [
                4.975817669569181,
                49.98452839602132
              ],
              [
                4.9760958699628475,
                49.98472303689153
              ],
              [
                4.97640232139515,
                49.98489915748091
              ],
              [
                4.976734072495084,
                49.985055061439
              ],
              [
                4.977087928114543,
                49.985189247121454
              ],
              [
                4.977460480107163,
                49.98530042205953
              ],
              [
                4.977848140163058,
                49.9853875154144
              ],
              [
                4.9782471743827585,
                49.98544968829628
              ],
              [
                4.978653739256723,
                49.98548634184847
              ],
              [
                4.979063918703204,
                49.985497123018455
              ],
              [
                4.979064333567261,
                49.98549710763799
              ],
              [
                4.979064918759541,
                49.98549712301815
              ],
              [
                4.979474761862848,
                49.98548192795636
              ],
              [
                4.979880320948733,
                49.98544090302767
              ],
              [
                4.980277689628186,
                49.98537444339022
              ],
              [
                4.9806630404422,
                49.98528318919078
              ],
              [
                4.981032661744662,
                49.985168019395914
              ],
              [
                4.9813829934670055,
                49.9850300433216
              ],
              [
                4.981710661419515,
                49.98487058994351
              ],
              [
                4.982012509798283,
                49.98469119509095
              ],
              [
                4.982285631584336,
                49.984493586648014
              ],
              [
                4.9825273965418955,
                49.98427966790489
              ],
              [
                4.9827354765460425,
                49.984051499220044
              ],
              [
                4.982907867996003,
                49.98381127816989
              ],
              [
                4.983042911098482,
                49.98356131837781
              ],
              [
                4.98313930583583,
                49.9833040272264
              ],
              [
                4.983196124465888,
                49.98304188266793
              ],
              [
                4.983212820433903,
                49.982777409356565
              ],
              [
                4.983189233611561,
                49.98251315433227
              ],
              [
                4.9831255918136375,
                49.9822516624908
              ],
              [
                4.983022508578618,
                49.981995452075935
              ],
              [
                4.982880977235661,
                49.98174699042984
              ],
              [
                4.982702361315956,
                49.98150867023529
              ],
              [
                4.982488381401698,
                49.98128278647814
              ],
              [
                4.982241098540064,
                49.98107151435183
              ],
              [
                4.981962894382538,
                49.98087688831632
              ],
              [
                4.981656448241295,
                49.9807007825132
              ],
              [
                4.9813247112839,
                49.98054489272476
              ],
              [
                4.980970878114875,
                49.98041072005086
              ],
              [
                4.9805983560177465,
                49.98029955646051
              ],
              [
                4.980210732153467,
                49.98021247235649
              ],
              [
                4.979811739030632,
                49.98015030627315
              ],
              [
                4.979405218579411,
                49.980113656806076
              ],
              [
                4.978995085174394,
                49.98010287685085
              ],
              [
                4.978994670357059,
                49.98010289223107
              ],
              [
                4.978994085230723,
                49.98010287685055
              ],
              [
                4.978584288017607,
                49.98011807020309
              ],
              [
                4.978178772906649,
                49.98015909057119
              ]
            ]
          ]
        ]
      },
      "properties": {
        "type": "buffer_union_300m",
        "buffer_m": 300
      }
    },
    {
      "type": "Feature",
      "geometry": {
        "type": "MultiPolygon",
        "coordinates": [
          [
            [
              [
                4.93492734564807,
                49.972470585227
              ],
              [
                4.934395519530967,
                49.972387487600756
              ],
              [
                4.9338536267101905,
                49.97233840754278
              ],
              [
                4.933306884773577,
                49.972323817615965
              ],
              [
                4.932760557966925,
                49.97234385829778
              ],
              [
                4.932219906541687,
                49.97239833662876
              ],
              [
                4.93169013614099,
                49.97248672806891
              ],
              [
                4.931176347709696,
                49.97260818154511
              ],
              [
                4.930683488409231,
                49.97276152764012
              ],
              [
                4.930216304008372,
                49.97294528984535
              ],
              [
                4.929779293207172,
                49.973157698768944
              ],
              [
                4.929376664332818,
                49.97339670916304
              ],
              [
                4.9290122948236545,
                49.973660019606484
              ],
              [
                4.928689693891103,
                49.97394509465421
              ],
              [
                4.928411968718902,
                49.974249189240446
              ],
              [
                4.92818179452539,
                49.97456937510123
              ],
              [
                4.928001388777673,
                49.9749025689624
              ],
              [
                4.927872489806869,
                49.97524556222204
              ],
              [
                4.927796340031478,
                49.97559505184195
              ],
              [
                4.927773673951847,
                49.975947672151
              ],
              [
                4.9278047110328425,
                49.97630002725438
              ],
              [
                4.927889153545031,
                49.97664872373668
              ],
              [
                4.928026189386822,
                49.97699040334396
              ],
              [
                4.928214499862177,
                49.977321775330125
              ],
              [
                4.9284522723406345,
                49.977639648155666
              ],
              [
                4.92873721767924,
                49.9779409602333
              ],
              [
                4.929066592239946,
                49.97822280942431
              ],
              [
                4.929437224291538,
                49.97848248100072
              ],
              [
                4.929845544542609,
                49.97871747380361
              ],
              [
                4.930287620512008,
                49.97892552434535
              ],
              [
                4.930759194405932,
                49.979104628622586
              ],
              [
                4.930875120741396,
                49.97913928396428
              ],
              [
                4.930889200887839,
                49.979144631545935
              ],
              [
                4.931385731436406,
                49.97929306379275
              ],
              [
                4.9316949712514955,
                49.97936268657314
              ],
              [
                4.931640802053702,
                49.97946273811601
              ],
              [
                4.931511916877454,
                49.97980573542642
              ],
              [
                4.931435786414371,
                49.98015522742905
              ],
              [
                4.931413144979057,
                49.98050784842983
              ],
              [
                4.931444211799276,
                49.98086020252722
              ],
              [
                4.931528688859399,
                49.98120889631545
              ],
              [
                4.9316657637253005,
                49.981550571566544
              ],
              [
                4.931854117325258,
                49.98188193757626
              ],
              [
                4.9320919366135945,
                49.98219980286261
              ],
              [
                4.932376931996599,
                49.98250110591094
              ],
              [
                4.9327063593542695,
                49.982782944669424
              ],
              [
                4.933077046446881,
                49.983042604510544
              ],
              [
                4.933485423452851,
                49.983277584388375
              ],
              [
                4.933927557344309,
                49.98348562093974
              ],
              [
                4.934399189769452,
                49.983664710296104
              ],
              [
                4.934895778076656,
                49.98381312739588
              ],
              [
                4.935412539084738,
                49.98392944261053
              ],
              [
                4.93594449517698,
                49.98401253552385
              ],
              [
                4.936486522273882,
                49.98406160573134
              ],
              [
                4.937033399221262,
                49.98407618055514
              ],
              [
                4.93703508181124,
                49.98407611878989
              ],
              [
                4.937037399521713,
                49.98407618055363
              ],
              [
                4.937583858415306,
                49.984056119579805
              ],
              [
                4.938124635381004,
                49.98400161606872
              ],
              [
                4.938654521314758,
                49.98391319503525
              ],
              [
                4.939168412091182,
                49.983791708207114
              ],
              [
                4.939661357758815,
                49.98363832581513
              ],
              [
                4.939930104993436,
                49.983532610620394
              ],
              [
                4.939932140922469,
                49.98353321899483
              ],
              [
                4.940448911143612,
                49.98364951160905
              ],
              [
                4.940980872865059,
                49.98373258125733
              ],
              [
                4.941522901953035,
                49.98378162775924
              ],
              [
                4.942069777234154,
                49.98379617866527
              ],
              [
                4.942071457056488,
                49.983796116927536
              ],
              [
                4.942073777534604,
                49.983796178663745
              ],
              [
                4.942620231120648,
                49.98377609379037
              ],
              [
                4.943160999188653,
                49.983721566628155
              ],
              [
                4.943690872720326,
                49.98363312241983
              ],
              [
                4.944204747709809,
                49.98351161311632
              ],
              [
                4.944697674357789,
                49.983358209164926
              ],
              [
                4.945164904775457,
                49.983174388227866
              ],
              [
                4.945601938737547,
                49.982961920940014
              ],
              [
                4.9460045670427455,
                49.98272285384379
              ],
              [
                4.946368912063108,
                49.98245948966569
              ],
              [
                4.946691465091467,
                49.98217436512525
              ],
              [
                4.9469691201270125,
                49.98187022649042
              ],
              [
                4.947199203773893,
                49.98155000311564
              ],
              [
                4.947379500965414,
                49.98121677921768
              ],
              [
                4.947508276266944,
                49.980873764161835
              ],
              [
                4.947584290553504,
                49.98052426154486
              ],
              [
                4.947606812902808,
                49.9801716373728
              ],
              [
                4.947575627590749,
                49.97981928764056
              ],
              [
                4.947491036123646,
                49.97947060562535
              ],
              [
                4.947353854289438,
                49.979128949209226
              ],
              [
                4.947165404257943,
                49.978797608545406
              ],
              [
                4.946927501807903,
                49.97847977437934
              ],
              [
                4.946642438805413,
                49.978178507329496
              ],
              [
                4.946312961103732,
                49.97789670842355
              ],
              [
                4.945942242078454,
                49.97763709117279
              ],
              [
                4.94553385205367,
                49.97740215545361
              ],
              [
                4.945091723914078,
                49.97719416344702
              ],
              [
                4.944620115234323,
                49.97701511786694
              ],
              [
                4.944123567290105,
                49.97686674268719
              ],
              [
                4.943606861345256,
                49.97675046655124
              ],
              [
                4.943074972634929,
                49.976667409024834
              ],
              [
                4.9425330224869235,
                49.976618369823136
              ],
              [
                4.9419862290408885,
                49.9766038211156
              ],
              [
                4.941984549470756,
                49.976603882852096
              ],
              [
                4.941982229341294,
                49.97660382111409
              ],
              [
                4.94143585733718,
                49.97662390296237
              ],
              [
                4.940895167460324,
                49.97667842202961
              ],
              [
                4.940365365724045,
                49.97676685338362
              ],
              [
                4.9398515533749325,
                49.97688834556691
              ],
              [
                4.939358677804772,
                49.9770417287896
              ],
              [
                4.9390899657385345,
                49.97714744266163
              ],
              [
                4.939087930091713,
                49.97714683427223
              ],
              [
                4.93877512848397,
                49.97707642884838
              ],
              [
                4.938828845716251,
                49.97697717650473
              ],
              [
                4.938957670867161,
                49.97663417099127
              ],
              [
                4.939033740832534,
                49.97628467399857
              ],
              [
                4.93905632415359,
                49.97593205147861
              ],
              [
                4.9390252045188,
                49.97557969941045
              ],
              [
                4.938940682801796,
                49.97523101109386
              ],
              [
                4.938803574118672,
                49.974889344471734
              ],
              [
                4.938615199934707,
                49.97455798979561
              ],
              [
                4.938377375298211,
                49.974240137945955
              ],
              [
                4.93809239132597,
                49.973938849711644
              ],
              [
                4.937762993110287,
                49.973657026324396
              ],
              [
                4.937392353261465,
                49.97339738153129
              ],
              [
                4.936984041341339,
                49.973162415474015
              ],
              [
                4.93654198948271,
                49.97295439062571
              ],
              [
                4.936070454525919,
                49.97277531001663
              ],
              [
                4.935954539836715,
                49.97274065990246
              ],
              [
                4.935940461007568,
                49.97273531293974
              ],
              [
                4.935443984336193,
                49.97258690032029
              ],
              [
                4.93492734564807,
                49.972470585227
              ]
            ]
          ],
          [
            [
              [
                4.977895384717381,
                49.97927878600855
              ],
              [
                4.977365622608101,
                49.97936738760223
              ],
              [
                4.976851876298378,
                49.97948904488142
              ],
              [
                4.976359092544665,
                49.97964258646651
              ],
              [
                4.9758920163891105,
                49.97982653396655
              ],
              [
                4.975455145490446,
                49.98003911620544
              ],
              [
                4.975052686829824,
                49.980278286266305
              ],
              [
                4.974688516207759,
                49.9805417411904
              ],
              [
                4.974366140921765,
                49.980826944141164
              ],
              [
                4.97408866598397,
                49.98113114882096
              ],
              [
                4.973858764204254,
                49.9814514259053
              ],
              [
                4.973678650427561,
                49.98178469124124
              ],
              [
                4.973550060174336,
                49.982127735538164
              ],
              [
                4.973474232890931,
                49.982477255265934
              ],
              [
                4.973451899972642,
                49.98282988446303
              ],
              [
                4.97348327767627,
                49.98318222714857
              ],
              [
                4.973568064992173,
                49.98353089002626
              ],
              [
                4.9737054464979895,
                49.98387251516538
              ],
              [
                4.973894100168339,
                49.98420381234393
              ],
              [
                4.974132210066923,
                49.98452159074247
              ],
              [
                4.974417483800319,
                49.98482278968282
              ],
              [
                4.97474717456672,
                49.985104508115604
              ],
              [
                4.975118107588373,
                49.98536403257196
              ],
              [
                4.975526710673942,
                49.98559886330978
              ],
              [
                4.975969048616942,
                49.985806738402204
              ],
              [
                4.976440861099128,
                49.985985655535764
              ],
              [
                4.9769376037336075,
                49.98613389130767
              ],
              [
                4.977454491851843,
                49.986250017835964
              ],
              [
                4.977986546612053,
                49.98633291652196
              ],
              [
                4.978528642983797,
                49.98638178883196
              ],
              [
                4.97907555914526,
                49.98639616399446
              ],
              [
                4.979075974017104,
                49.98639614861396
              ],
              [
                4.979076559220376,
                49.98639616399406
              ],
              [
                4.97962302689067,
                49.98637590353261
              ],
              [
                4.980163782112118,
                49.98632120261493
              ],
              [
                4.980693615990381,
                49.986232588157456
              ],
              [
                4.981207424901946,
                49.98611091375105
              ],
              [
                4.981700259684533,
                49.98595735143334
              ],
              [
                4.982167373334888,
                49.98577338039194
              ],
              [
                4.982604266753269,
                49.985560772707494
              ],
              [
                4.983006732092973,
                49.98532157627461
              ],
              [
                4.983370893296667,
                49.98505809506543
              ],
              [
                4.9836932434286245,
                49.98477286692651
              ],
              [
                4.9839706784432,
                49.9844686391234
              ],
              [
                4.984200527064556,
                49.98414834186911
              ],
              [
                4.984380576490404,
                49.98381506009166
              ],
              [
                4.984509093673066,
                49.98347200371345
              ],
              [
                4.984584841974041,
                49.98312247672889
              ],
              [
                4.984607093033075,
                49.982769845378336
              ],
              [
                4.98457563373896,
                49.98241750572542
              ],
              [
                4.984490768236605,
                49.982068850949894
              ],
              [
                4.98435331495282,
                49.981727238671155
              ],
              [
                4.9841645986711685,
                49.981395958617
              ],
              [
                4.983926437733866,
                49.98107820094887
              ],
              [
                4.983641126495535,
                49.9807770255483
              ],
              [
                4.983311413199094,
                49.98049533256014
              ],
              [
                4.982940473487942,
                49.980235834475515
              ],
              [
                4.9825318798103355,
                49.98000103002319
              ],
              [
                4.982089567011074,
                49.97979318011997
              ],
              [
                4.981617794442015,
                49.97961428611141
              ],
              [
                4.9811211049561095,
                49.979466070511776
              ],
              [
                4.980604281179334,
                49.979349960427896
              ],
              [
                4.980072299480792,
                49.9792670738267
              ],
              [
                4.979530282083158,
                49.97921820877752
              ],
              [
                4.978983447773284,
                49.97920383577304
              ],
              [
                4.978983032963734,
                49.97920385115321
              ],
              [
                4.978982447848389,
                49.979203835772644
              ],
              [
                4.9784360617607994,
                49.979224093197004
              ],
              [
                4.977895384717381,
                49.97927878600855
              ]
            ]
          ]
        ]
      },
      "properties": {
        "type": "buffer_union_400m",
        "buffer_m": 400
      }
    },
    {
      "type": "Feature",
      "geometry": {
        "type": "Polygon",
        "coordinates": [
          [
            [
              4.7911711,
              49.9580026
            ],
            [
              4.791193,
              49.959781
            ],
            [
              4.790506,
              49.960441
            ],
            [
              4.790849,
              49.962539
            ],
            [
              4.790163,
              49.967399
            ],
            [
              4.790334,
              49.969829
            ],
            [
              4.791364,
              49.970932
            ],
            [
              4.792223,
              49.97314
            ],
            [
              4.793253,
              49.974243
            ],
            [
              4.794969,
              49.975791
            ],
            [
              4.794969,
              49.978107
            ],
            [
              4.793253,
              49.981861
            ],
            [
              4.794626,
              49.982631
            ],
            [
              4.797544,
              49.982852
            ],
            [
              4.800634,
              49.982742
            ],
            [
              4.804239,
              49.982963
            ],
            [
              4.806814,
              49.98418
            ],
            [
              4.806985,
              49.98484
            ],
            [
              4.81059,
              49.988151
            ],
            [
              4.813852,
              49.989257
            ],
            [
              4.814882,
              49.991573
            ],
            [
              4.819173,
              49.995216
            ],
            [
              4.815912,
              49.998634
            ],
            [
              4.815912,
              50.001064
            ],
            [
              4.816427,
              50.00283
            ],
            [
              4.819517,
              50.008895
            ],
            [
              4.821062,
              50.011764
            ],
            [
              4.820032,
              50.012756
            ],
            [
              4.81883,
              50.014411
            ],
            [
              4.81677,
              50.015075
            ],
            [
              4.817972,
              50.016506
            ],
            [
              4.818487,
              50.018936
            ],
            [
              4.818487,
              50.020259
            ],
            [
              4.820203,
              50.021251
            ],
            [
              4.822435,
              50.022022
            ],
            [
              4.821233,
              50.023235
            ],
            [
              4.820375,
              50.024227
            ],
            [
              4.820032,
              50.025882
            ],
            [
              4.822607,
              50.027095
            ],
            [
              4.823465,
              50.028198
            ],
            [
              4.826212,
              50.028751
            ],
            [
              4.827757,
              50.030403
            ],
            [
              4.828958,
              50.032829
            ],
            [
              4.829988,
              50.034263
            ],
            [
              4.834966,
              50.034595
            ],
            [
              4.838743,
              50.036468
            ],
            [
              4.840631,
              50.037792
            ],
            [
              4.841489,
              50.039665
            ],
            [
              4.840974,
              50.040767
            ],
            [
              4.841446,
              50.0426212
            ],
            [
              4.84315,
              50.0422044
            ],
            [
              4.8459474,
              50.0443581
            ],
            [
              4.8474692,
              50.0442708
            ],
            [
              4.8485189,
              50.0439424
            ],
            [
              4.8491732,
              50.0431028
            ],
            [
              4.8501493,
              50.0403133
            ],
            [
              4.8515517,
              50.0402142
            ],
            [
              4.853551,
              50.0395721
            ],
            [
              4.8541342,
              50.0390815
            ],
            [
              4.8557687,
              50.0381551
            ],
            [
              4.8566951,
              50.0368979
            ],
            [
              4.8569392,
              50.035742
            ],
            [
              4.8578805,
              50.0352865
            ],
            [
              4.8608462,
              50.0356087
            ],
            [
              4.8623962,
              50.0367908
            ],
            [
              4.8620999,
              50.0383691
            ],
            [
              4.8628931,
              50.0386835
            ],
            [
              4.8702344,
              50.0378708
            ],
            [
              4.8712083,
              50.0379863
            ],
            [
              4.8730654,
              50.0393361
            ],
            [
              4.8732072,
              50.0398521
            ],
            [
              4.8735115,
              50.0400152
            ],
            [
              4.8746163,
              50.040455
            ],
            [
              4.8767294,
              50.0408321
            ],
            [
              4.8778809,
              50.0406467
            ],
            [
              4.8789105,
              50.0402158
            ],
            [
              4.8794898,
              50.0390826
            ],
            [
              4.8804442,
              50.0384287
            ],
            [
              4.8816075,
              50.0383505
            ],
            [
              4.8825675,
              50.0375516
            ],
            [
              4.8841624,
              50.0370087
            ],
            [
              4.8854007,
              50.0371763
            ],
            [
              4.8858447,
              50.036655
            ],
            [
              4.886877,
              50.0375313
            ],
            [
              4.8890476,
              50.0383502
            ],
            [
              4.8901552,
              50.0379784
            ],
            [
              4.8906602,
              50.0375679
            ],
            [
              4.8910188,
              50.037126
            ],
            [
              4.8939612,
              50.037734
            ],
            [
              4.8977743,
              50.0417764
            ],
            [
              4.9005284,
              50.0444714
            ],
            [
              4.9007093,
              50.0464198
            ],
            [
              4.9020588,
              50.0471912
            ],
            [
              4.9045426,
              50.0476391
            ],
            [
              4.9059742,
              50.0475844
            ],
            [
              4.9115592,
              50.0496266
            ],
            [
              4.9189289,
              50.051645
            ],
            [
              4.9192484,
              50.0516313
            ],
            [
              4.9208812,
              50.0512441
            ],
            [
              4.9231958,
              50.0497265
            ],
            [
              4.9259498,
              50.0463578
            ],
            [
              4.9272316,
              50.0445709
            ],
            [
              4.9271643,
              50.0445318
            ],
            [
              4.9297312,
              50.0432795
            ],
            [
              4.9310595,
              50.0428932
            ],
            [
              4.9335457,
              50.0423833
            ],
            [
              4.9353179,
              50.045496
            ],
            [
              4.9460751,
              50.0458189
            ],
            [
              4.9618073,
              50.047956
            ],
            [
              4.9655518,
              50.0477529
            ],
            [
              4.9651229,
              50.0470466
            ],
            [
              4.9649888,
              50.0466676
            ],
            [
              4.9649727,
              50.0462405
            ],
            [
              4.9645057,
              50.0448757
            ],
            [
              4.9628109,
              50.0424502
            ],
            [
              4.962318,
              50.0394557
            ],
            [
              4.9544748,
              50.0377601
            ],
            [
              4.9515831,
              50.0357128
            ],
            [
              4.9492002,
              50.0332071
            ],
            [
              4.946287,
              50.0318052
            ],
            [
              4.9443095,
              50.0298947
            ],
            [
              4.9403553,
              50.0289754
            ],
            [
              4.939073,
              50.0272895
            ],
            [
              4.9388645,
              50.0260672
            ],
            [
              4.9389338,
              50.0253807
            ],
            [
              4.9377454,
              50.0243376
            ],
            [
              4.9354383,
              50.0235574
            ],
            [
              4.9344009,
              50.0235782
            ],
            [
              4.9341956,
              50.0234993
            ],
            [
              4.9348258,
              50.0218704
            ],
            [
              4.9346691,
              50.0209416
            ],
            [
              4.9357121,
              50.0189937
            ],
            [
              4.9362972,
              50.0185082
            ],
            [
              4.9368689,
              50.0176968
            ],
            [
              4.9382123,
              50.0180842
            ],
            [
              4.9394408,
              50.0180258
            ],
            [
              4.9416264,
              50.0191389
            ],
            [
              4.9420716,
              50.02205
            ],
            [
              4.9471344,
              50.0246635
            ],
            [
              4.9525889,
              50.0247969
            ],
            [
              4.9554658,
              50.0261626
            ],
            [
              4.9609335,
              50.0272651
            ],
            [
              4.9628806,
              50.0284755
            ],
            [
              4.9670958,
              50.0291071
            ],
            [
              4.9683738,
              50.0295369
            ],
            [
              4.9702894,
              50.0297545
            ],
            [
              4.971004,
              50.0294311
            ],
            [
              4.9730243,
              50.0288876
            ],
            [
              4.9737521,
              50.0283149
            ],
            [
              4.9795991,
              50.0251349
            ],
            [
              4.9803193,
              50.025081
            ],
            [
              4.982692,
              50.0241377
            ],
            [
              4.9852702,
              50.0215422
            ],
            [
              4.9862162,
              50.020047
            ],
            [
              4.9878858,
              50.018628
            ],
            [
              4.9880048,
              50.0182497
            ],
            [
              4.9888364,
              50.0179424
            ],
            [
              4.9900642,
              50.0169153
            ],
            [
              4.9903184,
              50.0168345
            ],
            [
              4.990891,
              50.016012
            ],
            [
              4.9872678,
              50.0150547
            ],
            [
              4.9858697,
              50.0124136
            ],
            [
              4.9857849,
              50.0119825
            ],
            [
              4.9872678,
              50.0090449
            ],
            [
              4.9903184,
              50.0048411
            ],
            [
              4.9926487,
              50.0028199
            ],
            [
              4.993369,
              50.0018497
            ],
            [
              4.9967585,
              49.9992356
            ],
            [
              4.9973517,
              49.9986427
            ],
            [
              4.9972246,
              49.9980767
            ],
            [
              4.9959112,
              49.9977264
            ],
            [
              4.9950214,
              49.9971335
            ],
            [
              4.9947248,
              49.9965676
            ],
            [
              4.9959959,
              49.9950048
            ],
            [
              4.9969704,
              49.9930915
            ],
            [
              4.9954875,
              49.9920404
            ],
            [
              4.9940893,
              49.9904235
            ],
            [
              4.993369,
              49.9888873
            ],
            [
              4.9916319,
              49.987998
            ],
            [
              4.9918014,
              49.9869201
            ],
            [
              4.9926487,
              49.986408
            ],
            [
              4.9928606,
              49.9857073
            ],
            [
              4.9938774,
              49.9851952
            ],
            [
              4.9940045,
              49.9845215
            ],
            [
              4.994852,
              49.9836053
            ],
            [
              4.9954875,
              49.9826895
            ],
            [
              4.9958688,
              49.9810994
            ],
            [
              4.9960807,
              49.978135
            ],
            [
              4.9959959,
              49.9769762
            ],
            [
              5.0035376,
              49.9761946
            ],
            [
              5.0045544,
              49.9757904
            ],
            [
              5.0056561,
              49.9748741
            ],
            [
              5.0066729,
              49.9734188
            ],
            [
              5.0085795,
              49.972799
            ],
            [
              5.0094269,
              49.9728529
            ],
            [
              5.0084948,
              49.9716132
            ],
            [
              5.0076474,
              49.9709126
            ],
            [
              5.0068424,
              49.9705352
            ],
            [
              5.0039612,
              49.9696998
            ],
            [
              5.0030715,
              49.9695381
            ],
            [
              4.9938774,
              49.9662772
            ],
            [
              4.9936233,
              49.9653879
            ],
            [
              4.993708,
              49.9646064
            ],
            [
              4.9950214,
              49.9627203
            ],
            [
              4.994979,
              49.960726
            ],
            [
              4.997733,
              49.959136
            ],
            [
              4.9980296,
              49.9578694
            ],
            [
              4.9962925,
              49.9567644
            ],
            [
              4.9942588,
              49.9560099
            ],
            [
              4.994979,
              49.9548511
            ],
            [
              4.9958688,
              49.9541773
            ],
            [
              4.995657,
              49.953234
            ],
            [
              4.9952332,
              49.9525334
            ],
            [
              4.9951908,
              49.9515902
            ],
            [
              4.9940045,
              49.9515366
            ],
            [
              4.9907421,
              49.9505395
            ],
            [
              4.9890473,
              49.9501622
            ],
            [
              4.9881576,
              49.9491651
            ],
            [
              4.9870136,
              49.9482757
            ],
            [
              4.9845562,
              49.9471169
            ],
            [
              4.9763367,
              49.9448262
            ],
            [
              4.9762095,
              49.9435866
            ],
            [
              4.9757858,
              49.9430745
            ],
            [
              4.9767603,
              49.9405143
            ],
            [
              4.976845,
              49.9405143
            ],
            [
              4.9773111,
              49.9384661
            ],
            [
              4.974883,
              49.9358861
            ],
            [
              4.9741869,
              49.9340391
            ],
            [
              4.9738368,
              49.9334269
            ],
            [
              4.971859,
              49.9331887
            ],
            [
              4.9692856,
              49.9340607
            ],
            [
              4.967166,
              49.9345607
            ],
            [
              4.9661677,
              49.9324936
            ],
            [
              4.9648122,
              49.9314057
            ],
            [
              4.9631175,
              49.9307051
            ],
            [
              4.9610838,
              49.9305434
            ],
            [
              4.9591347,
              49.9291689
            ],
            [
              4.9580755,
              49.9286839
            ],
            [
              4.9576942,
              49.928037
            ],
            [
              4.9562537,
              49.9273094
            ],
            [
              4.9560418,
              49.9268513
            ],
            [
              4.9535844,
              49.9266627
            ],
            [
              4.9526947,
              49.9259889
            ],
            [
              4.9512542,
              49.9253152
            ],
            [
              4.9495593,
              49.9249109
            ],
            [
              4.9492628,
              49.9241833
            ],
            [
              4.9498136,
              49.922917
            ],
            [
              4.9485001,
              49.9218121
            ],
            [
              4.9482882,
              49.9209227
            ],
            [
              4.9475256,
              49.920249
            ],
            [
              4.9458308,
              49.9200065
            ],
            [
              4.9451953,
              49.9189824
            ],
            [
              4.9446869,
              49.9179044
            ],
            [
              4.9430624,
              49.9169026
            ],
            [
              4.9422149,
              49.9174416
            ],
            [
              4.9373425,
              49.9236939
            ],
            [
              4.9351393,
              49.9225351
            ],
            [
              4.9334021,
              49.9233436
            ],
            [
              4.9329784,
              49.9238556
            ],
            [
              4.9312837,
              49.9242868
            ],
            [
              4.9296313,
              49.92523
            ],
            [
              4.9287415,
              49.925203
            ],
            [
              4.9283178,
              49.9255534
            ],
            [
              4.9272586,
              49.9253108
            ],
            [
              4.9267078,
              49.9252839
            ],
            [
              4.9257757,
              49.9248528
            ],
            [
              4.9236997,
              49.924152
            ],
            [
              4.9217083,
              49.9242059
            ],
            [
              4.9205437,
              49.9239245
            ],
            [
              4.9209765,
              49.9285298
            ],
            [
              4.9200983,
              49.9299462
            ],
            [
              4.9149716,
              49.9309164
            ],
            [
              4.9137853,
              49.9309164
            ],
            [
              4.9125142,
              49.9303235
            ],
            [
              4.9123871,
              49.9293263
            ],
            [
              4.9109042,
              49.9287334
            ],
            [
              4.9118787,
              49.9281136
            ],
            [
              4.9115397,
              49.9276824
            ],
            [
              4.9109889,
              49.9276824
            ],
            [
              4.91065,
              49.9269009
            ],
            [
              4.9080655,
              49.9277363
            ],
            [
              4.9071333,
              49.9269818
            ],
            [
              4.9057775,
              49.9263349
            ],
            [
              4.9040827,
              49.925796
            ],
            [
              4.9024303,
              49.9254726
            ],
            [
              4.901583,
              49.9239095
            ],
            [
              4.9001424,
              49.9247989
            ],
            [
              4.8972613,
              49.9257151
            ],
            [
              4.8964987,
              49.9260654
            ],
            [
              4.8950581,
              49.9260116
            ],
            [
              4.8945073,
              49.9255804
            ],
            [
              4.8928549,
              49.9252839
            ],
            [
              4.8918804,
              49.9247719
            ],
            [
              4.891372,
              49.9238825
            ],
            [
              4.890906,
              49.9232896
            ],
            [
              4.8896773,
              49.9233975
            ],
            [
              4.8887028,
              49.9229393
            ],
            [
              4.8875588,
              49.9229932
            ],
            [
              4.8870927,
              49.9234783
            ],
            [
              4.8858217,
              49.9239634
            ],
            [
              4.8822626,
              49.9239903
            ],
            [
              4.8821356,
              49.9235861
            ],
            [
              4.8786613,
              49.9245293
            ],
            [
              4.8769242,
              49.9254456
            ],
            [
              4.8756991,
              49.9247361
            ],
            [
              4.8734709,
              49.9258191
            ],
            [
              4.8722254,
              49.926565
            ],
            [
              4.871638,
              49.9270053
            ],
            [
              4.8709532,
              49.9273676
            ],
            [
              4.8687353,
              49.9278688
            ],
            [
              4.8692226,
              49.9281273
            ],
            [
              4.8676281,
              49.9289477
            ],
            [
              4.8650406,
              49.9298437
            ],
            [
              4.8641287,
              49.9302805
            ],
            [
              4.8620522,
              49.9310145
            ],
            [
              4.8607832,
              49.9316038
            ],
            [
              4.859808,
              49.9317188
            ],
            [
              4.8591433,
              49.9318958
            ],
            [
              4.8587607,
              49.9322954
            ],
            [
              4.8585483,
              49.9324122
            ],
            [
              4.8579781,
              49.9330717
            ],
            [
              4.8578895,
              49.9332836
            ],
            [
              4.8566926,
              49.9347698
            ],
            [
              4.8564711,
              49.9352559
            ],
            [
              4.8554343,
              49.9364968
            ],
            [
              4.8548356,
              49.9377775
            ],
            [
              4.8540596,
              49.9385544
            ],
            [
              4.8539388,
              49.9391238
            ],
            [
              4.8536336,
              49.9395781
            ],
            [
              4.8531992,
              49.9412961
            ],
            [
              4.8528893,
              49.9417782
            ],
            [
              4.8518425,
              49.9429888
            ],
            [
              4.8516187,
              49.9433832
            ],
            [
              4.8512676,
              49.9437789
            ],
            [
              4.8500832,
              49.9463464
            ],
            [
              4.8497195,
              49.9469698
            ],
            [
              4.8491156,
              49.9477661
            ],
            [
              4.8489664,
              49.9482408
            ],
            [
              4.8485181,
              49.948343
            ],
            [
              4.8474298,
              49.9488863
            ],
            [
              4.8471274,
              49.9489532
            ],
            [
              4.8469301,
              49.9491493
            ],
            [
              4.8469871,
              49.9493485
            ],
            [
              4.8469282,
              49.9494842
            ],
            [
              4.8463975,
              49.9497233
            ],
            [
              4.8455615,
              49.9496974
            ],
            [
              4.8442611,
              49.9498258
            ],
            [
              4.842449,
              49.9503798
            ],
            [
              4.8416908,
              49.9504889
            ],
            [
              4.8409777,
              49.9508507
            ],
            [
              4.8407546,
              49.9510871
            ],
            [
              4.8397486,
              49.9512283
            ],
            [
              4.838817,
              49.9511354
            ],
            [
              4.8375732,
              49.950582
            ],
            [
              4.8361425,
              49.9505644
            ],
            [
              4.8344902,
              49.9503945
            ],
            [
              4.833867,
              49.9501342
            ],
            [
              4.8325969,
              49.9494061
            ],
            [
              4.8298361,
              49.949495
            ],
            [
              4.828332,
              49.9501299
            ],
            [
              4.8271697,
              49.9513877
            ],
            [
              4.826552,
              49.9517073
            ],
            [
              4.8256889,
              49.9517737
            ],
            [
              4.8231239,
              49.9516462
            ],
            [
              4.8220203,
              49.9517523
            ],
            [
              4.8212438,
              49.9519792
            ],
            [
              4.8206479,
              49.9520224
            ],
            [
              4.8200101,
              49.9523403
            ],
            [
              4.8191308,
              49.9525938
            ],
            [
              4.8182705,
              49.9530587
            ],
            [
              4.8151323,
              49.954092
            ],
            [
              4.8129895,
              49.9545514
            ],
            [
              4.8116101,
              49.9545318
            ],
            [
              4.8098393,
              49.9543737
            ],
            [
              4.8080617,
              49.9544596
            ],
            [
              4.8067946,
              49.9544267
            ],
            [
              4.8047397,
              49.9552279
            ],
            [
              4.8039673,
              49.9553847
            ],
            [
              4.8033498,
              49.9556782
            ],
            [
              4.8020067,
              49.955933
            ],
            [
              4.8013152,
              49.9562962
            ],
            [
              4.8002336,
              49.9565771
            ],
            [
              4.7998932,
              49.9568073
            ],
            [
              4.7984664,
              49.9572983
            ],
            [
              4.7969964,
              49.9579238
            ],
            [
              4.7963302,
              49.958114
            ],
            [
              4.7958335,
              49.9581747
            ],
            [
              4.7931333,
              49.9580991
            ],
            [
              4.7916902,
              49.9579205
            ],
            [
              4.7911711,
              49.9580026
            ]
          ]
        ]
      },
      "properties": {
        "type": "boundary",
        "gemeente": "Gedinne"
      }
    }
  ]
}