{
  "type": "FeatureCollection",
  "metadata": {
    "gemeente": "Geer",
    "slug": "geer",
    "generated_at": "2026-09-25T22:11:37.845732Z",
    "total_points": 3,
    "providers": [
      "bpost",
      "DHL",
      "Amazon"
    ],
    "bounds": [
      5.208758,
      50.67671,
      5.20876,
      50.676713
    ]
  },
  "features": [
    {
      "type": "Feature",
      "geometry": {
        "type": "Point",
        "coordinates": [
          5.20876,
          50.67671
        ]
      },
      "properties": {
        "type": "pakketpunt",
        "locatieNaam": "Hollogne Sur Geer",
        "straatNaam": "Rue Du Centre",
        "straatNr": "42",
        "vervoerder": "bpost",
        "puntType": "postkantoor",
        "bezettingsgraad": 50,
        "latitude": 50.67671,
        "longitude": 5.20876,
        "canPickup": true,
        "canDropoff": true,
        "openingstijden": null
      }
    },
    {
      "type": "Feature",
      "geometry": {
        "type": "Point",
        "coordinates": [
          5.208758,
          50.676713
        ]
      },
      "properties": {
        "type": "pakketpunt",
        "locatieNaam": "HOLLOGNE SUR GEER",
        "straatNaam": "RUE DU CENTRE",
        "straatNr": "42",
        "vervoerder": "DHL",
        "puntType": "postOffice",
        "bezettingsgraad": 50,
        "latitude": 50.676713,
        "longitude": 5.208758,
        "canPickup": true,
        "canDropoff": true,
        "openingstijden": {
          "ma": "14:00 - 17:00",
          "di": "09:30 - 12:30",
          "wo": "14:30 - 18:00",
          "do": "09:30 - 12:30",
          "vr": "14:30 - 18:00",
          "za": "gesloten",
          "zo": "gesloten"
        }
      }
    },
    {
      "type": "Feature",
      "geometry": {
        "type": "Point",
        "coordinates": [
          5.208758,
          50.676713
        ]
      },
      "properties": {
        "type": "pakketpunt",
        "locatieNaam": "bpost - HOLLOGNE SUR GEER",
        "straatNaam": "RUE DU CENTRE,42",
        "straatNr": "",
        "vervoerder": "Amazon",
        "puntType": "3p",
        "bezettingsgraad": 50,
        "latitude": 50.676713,
        "longitude": 5.208758,
        "canPickup": true,
        "canDropoff": false,
        "openingstijden": null
      }
    },
    {
      "type": "Feature",
      "geometry": {
        "type": "Polygon",
        "coordinates": [
          [
            [
              5.212978985172346,
              50.67641488171215
            ],
            [
              5.212913134276844,
              50.67615354003112
            ],
            [
              5.212807287838706,
              50.67589755799329
            ],
            [
              5.212662465813395,
              50.67564940073979
            ],
            [
              5.212480063435439,
              50.67541145802029
            ],
            [
              5.212261837761611,
              50.67518602118376
            ],
            [
              5.212009890733291,
              50.674975261118036
            ],
            [
              5.21172664892176,
              50.67478120735041
            ],
            [
              5.211414840151933,
              50.674605728510066
            ],
            [
              5.2110774672299485,
              50.67445051434047
            ],
            [
              5.210717779027685,
              50.67431705943446
            ],
            [
              5.210339239202561,
              50.67420664884824
            ],
            [
              5.2099454928535645,
              50.6741203457329
            ],
            [
              5.209540331434101,
              50.674058981101915
            ],
            [
              5.209127656258959,
              50.67402314583312
            ],
            [
              5.20871144095598,
              50.67401318498198
            ],
            [
              5.208295693223214,
              50.67402919446076
            ],
            [
              5.207884416258821,
              50.674071020115434
            ],
            [
              5.207481570234206,
              50.67413825920921
            ],
            [
              5.207091034180408,
              50.6742302642987
            ],
            [
              5.206716568653812,
              50.67434614946488
            ],
            [
              5.206361779539905,
              50.67448479883977
            ],
            [
              5.206030083342839,
              50.67464487734617
            ],
            [
              5.205724674294515,
              50.67482484354793
            ],
            [
              5.20544849359944,
              50.67502296448679
            ],
            [
              5.205204201111303,
              50.67523733236351
            ],
            [
              5.204994149713969,
              50.675465882902756
            ],
            [
              5.204820362653709,
              50.67570641522538
            ],
            [
              5.204819856782958,
              50.67570734691296
            ],
            [
              5.204818362445753,
              50.675709415158614
            ],
            [
              5.204682513814103,
              50.67595961296762
            ],
            [
              5.20458591246804,
              50.67621706685719
            ],
            [
              5.204529489342516,
              50.67647929750277
            ],
            [
              5.2045137884828065,
              50.67674377953766
            ],
            [
              5.204538961779718,
              50.67700796587152
            ],
            [
              5.204604767480533,
              50.67726931221953
            ],
            [
              5.204710572491109,
              50.67752530160632
            ],
            [
              5.204855358447902,
              50.677773468608414
            ],
            [
              5.205037731502437,
              50.67801142310154
            ],
            [
              5.205255935724871,
              50.67823687328438
            ],
            [
              5.20550786999831,
              50.678447647756315
            ],
            [
              5.205791108241841,
              50.678641716436545
            ],
            [
              5.206102922767948,
              50.67881721012293
            ],
            [
              5.206440310549637,
              50.67897243850162
            ],
            [
              5.206800022144409,
              50.67910590643393
            ],
            [
              5.20717859299638,
              50.679216328363204
            ],
            [
              5.207572376814777,
              50.67930264070264
            ],
            [
              5.207977580706879,
              50.6793640120845
            ],
            [
              5.208390301726369,
              50.67939985137168
            ],
            [
              5.208806564484341,
              50.679409813354496
            ],
            [
              5.20922235945983,
              50.67939380207743
            ],
            [
              5.209633681639942,
              50.67935197176379
            ],
            [
              5.210036569116465,
              50.679284725329616
            ],
            [
              5.210427141266203,
              50.67919271050061
            ],
            [
              5.210801636146453,
              50.67907681357022
            ],
            [
              5.211156446744512,
              50.67893815085877
            ],
            [
              5.211488155731422,
              50.67877805795613
            ],
            [
              5.211793568384578,
              50.67859807685185
            ],
            [
              5.21206974336172,
              50.67839994107702
            ],
            [
              5.212314021029645,
              50.678185559001186
            ],
            [
              5.212524049074729,
              50.67795699544548
            ],
            [
              5.212697805148778,
              50.67771645178933
            ],
            [
              5.2126983108854965,
              50.677715520068084
            ],
            [
              5.212699804940793,
              50.677713451722596
            ],
            [
              5.212835616105179,
              50.67746324469369
            ],
            [
              5.2129321749847115,
              50.677205784058316
            ],
            [
              5.21298855227591,
              50.67694354940024
            ],
            [
              5.21300420569446,
              50.67667906624033
            ],
            [
              5.212978985172346,
              50.67641488171215
            ]
          ]
        ]
      },
      "properties": {
        "type": "buffer_union_300m",
        "buffer_m": 300
      }
    },
    {
      "type": "Feature",
      "geometry": {
        "type": "Polygon",
        "coordinates": [
          [
            [
              5.214385301832556,
              50.67631647509583
            ],
            [
              5.214297490597466,
              50.67596802055843
            ],
            [
              5.214156352809053,
              50.67562671280775
            ],
            [
              5.213963248761602,
              50.6752958386359
            ],
            [
              5.213720039075721,
              50.67497858429248
            ],
            [
              5.213429066744082,
              50.67467800480897
            ],
            [
              5.213093134538304,
              50.67439699458851
            ],
            [
              5.212715477995633,
              50.6741382595445
            ],
            [
              5.212299734246417,
              50.67390429105525
            ],
            [
              5.211849906983051,
              50.673697341985324
            ],
            [
              5.211370327907897,
              50.67351940500385
            ],
            [
              5.2108656150312225,
              50.673372193407985
            ],
            [
              5.2103406282202425,
              50.67325712463569
            ],
            [
              5.209800422426436,
              50.673175306626256
            ],
            [
              5.209250199040425,
              50.67312752715918
            ],
            [
              5.208695255841489,
              50.67311424627421
            ],
            [
              5.208140936022107,
              50.673135591844755
            ],
            [
              5.2075925767767295,
              50.67319135834749
            ],
            [
              5.207055457948109,
              50.67328100883992
            ],
            [
              5.2065347512239635,
              50.6734036801269
            ],
            [
              5.206035470371525,
              50.6735581910663
            ],
            [
              5.205562422987701,
              50.67374305393458
            ],
            [
              5.205120164228125,
              50.67395648874278
            ],
            [
              5.204712952959633,
              50.67419644036568
            ],
            [
              5.204344710757603,
              50.67446059831955
            ],
            [
              5.204018984142575,
              50.674746418998765
            ],
            [
              5.203738910419694,
              50.67505115015754
            ],
            [
              5.203507187450153,
              50.67537185740154
            ],
            [
              5.203506681557059,
              50.67537278908351
            ],
            [
              5.203505187172886,
              50.67537485731254
            ],
            [
              5.203324047343418,
              50.67570845234257
            ],
            [
              5.203195236116358,
              50.676051722696286
            ],
            [
              5.203119995100741,
              50.67640136266524
            ],
            [
              5.203099050081524,
              50.67675400512809
            ],
            [
              5.203132603984792,
              50.677106253973996
            ],
            [
              5.203220334876837,
              50.67745471680783
            ],
            [
              5.203361399018082,
              50.6777960376226
            ],
            [
              5.203554438944305,
              50.67812692912425
            ],
            [
              5.203797596498992,
              50.678444204397245
            ],
            [
              5.204088530692896,
              50.67874480760595
            ],
            [
              5.204424440220182,
              50.679025843435575
            ],
            [
              5.204802090415393,
              50.67928460498878
            ],
            [
              5.2052178443924895,
              50.679518599868665
            ],
            [
              5.205667698066499,
              50.67972557419671
            ],
            [
              5.206147318720683,
              50.679903534333334
            ],
            [
              5.206652086747579,
              50.68005076609178
            ],
            [
              5.207177140161322,
              50.68016585125951
            ],
            [
              5.2077174214517505,
              50.680247681267424
            ],
            [
              5.208267726327835,
              50.680295467875155
            ],
            [
              5.2088227538796295,
              50.680308750768845
            ],
            [
              5.209377157674022,
              50.680287401998164
            ],
            [
              5.20992559729049,
              50.68023162720969
            ],
            [
              5.210462789798737,
              50.68014196366458
            ],
            [
              5.210983560680674,
              50.6800192750599
            ],
            [
              5.211482893704622,
              50.679864743203524
            ],
            [
              5.211955979269853,
              50.679679856623046
            ],
            [
              5.212398260754537,
              50.67946639621894
            ],
            [
              5.2128054784195985,
              50.67922641810027
            ],
            [
              5.213173710444878,
              50.67896223376922
            ],
            [
              5.21349941070192,
              50.67867638784521
            ],
            [
              5.2137794428994475,
              50.67837163354435
            ],
            [
              5.214011110772948,
              50.678050906150496
            ],
            [
              5.214011616487316,
              50.67804997442361
            ],
            [
              5.214013110495627,
              50.6780479060615
            ],
            [
              5.214194183725178,
              50.67771429464162
            ],
            [
              5.214322919463764,
              50.67737101229619
            ],
            [
              5.214398079002668,
              50.67702136519444
            ],
            [
              5.214418939687476,
              50.67666872073176
            ],
            [
              5.214385301832556,
              50.67631647509583
            ]
          ]
        ]
      },
      "properties": {
        "type": "buffer_union_400m",
        "buffer_m": 400
      }
    },
    {
      "type": "Feature",
      "geometry": {
        "type": "Polygon",
        "coordinates": [
          [
            [
              5.1441683,
              50.6828266
            ],
            [
              5.1447402,
              50.6824764
            ],
            [
              5.1469435,
              50.6799027
            ],
            [
              5.1479391,
              50.6803069
            ],
            [
              5.148589,
              50.6796402
            ],
            [
              5.1491399,
              50.6799232
            ],
            [
              5.150072,
              50.6790474
            ],
            [
              5.1482077,
              50.6782389
            ],
            [
              5.1485449,
              50.6778987
            ],
            [
              5.1501425,
              50.6781314
            ],
            [
              5.1516464,
              50.6773695
            ],
            [
              5.1517947,
              50.6775312
            ],
            [
              5.1546758,
              50.675793
            ],
            [
              5.1566248,
              50.6748902
            ],
            [
              5.1570061,
              50.6752136
            ],
            [
              5.1575569,
              50.6750788
            ],
            [
              5.1574722,
              50.674176
            ],
            [
              5.1569449,
              50.6736295
            ],
            [
              5.1599746,
              50.6724623
            ],
            [
              5.1606126,
              50.671297
            ],
            [
              5.161349,
              50.6694736
            ],
            [
              5.1618573,
              50.6695409
            ],
            [
              5.1623235,
              50.6685842
            ],
            [
              5.1617303,
              50.6684899
            ],
            [
              5.1619838,
              50.6680342
            ],
            [
              5.1621518,
              50.6672273
            ],
            [
              5.1608289,
              50.666831
            ],
            [
              5.1580018,
              50.6662127
            ],
            [
              5.1498881,
              50.6647305
            ],
            [
              5.1495228,
              50.6650039
            ],
            [
              5.1476638,
              50.6642725
            ],
            [
              5.1435115,
              50.6629384
            ],
            [
              5.1447617,
              50.6618079
            ],
            [
              5.1420075,
              50.6605264
            ],
            [
              5.1399526,
              50.6593541
            ],
            [
              5.1410965,
              50.6585861
            ],
            [
              5.1408935,
              50.658356
            ],
            [
              5.1401649,
              50.6579693
            ],
            [
              5.1407835,
              50.6574633
            ],
            [
              5.1413993,
              50.6571793
            ],
            [
              5.142304,
              50.6564978
            ],
            [
              5.1445072,
              50.6552716
            ],
            [
              5.1435539,
              50.65449
            ],
            [
              5.1449859,
              50.6536551
            ],
            [
              5.1454731,
              50.6538573
            ],
            [
              5.1477683,
              50.6525215
            ],
            [
              5.1519154,
              50.6497376
            ],
            [
              5.1517997,
              50.6486742
            ],
            [
              5.1523846,
              50.6484567
            ],
            [
              5.1586862,
              50.6469414
            ],
            [
              5.1595761,
              50.6460185
            ],
            [
              5.1605695,
              50.6461157
            ],
            [
              5.1610429,
              50.6459101
            ],
            [
              5.1613004,
              50.6456803
            ],
            [
              5.1628132,
              50.6461758
            ],
            [
              5.1651385,
              50.6471453
            ],
            [
              5.1678102,
              50.6450761
            ],
            [
              5.1722256,
              50.6451756
            ],
            [
              5.17366,
              50.645525
            ],
            [
              5.1750529,
              50.6456617
            ],
            [
              5.1769569,
              50.6455859
            ],
            [
              5.1813575,
              50.6469956
            ],
            [
              5.1856251,
              50.648035
            ],
            [
              5.1888226,
              50.6489163
            ],
            [
              5.1885944,
              50.6482669
            ],
            [
              5.1896203,
              50.647973
            ],
            [
              5.1904924,
              50.6492727
            ],
            [
              5.1918849,
              50.6482657
            ],
            [
              5.1921102,
              50.6483658
            ],
            [
              5.1927396,
              50.6479638
            ],
            [
              5.193431,
              50.6474709
            ],
            [
              5.1931681,
              50.6473149
            ],
            [
              5.1947749,
              50.6462894
            ],
            [
              5.1954951,
              50.6466719
            ],
            [
              5.1958291,
              50.6461852
            ],
            [
              5.1952692,
              50.6459791
            ],
            [
              5.1954214,
              50.6457645
            ],
            [
              5.1956232,
              50.645716
            ],
            [
              5.1957733,
              50.6453743
            ],
            [
              5.1941468,
              50.6445242
            ],
            [
              5.1964476,
              50.6433492
            ],
            [
              5.1985348,
              50.6443887
            ],
            [
              5.1976709,
              50.6450327
            ],
            [
              5.1985423,
              50.6455615
            ],
            [
              5.1993933,
              50.644951
            ],
            [
              5.2027378,
              50.6472357
            ],
            [
              5.2034901,
              50.646758
            ],
            [
              5.2046412,
              50.6477183
            ],
            [
              5.2062267,
              50.6469087
            ],
            [
              5.2084455,
              50.6486704
            ],
            [
              5.2094624,
              50.6482123
            ],
            [
              5.2108575,
              50.6493683
            ],
            [
              5.211285,
              50.6491987
            ],
            [
              5.2135934,
              50.6511423
            ],
            [
              5.2134049,
              50.6512419
            ],
            [
              5.2145244,
              50.6520349
            ],
            [
              5.2125295,
              50.6529378
            ],
            [
              5.2132964,
              50.6534816
            ],
            [
              5.2124802,
              50.6539316
            ],
            [
              5.2114968,
              50.6531581
            ],
            [
              5.2094789,
              50.6539157
            ],
            [
              5.2114292,
              50.6556208
            ],
            [
              5.2111815,
              50.6557481
            ],
            [
              5.2116656,
              50.6562702
            ],
            [
              5.2089979,
              50.657417
            ],
            [
              5.211835,
              50.660097
            ],
            [
              5.2143348,
              50.6619022
            ],
            [
              5.2170041,
              50.6628724
            ],
            [
              5.2178514,
              50.663088
            ],
            [
              5.219292,
              50.6636539
            ],
            [
              5.2222154,
              50.6654595
            ],
            [
              5.2252237,
              50.6675076
            ],
            [
              5.2269113,
              50.6702002
            ],
            [
              5.2257547,
              50.6706586
            ],
            [
              5.2237408,
              50.6713076
            ],
            [
              5.2225968,
              50.6728706
            ],
            [
              5.2219189,
              50.6731129
            ],
            [
              5.2193343,
              50.6737597
            ],
            [
              5.2188673,
              50.6742506
            ],
            [
              5.2188749,
              50.6745174
            ],
            [
              5.2192073,
              50.674676
            ],
            [
              5.2178091,
              50.6758348
            ],
            [
              5.2167074,
              50.6785567
            ],
            [
              5.217682,
              50.6788801
            ],
            [
              5.218487,
              50.6794191
            ],
            [
              5.2137617,
              50.6835934
            ],
            [
              5.2125687,
              50.6850166
            ],
            [
              5.2108133,
              50.6863544
            ],
            [
              5.2081996,
              50.6878907
            ],
            [
              5.2071548,
              50.6876213
            ],
            [
              5.2058892,
              50.6888549
            ],
            [
              5.2025397,
              50.6871909
            ],
            [
              5.1999296,
              50.6862106
            ],
            [
              5.196931,
              50.6897879
            ],
            [
              5.1955532,
              50.6905959
            ],
            [
              5.1935554,
              50.6942824
            ],
            [
              5.1918295,
              50.6940379
            ],
            [
              5.191747,
              50.6941372
            ],
            [
              5.1901655,
              50.6940622
            ],
            [
              5.1881949,
              50.6933697
            ],
            [
              5.1871246,
              50.6939955
            ],
            [
              5.1854817,
              50.6910346
            ],
            [
              5.1820881,
              50.6900891
            ],
            [
              5.181676,
              50.6905099
            ],
            [
              5.1806645,
              50.6919925
            ],
            [
              5.1792636,
              50.6931509
            ],
            [
              5.1774638,
              50.6925116
            ],
            [
              5.1777969,
              50.6920654
            ],
            [
              5.1761856,
              50.6914579
            ],
            [
              5.17593,
              50.6917136
            ],
            [
              5.174447,
              50.6911166
            ],
            [
              5.1690425,
              50.690846
            ],
            [
              5.1672927,
              50.6906614
            ],
            [
              5.1667996,
              50.6920378
            ],
            [
              5.1667539,
              50.6927259
            ],
            [
              5.1658009,
              50.6927235
            ],
            [
              5.1653144,
              50.694936
            ],
            [
              5.1651044,
              50.6952038
            ],
            [
              5.1650967,
              50.6956534
            ],
            [
              5.1646759,
              50.695503
            ],
            [
              5.1644855,
              50.695658
            ],
            [
              5.1622175,
              50.695654
            ],
            [
              5.156326,
              50.6983234
            ],
            [
              5.1549519,
              50.6977907
            ],
            [
              5.1505522,
              50.6954843
            ],
            [
              5.1493495,
              50.6955396
            ],
            [
              5.1486414,
              50.6954339
            ],
            [
              5.1489312,
              50.6950593
            ],
            [
              5.147787,
              50.6946084
            ],
            [
              5.1460537,
              50.6928246
            ],
            [
              5.1489983,
              50.6911402
            ],
            [
              5.1485323,
              50.6909382
            ],
            [
              5.1504099,
              50.689747
            ],
            [
              5.1468461,
              50.6881101
            ],
            [
              5.1465151,
              50.6880266
            ],
            [
              5.1476638,
              50.6869363
            ],
            [
              5.1456053,
              50.685925
            ],
            [
              5.1464622,
              50.6850825
            ],
            [
              5.1446259,
              50.684321
            ],
            [
              5.1456363,
              50.6834039
            ],
            [
              5.1441683,
              50.6828266
            ]
          ]
        ]
      },
      "properties": {
        "type": "boundary",
        "gemeente": "Geer"
      }
    }
  ]
}