{
  "type": "FeatureCollection",
  "metadata": {
    "gemeente": "Havelange",
    "slug": "havelange",
    "generated_at": "2026-09-25T22:11:38.670396Z",
    "total_points": 12,
    "providers": [
      "bpost",
      "DHL",
      "GLS",
      "InPost",
      "PostNL",
      "DPD",
      "Amazon",
      "ViaTim"
    ],
    "bounds": [
      5.23303,
      50.3838,
      5.2487,
      50.3898
    ]
  },
  "features": [
    {
      "type": "Feature",
      "geometry": {
        "type": "Point",
        "coordinates": [
          5.2385,
          50.3898
        ]
      },
      "properties": {
        "type": "pakketpunt",
        "locatieNaam": "Havelange",
        "straatNaam": "Avenue De Criel",
        "straatNr": "35",
        "vervoerder": "bpost",
        "puntType": "postkantoor",
        "bezettingsgraad": 50,
        "latitude": 50.3898,
        "longitude": 5.2385,
        "canPickup": true,
        "canDropoff": true,
        "openingstijden": null
      }
    },
    {
      "type": "Feature",
      "geometry": {
        "type": "Point",
        "coordinates": [
          5.2487,
          50.3838
        ]
      },
      "properties": {
        "type": "pakketpunt",
        "locatieNaam": "Librairie Les Filles De Papier",
        "straatNaam": "Rue De La Station",
        "straatNr": "155",
        "vervoerder": "bpost",
        "puntType": "servicepunt",
        "bezettingsgraad": 50,
        "latitude": 50.3838,
        "longitude": 5.2487,
        "canPickup": true,
        "canDropoff": true,
        "openingstijden": null
      }
    },
    {
      "type": "Feature",
      "geometry": {
        "type": "Point",
        "coordinates": [
          5.248697,
          50.3838
        ]
      },
      "properties": {
        "type": "pakketpunt",
        "locatieNaam": "LIBRAIRIE LES FILLES DE PAPIER",
        "straatNaam": "RUE DE LA STATION",
        "straatNr": "155",
        "vervoerder": "DHL",
        "puntType": "parcelShop",
        "bezettingsgraad": 50,
        "latitude": 50.3838,
        "longitude": 5.248697,
        "canPickup": true,
        "canDropoff": true,
        "openingstijden": {
          "ma": "06:00 - 18:30",
          "di": "06:00 - 18:30",
          "wo": "06:00 - 18:30",
          "do": "06:00 - 18:30",
          "vr": "06:00 - 18:30",
          "za": "08:00 - 18:00",
          "zo": "gesloten"
        }
      }
    },
    {
      "type": "Feature",
      "geometry": {
        "type": "Point",
        "coordinates": [
          5.238495,
          50.389796
        ]
      },
      "properties": {
        "type": "pakketpunt",
        "locatieNaam": "HAVELANGE",
        "straatNaam": "AVENUE DE CRIEL",
        "straatNr": "35",
        "vervoerder": "DHL",
        "puntType": "postOffice",
        "bezettingsgraad": 50,
        "latitude": 50.389796,
        "longitude": 5.238495,
        "canPickup": true,
        "canDropoff": true,
        "openingstijden": {
          "ma": "09:30 - 12:00",
          "di": "09:30 - 12:00, 13:45 - 18:00",
          "wo": "09:30 - 12:00",
          "do": "09:30 - 12:00, 13:45 - 18:00",
          "vr": "09:30 - 12:00",
          "za": "09:30 - 13:00",
          "zo": "gesloten"
        }
      }
    },
    {
      "type": "Feature",
      "geometry": {
        "type": "Point",
        "coordinates": [
          5.2484475,
          50.3844743
        ]
      },
      "properties": {
        "type": "pakketpunt",
        "locatieNaam": "ViaTim - Hobbyval",
        "straatNaam": "Rue De La Station",
        "straatNr": "122",
        "vervoerder": "GLS",
        "puntType": "parcel_shop",
        "bezettingsgraad": 50,
        "latitude": 50.3844743,
        "longitude": 5.2484475,
        "canPickup": true,
        "canDropoff": true,
        "openingstijden": "vr: 09:00 - 12:30, 13:00 - 18:00; ma: 09:00 - 12:30, 13:00 - 18:00"
      }
    },
    {
      "type": "Feature",
      "geometry": {
        "type": "Point",
        "coordinates": [
          5.24009,
          50.38862
        ]
      },
      "properties": {
        "type": "pakketpunt",
        "locatieNaam": "AU PANIER DE VICTOR",
        "straatNaam": "16 Rue de la Station",
        "straatNr": "",
        "vervoerder": "InPost",
        "puntType": "servicepunt",
        "bezettingsgraad": 50,
        "latitude": 50.38862,
        "longitude": 5.24009,
        "canPickup": true,
        "canDropoff": true,
        "openingstijden": null
      }
    },
    {
      "type": "Feature",
      "geometry": {
        "type": "Point",
        "coordinates": [
          5.23303,
          50.38507
        ]
      },
      "properties": {
        "type": "pakketpunt",
        "locatieNaam": "",
        "straatNaam": "Rue des Triches",
        "straatNr": "2",
        "vervoerder": "InPost",
        "puntType": "automaat",
        "bezettingsgraad": 50,
        "latitude": 50.38507,
        "longitude": 5.23303,
        "canPickup": true,
        "canDropoff": true,
        "openingstijden": "24/7"
      }
    },
    {
      "type": "Feature",
      "geometry": {
        "type": "Point",
        "coordinates": [
          5.248503,
          50.384318
        ]
      },
      "properties": {
        "type": "pakketpunt",
        "locatieNaam": "DS Lingerie",
        "straatNaam": "Rue de la Station",
        "straatNr": "122",
        "vervoerder": "PostNL",
        "puntType": "servicepunt",
        "bezettingsgraad": 50,
        "latitude": 50.384318,
        "longitude": 5.248503,
        "canPickup": true,
        "canDropoff": true,
        "openingstijden": "10:00 - 18:00"
      }
    },
    {
      "type": "Feature",
      "geometry": {
        "type": "Point",
        "coordinates": [
          5.24856,
          50.38422
        ]
      },
      "properties": {
        "type": "pakketpunt",
        "locatieNaam": "DS LINGERIE",
        "straatNaam": "RUE DE LA STATION",
        "straatNr": "122",
        "vervoerder": "DPD",
        "puntType": "pickup_point",
        "bezettingsgraad": 50,
        "latitude": 50.38422,
        "longitude": 5.24856,
        "canPickup": true,
        "canDropoff": true,
        "openingstijden": {
          "ma": "09:00 - 18:30",
          "di": "09:00 - 18:30",
          "wo": "09:00 - 18:30",
          "do": "09:00 - 18:30",
          "vr": "09:00 - 18:30",
          "za": "09:00 - 18:30",
          "zo": "09:00 - 12:00"
        }
      }
    },
    {
      "type": "Feature",
      "geometry": {
        "type": "Point",
        "coordinates": [
          5.248697,
          50.3838
        ]
      },
      "properties": {
        "type": "pakketpunt",
        "locatieNaam": "bpost - LIBRAIRIE LES FILLES DE PAPIER",
        "straatNaam": "RUE DE LA STATION,155",
        "straatNr": "",
        "vervoerder": "Amazon",
        "puntType": "3p",
        "bezettingsgraad": 50,
        "latitude": 50.3838,
        "longitude": 5.248697,
        "canPickup": true,
        "canDropoff": false,
        "openingstijden": null
      }
    },
    {
      "type": "Feature",
      "geometry": {
        "type": "Point",
        "coordinates": [
          5.238495,
          50.389796
        ]
      },
      "properties": {
        "type": "pakketpunt",
        "locatieNaam": "bpost - HAVELANGE",
        "straatNaam": "AVENUE DE CRIEL,35",
        "straatNr": "",
        "vervoerder": "Amazon",
        "puntType": "3p",
        "bezettingsgraad": 50,
        "latitude": 50.389796,
        "longitude": 5.238495,
        "canPickup": true,
        "canDropoff": false,
        "openingstijden": null
      }
    },
    {
      "type": "Feature",
      "geometry": {
        "type": "Point",
        "coordinates": [
          5.2485548,
          50.3842828
        ]
      },
      "properties": {
        "type": "pakketpunt",
        "locatieNaam": "ViaTim en Hobbyval",
        "straatNaam": "Rue de la Station",
        "straatNr": "122",
        "vervoerder": "ViaTim",
        "puntType": "servicepunt",
        "bezettingsgraad": 50,
        "latitude": 50.3842828,
        "longitude": 5.2485548,
        "canPickup": true,
        "canDropoff": true,
        "openingstijden": {
          "ma": "09:00 - 18:00",
          "di": "09:00 - 18:00",
          "wo": "09:00 - 18:00",
          "do": "09:00 - 18:00",
          "vr": "09:00 - 18:00",
          "za": "09:00 - 18:00",
          "zo": "gesloten"
        }
      }
    },
    {
      "type": "Feature",
      "geometry": {
        "type": "MultiPolygon",
        "coordinates": [
          [
            [
              [
                5.244300680535265,
                50.38397975818506
              ],
              [
                5.244244824119127,
                50.38424202187352
              ],
              [
                5.244229441176825,
                50.38450652323574
              ],
              [
                5.2442546805291155,
                50.38477071499496
              ],
              [
                5.2443202997787015,
                50.385032052813955
              ],
              [
                5.244425667618854,
                50.38528801979942
              ],
              [
                5.2445697698885425,
                50.38553615074355
              ],
              [
                5.244751219316724,
                50.385774055869526
              ],
              [
                5.244968268862827,
                50.3859994438516
              ],
              [
                5.245218828525684,
                50.386210143888455
              ],
              [
                5.245500485459679,
                50.386404126616505
              ],
              [
                5.245810527204815,
                50.386579523661744
              ],
              [
                5.246145967807246,
                50.386734645641496
              ],
              [
                5.246503576578809,
                50.38686799844222
              ],
              [
                5.246879909218456,
                50.38697829761652
              ],
              [
                5.247271340995557,
                50.38706448076027
              ],
              [
                5.247674101675008,
                50.38712571775038
              ],
              [
                5.248084311847141,
                50.38716141874442
              ],
              [
                5.248498020311791,
                50.38717123986486
              ],
              [
                5.248911242155564,
                50.38715508651306
              ],
              [
                5.249319997154664,
                50.387113114280744
              ],
              [
                5.249720348132448,
                50.387045727450754
              ],
              [
                5.250108438901272,
                50.38695357510093
              ],
              [
                5.2504805314223315,
                50.386837544849
              ],
              [
                5.25083304182471,
                50.38669875429907
              ],
              [
                5.251162574936028,
                50.38653854027185
              ],
              [
                5.251465956991503,
                50.386358445923086
              ],
              [
                5.251740266205997,
                50.38616020587409
              ],
              [
                5.251982860914317,
                50.38594572949814
              ],
              [
                5.252191405008724,
                50.38571708252404
              ],
              [
                5.25236389042878,
                50.38547646713419
              ],
              [
                5.252454442900601,
                50.38530830759609
              ],
              [
                5.252471176895901,
                50.385284963542226
              ],
              [
                5.252605941845181,
                50.385034697026
              ],
              [
                5.252701690236244,
                50.38477718988472
              ],
              [
                5.252748673272856,
                50.38455640415884
              ],
              [
                5.2527511029462595,
                50.38455189201136
              ],
              [
                5.2528468495762395,
                50.384294384733316
              ],
              [
                5.252902658534405,
                50.38403211691109
              ],
              [
                5.252917993001879,
                50.38376761438459
              ],
              [
                5.2528927059739665,
                50.38350342447364
              ],
              [
                5.252827041649983,
                50.38324209144531
              ],
              [
                5.252721633055662,
                50.382986132012235
              ],
              [
                5.252577495922098,
                50.382738011097864
              ],
              [
                5.252396018881074,
                50.382500118101994
              ],
              [
                5.2521789500720955,
                50.382274743894925
              ],
              [
                5.251928380290856,
                50.382064058761586
              ],
              [
                5.251646722842034,
                50.38187009150797
              ],
              [
                5.2513366902909056,
                50.381694709930535
              ],
              [
                5.251001268337951,
                50.38153960283647
              ],
              [
                5.250643687068086,
                50.38140626378787
              ],
              [
                5.25026738985133,
                50.381295976725674
              ],
              [
                5.249876000194063,
                50.38120980361181
              ],
              [
                5.249473286859648,
                50.381148574208225
              ],
              [
                5.249063127593664,
                50.381112878090846
              ],
              [
                5.248649471802294,
                50.38110305897537
              ],
              [
                5.248648338480133,
                50.38110310328347
              ],
              [
                5.248646471972703,
                50.38110305897406
              ],
              [
                5.248233302711823,
                50.381119211397326
              ],
              [
                5.24782459835533,
                50.38116117983953
              ],
              [
                5.24742429430724,
                50.381228560188916
              ],
              [
                5.247036245125661,
                50.38132070364163
              ],
              [
                5.2466641874239,
                50.381436722946134
              ],
              [
                5.246311703904545,
                50.381575500942326
              ],
              [
                5.245982188872063,
                50.38173570131411
              ],
              [
                5.245678815555506,
                50.38191578145135
              ],
              [
                5.245404505555533,
                50.38211400729813
              ],
              [
                5.245161900709724,
                50.38232847004441
              ],
              [
                5.244953337647089,
                50.38255710450078
              ],
              [
                5.244780825276916,
                50.38279770897943
              ],
              [
                5.244646025429084,
                50.38304796649046
              ],
              [
                5.24455023683278,
                50.38330546704958
              ],
              [
                5.244522731198472,
                50.38343462023484
              ],
              [
                5.244451984303118,
                50.383565959775744
              ],
              [
                5.244356193609247,
                50.383823460156506
              ],
              [
                5.244352670602763,
                50.38384000202959
              ],
              [
                5.244300680535265,
                50.38397975818506
              ]
            ]
          ],
          [
            [
              [
                5.236907950107489,
                50.38400853451818
              ],
              [
                5.236726546731341,
                50.3837706170814
              ],
              [
                5.236509546503128,
                50.383545213628324
              ],
              [
                5.236259039558345,
                50.38333449472564
              ],
              [
                5.235977438596803,
                50.383140489504555
              ],
              [
                5.2356674556400655,
                50.382965066127134
              ],
              [
                5.235332075911269,
                50.38280991380317
              ],
              [
                5.234974529088949,
                50.38267652653029
              ],
              [
                5.234598258211603,
                50.38256618871382
              ],
              [
                5.234206886532145,
                50.38247996280441
              ],
              [
                5.233804182640947,
                50.38241867907241
              ],
              [
                5.233394024192741,
                50.382382927616824
              ],
              [
                5.232980360585875,
                50.38237305268626
              ],
              [
                5.232567174952501,
                50.38238914936563
              ],
              [
                5.23215844582474,
                50.382431062661226
              ],
              [
                5.231758108845045,
                50.38249838899225
              ],
              [
                5.231370018888501,
                50.38259048007508
              ],
              [
                5.2309979129608895,
                50.38270644916237
              ],
              [
                5.230645374228987,
                50.38284517957763
              ],
              [
                5.230315797528721,
                50.383005335462954
              ],
              [
                5.230012356682753,
                50.38318537463662
              ],
              [
                5.229737973941798,
                50.38338356343717
              ],
              [
                5.229495291843694,
                50.3835979934114
              ],
              [
                5.229286647761172,
                50.383826599685506
              ],
              [
                5.229114051383554,
                50.38406718084314
              ],
              [
                5.2289791653495685,
                50.38431742011909
              ],
              [
                5.2288832892182695,
                50.384574907704696
              ],
              [
                5.22882734693311,
                50.38483716395057
              ],
              [
                5.2288118779006485,
                50.38510166324322
              ],
              [
                5.228837031770734,
                50.3853658583259
              ],
              [
                5.22890256696936,
                50.38562720482949
              ],
              [
                5.2290078529993576,
                50.38588318577712
              ],
              [
                5.229151876487726,
                50.386131335826605
              ],
              [
                5.229333250922326,
                50.38636926501718
              ],
              [
                5.229550229985048,
                50.386594681791415
              ],
              [
                5.229800724353774,
                50.38680541507074
              ],
              [
                5.230082321811984,
                50.38699943517144
              ],
              [
                5.2303923104727446,
                50.387174873359626
              ],
              [
                5.230727704893718,
                50.38733003985636
              ],
              [
                5.231085274831758,
                50.387463440119326
              ],
              [
                5.23146157636004,
                50.38757378924405
              ],
              [
                5.2318529850477535,
                50.38766002434525
              ],
              [
                5.2322557308823185,
                50.38772131479941
              ],
              [
                5.232665934597145,
                50.387757070249116
              ],
              [
                5.233079645054311,
                50.387766946292345
              ],
              [
                5.23349287732124,
                50.387750847801385
              ],
              [
                5.233901651073702,
                50.387708929839576
              ],
              [
                5.234302028954347,
                50.38764159616701
              ],
              [
                5.2346901545162865,
                50.38754949534949
              ],
              [
                5.2350622893854455,
                50.38743351450841
              ],
              [
                5.235414849282837,
                50.38729477077197
              ],
              [
                5.235744438559162,
                50.38713460051
              ],
              [
                5.236047882908462,
                50.38695454645674
              ],
              [
                5.236322259945393,
                50.38675634284543
              ],
              [
                5.23656492735132,
                50.38654189869843
              ],
              [
                5.236773548318123,
                50.386313279434226
              ],
              [
                5.2369461140448035,
                50.38607268696833
              ],
              [
                5.237080963070535,
                50.38582243850057
              ],
              [
                5.237176797258465,
                50.385564944192836
              ],
              [
                5.237232694277005,
                50.38530268395282
              ],
              [
                5.237248116459166,
                50.38503818354752
              ],
              [
                5.2372229159555275,
                50.384773990276415
              ],
              [
                5.237157336132199,
                50.384512648439056
              ],
              [
                5.2370520092012525,
                50.38425667483296
              ],
              [
                5.236907950107489,
                50.38400853451818
              ]
            ]
          ],
          [
            [
              [
                5.243968082216788,
                50.38755829928669
              ],
              [
                5.243786629893501,
                50.3873203929957
              ],
              [
                5.24356957991804,
                50.387095002846294
              ],
              [
                5.243319022904921,
                50.386884299276986
              ],
              [
                5.2430373720360475,
                50.38669031127131
              ],
              [
                5.242727339813495,
                50.386514906825525
              ],
              [
                5.242391911934717,
                50.38635977496709
              ],
              [
                5.242034318541806,
                50.38622640949659
              ],
              [
                5.241658003121597,
                50.386116094609335
              ],
              [
                5.241266589355814,
                50.386029892535234
              ],
              [
                5.240863846239985,
                50.385968633315066
              ],
              [
                5.240453651806447,
                50.38593290681188
              ],
              [
                5.240039955799974,
                50.385923057033914
              ],
              [
                5.239626741664634,
                50.38593917882399
              ],
              [
                5.2392179882069545,
                50.38598111694653
              ],
              [
                5.2388176313036405,
                50.38604846758176
              ],
              [
                5.238429526021629,
                50.38614058221196
              ],
              [
                5.2380574095143,
                50.386256573863065
              ],
              [
                5.237704865050362,
                50.386395325641345
              ],
              [
                5.237375287521007,
                50.38655550148316
              ],
              [
                5.237071850756983,
                50.38673555901456
              ],
              [
                5.236797476969814,
                50.3869337643974
              ],
              [
                5.236554808611246,
                50.387148209018704
              ],
              [
                5.236346182921847,
                50.38737682786361
              ],
              [
                5.236244773297081,
                50.38751820734712
              ],
              [
                5.236109880712268,
                50.387571293247596
              ],
              [
                5.23578028963706,
                50.387731464536984
              ],
              [
                5.235476839306661,
                50.387911517871736
              ],
              [
                5.235202452063215,
                50.38810971945406
              ],
              [
                5.234959770488036,
                50.388324160707626
              ],
              [
                5.234751131948956,
                50.38855277665001
              ],
              [
                5.234578546082064,
                50.38879336577177
              ],
              [
                5.234443675425027,
                50.38904361123094
              ],
              [
                5.2343478193889785,
                50.389301103159305
              ],
              [
                5.234291901724007,
                50.38956336186564
              ],
              [
                5.234276461599724,
                50.3898278617127
              ],
              [
                5.234301648387717,
                50.39009205543843
              ],
              [
                5.2343672201970834,
                50.390353398686685
              ],
              [
                5.234472546178172,
                50.390609374511925
              ],
              [
                5.234616612573297,
                50.390857517621285
              ],
              [
                5.234798032457143,
                50.39109543812079
              ],
              [
                5.2350150590739,
                50.39132084453671
              ],
              [
                5.235265602643456,
                50.391531565890176
              ],
              [
                5.235266949674876,
                50.39153249376764
              ],
              [
                5.235266949674879,
                50.39153249376764
              ],
              [
                5.235270602554133,
                50.39153556602823
              ],
              [
                5.235552250430241,
                50.39172957273817
              ],
              [
                5.235862290197023,
                50.39190499621051
              ],
              [
                5.236197735919845,
                50.39206014680805
              ],
              [
                5.2365553568613565,
                50.39219353014161
              ],
              [
                5.23693170860339,
                50.39230386146975
              ],
              [
                5.237323166231388,
                50.3923900780786
              ],
              [
                5.2377259592612795,
                50.392451349522716
              ],
              [
                5.238136207971791,
                50.39248708562786
              ],
              [
                5.238549960791512,
                50.3924969421783
              ],
              [
                5.238963232379748,
                50.39248082423404
              ],
              [
                5.239372042033466,
                50.39243888704588
              ],
              [
                5.239772452049465,
                50.392371534559025
              ],
              [
                5.240160605671312,
                50.39227941552057
              ],
              [
                5.240532764254658,
                50.392163417227366
              ],
              [
                5.240885343292135,
                50.39202465697573
              ],
              [
                5.241214946950138,
                50.391864471294575
              ],
              [
                5.241518400784271,
                50.391684403066634
              ],
              [
                5.24179278231793,
                50.39148618666164
              ],
              [
                5.242035449189292,
                50.39127173122522
              ],
              [
                5.242244064595524,
                50.39104310228454
              ],
              [
                5.242351427333215,
                50.39089340255009
              ],
              [
                5.2424753585113395,
                50.390844624685855
              ],
              [
                5.242804948610022,
                50.39068443446632
              ],
              [
                5.2431083888689916,
                50.39050436205473
              ],
              [
                5.243382756942414,
                50.39030614186114
              ],
              [
                5.24362541059812,
                50.390091683067624
              ],
              [
                5.243834013160565,
                50.38986305123369
              ],
              [
                5.244006556006155,
                50.38962244839594
              ],
              [
                5.244141377894585,
                50.38937219185399
              ],
              [
                5.24423718095051,
                50.38911469184747
              ],
              [
                5.2442930431423065,
                50.388852428338986
              ],
              [
                5.244308427138517,
                50.38858792712691
              ],
              [
                5.244283185457586,
                50.388323735518505
              ],
              [
                5.244217561862267,
                50.388062397797206
              ],
              [
                5.244112188986232,
                50.38780643072089
              ],
              [
                5.243968082216788,
                50.38755829928669
              ]
            ]
          ]
        ]
      },
      "properties": {
        "type": "buffer_union_300m",
        "buffer_m": 300
      }
    },
    {
      "type": "Feature",
      "geometry": {
        "type": "Polygon",
        "coordinates": [
          [
            [
              5.2429184265803,
              50.38381487800045
            ],
            [
              5.242843941299171,
              50.384164562031735
            ],
            [
              5.242823420298349,
              50.38451723026836
            ],
            [
              5.242857062405593,
              50.38486948635082
            ],
            [
              5.2429445448227465,
              50.38521793781398
            ],
            [
              5.243085026188583,
              50.3855592287602
            ],
            [
              5.243099463584447,
              50.38558408999495
            ],
            [
              5.2426823811532035,
              50.385428538586524
            ],
            [
              5.242180634073053,
              50.385281454582625
            ],
            [
              5.241658757277765,
              50.38516652052585
            ],
            [
              5.24112177577864,
              50.3850848430588
            ],
            [
              5.240574859927271,
              50.38503720860811
            ],
            [
              5.240023275663487,
              50.38502407581746
            ],
            [
              5.239472333845996,
              50.385045571134384
            ],
            [
              5.23892733915199,
              50.38510148759364
            ],
            [
              5.238647097379021,
              50.385148631976875
            ],
            [
              5.238654154020809,
              50.385027544016936
            ],
            [
              5.238620542986532,
              50.384675286725134
            ],
            [
              5.238533093306128,
              50.38432683197932
            ],
            [
              5.23839264831006,
              50.383985535469684
            ],
            [
              5.238200561607274,
              50.383654683880195
            ],
            [
              5.237958684008974,
              50.383337463243315
            ],
            [
              5.237669345669293,
              50.3830369282663
            ],
            [
              5.237335333616183,
              50.382755972924244
            ],
            [
              5.236959864890022,
              50.38249730260268
            ],
            [
              5.236546555549384,
              50.382263408057334
            ],
            [
              5.236099385843001,
              50.38205654144141
            ],
            [
              5.23562266188342,
              50.38187869463077
            ],
            [
              5.235120974191228,
              50.38173158005491
            ],
            [
              5.234599153508588,
              50.38161661421819
            ],
            [
              5.234062224306684,
              50.38153490406919
            ],
            [
              5.233515356433722,
              50.38148723634925
            ],
            [
              5.23296381536771,
              50.3814740700224
            ],
            [
              5.232412911551531,
              50.38149553185901
            ],
            [
              5.231867949296556,
              50.381551415216286
            ],
            [
              5.231334175745072,
              50.38164118202635
            ],
            [
              5.230816730381322,
              50.38176396797366
            ],
            [
              5.230320595575673,
              50.38191859081159
            ],
            [
              5.229850548636698,
              50.38210356173852
            ],
            [
              5.229411115831533,
              50.382317099724276
            ],
            [
              5.229006528816287,
              50.3825571486493
            ],
            [
              5.228640683895256,
              50.382821397092094
            ],
            [
              5.228317104500839,
              50.383107300574835
            ],
            [
              5.228038907255364,
              50.383412106053456
            ],
            [
              5.227808771941883,
              50.38373287841712
            ],
            [
              5.227628915673671,
              50.384066528742125
            ],
            [
              5.227501071512081,
              50.38440984402876
            ],
            [
              5.227426471739831,
              50.38475951813524
            ],
            [
              5.227405835952194,
              50.38511218361109
            ],
            [
              5.227439364082377,
              50.38546444412348
            ],
            [
              5.227526734429978,
              50.385812907164784
            ],
            [
              5.2276671067132465,
              50.38615421672604
            ],
            [
              5.227859130117551,
              50.386485085621665
            ],
            [
              5.228100956264212,
              50.38680232715415
            ],
            [
              5.228390256976354,
              50.38710288581327
            ],
            [
              5.228724246672027,
              50.387383866713776
            ],
            [
              5.229099709170043,
              50.387642563487994
            ],
            [
              5.229513028651168,
              50.3878764843636
            ],
            [
              5.229960224476976,
              50.38808337617554
            ],
            [
              5.230436989531168,
              50.38826124607969
            ],
            [
              5.230938731713912,
              50.38840838075908
            ],
            [
              5.231460618189007,
              50.3885233629368
            ],
            [
              5.231997621956898,
              50.388605085036275
            ],
            [
              5.232544570303851,
              50.3886527598569
            ],
            [
              5.23309619465929,
              50.388665928161814
            ],
            [
              5.233163038935174,
              50.38866332421726
            ],
            [
              5.233093262440013,
              50.38879278355329
            ],
            [
              5.232965445069541,
              50.38913610463067
            ],
            [
              5.232890878121794,
              50.389485782018205
            ],
            [
              5.232870280876206,
              50.38983844823377
            ],
            [
              5.232903852895056,
              50.39019070693735
            ],
            [
              5.232991272055485,
              50.390539165638714
            ],
            [
              5.23313169760582,
              50.39088046837059
            ],
            [
              5.23332377821856,
              50.39121132801316
            ],
            [
              5.233565664964145,
              50.39152855795796
            ],
            [
              5.233855029082104,
              50.39182910280628
            ],
            [
              5.234189084379807,
              50.392110067805895
            ],
            [
              5.234190431406601,
              50.39211099569576
            ],
            [
              5.234190431406604,
              50.39211099569576
            ],
            [
              5.234194084260699,
              50.392114067989965
            ],
            [
              5.23456961398396,
              50.39237274690995
            ],
            [
              5.234983001608225,
              50.39260664816448
            ],
            [
              5.235430265838609,
              50.39281351877745
            ],
            [
              5.235907098899793,
              50.39299136610891
            ],
            [
              5.236408908036732,
              50.39313847705928
            ],
            [
              5.236930859768126,
              50.393253434580195
            ],
            [
              5.237467926465669,
              50.39333513133258
            ],
            [
              5.238014934809286,
              50.39338278036
            ],
            [
              5.2385666156503214,
              50.39339592267404
            ],
            [
              5.239117654800884,
              50.39337443167861
            ],
            [
              5.2396627442584975,
              50.393318514390174
            ],
            [
              5.2401966333709735,
              50.39322870944232
            ],
            [
              5.240714179446988,
              50.39310588189383
            ],
            [
              5.241210397323262,
              50.39295121489041
            ],
            [
              5.241680507409454,
              50.39276619826084
            ],
            [
              5.2421199817467,
              50.39255261415745
            ],
            [
              5.242524587635154,
              50.392312519880065
            ],
            [
              5.242890428409555,
              50.39204822804874
            ],
            [
              5.243213980969681,
              50.39176228431749
            ],
            [
              5.243457688683479,
              50.391495189270216
            ],
            [
              5.243709983957661,
              50.39137256505308
            ],
            [
              5.2441145717454125,
              50.39113246519753
            ],
            [
              5.244480394572451,
              50.39086816831477
            ],
            [
              5.2448039295114395,
              50.39058222010745
            ],
            [
              5.24508206112066,
              50.39027737477593
            ],
            [
              5.245312111432944,
              50.38995656847989
            ],
            [
              5.245491865723181,
              50.38962289104876
            ],
            [
              5.245619593807154,
              50.38927955621385
            ],
            [
              5.2456940666677205,
              50.38892987064928
            ],
            [
              5.245714568249629,
              50.38857720212032
            ],
            [
              5.245680902310988,
              50.388224947046076
            ],
            [
              5.245593394267065,
              50.38787649778899
            ],
            [
              5.2454528880105,
              50.38753520998632
            ],
            [
              5.245438448788765,
              50.387510349050835
            ],
            [
              5.2458555585410505,
              50.38766589051627
            ],
            [
              5.24635734220873,
              50.38781295859421
            ],
            [
              5.246879259472139,
              50.38792787149423
            ],
            [
              5.247416283034929,
              50.388009522307044
            ],
            [
              5.247963239992533,
              50.388057124518774
            ],
            [
              5.248514861691344,
              50.38807021959197
            ],
            [
              5.249065834513289,
              50.38804868138556
            ],
            [
              5.249610851094977,
              50.3879927173708
            ],
            [
              5.2501446614864165,
              50.38790286663139
            ],
            [
              5.2506621237547995,
              50.387779994667156
            ],
            [
              5.251158253544378,
              50.387625285051634
            ],
            [
              5.251628272113551,
              50.387440228024026
            ],
            [
              5.252067652385226,
              50.38722660612579
            ],
            [
              5.252472162565841,
              50.38698647702069
            ],
            [
              5.252837906912195,
              50.386722153664245
            ],
            [
              5.253161363253009,
              50.38643618201399
            ],
            [
              5.2534394169037,
              50.38613131649605
            ],
            [
              5.253669390648013,
              50.385810493464426
            ],
            [
              5.253759939132669,
              50.385642332916156
            ],
            [
              5.253776672603767,
              50.38561898867526
            ],
            [
              5.253956350975175,
              50.38528529794575
            ],
            [
              5.254084006173297,
              50.38494195359851
            ],
            [
              5.254129976858319,
              50.3847258958474
            ],
            [
              5.254229151959374,
              50.384459146730286
            ],
            [
              5.254303553843161,
              50.38410945541484
            ],
            [
              5.254323989388689,
              50.383756785134075
            ],
            [
              5.254290262989805,
              50.38340453232387
            ],
            [
              5.25420270064377,
              50.383056089324775
            ],
            [
              5.254062146765859,
              50.3827148117137
            ],
            [
              5.253869956013306,
              50.38238398599247
            ],
            [
              5.253627980198986,
              50.38206679794432
            ],
            [
              5.253338550422469,
              50.38176630196256
            ],
            [
              5.253004454591814,
              50.38148539164664
            ],
            [
              5.252628910553713,
              50.381226771948484
            ],
            [
              5.252215535091525,
              50.380992933136234
            ],
            [
              5.251768309090275,
              50.380786126826365
            ],
            [
              5.251291539204196,
              50.380608344314055
            ],
            [
              5.250789816395763,
              50.38046129740963
            ],
            [
              5.250267971744984,
              50.38034640196584
            ],
            [
              5.24973102995361,
              50.38026476425348
            ],
            [
              5.249184160990917,
              50.380217170316456
            ],
            [
              5.248632630345334,
              50.38020407840831
            ],
            [
              5.248631497044617,
              50.380204122716265
            ],
            [
              5.248629630572542,
              50.380204078406585
            ],
            [
              5.248078748585266,
              50.380225614566996
            ],
            [
              5.2475338193567405,
              50.38028157145179
            ],
            [
              5.24700008971141,
              50.38037141028509
            ],
            [
              5.246482698710981,
              50.380494266057916
            ],
            [
              5.2459866282026555,
              50.38064895585127
            ],
            [
              5.245516654876223,
              50.38083399021881
            ],
            [
              5.245077304290375,
              50.38104758751951
            ],
            [
              5.244672807309912,
              50.381287691062575
            ],
            [
              5.244307059372552,
              50.38155198890053
            ],
            [
              5.243983582977186,
              50.381837936079805
            ],
            [
              5.243705493754667,
              50.3821427791355
            ],
            [
              5.243475470448136,
              50.382463582594774
            ],
            [
              5.243295729092525,
              50.382797257234344
            ],
            [
              5.2431680016427755,
              50.383140589820215
            ],
            [
              5.243149847663813,
              50.38322582065492
            ],
            [
              5.243101674258759,
              50.38331524828105
            ],
            [
              5.242973944012075,
              50.383658580629145
            ],
            [
              5.242970420536212,
              50.38367512246065
            ],
            [
              5.2429184265803,
              50.38381487800045
            ]
          ]
        ]
      },
      "properties": {
        "type": "buffer_union_400m",
        "buffer_m": 400
      }
    },
    {
      "type": "Feature",
      "geometry": {
        "type": "Polygon",
        "coordinates": [
          [
            [
              5.1299737,
              50.3835126
            ],
            [
              5.134403,
              50.3852885
            ],
            [
              5.1332167,
              50.3864832
            ],
            [
              5.1356882,
              50.3872378
            ],
            [
              5.134403,
              50.3877408
            ],
            [
              5.1380609,
              50.3891243
            ],
            [
              5.1363802,
              50.3911994
            ],
            [
              5.1346997,
              50.3905076
            ],
            [
              5.1321293,
              50.3928343
            ],
            [
              5.1339087,
              50.3938404
            ],
            [
              5.1315361,
              50.3963557
            ],
            [
              5.1329201,
              50.3968588
            ],
            [
              5.1325247,
              50.3977391
            ],
            [
              5.1379621,
              50.3998771
            ],
            [
              5.136578,
              50.4018893
            ],
            [
              5.1392473,
              50.402581
            ],
            [
              5.1436014,
              50.4047232
            ],
            [
              5.1464562,
              50.406232
            ],
            [
              5.1498409,
              50.4071779
            ],
            [
              5.1512862,
              50.4078867
            ],
            [
              5.1575291,
              50.4059463
            ],
            [
              5.1586124,
              50.4056545
            ],
            [
              5.1595878,
              50.405504
            ],
            [
              5.1599437,
              50.4051989
            ],
            [
              5.1594493,
              50.40466
            ],
            [
              5.1602262,
              50.4043006
            ],
            [
              5.1615678,
              50.4033574
            ],
            [
              5.1629095,
              50.4038964
            ],
            [
              5.1634744,
              50.4032676
            ],
            [
              5.1633332,
              50.4027425
            ],
            [
              5.1635067,
              50.402425
            ],
            [
              5.1646748,
              50.4018752
            ],
            [
              5.1658047,
              50.4016057
            ],
            [
              5.1667042,
              50.4019157
            ],
            [
              5.1674245,
              50.401575
            ],
            [
              5.1684057,
              50.4017023
            ],
            [
              5.1687332,
              50.4016153
            ],
            [
              5.1712064,
              50.4002648
            ],
            [
              5.1727957,
              50.4015158
            ],
            [
              5.1765733,
              50.4036138
            ],
            [
              5.1772443,
              50.4032226
            ],
            [
              5.1783036,
              50.4040761
            ],
            [
              5.1802809,
              50.4048845
            ],
            [
              5.1816226,
              50.4052888
            ],
            [
              5.1821874,
              50.4045701
            ],
            [
              5.184094,
              50.4051092
            ],
            [
              5.1869892,
              50.4022345
            ],
            [
              5.1844471,
              50.4012014
            ],
            [
              5.1860007,
              50.3996743
            ],
            [
              5.1880485,
              50.4004378
            ],
            [
              5.1888253,
              50.4009319
            ],
            [
              5.1908047,
              50.3999592
            ],
            [
              5.1908731,
              50.400393
            ],
            [
              5.1916637,
              50.4011948
            ],
            [
              5.1923256,
              50.4015521
            ],
            [
              5.1927811,
              50.4015876
            ],
            [
              5.1960986,
              50.3990006
            ],
            [
              5.1980758,
              50.3986862
            ],
            [
              5.2005474,
              50.3985065
            ],
            [
              5.2006886,
              50.3979675
            ],
            [
              5.2013241,
              50.3981921
            ],
            [
              5.2022421,
              50.3976531
            ],
            [
              5.2045725,
              50.3987311
            ],
            [
              5.203372,
              50.3992251
            ],
            [
              5.2027365,
              50.4000337
            ],
            [
              5.2011123,
              50.4025489
            ],
            [
              5.205208,
              50.4047947
            ],
            [
              5.202454,
              50.4070854
            ],
            [
              5.2013241,
              50.4091066
            ],
            [
              5.1996294,
              50.411532
            ],
            [
              5.1995587,
              50.411532
            ],
            [
              5.2001943,
              50.4122956
            ],
            [
              5.2054198,
              50.4139126
            ],
            [
              5.2082444,
              50.4118016
            ],
            [
              5.2100805,
              50.4109482
            ],
            [
              5.2114927,
              50.4105888
            ],
            [
              5.2153766,
              50.4123855
            ],
            [
              5.2182718,
              50.4154847
            ],
            [
              5.2195586,
              50.4164109
            ],
            [
              5.2211032,
              50.4172794
            ],
            [
              5.229545,
              50.4084861
            ],
            [
              5.2332348,
              50.4068801
            ],
            [
              5.2336755,
              50.4041761
            ],
            [
              5.2346048,
              50.4038975
            ],
            [
              5.2369319,
              50.40298
            ],
            [
              5.2483311,
              50.4025007
            ],
            [
              5.253101,
              50.4007973
            ],
            [
              5.2538713,
              50.4002931
            ],
            [
              5.2545655,
              50.4006229
            ],
            [
              5.2550161,
              50.4010349
            ],
            [
              5.2558744,
              50.4013153
            ],
            [
              5.2568664,
              50.4020559
            ],
            [
              5.2580444,
              50.4024674
            ],
            [
              5.2600193,
              50.4034231
            ],
            [
              5.2616704,
              50.40199
            ],
            [
              5.2614453,
              50.4018842
            ],
            [
              5.262596,
              50.4010161
            ],
            [
              5.2638945,
              50.400418
            ],
            [
              5.2648571,
              50.4006092
            ],
            [
              5.2682018,
              50.4008451
            ],
            [
              5.2689467,
              50.400761
            ],
            [
              5.2704324,
              50.3986213
            ],
            [
              5.2733892,
              50.3989422
            ],
            [
              5.2744611,
              50.3989704
            ],
            [
              5.27502,
              50.3979506
            ],
            [
              5.2749008,
              50.3974004
            ],
            [
              5.2756904,
              50.3959025
            ],
            [
              5.2757687,
              50.3943809
            ],
            [
              5.2801712,
              50.3964883
            ],
            [
              5.2868432,
              50.3947617
            ],
            [
              5.2874117,
              50.3945071
            ],
            [
              5.2867889,
              50.3942412
            ],
            [
              5.2828507,
              50.3915372
            ],
            [
              5.2829355,
              50.3915372
            ],
            [
              5.2811274,
              50.3902508
            ],
            [
              5.2805507,
              50.3899994
            ],
            [
              5.2795583,
              50.3894043
            ],
            [
              5.2793786,
              50.3893325
            ],
            [
              5.2792633,
              50.3894009
            ],
            [
              5.2791291,
              50.3892778
            ],
            [
              5.2801815,
              50.3874948
            ],
            [
              5.2808906,
              50.3864589
            ],
            [
              5.2810532,
              50.378237
            ],
            [
              5.2824479,
              50.3774246
            ],
            [
              5.2821729,
              50.3770383
            ],
            [
              5.2834016,
              50.376149
            ],
            [
              5.2847997,
              50.3769036
            ],
            [
              5.2880458,
              50.3743389
            ],
            [
              5.2930617,
              50.3696815
            ],
            [
              5.2963114,
              50.3664994
            ],
            [
              5.2971652,
              50.3649483
            ],
            [
              5.3019279,
              50.3677069
            ],
            [
              5.3057635,
              50.369351
            ],
            [
              5.3087354,
              50.3711764
            ],
            [
              5.3088051,
              50.3711268
            ],
            [
              5.3090573,
              50.3712263
            ],
            [
              5.3190455,
              50.3730176
            ],
            [
              5.3373789,
              50.3805247
            ],
            [
              5.3453625,
              50.3862748
            ],
            [
              5.3464542,
              50.3865108
            ],
            [
              5.3505933,
              50.3734255
            ],
            [
              5.3508051,
              50.3703263
            ],
            [
              5.3504661,
              50.3694908
            ],
            [
              5.3509745,
              50.3666342
            ],
            [
              5.3527117,
              50.3627536
            ],
            [
              5.3586857,
              50.3543996
            ],
            [
              5.3603381,
              50.3515969
            ],
            [
              5.3616939,
              50.3500877
            ],
            [
              5.3631843,
              50.3501526
            ],
            [
              5.36216,
              50.3473122
            ],
            [
              5.3612703,
              50.3469618
            ],
            [
              5.3574994,
              50.3467193
            ],
            [
              5.3555504,
              50.3459378
            ],
            [
              5.3555928,
              50.344725
            ],
            [
              5.3549996,
              50.3442938
            ],
            [
              5.3532625,
              50.3435123
            ],
            [
              5.3522032,
              50.3423804
            ],
            [
              5.3516101,
              50.3412755
            ],
            [
              5.3516525,
              50.3403053
            ],
            [
              5.3528098,
              50.3388667
            ],
            [
              5.3485596,
              50.3386075
            ],
            [
              5.3478816,
              50.338877
            ],
            [
              5.3467648,
              50.3389432
            ],
            [
              5.3461283,
              50.3390629
            ],
            [
              5.3456563,
              50.3389824
            ],
            [
              5.3453488,
              50.3391071
            ],
            [
              5.3441512,
              50.3385252
            ],
            [
              5.3439929,
              50.3385154
            ],
            [
              5.3437607,
              50.3383427
            ],
            [
              5.3437059,
              50.3378515
            ],
            [
              5.3429244,
              50.3370175
            ],
            [
              5.3424844,
              50.3368006
            ],
            [
              5.342012,
              50.3361125
            ],
            [
              5.3414246,
              50.3355425
            ],
            [
              5.3407636,
              50.3354544
            ],
            [
              5.3402715,
              50.3355782
            ],
            [
              5.3397735,
              50.3359596
            ],
            [
              5.3384039,
              50.3363922
            ],
            [
              5.3381959,
              50.3363411
            ],
            [
              5.3381828,
              50.3362603
            ],
            [
              5.3384112,
              50.336172
            ],
            [
              5.3384045,
              50.3361157
            ],
            [
              5.3379248,
              50.3359395
            ],
            [
              5.3371422,
              50.3353148
            ],
            [
              5.3367273,
              50.3348075
            ],
            [
              5.3365142,
              50.3346845
            ],
            [
              5.3358699,
              50.3347821
            ],
            [
              5.3358646,
              50.3346458
            ],
            [
              5.3356458,
              50.3345988
            ],
            [
              5.3352432,
              50.3346766
            ],
            [
              5.3347896,
              50.3346121
            ],
            [
              5.3348007,
              50.334535
            ],
            [
              5.3340886,
              50.3342277
            ],
            [
              5.3335608,
              50.3343765
            ],
            [
              5.3331371,
              50.3337296
            ],
            [
              5.3329237,
              50.3332456
            ],
            [
              5.3329814,
              50.3330562
            ],
            [
              5.3328824,
              50.3329448
            ],
            [
              5.3326613,
              50.332911
            ],
            [
              5.332267,
              50.3326721
            ],
            [
              5.3322684,
              50.3325747
            ],
            [
              5.331605,
              50.3324519
            ],
            [
              5.3317518,
              50.3323414
            ],
            [
              5.3317236,
              50.3322814
            ],
            [
              5.3312005,
              50.3320875
            ],
            [
              5.33108,
              50.3321231
            ],
            [
              5.3309241,
              50.3323463
            ],
            [
              5.3305841,
              50.332608
            ],
            [
              5.3300865,
              50.3327595
            ],
            [
              5.3288578,
              50.3325169
            ],
            [
              5.3279257,
              50.3320049
            ],
            [
              5.3262733,
              50.3363168
            ],
            [
              5.3271631,
              50.3367749
            ],
            [
              5.327502,
              50.3373679
            ],
            [
              5.3272478,
              50.3381494
            ],
            [
              5.3255954,
              50.3390117
            ],
            [
              5.3236888,
              50.3392543
            ],
            [
              5.3202569,
              50.3415181
            ],
            [
              5.3174182,
              50.339928
            ],
            [
              5.3165708,
              50.340494
            ],
            [
              5.3144947,
              50.3394699
            ],
            [
              5.3136049,
              50.3392004
            ],
            [
              5.312461,
              50.3384997
            ],
            [
              5.3120373,
              50.3373948
            ],
            [
              5.3099555,
              50.3368103
            ],
            [
              5.3107238,
              50.3336492
            ],
            [
              5.312461,
              50.3304422
            ],
            [
              5.3119525,
              50.3286904
            ],
            [
              5.3112747,
              50.3275316
            ],
            [
              5.3098341,
              50.3261572
            ],
            [
              5.3103425,
              50.325726
            ],
            [
              5.3108086,
              50.3254835
            ],
            [
              5.3122915,
              50.3241899
            ],
            [
              5.3122067,
              50.3238665
            ],
            [
              5.3156651,
              50.3212991
            ],
            [
              5.3153614,
              50.3209712
            ],
            [
              5.3143604,
              50.3203948
            ],
            [
              5.3132525,
              50.3199056
            ],
            [
              5.3125262,
              50.3194392
            ],
            [
              5.3117407,
              50.3192585
            ],
            [
              5.3092833,
              50.3191507
            ],
            [
              5.3079699,
              50.3180457
            ],
            [
              5.3033093,
              50.3160515
            ],
            [
              5.3017416,
              50.3157012
            ],
            [
              5.3007671,
              50.3148388
            ],
            [
              5.3013179,
              50.3144076
            ],
            [
              5.3005129,
              50.3138416
            ],
            [
              5.2999197,
              50.3127906
            ],
            [
              5.2998774,
              50.3118743
            ],
            [
              5.2992842,
              50.3109042
            ],
            [
              5.2995807,
              50.3103113
            ],
            [
              5.3007671,
              50.309395
            ],
            [
              5.2993265,
              50.3092063
            ],
            [
              5.2965302,
              50.3092872
            ],
            [
              5.2932986,
              50.3086694
            ],
            [
              5.2929391,
              50.3090019
            ],
            [
              5.2915724,
              50.3086173
            ],
            [
              5.2875358,
              50.3078209
            ],
            [
              5.2877001,
              50.307583
            ],
            [
              5.2866765,
              50.3075219
            ],
            [
              5.2866691,
              50.3077342
            ],
            [
              5.2854737,
              50.3075976
            ],
            [
              5.2834152,
              50.3075918
            ],
            [
              5.2833531,
              50.3076722
            ],
            [
              5.283739,
              50.3077419
            ],
            [
              5.2842467,
              50.3079769
            ],
            [
              5.2849442,
              50.3087738
            ],
            [
              5.2833957,
              50.3092333
            ],
            [
              5.283311,
              50.3098531
            ],
            [
              5.2820823,
              50.3099879
            ],
            [
              5.2801756,
              50.3109581
            ],
            [
              5.2787774,
              50.3109311
            ],
            [
              5.2769556,
              50.3112815
            ],
            [
              5.2755998,
              50.3123056
            ],
            [
              5.2736931,
              50.3119282
            ],
            [
              5.2719137,
              50.3110928
            ],
            [
              5.2689055,
              50.3135991
            ],
            [
              5.2664057,
              50.3130871
            ],
            [
              5.2660244,
              50.3120361
            ],
            [
              5.2650922,
              50.3110389
            ],
            [
              5.264499,
              50.309395
            ],
            [
              5.2649682,
              50.3078591
            ],
            [
              5.2650075,
              50.3072932
            ],
            [
              5.2628467,
              50.3060805
            ],
            [
              5.258864,
              50.3043018
            ],
            [
              5.2574102,
              50.304051
            ],
            [
              5.2566185,
              50.3037898
            ],
            [
              5.2566608,
              50.303143
            ],
            [
              5.2536949,
              50.3005828
            ],
            [
              5.2490768,
              50.2999091
            ],
            [
              5.2451364,
              50.2985616
            ],
            [
              5.2416198,
              50.2978878
            ],
            [
              5.2392895,
              50.2969715
            ],
            [
              5.2368321,
              50.2953546
            ],
            [
              5.23532,
              50.2946449
            ],
            [
              5.2346306,
              50.2944033
            ],
            [
              5.2342377,
              50.2940786
            ],
            [
              5.2336628,
              50.2944095
            ],
            [
              5.2327882,
              50.2945839
            ],
            [
              5.232595,
              50.2947112
            ],
            [
              5.2325909,
              50.294897
            ],
            [
              5.2321923,
              50.2950775
            ],
            [
              5.2321578,
              50.295175
            ],
            [
              5.2323103,
              50.2952919
            ],
            [
              5.2324343,
              50.2952776
            ],
            [
              5.232475,
              50.2953776
            ],
            [
              5.232296,
              50.2954244
            ],
            [
              5.2320662,
              50.2957375
            ],
            [
              5.2322127,
              50.2959739
            ],
            [
              5.2324364,
              50.2960259
            ],
            [
              5.2325881,
              50.297865
            ],
            [
              5.2333981,
              50.2992487
            ],
            [
              5.2353896,
              50.3008413
            ],
            [
              5.2381488,
              50.3037854
            ],
            [
              5.2369128,
              50.30484
            ],
            [
              5.2338551,
              50.3081654
            ],
            [
              5.2319669,
              50.310417
            ],
            [
              5.2365878,
              50.3130534
            ],
            [
              5.2309873,
              50.3164913
            ],
            [
              5.2304981,
              50.3172312
            ],
            [
              5.2287782,
              50.3202811
            ],
            [
              5.2268299,
              50.3228553
            ],
            [
              5.2260885,
              50.3221436
            ],
            [
              5.2243494,
              50.3215593
            ],
            [
              5.2198916,
              50.3207099
            ],
            [
              5.2207203,
              50.3197896
            ],
            [
              5.2193669,
              50.3191528
            ],
            [
              5.2178938,
              50.3186849
            ],
            [
              5.2144392,
              50.3173929
            ],
            [
              5.213524,
              50.3188678
            ],
            [
              5.2108375,
              50.3202523
            ],
            [
              5.2106594,
              50.3208633
            ],
            [
              5.2200117,
              50.3268953
            ],
            [
              5.2156805,
              50.3299931
            ],
            [
              5.2143887,
              50.3310478
            ],
            [
              5.2139377,
              50.3316548
            ],
            [
              5.2139381,
              50.3319759
            ],
            [
              5.2127665,
              50.333701
            ],
            [
              5.211816,
              50.3366539
            ],
            [
              5.2096369,
              50.3383474
            ],
            [
              5.2089224,
              50.3399805
            ],
            [
              5.2141145,
              50.3426521
            ],
            [
              5.212823,
              50.3443328
            ],
            [
              5.2100349,
              50.3469986
            ],
            [
              5.2071958,
              50.3488604
            ],
            [
              5.2072796,
              50.3502543
            ],
            [
              5.2104685,
              50.3523522
            ],
            [
              5.2121988,
              50.353723
            ],
            [
              5.2065919,
              50.3546721
            ],
            [
              5.2058574,
              50.3542757
            ],
            [
              5.2021344,
              50.3527516
            ],
            [
              5.1984596,
              50.3544343
            ],
            [
              5.1956432,
              50.3560192
            ],
            [
              5.1930298,
              50.3548728
            ],
            [
              5.192135,
              50.3554957
            ],
            [
              5.1933838,
              50.3561631
            ],
            [
              5.1913925,
              50.3580524
            ],
            [
              5.1871043,
              50.3588252
            ],
            [
              5.1823396,
              50.3570222
            ],
            [
              5.1784151,
              50.3626246
            ],
            [
              5.1775396,
              50.3637552
            ],
            [
              5.1753885,
              50.364426
            ],
            [
              5.1745731,
              50.3661403
            ],
            [
              5.1729798,
              50.3655107
            ],
            [
              5.168389,
              50.3689161
            ],
            [
              5.1645451,
              50.3670622
            ],
            [
              5.16203,
              50.3685513
            ],
            [
              5.1613841,
              50.3681093
            ],
            [
              5.159174,
              50.3688805
            ],
            [
              5.1587429,
              50.368564
            ],
            [
              5.1573686,
              50.3693677
            ],
            [
              5.156468,
              50.3687713
            ],
            [
              5.1566931,
              50.3685748
            ],
            [
              5.1564432,
              50.3684415
            ],
            [
              5.1562275,
              50.3684906
            ],
            [
              5.1538803,
              50.3702202
            ],
            [
              5.1524547,
              50.3711341
            ],
            [
              5.1491868,
              50.3726628
            ],
            [
              5.1472718,
              50.3714289
            ],
            [
              5.144464,
              50.3736849
            ],
            [
              5.1431647,
              50.3730906
            ],
            [
              5.1449062,
              50.3714472
            ],
            [
              5.1438715,
              50.3708876
            ],
            [
              5.1427995,
              50.3716386
            ],
            [
              5.141169,
              50.3711161
            ],
            [
              5.1399342,
              50.3723435
            ],
            [
              5.1405003,
              50.3733451
            ],
            [
              5.139861,
              50.3738662
            ],
            [
              5.1385218,
              50.3744731
            ],
            [
              5.1374311,
              50.3740446
            ],
            [
              5.1359794,
              50.3732151
            ],
            [
              5.134603,
              50.3746724
            ],
            [
              5.1323714,
              50.3764641
            ],
            [
              5.1341871,
              50.3775731
            ],
            [
              5.1368587,
              50.3788879
            ],
            [
              5.1336286,
              50.3813575
            ],
            [
              5.1341504,
              50.3815737
            ],
            [
              5.1329337,
              50.3826137
            ],
            [
              5.1317181,
              50.3820581
            ],
            [
              5.1299737,
              50.3835126
            ]
          ]
        ]
      },
      "properties": {
        "type": "boundary",
        "gemeente": "Havelange"
      }
    }
  ]
}