{
  "type": "FeatureCollection",
  "metadata": {
    "gemeente": "Hélécine",
    "slug": "helecine",
    "generated_at": "2026-09-25T22:11:39.358277Z",
    "total_points": 7,
    "providers": [
      "bpost",
      "DHL",
      "InPost",
      "Amazon"
    ],
    "bounds": [
      4.97355,
      50.73384,
      5.00867,
      50.75321
    ]
  },
  "features": [
    {
      "type": "Feature",
      "geometry": {
        "type": "Point",
        "coordinates": [
          4.98448,
          50.75321
        ]
      },
      "properties": {
        "type": "pakketpunt",
        "locatieNaam": "Neerheylissem",
        "straatNaam": "Rue Des Charrons",
        "straatNr": "104A",
        "vervoerder": "bpost",
        "puntType": "postkantoor",
        "bezettingsgraad": 50,
        "latitude": 50.75321,
        "longitude": 4.98448,
        "canPickup": true,
        "canDropoff": true,
        "openingstijden": null
      }
    },
    {
      "type": "Feature",
      "geometry": {
        "type": "Point",
        "coordinates": [
          4.97355,
          50.74719
        ]
      },
      "properties": {
        "type": "pakketpunt",
        "locatieNaam": "Bbox 24/7 Spar Hélécine South",
        "straatNaam": "Rue Armand Dewolf",
        "straatNr": "25A",
        "vervoerder": "bpost",
        "puntType": "automaat",
        "bezettingsgraad": 50,
        "latitude": 50.74719,
        "longitude": 4.97355,
        "canPickup": true,
        "canDropoff": true,
        "openingstijden": null
      }
    },
    {
      "type": "Feature",
      "geometry": {
        "type": "Point",
        "coordinates": [
          4.97355,
          50.74719
        ]
      },
      "properties": {
        "type": "pakketpunt",
        "locatieNaam": "BBOX 24/7 SPAR HÉLÉCINE SOUTH",
        "straatNaam": "RUE ARMAND DEWOLF",
        "straatNr": "25A",
        "vervoerder": "DHL",
        "puntType": "packStation",
        "bezettingsgraad": 50,
        "latitude": 50.74719,
        "longitude": 4.97355,
        "canPickup": true,
        "canDropoff": true,
        "openingstijden": {
          "ma": "00:00 - 23:59",
          "di": "00:00 - 23:59",
          "wo": "00:00 - 23:59",
          "do": "00:00 - 23:59",
          "vr": "00:00 - 23:59",
          "za": "00:00 - 23:59",
          "zo": "00:00 - 23:59"
        }
      }
    },
    {
      "type": "Feature",
      "geometry": {
        "type": "Point",
        "coordinates": [
          4.984479,
          50.753208
        ]
      },
      "properties": {
        "type": "pakketpunt",
        "locatieNaam": "NEERHEYLISSEM",
        "straatNaam": "RUE DES CHARRONS",
        "straatNr": "104A",
        "vervoerder": "DHL",
        "puntType": "postOffice",
        "bezettingsgraad": 50,
        "latitude": 50.753208,
        "longitude": 4.984479,
        "canPickup": true,
        "canDropoff": true,
        "openingstijden": {
          "ma": "09:30 - 12:30",
          "di": "15:00 - 18:00",
          "wo": "09:30 - 12:30",
          "do": "15:00 - 18:00",
          "vr": "09:30 - 12:30",
          "za": "gesloten",
          "zo": "gesloten"
        }
      }
    },
    {
      "type": "Feature",
      "geometry": {
        "type": "Point",
        "coordinates": [
          5.00867,
          50.73384
        ]
      },
      "properties": {
        "type": "pakketpunt",
        "locatieNaam": "",
        "straatNaam": "Chaussée de Hannut",
        "straatNr": "116",
        "vervoerder": "InPost",
        "puntType": "automaat",
        "bezettingsgraad": 50,
        "latitude": 50.73384,
        "longitude": 5.00867,
        "canPickup": true,
        "canDropoff": true,
        "openingstijden": "24/7"
      }
    },
    {
      "type": "Feature",
      "geometry": {
        "type": "Point",
        "coordinates": [
          4.97355,
          50.74719
        ]
      },
      "properties": {
        "type": "pakketpunt",
        "locatieNaam": "bpost - BBOX 24/7 SPAR HÉLÉCINE SOUTH",
        "straatNaam": "RUE ARMAND DEWOLF,25A",
        "straatNr": "",
        "vervoerder": "Amazon",
        "puntType": "3p",
        "bezettingsgraad": 50,
        "latitude": 50.74719,
        "longitude": 4.97355,
        "canPickup": true,
        "canDropoff": false,
        "openingstijden": null
      }
    },
    {
      "type": "Feature",
      "geometry": {
        "type": "Point",
        "coordinates": [
          4.984479,
          50.753208
        ]
      },
      "properties": {
        "type": "pakketpunt",
        "locatieNaam": "bpost - NEERHEYLISSEM",
        "straatNaam": "RUE DES CHARRONS,104A",
        "straatNr": "",
        "vervoerder": "Amazon",
        "puntType": "3p",
        "bezettingsgraad": 50,
        "latitude": 50.753208,
        "longitude": 4.984479,
        "canPickup": true,
        "canDropoff": false,
        "openingstijden": null
      }
    },
    {
      "type": "Feature",
      "geometry": {
        "type": "MultiPolygon",
        "coordinates": [
          [
            [
              [
                5.012830517292414,
                50.7332906606115
              ],
              [
                5.012725629767367,
                50.73303450169888
              ],
              [
                5.012581686307207,
                50.732786100701915
              ],
              [
                5.012400073689062,
                50.732547849718465
              ],
              [
                5.012182541367822,
                50.73232204306689
              ],
              [
                5.011931184611545,
                50.73211085519702
              ],
              [
                5.011648424310881,
                50.731916319756344
              ],
              [
                5.011336983657342,
                50.73174031001286
              ],
              [
                5.01099986191538,
                50.731584520822715
              ],
              [
                5.0106403055408695,
                50.73145045231601
              ],
              [
                5.010261776924067,
                50.73133939545768
              ],
              [
                5.009867921057746,
                50.73125241962192
              ],
              [
                5.009462530451005,
                50.7311903622999
              ],
              [
                5.009049508626025,
                50.731153821039385
              ],
              [
                5.008632832548478,
                50.73114314769381
              ],
              [
                5.0082165143525526,
                50.73115844503597
              ],
              [
                5.0078045627282,
                50.73119956576894
              ],
              [
                5.007400944341443,
                50.731266113943676
              ],
              [
                5.007009545658336,
                50.73135744876973
              ],
              [
                5.006634135539191,
                50.731472690782255
              ],
              [
                5.006278328962506,
                50.73161073030651
              ],
              [
                5.005945552227112,
                50.731770238138054
              ],
              [
                5.005639009967075,
                50.73194967833642
              ],
              [
                5.005361654296538,
                50.73214732300905
              ],
              [
                5.005116156381372,
                50.7323612689436
              ],
              [
                5.004904880711365,
                50.73258945592873
              ],
              [
                5.004729862320788,
                50.732829686587145
              ],
              [
                5.004592787177081,
                50.73307964753034
              ],
              [
                5.004494975926971,
                50.73333693163151
              ],
              [
                5.004437371157251,
                50.7335990612023
              ],
              [
                5.004420528293678,
                50.73386351185056
              ],
              [
                5.004444610226541,
                50.73412773678938
              ],
              [
                5.004509385715646,
                50.734389191363285
              ],
              [
                5.004614231591072,
                50.73464535755575
              ],
              [
                5.00475813872953,
                50.73489376824146
              ],
              [
                5.004939721749709,
                50.735132030950254
              ],
              [
                5.00515723233416,
                50.73535785091312
              ],
              [
                5.005408576050152,
                50.73556905316872
              ],
              [
                5.005691332508168,
                50.735763603516716
              ],
              [
                5.006002778664367,
                50.735939628116235
              ],
              [
                5.006339915042833,
                50.736095431540235
              ],
              [
                5.0066994946252175,
                50.736229513111574
              ],
              [
                5.0070780541293995,
                50.73634058136331
              ],
              [
                5.00747194737562,
                50.73642756648336
              ],
              [
                5.007877380418294,
                50.73648963062378
              ],
              [
                5.008290448104449,
                50.73652617597476
              ],
              [
                5.008707171705995,
                50.73653685052569
              ],
              [
                5.009123537262422,
                50.73652155145747
              ],
              [
                5.009535534263742,
                50.736480426133326
              ],
              [
                5.009939194300119,
                50.736413870678724
              ],
              [
                5.010330629304931,
                50.73632252616393
              ],
              [
                5.0107060690220395,
                50.73620727242607
              ],
              [
                5.011061897335514,
                50.73606921959053
              ],
              [
                5.011394687111192,
                50.735909697373245
              ],
              [
                5.011701233213877,
                50.73573024226756
              ],
              [
                5.011978583381754,
                50.7355325827389
              ],
              [
                5.012224066660415,
                50.73531862257049
              ],
              [
                5.012435319122549,
                50.73509042252072
              ],
              [
                5.012610306625745,
                50.734850180468904
              ],
              [
                5.012747344389553,
                50.734600210241425
              ],
              [
                5.01284511320373,
                50.73434291932185
              ],
              [
                5.012902672112276,
                50.73408078566059
              ],
              [
                5.012919467451851,
                50.73381633380696
              ],
              [
                5.0128953381584855,
                50.73355211059423
              ],
              [
                5.012830517292414,
                50.7332906606115
              ]
            ]
          ],
          [
            [
              [
                4.9776073791388775,
                50.74638572178723
              ],
              [
                4.977463580070673,
                50.74613727842407
              ],
              [
                4.977282093605633,
                50.74589897373297
              ],
              [
                4.97706466798447,
                50.745673102549624
              ],
              [
                4.976813397448424,
                50.74546183994542
              ],
              [
                4.976530702058523,
                50.7452672202876
              ],
              [
                4.976219304381833,
                50.745091117655235
              ],
              [
                4.975882203269516,
                50.74493522779897
              ],
              [
                4.975522644979272,
                50.74480105181834
              ],
              [
                4.9751440919201855,
                50.74468988171316
              ],
              [
                4.9747501893206625,
                50.74460278794812
              ],
              [
                4.974344730139969,
                50.74454060914993
              ],
              [
                4.9739316185606395,
                50.74450394403609
              ],
              [
                4.973514832412533,
                50.74449314565257
              ],
              [
                4.9730983848895445,
                50.744508317976134
              ],
              [
                4.9726862859266525,
                50.74454931491367
              ],
              [
                4.9722825036082625,
                50.744615741708195
              ],
              [
                4.9718909259785224,
                50.744706958737986
              ],
              [
                4.971515323620381,
                50.74482208767255
              ],
              [
                4.971159313362954,
                50.744960019926005
              ],
              [
                4.970826323465874,
                50.745119427326955
              ],
              [
                4.9705195606153385,
                50.74529877490203
              ],
              [
                4.970241979049217,
                50.74549633565075
              ],
              [
                4.969996252108281,
                50.745710207169004
              ],
              [
                4.96978474648746,
                50.745938329962215
              ],
              [
                4.969609499435201,
                50.74617850727141
              ],
              [
                4.969472199120834,
                50.746428426222046
              ],
              [
                4.969374168359507,
                50.746685680091836
              ],
              [
                4.969316351852077,
                50.746947791483805
              ],
              [
                4.969299307063642,
                50.74721223618106
              ],
              [
                4.969323198829479,
                50.7474764674542
              ],
              [
                4.969387797741262,
                50.74773794058698
              ],
              [
                4.969492482330179,
                50.7479941373843
              ],
              [
                4.969636245026872,
                50.74824259042627
              ],
              [
                4.969817701841804,
                50.74848090683498
              ],
              [
                4.970035105673699,
                50.748706791324366
              ],
              [
                4.9702863631186665,
                50.748918068311724
              ],
              [
                4.970569054618763,
                50.749112702877056
              ],
              [
                4.970880457756402,
                50.749288820368434
              ],
              [
                4.971217573470561,
                50.74944472446415
              ],
              [
                4.971577154942403,
                50.74957891351749
              ],
              [
                4.971955738871986,
                50.749690095026246
              ],
              [
                4.972349678844566,
                50.749777198087514
              ],
              [
                4.972755180464653,
                50.74983938371728
              ],
              [
                4.973168337918791,
                50.749876052935576
              ],
              [
                4.973585171614177,
                50.74988685253867
              ],
              [
                4.9740016665297,
                50.749871678502934
              ],
              [
                4.974413810909115,
                50.74983067698726
              ],
              [
                4.974817634922683,
                50.74976424292461
              ],
              [
                4.975209248923935,
                50.74967301621597
              ],
              [
                4.975584880932184,
                50.74955787556382
              ],
              [
                4.975940912978878,
                50.74941993000433
              ],
              [
                4.976273915967036,
                50.749260508220246
              ],
              [
                4.976580682707378,
                50.749081145737634
              ],
              [
                4.976858258812548,
                50.748883570129934
              ],
              [
                4.977103971151641,
                50.7486696843722
              ],
              [
                4.977315453590865,
                50.748441548506285
              ],
              [
                4.977490669772629,
                50.7482013597935
              ],
              [
                4.977627932713938,
                50.74795143154666
              ],
              [
                4.977725921035871,
                50.74769417084528
              ],
              [
                4.977783691668494,
                50.74743205534886
              ],
              [
                4.977800688909649,
                50.74716760943203
              ],
              [
                4.977776749751278,
                50.74690337987106
              ],
              [
                4.977712105422973,
                50.74664191131641
              ],
              [
                4.9776073791388775,
                50.74638572178723
              ]
            ]
          ],
          [
            [
              [
                4.9883928357604645,
                50.7521549145337
              ],
              [
                4.988211270820253,
                50.75191662714917
              ],
              [
                4.987993765018556,
                50.75169077660988
              ],
              [
                4.987742413368696,
                50.75147953778832
              ],
              [
                4.987459636712725,
                50.7512849448227
              ],
              [
                4.987148158400158,
                50.75110887153501
              ],
              [
                4.9868109780585055,
                50.75095301339329
              ],
              [
                4.986451342708241,
                50.75081887119164
              ],
              [
                4.986072715500318,
                50.750707736604625
              ],
              [
                4.985678742376969,
                50.75062067975488
              ],
              [
                4.9852732169763785,
                50.75055853891367
              ],
              [
                4.984860044118568,
                50.75052191243296
              ],
              [
                4.984443202223317,
                50.75051115298674
              ],
              [
                4.984026705021203,
                50.75052636417687
              ],
              [
                4.983614562925493,
                50.75056739953599
              ],
              [
                4.983210744435878,
                50.75063386393713
              ],
              [
                4.9828191379448,
                50.750725117396485
              ],
              [
                4.9824435143131565,
                50.750840281232755
              ],
              [
                4.982087490574987,
                50.75097824652401
              ],
              [
                4.98175449511985,
                50.75113768478067
              ],
              [
                4.981447734687617,
                50.75131706073231
              ],
              [
                4.981170163493056,
                50.7515146471051
              ],
              [
                4.980924454777274,
                50.751728541248205
              ],
              [
                4.98071297505993,
                50.75195668344916
              ],
              [
                4.980537761340268,
                50.752196876762035
              ],
              [
                4.9804005014668755,
                50.7524468081581
              ],
              [
                4.9803025178656934,
                50.752704070795225
              ],
              [
                4.98024475478365,
                50.75296618719191
              ],
              [
                4.9802277691715515,
                50.75323063308303
              ],
              [
                4.980251725294965,
                50.75349486172761
              ],
              [
                4.9803163931259204,
                50.753756328434655
              ],
              [
                4.9804211505319795,
                50.754012515070876
              ],
              [
                4.980421770189423,
                50.754013585353654
              ],
              [
                4.980422150376757,
                50.75401451510516
              ],
              [
                4.9805659890987295,
                50.75426295434715
              ],
              [
                4.980747524405029,
                50.75450125345082
              ],
              [
                4.980965008438417,
                50.754727117296746
              ],
              [
                4.98121634702252,
                50.75493837050098
              ],
              [
                4.98149911981783,
                50.75513297837256
              ],
              [
                4.981810603623661,
                50.75530906651662
              ],
              [
                4.982147798601888,
                50.75546493889405
              ],
              [
                4.98250745717007,
                50.75559909416364
              ],
              [
                4.982886115285525,
                50.755710240148574
              ],
              [
                4.983280125818789,
                50.755797306288045
              ],
              [
                4.983685693694573,
                50.75585945395373
              ],
              [
                4.984098912461092,
                50.755896084531265
              ],
              [
                4.9845158019348474,
                50.75590684518915
              ],
              [
                4.98493234655736,
                50.75589163227884
              ],
              [
                4.985344534093529,
                50.75585059233373
              ],
              [
                4.985748394297886,
                50.755784120656884
              ],
              [
                4.986140037175371,
                50.75569285751165
              ],
              [
                4.986515690467199,
                50.75557768195143
              ],
              [
                4.9868717359998955,
                50.755439703348614
              ],
              [
                4.987204744546702,
                50.755280250704246
              ],
              [
                4.98751150886495,
                50.7551008598416
              ],
              [
                4.9877890745908005,
                50.75490325860743
              ],
              [
                4.988034768693524,
                50.754689350223636
              ],
              [
                4.988246225215205,
                50.754461194949904
              ],
              [
                4.9884214080481115,
                50.75422099023446
              ],
              [
                4.988558630530687,
                50.75397104954421
              ],
              [
                4.9886565716739115,
                50.75371378007842
              ],
              [
                4.988714288862457,
                50.75345165958098
              ],
              [
                4.988731226909087,
                50.753187212474614
              ],
              [
                4.988707223376007,
                50.752922985546995
              ],
              [
                4.988642510112926,
                50.75266152342313
              ],
              [
                4.988537710997973,
                50.75240534406021
              ],
              [
                4.988537091177284,
                50.75240427381999
              ],
              [
                4.98853671084277,
                50.75240334409446
              ],
              [
                4.9883928357604645,
                50.7521549145337
              ]
            ]
          ]
        ]
      },
      "properties": {
        "type": "buffer_union_300m",
        "buffer_m": 300
      }
    },
    {
      "type": "Feature",
      "geometry": {
        "type": "MultiPolygon",
        "coordinates": [
          [
            [
              [
                5.014217334832192,
                50.73310751458839
              ],
              [
                5.014077475544298,
                50.73276597098968
              ],
              [
                5.013885542860492,
                50.73243477181376
              ],
              [
                5.013643386127021,
                50.732117106441656
              ],
              [
                5.013353338203043,
                50.73181603386445
              ],
              [
                5.013018192964818,
                50.73153445323484
              ],
              [
                5.012641178377787,
                50.73127507595999
              ],
              [
                5.012225925396693,
                50.73104039960328
              ],
              [
                5.011776432993741,
                50.73083268384601
              ],
              [
                5.011297029651732,
                50.730653928740175
              ],
              [
                5.010792331692811,
                50.73050585546075
              ],
              [
                5.010267198843603,
                50.73038988974275
              ],
              [
                5.009726687463752,
                50.73030714816181
              ],
              [
                5.009176001887191,
                50.73025842739005
              ],
              [
                5.008620444343282,
                50.73024419653046
              ],
              [
                5.008065363938548,
                50.730264592603106
              ],
              [
                5.007516105188587,
                50.730319419226916
              ],
              [
                5.00697795659403,
                50.730408148508964
              ],
              [
                5.006456099754014,
                50.73052992612411
              ],
              [
                5.005955559505505,
                50.73068357953535
              ],
              [
                5.005481155567096,
                50.730867629276446
              ],
              [
                5.005037456151589,
                50.73108030318849
              ],
              [
                5.004628733992999,
                50.73131955347364
              ],
              [
                5.004258925210624,
                50.731583076402465
              ],
              [
                5.0039315914058555,
                50.73186833448539
              ],
              [
                5.0036498853566185,
                50.73217258089549
              ],
              [
                5.003416520640015,
                50.73249288590794
              ],
              [
                5.003233745476287,
                50.73282616510205
              ],
              [
                5.0031033210468525,
                50.7331692090547
              ],
              [
                5.0030265044964235,
                50.73351871423967
              ],
              [
                5.003004036784275,
                50.73387131483573
              ],
              [
                5.003036135503293,
                50.734223615137275
              ],
              [
                5.003122492737693,
                50.73457222225567
              ],
              [
                5.003262277981816,
                50.73491377879631
              ],
              [
                5.003454146093705,
                50.7352449951967
              ],
              [
                5.003696250208574,
                50.735562681413796
              ],
              [
                5.003986259489369,
                50.735863777655574
              ],
              [
                5.004321381544867,
                50.73614538385981
              ],
              [
                5.004698389300524,
                50.73640478763656
              ],
              [
                5.005113652064123,
                50.736639490404016
              ],
              [
                5.005563170487527,
                50.73684723146589
              ],
              [
                5.006042615087979,
                50.73702600979777
              ],
              [
                5.006547367957795,
                50.7371741033321
              ],
              [
                5.007072567260161,
                50.73729008555551
              ],
              [
                5.0076131540816675,
                50.737372839258065
              ],
              [
                5.008163921189207,
                50.73742156730177
              ],
              [
                5.008719563220225,
                50.73743580030424
              ],
              [
                5.009274727821406,
                50.73741540116299
              ],
              [
                5.0098240672415315,
                50.73736056637711
              ],
              [
                5.010362289879859,
                50.73727182415311
              ],
              [
                5.010884211291794,
                50.7371500293135
              ],
              [
                5.0113848041589035,
                50.73699635505724
              ],
              [
                5.011859246740494,
                50.736812281651616
              ],
              [
                5.012302969338728,
                50.73659958216494
              ],
              [
                5.012711698328692,
                50.73636030537787
              ],
              [
                5.0130814973285585,
                50.7360967560383
              ],
              [
                5.013408805112877,
                50.735811472650774
              ],
              [
                5.01369046990367,
                50.73550720301462
              ],
              [
                5.013923779709375,
                50.735186877747275
              ],
              [
                5.014106488419949,
                50.73485358204774
              ],
              [
                5.0142368374077275,
                50.7345105259735
              ],
              [
                5.014313572427179,
                50.73416101351658
              ],
              [
                5.01433595565222,
                50.73380841077766
              ],
              [
                5.014303772736755,
                50.73345611354469
              ],
              [
                5.014217334832192,
                50.73310751458839
              ]
            ]
          ],
          [
            [
              [
                4.97895980806422,
                50.74611759775567
              ],
              [
                4.978768067891953,
                50.74578634208929
              ],
              [
                4.978526079351034,
                50.74546860510529
              ],
              [
                4.978236173682167,
                50.74516744648453
              ],
              [
                4.977901143392961,
                50.74488576620857
              ],
              [
                4.977524215343137,
                50.74462627664423
              ],
              [
                4.977109019655243,
                50.74439147643633
              ],
              [
                4.976659554750785,
                50.744183626458835
              ],
              [
                4.976180148848627,
                50.744004728056225
              ],
              [
                4.975675418296243,
                50.74385650378326
              ],
              [
                4.9751502231345786,
                50.74374038082887
              ],
              [
                4.974609620323561,
                50.743657477282646
              ],
              [
                4.974058815077563,
                50.7436085913762
              ],
              [
                4.973503110778083,
                50.74359419380249
              ],
              [
                4.972947857944381,
                50.74361442318679
              ],
              [
                4.972398402751822,
                50.74366908475292
              ],
              [
                4.971860035591875,
                50.743757652197274
              ],
              [
                4.971337940167414,
                50.74387927275296
              ],
              [
                4.97083714361183,
                50.74403277539531
              ],
              [
                4.970362468110759,
                50.74421668210984
              ],
              [
                4.9699184844909565,
                50.74442922211497
              ],
              [
                4.96950946822218,
                50.74466834890238
              ],
              [
                4.969139358254962,
                50.744931759931994
              ],
              [
                4.968811719090201,
                50.74521691879195
              ],
              [
                4.96852970644572,
                50.74552107961103
              ],
              [
                4.968296036850626,
                50.74584131348894
              ],
              [
                4.968112961460875,
                50.74617453669028
              ],
              [
                4.967982244349051,
                50.74651754033152
              ],
              [
                4.967905145478647,
                50.74686702127495
              ],
              [
                4.96788240852818,
                50.74721961393317
              ],
              [
                4.967914253684044,
                50.7475719226774
              ],
              [
                4.968000375473227,
                50.74792055453805
              ],
              [
                4.968139945658548,
                50.748262151882585
              ],
              [
                4.96833162117035,
                50.74859342475578
              ],
              [
                4.968573556999965,
                50.748911182571064
              ],
              [
                4.968863423932356,
                50.74921236484699
              ],
              [
                4.969198430948534,
                50.749494070693004
              ],
              [
                4.9695753520831465,
                50.74975358675958
              ],
              [
                4.969990557479396,
                50.7499884133835
              ],
              [
                4.970440048342687,
                50.750196288675575
              ],
              [
                4.970919495456574,
                50.75037521031857
              ],
              [
                4.971424280889839,
                50.750523454864556
              ],
              [
                4.971949542492494,
                50.750639594345536
              ],
              [
                4.972490220751323,
                50.750722510036816
              ],
              [
                4.973041107552535,
                50.75077140324007
              ],
              [
                4.9735968963805135,
                50.75078580298191
              ],
              [
                4.97415223346761,
                50.75076557055374
              ],
              [
                4.974701769400653,
                50.75071090084873
              ],
              [
                4.975240210685362,
                50.75062232048325
              ],
              [
                4.975762370770288,
                50.75050068272073
              ],
              [
                4.976263220037174,
                50.75034715924712
              ],
              [
                4.9767379342747216,
                50.75016322887739
              ],
              [
                4.977181941167552,
                50.749950663302236
              ],
              [
                4.9775909643515375,
                50.74971151001257
              ],
              [
                4.9779610646104,
                50.749448072566956
              ],
              [
                4.978288677816326,
                50.74916288839239
              ],
              [
                4.978570649249079,
                50.74885870433295
              ],
              [
                4.9788042639632915,
                50.74853845018202
              ],
              [
                4.978987272912051,
                50.74820521045407
              ],
              [
                4.979117914576063,
                50.74786219466777
              ],
              [
                4.9791949318912545,
                50.747512706427536
              ],
              [
                4.9792175843132265,
                50.7471601116012
              ],
              [
                4.979185654903968,
                50.74680780590083
              ],
              [
                4.979099452374301,
                50.74645918217905
              ],
              [
                4.97895980806422,
                50.74611759775567
              ]
            ]
          ],
          [
            [
              [
                4.989697408790675,
                50.75180385690159
              ],
              [
                4.989455315616955,
                50.75148614299373
              ],
              [
                4.989165303042249,
                50.75118501189893
              ],
              [
                4.9888301646035496,
                50.75090336333356
              ],
              [
                4.988453128201856,
                50.75064390935905
              ],
              [
                4.988037825002871,
                50.750409148277406
              ],
              [
                4.987588254463099,
                50.75020134058581
              ],
              [
                4.987108745818291,
                50.750022487221486
              ],
              [
                4.986603916404924,
                50.749874310305536
              ],
              [
                4.986078627215553,
                50.74975823657087
              ],
              [
                4.985537936115175,
                50.74967538363312
              ],
              [
                4.984987049167995,
                50.74962654923663
              ],
              [
                4.984431270541941,
                50.74961220357836
              ],
              [
                4.983875951471741,
                50.74963248478377
              ],
              [
                4.983326438770379,
                50.74968719757767
              ],
              [
                4.982788023382983,
                50.74977581516326
              ],
              [
                4.982265889476785,
                50.74989748429087
              ],
              [
                4.981765064555769,
                50.75005103346812
              ],
              [
                4.981290371078835,
                50.75023498423247
              ],
              [
                4.980846380046032,
                50.750447565378174
              ],
              [
                4.9804373669987685,
                50.75068673000077
              ],
              [
                4.980067270856888,
                50.75095017519581
              ],
              [
                4.979739655988533,
                50.7512353642224
              ],
              [
                4.979457677877978,
                50.751539550918814
              ],
              [
                4.9792240527222145,
                50.75185980613548
              ],
              [
                4.9790410312497,
                50.75219304593144
              ],
              [
                4.978910377014234,
                50.75253606126326
              ],
              [
                4.9788333493742165,
                50.752885548880556
              ],
              [
                4.978810691322577,
                50.753238143131554
              ],
              [
                4.97884262228621,
                50.75359044837201
              ],
              [
                4.9789288359659984,
                50.75393907166599
              ],
              [
                4.97906850323999,
                50.75428065546331
              ],
              [
                4.979069122870225,
                50.75428172575318
              ],
              [
                4.979069503033024,
                50.75428265550902
              ],
              [
                4.979261279911818,
                50.75461390998307
              ],
              [
                4.979503320397352,
                50.75493164472567
              ],
              [
                4.979793294266606,
                50.75523279947757
              ],
              [
                4.980128409470555,
                50.755514473613154
              ],
              [
                4.9805054390016785,
                50.755773954088276
              ],
              [
                4.9809207519589265,
                50.75600874158245
              ],
              [
                4.981370348511443,
                50.75621657458333
              ],
              [
                4.981849898424496,
                50.756395451180964
              ],
              [
                4.982354782776391,
                50.75654364836131
              ],
              [
                4.982880138464023,
                50.75665973861257
              ],
              [
                4.983420905067618,
                50.756742603684245
              ],
              [
                4.983971873622135,
                50.756791445365586
              ],
              [
                4.984527736824227,
                50.7568057931795
              ],
              [
                4.985083140189646,
                50.756785508917595
              ],
              [
                4.985632733666652,
                50.75673078797235
              ],
              [
                4.986171223206598,
                50.756642157453705
              ],
              [
                4.986693421793212,
                50.7565204711082
              ],
              [
                4.987194299437441,
                50.756366901089784
              ],
              [
                4.987669031654784,
                50.756182926661744
              ],
              [
                4.988113045956886,
                50.755970319939145
              ],
              [
                4.988522065908524,
                50.7557311288092
              ],
              [
                4.988892152324879,
                50.75546765719494
              ],
              [
                4.989219741211846,
                50.755182442852465
              ],
              [
                4.989501678083828,
                50.75487823291629
              ],
              [
                4.989735248328764,
                50.75455795742903
              ],
              [
                4.989918203328482,
                50.754224701110516
              ],
              [
                4.990048782083715,
                50.753881673639185
              ],
              [
                4.990125728136674,
                50.753532178731824
              ],
              [
                4.990148301629656,
                50.75317958232039
              ],
              [
                4.990116286385119,
                50.75282728013215
              ],
              [
                4.990029991940796,
                50.752478664985745
              ],
              [
                4.989890250522054,
                50.75213709411827
              ],
              [
                4.989889630674163,
                50.75213602388513
              ],
              [
                4.9898892503151195,
                50.75213509416395
              ],
              [
                4.989697408790675,
                50.75180385690159
              ]
            ]
          ]
        ]
      },
      "properties": {
        "type": "buffer_union_400m",
        "buffer_m": 400
      }
    },
    {
      "type": "Feature",
      "geometry": {
        "type": "Polygon",
        "coordinates": [
          [
            [
              4.9256523,
              50.7428032
            ],
            [
              4.9258364,
              50.7426205
            ],
            [
              4.9269975,
              50.7422542
            ],
            [
              4.9274307,
              50.741552
            ],
            [
              4.9274845,
              50.7412248
            ],
            [
              4.9305274,
              50.7394094
            ],
            [
              4.9324762,
              50.7384254
            ],
            [
              4.9351743,
              50.7398979
            ],
            [
              4.9367135,
              50.7392027
            ],
            [
              4.9385611,
              50.7402868
            ],
            [
              4.9415191,
              50.7388777
            ],
            [
              4.9403925,
              50.7382453
            ],
            [
              4.9406514,
              50.7380563
            ],
            [
              4.940991,
              50.7382377
            ],
            [
              4.9412042,
              50.738096
            ],
            [
              4.9421574,
              50.7385815
            ],
            [
              4.9428704,
              50.7382522
            ],
            [
              4.9423414,
              50.7379415
            ],
            [
              4.9435172,
              50.737298
            ],
            [
              4.9448857,
              50.7383547
            ],
            [
              4.9461128,
              50.7380045
            ],
            [
              4.9473749,
              50.7392252
            ],
            [
              4.9482913,
              50.7398125
            ],
            [
              4.9498172,
              50.738822
            ],
            [
              4.9510406,
              50.7396944
            ],
            [
              4.9532032,
              50.7409857
            ],
            [
              4.9534643,
              50.7408564
            ],
            [
              4.9548032,
              50.7417345
            ],
            [
              4.9553265,
              50.7405535
            ],
            [
              4.9555662,
              50.7394555
            ],
            [
              4.9559427,
              50.7386494
            ],
            [
              4.9569964,
              50.7380828
            ],
            [
              4.9577545,
              50.7374953
            ],
            [
              4.9581718,
              50.7373188
            ],
            [
              4.958901,
              50.7371626
            ],
            [
              4.9592704,
              50.7368926
            ],
            [
              4.9605919,
              50.7365246
            ],
            [
              4.9611568,
              50.7371821
            ],
            [
              4.9625516,
              50.7369589
            ],
            [
              4.9627102,
              50.7373503
            ],
            [
              4.9626005,
              50.7373713
            ],
            [
              4.9627897,
              50.737668
            ],
            [
              4.96495,
              50.7374167
            ],
            [
              4.9651811,
              50.7377564
            ],
            [
              4.9660707,
              50.7376101
            ],
            [
              4.966057,
              50.7357902
            ],
            [
              4.9673944,
              50.7358078
            ],
            [
              4.9674186,
              50.7359365
            ],
            [
              4.9677404,
              50.7360748
            ],
            [
              4.967664,
              50.7361134
            ],
            [
              4.9677061,
              50.7361861
            ],
            [
              4.9700958,
              50.7358134
            ],
            [
              4.97153,
              50.7352758
            ],
            [
              4.9717887,
              50.73548
            ],
            [
              4.972288,
              50.7356317
            ],
            [
              4.9737209,
              50.7359118
            ],
            [
              4.9751065,
              50.7362971
            ],
            [
              4.9776933,
              50.7372641
            ],
            [
              4.9796067,
              50.7380965
            ],
            [
              4.9812177,
              50.738487
            ],
            [
              4.9817515,
              50.7374757
            ],
            [
              4.9824372,
              50.736411
            ],
            [
              4.9835239,
              50.7367298
            ],
            [
              4.9838155,
              50.7365147
            ],
            [
              4.9842206,
              50.7367012
            ],
            [
              4.9841771,
              50.7364994
            ],
            [
              4.9844689,
              50.7364679
            ],
            [
              4.9846331,
              50.7365474
            ],
            [
              4.9848285,
              50.7368465
            ],
            [
              4.9852944,
              50.7369447
            ],
            [
              4.985361,
              50.7369137
            ],
            [
              4.9853105,
              50.7366998
            ],
            [
              4.9856297,
              50.7366245
            ],
            [
              4.9857694,
              50.7366383
            ],
            [
              4.9860152,
              50.7368265
            ],
            [
              4.9861801,
              50.736791
            ],
            [
              4.9862016,
              50.7366175
            ],
            [
              4.9863266,
              50.7365704
            ],
            [
              4.987148,
              50.7367635
            ],
            [
              4.9874079,
              50.7364399
            ],
            [
              4.9880727,
              50.7360927
            ],
            [
              4.9886073,
              50.7364897
            ],
            [
              4.9891923,
              50.7366231
            ],
            [
              4.9892807,
              50.7364836
            ],
            [
              4.9891486,
              50.7362589
            ],
            [
              4.9893579,
              50.7361032
            ],
            [
              4.9892892,
              50.7360322
            ],
            [
              4.9898116,
              50.7356872
            ],
            [
              4.9898118,
              50.7354583
            ],
            [
              4.993506,
              50.7330052
            ],
            [
              4.9927709,
              50.7318212
            ],
            [
              4.9930975,
              50.7316943
            ],
            [
              4.9916822,
              50.7300642
            ],
            [
              4.9907793,
              50.7292278
            ],
            [
              4.991277,
              50.7289596
            ],
            [
              4.9899477,
              50.7277526
            ],
            [
              4.9904401,
              50.727562
            ],
            [
              4.9898427,
              50.7269545
            ],
            [
              4.9908741,
              50.7265993
            ],
            [
              4.9907825,
              50.7260131
            ],
            [
              4.9903878,
              50.7250107
            ],
            [
              4.9896901,
              50.7240241
            ],
            [
              4.992413,
              50.7234786
            ],
            [
              4.9935332,
              50.7248253
            ],
            [
              4.993809,
              50.7254091
            ],
            [
              4.99388,
              50.7258973
            ],
            [
              4.9940291,
              50.7262564
            ],
            [
              4.9947726,
              50.7260027
            ],
            [
              4.9953129,
              50.7268148
            ],
            [
              4.9960842,
              50.7265685
            ],
            [
              4.9970937,
              50.7278883
            ],
            [
              4.9974074,
              50.7277987
            ],
            [
              4.9976914,
              50.728149
            ],
            [
              4.9993333,
              50.7276493
            ],
            [
              4.9994142,
              50.7277659
            ],
            [
              4.9999003,
              50.7276511
            ],
            [
              5.000581,
              50.728863
            ],
            [
              5.0021688,
              50.7284283
            ],
            [
              5.0059258,
              50.7291681
            ],
            [
              5.0076411,
              50.7290289
            ],
            [
              5.0078433,
              50.7305757
            ],
            [
              5.0083057,
              50.7326931
            ],
            [
              5.0085632,
              50.7331413
            ],
            [
              5.0112454,
              50.7313213
            ],
            [
              5.0127046,
              50.7305743
            ],
            [
              5.0153653,
              50.7322585
            ],
            [
              5.017275,
              50.7330055
            ],
            [
              5.0156443,
              50.7345673
            ],
            [
              5.0167601,
              50.7350154
            ],
            [
              5.0163524,
              50.7353957
            ],
            [
              5.0171034,
              50.7370933
            ],
            [
              5.0162236,
              50.7384241
            ],
            [
              5.0159447,
              50.7396055
            ],
            [
              5.0167815,
              50.7399586
            ],
            [
              5.0164382,
              50.7405017
            ],
            [
              5.017039,
              50.7407733
            ],
            [
              5.0164811,
              50.7437742
            ],
            [
              5.0174467,
              50.7446975
            ],
            [
              5.0184338,
              50.7458109
            ],
            [
              5.0187556,
              50.7466663
            ],
            [
              5.018584,
              50.746802
            ],
            [
              5.0190775,
              50.74706
            ],
            [
              5.0189868,
              50.7474482
            ],
            [
              5.0204874,
              50.7484512
            ],
            [
              5.0188872,
              50.7499518
            ],
            [
              5.019531,
              50.7507729
            ],
            [
              5.0196599,
              50.7511098
            ],
            [
              5.0173564,
              50.7535256
            ],
            [
              5.0168051,
              50.754404
            ],
            [
              5.0164038,
              50.7555732
            ],
            [
              5.0160232,
              50.7562063
            ],
            [
              5.0149872,
              50.7570664
            ],
            [
              5.0142295,
              50.7578488
            ],
            [
              5.0131458,
              50.7583919
            ],
            [
              5.0123361,
              50.7589504
            ],
            [
              5.0101964,
              50.7611483
            ],
            [
              5.0088951,
              50.7622016
            ],
            [
              5.0072675,
              50.7633946
            ],
            [
              5.0052915,
              50.7646274
            ],
            [
              5.004886,
              50.7647554
            ],
            [
              5.0056387,
              50.7653827
            ],
            [
              5.005286,
              50.7655628
            ],
            [
              5.0048126,
              50.7652258
            ],
            [
              5.003351,
              50.7659716
            ],
            [
              5.0026717,
              50.7657862
            ],
            [
              5.0019968,
              50.7651554
            ],
            [
              5.0004707,
              50.7658255
            ],
            [
              4.9997443,
              50.7659613
            ],
            [
              4.9993342,
              50.7657769
            ],
            [
              4.9990814,
              50.76579
            ],
            [
              4.9936854,
              50.7671128
            ],
            [
              4.9910285,
              50.7680509
            ],
            [
              4.9891918,
              50.7684924
            ],
            [
              4.9876167,
              50.7691148
            ],
            [
              4.981726,
              50.7697812
            ],
            [
              4.981785,
              50.7694349
            ],
            [
              4.9817187,
              50.7685309
            ],
            [
              4.9798336,
              50.7683823
            ],
            [
              4.9798293,
              50.7684427
            ],
            [
              4.978406,
              50.7682784
            ],
            [
              4.9785789,
              50.7675043
            ],
            [
              4.9784408,
              50.7674757
            ],
            [
              4.9786667,
              50.766627
            ],
            [
              4.9787019,
              50.7659751
            ],
            [
              4.9759341,
              50.7659388
            ],
            [
              4.9758827,
              50.7663072
            ],
            [
              4.9753136,
              50.766593
            ],
            [
              4.975055,
              50.7669375
            ],
            [
              4.9747832,
              50.7671478
            ],
            [
              4.9719038,
              50.767895
            ],
            [
              4.9698292,
              50.7676892
            ],
            [
              4.968533,
              50.7672426
            ],
            [
              4.9691327,
              50.7652665
            ],
            [
              4.9691177,
              50.7635443
            ],
            [
              4.9691905,
              50.7629254
            ],
            [
              4.9693675,
              50.7623087
            ],
            [
              4.9659498,
              50.7620344
            ],
            [
              4.9657662,
              50.7622093
            ],
            [
              4.9647169,
              50.7613108
            ],
            [
              4.9642211,
              50.7614552
            ],
            [
              4.9634492,
              50.7609464
            ],
            [
              4.9642917,
              50.7606947
            ],
            [
              4.9636147,
              50.7599549
            ],
            [
              4.9630196,
              50.7594546
            ],
            [
              4.9614298,
              50.7583926
            ],
            [
              4.9615223,
              50.7583259
            ],
            [
              4.9603701,
              50.7577373
            ],
            [
              4.9569731,
              50.7555636
            ],
            [
              4.9554067,
              50.7547925
            ],
            [
              4.9549913,
              50.755123
            ],
            [
              4.9538663,
              50.7547256
            ],
            [
              4.9534101,
              50.7547883
            ],
            [
              4.953173,
              50.7537942
            ],
            [
              4.9530368,
              50.7525915
            ],
            [
              4.9538194,
              50.7509504
            ],
            [
              4.9508499,
              50.750206
            ],
            [
              4.9475062,
              50.7495617
            ],
            [
              4.9445674,
              50.7492067
            ],
            [
              4.9426718,
              50.7490605
            ],
            [
              4.9417624,
              50.7485406
            ],
            [
              4.9389552,
              50.7473569
            ],
            [
              4.9332869,
              50.7476995
            ],
            [
              4.9309369,
              50.7476329
            ],
            [
              4.9295601,
              50.7474851
            ],
            [
              4.9286874,
              50.7471879
            ],
            [
              4.9296025,
              50.7449647
            ],
            [
              4.9275418,
              50.7440879
            ],
            [
              4.9256523,
              50.7428032
            ]
          ]
        ]
      },
      "properties": {
        "type": "boundary",
        "gemeente": "Hélécine"
      }
    }
  ]
}