{
  "type": "FeatureCollection",
  "metadata": {
    "gemeente": "Herenthout",
    "slug": "herenthout",
    "generated_at": "2026-09-25T22:11:38.862546Z",
    "total_points": 20,
    "providers": [
      "bpost",
      "DHL",
      "GLS",
      "InPost",
      "VintedGo",
      "PostNL",
      "DPD",
      "Amazon"
    ],
    "bounds": [
      4.75451859,
      51.129378,
      4.78814,
      51.160495
    ]
  },
  "features": [
    {
      "type": "Feature",
      "geometry": {
        "type": "Point",
        "coordinates": [
          4.75626,
          51.13957
        ]
      },
      "properties": {
        "type": "pakketpunt",
        "locatieNaam": "Herenthout",
        "straatNaam": "Markt",
        "straatNr": "4",
        "vervoerder": "bpost",
        "puntType": "postkantoor",
        "bezettingsgraad": 50,
        "latitude": 51.13957,
        "longitude": 4.75626,
        "canPickup": true,
        "canDropoff": true,
        "openingstijden": null
      }
    },
    {
      "type": "Feature",
      "geometry": {
        "type": "Point",
        "coordinates": [
          4.75852,
          51.13865
        ]
      },
      "properties": {
        "type": "pakketpunt",
        "locatieNaam": "Dbh Aktueel",
        "straatNaam": "Vonckstraat",
        "straatNr": "21",
        "vervoerder": "bpost",
        "puntType": "servicepunt",
        "bezettingsgraad": 50,
        "latitude": 51.13865,
        "longitude": 4.75852,
        "canPickup": true,
        "canDropoff": true,
        "openingstijden": null
      }
    },
    {
      "type": "Feature",
      "geometry": {
        "type": "Point",
        "coordinates": [
          4.76073,
          51.13442
        ]
      },
      "properties": {
        "type": "pakketpunt",
        "locatieNaam": "Bbox 24/7 Q8 Easy Herenthout",
        "straatNaam": "Itegemse Steenweg",
        "straatNr": "48",
        "vervoerder": "bpost",
        "puntType": "automaat",
        "bezettingsgraad": 50,
        "latitude": 51.13442,
        "longitude": 4.76073,
        "canPickup": true,
        "canDropoff": true,
        "openingstijden": null
      }
    },
    {
      "type": "Feature",
      "geometry": {
        "type": "Point",
        "coordinates": [
          4.78224,
          51.12938
        ]
      },
      "properties": {
        "type": "pakketpunt",
        "locatieNaam": "Bbox Bloemen Boeckx Herenthout",
        "straatNaam": "Doornstraat",
        "straatNr": "92",
        "vervoerder": "bpost",
        "puntType": "automaat",
        "bezettingsgraad": 50,
        "latitude": 51.12938,
        "longitude": 4.78224,
        "canPickup": true,
        "canDropoff": true,
        "openingstijden": null
      }
    },
    {
      "type": "Feature",
      "geometry": {
        "type": "Point",
        "coordinates": [
          4.78814,
          51.16049
        ]
      },
      "properties": {
        "type": "pakketpunt",
        "locatieNaam": "Bbox 24/7 Emelies Automaten Service",
        "straatNaam": "Atealaan",
        "straatNr": "61",
        "vervoerder": "bpost",
        "puntType": "automaat",
        "bezettingsgraad": 50,
        "latitude": 51.16049,
        "longitude": 4.78814,
        "canPickup": true,
        "canDropoff": true,
        "openingstijden": null
      }
    },
    {
      "type": "Feature",
      "geometry": {
        "type": "Point",
        "coordinates": [
          4.782238,
          51.129378
        ]
      },
      "properties": {
        "type": "pakketpunt",
        "locatieNaam": "BBOX BLOEMEN BOECKX HERENTHOUT",
        "straatNaam": "DOORNSTRAAT",
        "straatNr": "92",
        "vervoerder": "DHL",
        "puntType": "packStation",
        "bezettingsgraad": 50,
        "latitude": 51.129378,
        "longitude": 4.782238,
        "canPickup": true,
        "canDropoff": true,
        "openingstijden": {
          "ma": "00:00 - 23:59",
          "di": "00:00 - 23:59",
          "wo": "00:00 - 23:59",
          "do": "00:00 - 23:59",
          "vr": "00:00 - 23:59",
          "za": "00:00 - 23:59",
          "zo": "00:00 - 23:59"
        }
      }
    },
    {
      "type": "Feature",
      "geometry": {
        "type": "Point",
        "coordinates": [
          4.760728,
          51.134417
        ]
      },
      "properties": {
        "type": "pakketpunt",
        "locatieNaam": "BBOX 24/7 Q8 EASY HERENTHOUT",
        "straatNaam": "ITEGEMSE STEENWEG",
        "straatNr": "48",
        "vervoerder": "DHL",
        "puntType": "packStation",
        "bezettingsgraad": 50,
        "latitude": 51.134417,
        "longitude": 4.760728,
        "canPickup": true,
        "canDropoff": true,
        "openingstijden": {
          "ma": "00:00 - 23:59",
          "di": "00:00 - 23:59",
          "wo": "00:00 - 23:59",
          "do": "00:00 - 23:59",
          "vr": "00:00 - 23:59",
          "za": "00:00 - 23:59",
          "zo": "00:00 - 23:59"
        }
      }
    },
    {
      "type": "Feature",
      "geometry": {
        "type": "Point",
        "coordinates": [
          4.758518,
          51.138646
        ]
      },
      "properties": {
        "type": "pakketpunt",
        "locatieNaam": "DBH AKTUEEL",
        "straatNaam": "VONCKSTRAAT",
        "straatNr": "21",
        "vervoerder": "DHL",
        "puntType": "parcelShop",
        "bezettingsgraad": 50,
        "latitude": 51.138646,
        "longitude": 4.758518,
        "canPickup": true,
        "canDropoff": true,
        "openingstijden": {
          "ma": "04:45 - 16:00",
          "di": "04:45 - 16:00",
          "wo": "04:45 - 14:00",
          "do": "04:45 - 16:00",
          "vr": "04:45 - 16:00",
          "za": "06:00 - 14:00",
          "zo": "gesloten"
        }
      }
    },
    {
      "type": "Feature",
      "geometry": {
        "type": "Point",
        "coordinates": [
          4.756264,
          51.139567
        ]
      },
      "properties": {
        "type": "pakketpunt",
        "locatieNaam": "HERENTHOUT",
        "straatNaam": "MARKT",
        "straatNr": "4",
        "vervoerder": "DHL",
        "puntType": "postOffice",
        "bezettingsgraad": 50,
        "latitude": 51.139567,
        "longitude": 4.756264,
        "canPickup": true,
        "canDropoff": true,
        "openingstijden": {
          "ma": "09:30 - 12:30",
          "di": "09:30 - 12:30, 14:00 - 18:00",
          "wo": "09:30 - 12:30",
          "do": "09:30 - 12:30, 14:00 - 18:00",
          "vr": "09:30 - 12:30, 14:00 - 17:00",
          "za": "09:30 - 13:00",
          "zo": "gesloten"
        }
      }
    },
    {
      "type": "Feature",
      "geometry": {
        "type": "Point",
        "coordinates": [
          4.78814,
          51.160495
        ]
      },
      "properties": {
        "type": "pakketpunt",
        "locatieNaam": "BBOX 24/7 EMELIES AUTOMATEN SERVICE",
        "straatNaam": "ATEALAAN",
        "straatNr": "61",
        "vervoerder": "DHL",
        "puntType": "packStation",
        "bezettingsgraad": 50,
        "latitude": 51.160495,
        "longitude": 4.78814,
        "canPickup": true,
        "canDropoff": true,
        "openingstijden": {
          "ma": "00:00 - 23:59",
          "di": "00:00 - 23:59",
          "wo": "00:00 - 23:59",
          "do": "00:00 - 23:59",
          "vr": "00:00 - 23:59",
          "za": "00:00 - 23:59",
          "zo": "00:00 - 23:59"
        }
      }
    },
    {
      "type": "Feature",
      "geometry": {
        "type": "Point",
        "coordinates": [
          4.7587776,
          51.1400302
        ]
      },
      "properties": {
        "type": "pakketpunt",
        "locatieNaam": "Cybermania",
        "straatNaam": "Molenstraat",
        "straatNr": "31",
        "vervoerder": "GLS",
        "puntType": "parcel_shop",
        "bezettingsgraad": 50,
        "latitude": 51.1400302,
        "longitude": 4.7587776,
        "canPickup": true,
        "canDropoff": true,
        "openingstijden": "vr: 10:30 - 18:30; za: 10:00 - 17:00"
      }
    },
    {
      "type": "Feature",
      "geometry": {
        "type": "Point",
        "coordinates": [
          4.75838,
          51.13977
        ]
      },
      "properties": {
        "type": "pakketpunt",
        "locatieNaam": "'T KRANTJE",
        "straatNaam": "MOLENSTRAAT 26",
        "straatNr": "",
        "vervoerder": "InPost",
        "puntType": "servicepunt",
        "bezettingsgraad": 50,
        "latitude": 51.13977,
        "longitude": 4.75838,
        "canPickup": true,
        "canDropoff": true,
        "openingstijden": null
      }
    },
    {
      "type": "Feature",
      "geometry": {
        "type": "Point",
        "coordinates": [
          4.75872877,
          51.13994542
        ]
      },
      "properties": {
        "type": "pakketpunt",
        "locatieNaam": "Cybermania BV",
        "straatNaam": "Molenstraat",
        "straatNr": "31",
        "vervoerder": "VintedGo",
        "puntType": "parcel_shop",
        "bezettingsgraad": 50,
        "latitude": 51.13994542,
        "longitude": 4.75872877,
        "canPickup": true,
        "canDropoff": true,
        "openingstijden": null
      }
    },
    {
      "type": "Feature",
      "geometry": {
        "type": "Point",
        "coordinates": [
          4.758393,
          51.139955
        ]
      },
      "properties": {
        "type": "pakketpunt",
        "locatieNaam": "'t Krantje",
        "straatNaam": "Molenstraat",
        "straatNr": "26",
        "vervoerder": "PostNL",
        "puntType": "servicepunt",
        "bezettingsgraad": 50,
        "latitude": 51.139955,
        "longitude": 4.758393,
        "canPickup": true,
        "canDropoff": true,
        "openingstijden": "05:00 - 18:00"
      }
    },
    {
      "type": "Feature",
      "geometry": {
        "type": "Point",
        "coordinates": [
          4.75451859,
          51.1383524
        ]
      },
      "properties": {
        "type": "pakketpunt",
        "locatieNaam": "'T INTERIEURHUIS CAMBRE",
        "straatNaam": "JODENSTRAAT",
        "straatNr": "31",
        "vervoerder": "DPD",
        "puntType": "pickup_point",
        "bezettingsgraad": 50,
        "latitude": 51.1383524,
        "longitude": 4.75451859,
        "canPickup": true,
        "canDropoff": true,
        "openingstijden": {
          "ma": "gesloten",
          "di": "09:30 - 12:00, 13:15 - 18:00",
          "wo": "09:30 - 11:45, 13:15 - 18:00",
          "do": "09:30 - 12:00, 13:15 - 18:00",
          "vr": "09:30 - 12:00, 13:15 - 18:00",
          "za": "10:00 - 17:00",
          "zo": "gesloten"
        }
      }
    },
    {
      "type": "Feature",
      "geometry": {
        "type": "Point",
        "coordinates": [
          4.756264,
          51.139567
        ]
      },
      "properties": {
        "type": "pakketpunt",
        "locatieNaam": "bpost - HERENTHOUT",
        "straatNaam": "MARKT,4",
        "straatNr": "",
        "vervoerder": "Amazon",
        "puntType": "3p",
        "bezettingsgraad": 50,
        "latitude": 51.139567,
        "longitude": 4.756264,
        "canPickup": true,
        "canDropoff": false,
        "openingstijden": null
      }
    },
    {
      "type": "Feature",
      "geometry": {
        "type": "Point",
        "coordinates": [
          4.78814,
          51.160495
        ]
      },
      "properties": {
        "type": "pakketpunt",
        "locatieNaam": "bpost - BBOX 24/7 EMELIES AUTOMATEN SERVICE",
        "straatNaam": "ATEALAAN,61",
        "straatNr": "",
        "vervoerder": "Amazon",
        "puntType": "3p",
        "bezettingsgraad": 50,
        "latitude": 51.160495,
        "longitude": 4.78814,
        "canPickup": true,
        "canDropoff": false,
        "openingstijden": null
      }
    },
    {
      "type": "Feature",
      "geometry": {
        "type": "Point",
        "coordinates": [
          4.758518,
          51.138646
        ]
      },
      "properties": {
        "type": "pakketpunt",
        "locatieNaam": "bpost - DBH AKTUEEL",
        "straatNaam": "VONCKSTRAAT,21",
        "straatNr": "",
        "vervoerder": "Amazon",
        "puntType": "3p",
        "bezettingsgraad": 50,
        "latitude": 51.138646,
        "longitude": 4.758518,
        "canPickup": true,
        "canDropoff": false,
        "openingstijden": null
      }
    },
    {
      "type": "Feature",
      "geometry": {
        "type": "Point",
        "coordinates": [
          4.760728,
          51.134417
        ]
      },
      "properties": {
        "type": "pakketpunt",
        "locatieNaam": "bpost - BBOX 24/7 Q8 EASY HERENTHOUT",
        "straatNaam": "ITEGEMSE STEENWEG,48",
        "straatNr": "",
        "vervoerder": "Amazon",
        "puntType": "3p",
        "bezettingsgraad": 50,
        "latitude": 51.134417,
        "longitude": 4.760728,
        "canPickup": true,
        "canDropoff": false,
        "openingstijden": null
      }
    },
    {
      "type": "Feature",
      "geometry": {
        "type": "Point",
        "coordinates": [
          4.782238,
          51.129378
        ]
      },
      "properties": {
        "type": "pakketpunt",
        "locatieNaam": "bpost - BBOX BLOEMEN BOECKX HERENTHOUT",
        "straatNaam": "DOORNSTRAAT,92",
        "straatNr": "",
        "vervoerder": "Amazon",
        "puntType": "3p",
        "bezettingsgraad": 50,
        "latitude": 51.129378,
        "longitude": 4.782238,
        "canPickup": true,
        "canDropoff": false,
        "openingstijden": null
      }
    },
    {
      "type": "Feature",
      "geometry": {
        "type": "MultiPolygon",
        "coordinates": [
          [
            [
              [
                4.755740952266111,
                51.135767755251
              ],
              [
                4.755332391466929,
                51.135704825458404
              ],
              [
                4.754915994642976,
                51.135667391852635
              ],
              [
                4.754495771252848,
                51.135655814879264
              ],
              [
                4.754075767581796,
                51.135670206012044
              ],
              [
                4.753660027800516,
                51.13571042667992
              ],
              [
                4.75325255504424,
                51.13577608960076
              ],
              [
                4.752857272885962,
                51.13586656250857
              ],
              [
                4.752477987573809,
                51.13598097423849
              ],
              [
                4.752118351395353,
                51.13611822311141
              ],
              [
                4.751781827520893,
                51.13627698753716
              ],
              [
                4.751471656663631,
                51.13645573873483
              ],
              [
                4.751190825877357,
                51.13665275544775
              ],
              [
                4.750942039791833,
                51.13686614051195
              ],
              [
                4.750727694562831,
                51.137093839118585
              ],
              [
                4.750549854787779,
                51.137333658594954
              ],
              [
                4.750410233609669,
                51.137583289513856
              ],
              [
                4.750310176201312,
                51.13784032792831
              ],
              [
                4.750250646789663,
                51.13810229851767
              ],
              [
                4.750232219345992,
                51.13836667842242
              ],
              [
                4.750255072032462,
                51.13863092153848
              ],
              [
                4.750318985459588,
                51.13889248303672
              ],
              [
                4.750423344772397,
                51.13914884387211
              ],
              [
                4.7505671455462055,
                51.13939753504582
              ],
              [
                4.750749003436241,
                51.13963616138716
              ],
              [
                4.750967167489058,
                51.139862424625626
              ],
              [
                4.751219536988364,
                51.14007414553104
              ],
              [
                4.751503681673652,
                51.140269284907994
              ],
              [
                4.751816865137423,
                51.140445963242534
              ],
              [
                4.752156071175914,
                51.140602478810976
              ],
              [
                4.752355397730033,
                51.14067673619718
              ],
              [
                4.75249036303243,
                51.14085381642895
              ],
              [
                4.752708541207658,
                51.14108007634748
              ],
              [
                4.75296092517902,
                51.141291793434775
              ],
              [
                4.753245084546616,
                51.1414869285322
              ],
              [
                4.753558282761514,
                51.141663602167014
              ],
              [
                4.753897503477856,
                51.14182011266082
              ],
              [
                4.754259479604832,
                51.14195495252601
              ],
              [
                4.7546407247786115,
                51.1420668229916
              ],
              [
                4.755037566950841,
                51.142154646518385
              ],
              [
                4.755446183769733,
                51.14221757718255
              ],
              [
                4.755862639412329,
                51.142255008827675
              ],
              [
                4.75618851728961,
                51.14226398168267
              ],
              [
                4.756392572027618,
                51.142339988340005
              ],
              [
                4.756773825452951,
                51.14245185190005
              ],
              [
                4.757170674907078,
                51.14253966824282
              ],
              [
                4.757317864061033,
                51.142562333869286
              ],
              [
                4.757555294221623,
                51.14261487215421
              ],
              [
                4.7579639184586515,
                51.142677794091895
              ],
              [
                4.758380380222059,
                51.142715216847655
              ],
              [
                4.758800668086698,
                51.14272677995937
              ],
              [
                4.759220733754697,
                51.142712372049125
              ],
              [
                4.759636531069532,
                51.14267213189649
              ],
              [
                4.760044055009423,
                51.14260644710098
              ],
              [
                4.760439380283496,
                51.14251595034699
              ],
              [
                4.760818699158018,
                51.14240151330651
              ],
              [
                4.761178358147535,
                51.142264238239235
              ],
              [
                4.761514893216729,
                51.142105447370625
              ],
              [
                4.761825063153386,
                51.14192667015093
              ],
              [
                4.762105880790534,
                51.14172962851762
              ],
              [
                4.7623546417768585,
                51.14151622030401
              ],
              [
                4.762568950618133,
                51.14128850095386
              ],
              [
                4.762746743739069,
                51.14104866371832
              ],
              [
                4.762886309343763,
                51.14079901852655
              ],
              [
                4.762986303883959,
                51.14054196973336
              ],
              [
                4.763045764977209,
                51.14027999295892
              ],
              [
                4.763064120651336,
                51.14001561124317
              ],
              [
                4.7630411948270535,
                51.13975137074542
              ],
              [
                4.76297720898697,
                51.13948981622262
              ],
              [
                4.762872780015897,
                51.139233466522874
              ],
              [
                4.762824443453863,
                51.13914991568531
              ],
              [
                4.7628239434161985,
                51.139148688192385
              ],
              [
                4.762757582879086,
                51.13903398197866
              ],
              [
                4.7627880374877725,
                51.13889980240286
              ],
              [
                4.7628063940782415,
                51.13863542059325
              ],
              [
                4.762783470389242,
                51.13837117991161
              ],
              [
                4.7627194878827765,
                51.138109625116655
              ],
              [
                4.762615063411517,
                51.1378532750591
              ],
              [
                4.762613809615304,
                51.13785110775957
              ],
              [
                4.762613063094973,
                51.137849275127316
              ],
              [
                4.762469202959004,
                51.13760059849172
              ],
              [
                4.762287293125217,
                51.13736199003335
              ],
              [
                4.762069085921942,
                51.13713574751369
              ],
              [
                4.761917845296485,
                51.137008897679266
              ],
              [
                4.761996410584992,
                51.13699623145325
              ],
              [
                4.76239168459894,
                51.13690572797425
              ],
              [
                4.762770953135315,
                51.13679128442438
              ],
              [
                4.7631305631935765,
                51.13665400312599
              ],
              [
                4.763467051209755,
                51.13649520636459
              ],
              [
                4.763777176424859,
                51.13631642364714
              ],
              [
                4.764057952102667,
                51.136119376964054
              ],
              [
                4.7643066742959705,
                51.135905964197306
              ],
              [
                4.764520947884126,
                51.13567824083445
              ],
              [
                4.764698709631304,
                51.13543840016529
              ],
              [
                4.764838248043668,
                51.135188752152025
              ],
              [
                4.764938219834731,
                51.13493170117665
              ],
              [
                4.764997662840999,
                51.1346697228803
              ],
              [
                4.765016005264333,
                51.1344053403176
              ],
              [
                4.764993071152893,
                51.13414109965598
              ],
              [
                4.764929082068927,
                51.133879545653954
              ],
              [
                4.764824654928318,
                51.133623197154606
              ],
              [
                4.764680796033759,
                51.13337452283027
              ],
              [
                4.764679698328656,
                51.13337308297232
              ],
              [
                4.764678795824816,
                51.13337152289608
              ],
              [
                4.764496891172936,
                51.133132917474285
              ],
              [
                4.764278693022163,
                51.132906678689984
              ],
              [
                4.764026303062398,
                51.132694985154785
              ],
              [
                4.76374215214231,
                51.132499875385896
              ],
              [
                4.763428976851437,
                51.132323228181924
              ],
              [
                4.763089793163005,
                51.132166744537344
              ],
              [
                4.762727867391372,
                51.13203193126927
              ],
              [
                4.762346684743709,
                51.13192008651387
              ],
              [
                4.7619499157684615,
                51.13183228723186
              ],
              [
                4.761541381023196,
                51.13176937884312
              ],
              [
                4.761125014301487,
                51.13173196709014
              ],
              [
                4.760704824772109,
                51.13172041220813
              ],
              [
                4.760284858394321,
                51.13173482545804
              ],
              [
                4.759869158979796,
                51.1317750680559
              ],
              [
                4.759461729275157,
                51.13184075250842
              ],
              [
                4.759066492438951,
                51.13193124634221
              ],
              [
                4.7586872542829886,
                51.132045678190984
              ],
              [
                4.758327666640869,
                51.132182946181864
              ],
              [
                4.757991192215619,
                51.13234172854057
              ],
              [
                4.7576810712443605,
                51.132520496313475
              ],
              [
                4.757400290300582,
                51.132717528084314
              ],
              [
                4.757151553534139,
                51.132930926544084
              ],
              [
                4.756937256625906,
                51.13315863675488
              ],
              [
                4.756759463708006,
                51.13339846593226
              ],
              [
                4.7566198874721834,
                51.13364810455559
              ],
              [
                4.756519872658411,
                51.1339051486036
              ],
              [
                4.756460383083386,
                51.134167122701385
              ],
              [
                4.756441992334648,
                51.134431503955625
              ],
              [
                4.756464878220861,
                51.13469574624917
              ],
              [
                4.756528821032679,
                51.13495730476082
              ],
              [
                4.756633205631991,
                51.13521366047421
              ],
              [
                4.756777027350433,
                51.135462344439865
              ],
              [
                4.756778124861045,
                51.13546378437022
              ],
              [
                4.756779027141455,
                51.13546534450568
              ],
              [
                4.756960901454273,
                51.13570396161893
              ],
              [
                4.757179077229816,
                51.13593021370087
              ],
              [
                4.757330301494931,
                51.1360570696576
              ],
              [
                4.757251736520906,
                51.136069732781834
              ],
              [
                4.75695672564595,
                51.13613726646062
              ],
              [
                4.756880881232694,
                51.13610227204694
              ],
              [
                4.756518942889797,
                51.13596743993126
              ],
              [
                4.756137742996087,
                51.13585557528184
              ],
              [
                4.755740952266111,
                51.135767755251
              ]
            ]
          ],
          [
            [
              [
                4.785250944341227,
                51.12746032258395
              ],
              [
                4.78493772152387,
                51.12728373214239
              ],
              [
                4.784598502397266,
                51.1271273100368
              ],
              [
                4.784236553616724,
                51.12699256249171
              ],
              [
                4.783855360610721,
                51.12688078701038
              ],
              [
                4.783458594027243,
                51.126793059886445
              ],
              [
                4.783050074400692,
                51.12673022584502
              ],
              [
                4.782633735378984,
                51.126692889912675
              ],
              [
                4.7822135858641595,
                51.12668141159453
              ],
              [
                4.781793671430233,
                51.12669590141433
              ],
              [
                4.78137803538882,
                51.12673621985083
              ],
              [
                4.780970679876493,
                51.12680197868045
              ],
              [
                4.7805755273376125,
                51.12689254471365
              ],
              [
                4.780196382772536,
                51.12700704588892
              ],
              [
                4.77983689711394,
                51.12714437966576
              ],
              [
                4.779500532083122,
                51.12730322363641
              ],
              [
                4.779190526864109,
                51.12748204825394
              ],
              [
                4.778909866916045,
                51.1276791315546
              ],
              [
                4.778661255223918,
                51.127892575733135
              ],
              [
                4.77844708626441,
                51.128120325411295
              ],
              [
                4.778269422937708,
                51.12836018742448
              ],
              [
                4.778129976687735,
                51.12860985193571
              ],
              [
                4.778030091002766,
                51.12886691467435
              ],
              [
                4.777970728455972,
                51.12912890008534
              ],
              [
                4.777952461411506,
                51.129393285166294
              ],
              [
                4.777975466486582,
                51.12965752376311
              ],
              [
                4.7780395228238035,
                51.12991907109002
              ],
              [
                4.778144014191483,
                51.13017540823831
              ],
              [
                4.778287934892691,
                51.13042406643715
              ],
              [
                4.7784698994271455,
                51.13066265083329
              ],
              [
                4.778688155813787,
                51.1308888635601
              ],
              [
                4.778688523221957,
                51.13088917161301
              ],
              [
                4.7786901557264985,
                51.130890863619165
              ],
              [
                4.778942602379086,
                51.13110252592842
              ],
              [
                4.779226808274484,
                51.13129759919286
              ],
              [
                4.7795400364151615,
                51.13147420453524
              ],
              [
                4.779879270166607,
                51.13163064093484
              ],
              [
                4.780241242312099,
                51.131765401617734
              ],
              [
                4.780622466525868,
                51.13187718857557
              ],
              [
                4.78101927096124,
                51.131964925073476
              ],
              [
                4.781427833629785,
                51.13202776602592
              ],
              [
                4.781844219230087,
                51.132065106140544
              ],
              [
                4.782264417070676,
                51.132076585751314
              ],
              [
                4.782684379720938,
                51.132062094284564
              ],
              [
                4.783100062016829,
                51.13202177132468
              ],
              [
                4.7835074600447065,
                51.13195600526883
              ],
              [
                4.783902649726782,
                51.13186542958407
              ],
              [
                4.784281824635683,
                51.13175091670263
              ],
              [
                4.784641332672961,
                51.13161356961467
              ],
              [
                4.784977711257593,
                51.131454711239314
              ],
              [
                4.785287720684906,
                51.131275871676934
              ],
              [
                4.785568375334193,
                51.131078773465426
              ],
              [
                4.785816972424201,
                51.13086531498294
              ],
              [
                4.786031118039442,
                51.13063755215728
              ],
              [
                4.786208750176818,
                51.13039767865823
              ],
              [
                4.786348158590916,
                51.13014800476405
              ],
              [
                4.786448001247339,
                51.129890935105905
              ],
              [
                4.786507317226287,
                51.12962894550473
              ],
              [
                4.786525535952929,
                51.129364559123914
              ],
              [
                4.786502482666578,
                51.12910032216753
              ],
              [
                4.786438380077008,
                51.12883877935826
              ],
              [
                4.786333846192954,
                51.12858244943132
              ],
              [
                4.786189888344784,
                51.12833380088002
              ],
              [
                4.786007893459831,
                51.128095228186965
              ],
              [
                4.785789614684991,
                51.12786902876914
              ],
              [
                4.785789247253753,
                51.127868720738014
              ],
              [
                4.785787614597728,
                51.12786702882822
              ],
              [
                4.785535154418794,
                51.12765538091363
              ],
              [
                4.785250944341227,
                51.12746032258395
              ]
            ]
          ],
          [
            [
              [
                4.792092387913128,
                51.15944361535079
              ],
              [
                4.791910241608864,
                51.15920505449599
              ],
              [
                4.791691788805042,
                51.15897886858872
              ],
              [
                4.791439133643911,
                51.15876723573127
              ],
              [
                4.791154709527899,
                51.15857219385636
              ],
              [
                4.790841255677126,
                51.158395621108696
              ],
              [
                4.7905017907469,
                51.15823921776571
              ],
              [
                4.790139583759366,
                51.15810448987116
              ],
              [
                4.789758122629131,
                51.15799273473905
              ],
              [
                4.789361080585682,
                51.15790502846705
              ],
              [
                4.788952280815452,
                51.15784221557942
              ],
              [
                4.7885356596634185,
                51.15780490089907
              ],
              [
                4.788115228747767,
                51.157793443726405
              ],
              [
                4.787695036351618,
                51.1578079543816
              ],
              [
                4.787279128462603,
                51.1578482931428
              ],
              [
                4.786871509834482,
                51.15791407159071
              ],
              [
                4.786476105444802,
                51.158004656346925
              ],
              [
                4.786096722718739,
                51.15811917516965
              ],
              [
                4.785737014882096,
                51.158256525348534
              ],
              [
                4.785400445795535,
                51.158415384317884
              ],
              [
                4.785090256608097,
                51.158594222386355
              ],
              [
                4.784809434550675,
                51.158791317460754
              ],
              [
                4.784560684169667,
                51.15900477162243
              ],
              [
                4.784346401277793,
                51.15923252939708
              ],
              [
                4.784168649873018,
                51.1594723975421
              ],
              [
                4.784029142248187,
                51.159722066161514
              ],
              [
                4.783929222483444,
                51.15997913094511
              ],
              [
                4.783869853481042,
                51.16024111631811
              ],
              [
                4.7838516076682325,
                51.16050549927849
              ],
              [
                4.783851800077489,
                51.16050770461802
              ],
              [
                4.783851607208988,
                51.160510499278445
              ],
              [
                4.783874661001915,
                51.16077473369199
              ],
              [
                4.783938793076873,
                51.16103627481368
              ],
              [
                4.78404338647363,
                51.16129260379452
              ],
              [
                4.784187434513426,
                51.16154125194227
              ],
              [
                4.784369550470283,
                51.16177982450045
              ],
              [
                4.784587980905349,
                51.162006023716344
              ],
              [
                4.784840622536672,
                51.16221767097623
              ],
              [
                4.785125042482542,
                51.162412727793914
              ],
              [
                4.785438501683977,
                51.162589315450376
              ],
              [
                4.78577798128101,
                51.162745733095306
              ],
              [
                4.786140211688906,
                51.16288047413528
              ],
              [
                4.7865217040941435,
                51.162992240751144
              ],
              [
                4.786918784066533,
                51.163079956403884
              ],
              [
                4.787327626963275,
                51.16314277620873
              ],
              [
                4.787744294783328,
                51.163180095076996
              ],
              [
                4.788164774116366,
                51.16319155354728
              ],
              [
                4.78858501481991,
                51.163177041249554
              ],
              [
                4.789000969051199,
                51.163136697968824
              ],
              [
                4.7894086302768475,
                51.163070912298025
              ],
              [
                4.789804071883569,
                51.16298031789318
              ],
              [
                4.790183485017175,
                51.16286578736683
              ],
              [
                4.790543215284488,
                51.16272842387916
              ],
              [
                4.7908797979639575,
                51.16256955050728
              ],
              [
                4.791189991385212,
                51.16239069749602
              ],
              [
                4.791470808155614,
                51.162193587512846
              ],
              [
                4.791719543932806,
                51.16198011904933
              ],
              [
                4.791933803466054,
                51.161752348129426
              ],
              [
                4.792111523655713,
                51.161512468500895
              ],
              [
                4.792250993409063,
                51.16126279050106
              ],
              [
                4.792350870101771,
                51.161005718800595
              ],
              [
                4.792410192487128,
                51.16074372924011
              ],
              [
                4.792428389929529,
                51.16047934498259
              ],
              [
                4.792428197115285,
                51.160477139657026
              ],
              [
                4.792428389470286,
                51.16047434498257
              ],
              [
                4.792405287417438,
                51.16021011221108
              ],
              [
                4.79234110905162,
                51.15994857560851
              ],
              [
                4.792236473112192,
                51.15969225385021
              ],
              [
                4.792092387913128,
                51.15944361535079
              ]
            ]
          ]
        ]
      },
      "properties": {
        "type": "buffer_union_300m",
        "buffer_m": 300
      }
    },
    {
      "type": "Feature",
      "geometry": {
        "type": "MultiPolygon",
        "coordinates": [
          [
            [
              [
                4.754488165589206,
                51.13475695257982
              ],
              [
                4.753928171408918,
                51.13477614039492
              ],
              [
                4.7533738619808155,
                51.134829766950844
              ],
              [
                4.752830574423541,
                51.13491731590988
              ],
              [
                4.752303539804603,
                51.13503794431222
              ],
              [
                4.751797832804157,
                51.13519049068707
              ],
              [
                4.751318322879621,
                51.13537348622874
              ],
              [
                4.750869627400005,
                51.13558516893056
              ],
              [
                4.750456067200178,
                51.135823500540916
              ],
              [
                4.750081624982237,
                51.13608618617853
              ],
              [
                4.749749906964089,
                51.1363706964187
              ],
              [
                4.749464108144443,
                51.13667429163846
              ],
              [
                4.749226981518908,
                51.136994048386484
              ],
              [
                4.74904081154421,
                51.1373268875247
              ],
              [
                4.748907392106994,
                51.13766960387065
              ],
              [
                4.74882800921052,
                51.138018897055936
              ],
              [
                4.748803428547439,
                51.138371403303836
              ],
              [
                4.748833888079953,
                51.13872372782008
              ],
              [
                4.748919095700577,
                51.13907247748533
              ],
              [
                4.749058231997847,
                51.13941429353435
              ],
              [
                4.7492499581021805,
                51.13974588390721
              ],
              [
                4.749492428538061,
                51.14006405496065
              ],
              [
                4.749783308960393,
                51.1403657422342
              ],
              [
                4.750119798605624,
                51.14064803997398
              ],
              [
                4.750498657242552,
                51.1409082291299
              ],
              [
                4.750916236364155,
                51.14114380355564
              ],
              [
                4.751248698462832,
                51.14129720894311
              ],
              [
                4.7515246705815715,
                51.141583411196606
              ],
              [
                4.751861179523205,
                51.141865703845625
              ],
              [
                4.752240057736997,
                51.14212588729554
              ],
              [
                4.752657656527332,
                51.14236145545502
              ],
              [
                4.753109954054794,
                51.142570139292225
              ],
              [
                4.75359259407385,
                51.14274992870153
              ],
              [
                4.754100927900214,
                51.14289909187596
              ],
              [
                4.754630059203157,
                51.143016191998406
              ],
              [
                4.755174891190528,
                51.143100101090276
              ],
              [
                4.755730175730864,
                51.14315001088379
              ],
              [
                4.755781801991824,
                51.143151432472955
              ],
              [
                4.75623406213429,
                51.143284130421044
              ],
              [
                4.756763203146957,
                51.14340122096466
              ],
              [
                4.7569103948182025,
                51.14342388709204
              ],
              [
                4.757147828900064,
                51.143476426179916
              ],
              [
                4.757692670778809,
                51.14356032363627
              ],
              [
                4.758247963480636,
                51.143610221577084
              ],
              [
                4.758808358040848,
                51.14362563935035
              ],
              [
                4.75936845631612,
                51.143606428441004
              ],
              [
                4.759922863019139,
                51.143552773902336
              ],
              [
                4.760466237725622,
                51.1434651925723
              ],
              [
                4.760993346351067,
                51.143344528091596
              ],
              [
                4.761499111599703,
                51.14319194277196
              ],
              [
                4.7619786618982,
                51.143008906392815
              ],
              [
                4.762427378341467,
                51.142797182035125
              ],
              [
                4.762840939197268,
                51.142558809088776
              ],
              [
                4.763215361540224,
                51.14229608359804
              ],
              [
                4.7635470396137185,
                51.142011536134696
              ],
              [
                4.763832779550088,
                51.141707907412524
              ],
              [
                4.764069830114957,
                51.14138812187873
              ],
              [
                4.764255909180156,
                51.14105525953692
              ],
              [
                4.7643892256711755,
                51.140712526273745
              ],
              [
                4.7644684967789495,
                51.140363222975154
              ],
              [
                4.7644929602716735,
                51.14001071373035
              ],
              [
                4.764462381789688,
                51.13965839342947
              ],
              [
                4.764377057054943,
                51.13930965506786
              ],
              [
                4.7642378089756,
                51.13896785707116
              ],
              [
                4.76421456810959,
                51.13892768681574
              ],
              [
                4.764235191507964,
                51.138630526198135
              ],
              [
                4.764204615873648,
                51.13827820565204
              ],
              [
                4.7641192955843135,
                51.13792946692751
              ],
              [
                4.763980053505244,
                51.13758766845368
              ],
              [
                4.763978799652829,
                51.13758550116846
              ],
              [
                4.763978053083192,
                51.13758366854467
              ],
              [
                4.763881834130642,
                51.137417353327045
              ],
              [
                4.763930801948411,
                51.13739865957753
              ],
              [
                4.764379455653052,
                51.137186927362826
              ],
              [
                4.764792956879328,
                51.13694854708627
              ],
              [
                4.765167323276214,
                51.13668581486266
              ],
              [
                4.765498949625919,
                51.136401261328615
              ],
              [
                4.765784642558879,
                51.136097627256376
              ],
              [
                4.766021651293301,
                51.13577783714462
              ],
              [
                4.766207694103725,
                51.13544497104105
              ],
              [
                4.7663409802646015,
                51.135102234868505
              ],
              [
                4.766420227258727,
                51.134752929540916
              ],
              [
                4.766444673086255,
                51.13440041916701
              ],
              [
                4.766414083557362,
                51.134048098647796
              ],
              [
                4.766328754500081,
                51.133699360980685
              ],
              [
                4.7661895088638975,
                51.133357564584614
              ],
              [
                4.765997688748801,
                51.13302600096104
              ],
              [
                4.7659965910113,
                51.13302456111516
              ],
              [
                4.765995688470216,
                51.13302300104879
              ],
              [
                4.765753142188909,
                51.13270486308545
              ],
              [
                4.76546220634512,
                51.132403214329095
              ],
              [
                4.765125683383205,
                51.13212095948162
              ],
              [
                4.76474681455055,
                51.13186081644295
              ],
              [
                4.764329248669246,
                51.13162529015038
              ],
              [
                4.763877006991796,
                51.13141664846926
              ],
              [
                4.763394444479464,
                51.13123690036693
              ],
              [
                4.762886207875954,
                51.13108777657935
              ],
              [
                4.762357190979685,
                51.13097071295602
              ],
              [
                4.7618124875444945,
                51.13088683664335
              ],
              [
                4.761257342261196,
                51.130836955238834
              ],
              [
                4.760697100290648,
                51.130821549020204
              ],
              [
                4.760137155832712,
                51.130840766324305
              ],
              [
                4.759582900224675,
                51.130894422119695
              ],
              [
                4.759039670067128,
                51.130981999787174
              ],
              [
                4.7585126958750665,
                51.13110265609048
              ],
              [
                4.758007051747,
                51.131255229290176
              ],
              [
                4.757527606535142,
                51.13143825032227
              ],
              [
                4.757078976985565,
                51.13164995693463
              ],
              [
                4.756665483298456,
                51.13188831064536
              ],
              [
                4.756291107535581,
                51.132151016360325
              ],
              [
                4.755959455275033,
                51.1324355444615
              ],
              [
                4.755673720882374,
                51.13273915515383
              ],
              [
                4.755436656732826,
                51.133058924836995
              ],
              [
                4.755250546681465,
                51.13339177424823
              ],
              [
                4.755117184037807,
                51.13373449810613
              ],
              [
                4.755037854258068,
                51.13408379596989
              ],
              [
                4.755013322523215,
                51.13443630401766
              ],
              [
                4.755042405920108,
                51.13477222168084
              ],
              [
                4.754488165589206,
                51.13475695257982
              ]
            ]
          ],
          [
            [
              [
                4.786255204161321,
                51.1268210793866
              ],
              [
                4.785837574917321,
                51.126585628776944
              ],
              [
                4.78538528599423,
                51.12637706914713
              ],
              [
                4.784902692807705,
                51.12619740867439
              ],
              [
                4.78439444239636,
                51.12604837725089
              ],
              [
                4.783865428691214,
                51.12593140983678
              ],
              [
                4.783320745415127,
                51.12584763265208
              ],
              [
                4.782765637064677,
                51.125797852339836
              ],
              [
                4.782205448445095,
                51.12578254820445
              ],
              [
                4.781645573242649,
                51.12580186759982
              ],
              [
                4.781091402128,
                51.12585562451159
              ],
              [
                4.780548270888493,
                51.1259433013469
              ],
              [
                4.780021409087074,
                51.12606405391469
              ],
              [
                4.779515889740531,
                51.12621671954858
              ],
              [
                4.779036580500094,
                51.12639982829451
              ],
              [
                4.778588096803118,
                51.126611617055715
              ],
              [
                4.778174757445914,
                51.12685004655922
              ],
              [
                4.777800543004706,
                51.12711282098094
              ],
              [
                4.777469057504657,
                51.127397410041155
              ],
              [
                4.777183493705941,
                51.12770107335766
              ],
              [
                4.7769466023413685,
                51.128020886823215
              ],
              [
                4.776760665602381,
                51.12835377075326
              ],
              [
                4.77662747512964,
                51.12869651953374
              ],
              [
                4.776548314721359,
                51.12904583248367
              ],
              [
                4.77652394792731,
                51.12939834563567
              ],
              [
                4.776554610649622,
                51.12975066412871
              ],
              [
                4.776640008823409,
                51.130099394901144
              ],
              [
                4.7767793212013405,
                51.130441179369456
              ],
              [
                4.776971207217216,
                51.1307727257776
              ],
              [
                4.777213819854524,
                51.131090840905514
              ],
              [
                4.777504823397672,
                51.13139246083116
              ],
              [
                4.7775051908020005,
                51.131392768887686
              ],
              [
                4.777506823281283,
                51.131394460909895
              ],
              [
                4.777843415806441,
                51.13167668052198
              ],
              [
                4.778222356065228,
                51.13193678152788
              ],
              [
                4.77863999476359,
                51.132172258630284
              ],
              [
                4.779092309676969,
                51.13238084367432
              ],
              [
                4.7795749443917295,
                51.1325605275059
              ],
              [
                4.780083250274169,
                51.13270957933497
              ],
              [
                4.780612331262356,
                51.132826563416955
              ],
              [
                4.781157091048575,
                51.13291035289101
              ],
              [
                4.781712282196782,
                51.13296014064155
              ],
              [
                4.782272556720622,
                51.132975447078095
              ],
              [
                4.782832517633283,
                51.132956124758
              ],
              [
                4.783386770970974,
                51.13290235980775
              ],
              [
                4.783929977787183,
                51.13281467012884
              ],
              [
                4.784456905615156,
                51.132693900405684
              ],
              [
                4.78496247890124,
                51.13254121396363
              ],
              [
                4.785441827921774,
                51.132358081556156
              ],
              [
                4.785890335711041,
                51.13214626718911
              ],
              [
                4.786303682547172,
                51.13190781111925
              ],
              [
                4.786677887566743,
                51.13164501019138
              ],
              [
                4.7870093471068,
                51.13136039570373
              ],
              [
                4.787294869404853,
                51.13105670901542
              ],
              [
                4.787531705322917,
                51.1307368751318
              ],
              [
                4.787717574800228,
                51.13040397452195
              ],
              [
                4.787850688780769,
                51.1300612134408
              ],
              [
                4.787929766405621,
                51.129711893042014
              ],
              [
                4.787954047306002,
                51.129359377579206
              ],
              [
                4.787923298880221,
                51.129007062002216
              ],
              [
                4.7878378184862305,
                51.128658339260596
              ],
              [
                4.787698430530498,
                51.128316567629334
              ],
              [
                4.787506478483048,
                51.12798503837123
              ],
              [
                4.7872638118973,
                51.12766694404736
              ],
              [
                4.786972768561366,
                51.127365347780426
              ],
              [
                4.786972401126288,
                51.127365039752924
              ],
              [
                4.786970768445022,
                51.127363347859195
              ],
              [
                4.786634151864193,
                51.127081153839605
              ],
              [
                4.786255204161321,
                51.1268210793866
              ]
            ]
          ],
          [
            [
              [
                4.793409811182324,
                51.1590947909793
              ],
              [
                4.793166942696517,
                51.15877671244066
              ],
              [
                4.792875667316836,
                51.15847513418867
              ],
              [
                4.792538790757383,
                51.1581929602461
              ],
              [
                4.7921595576703835,
                51.15793290773354
              ],
              [
                4.791741620385106,
                51.157697480716394
              ],
              [
                4.791289003729815,
                51.157488946103875
              ],
              [
                4.790806066275721,
                51.15730931183225
              ],
              [
                4.790297458375952,
                51.15716030754125
              ],
              [
                4.78976807740312,
                51.157043367929724
              ],
              [
                4.789223020615663,
                51.15695961894997
              ],
              [
                4.788667536105716,
                51.15690986697338
              ],
              [
                4.788106972299488,
                51.156894591031524
              ],
              [
                4.787546726494834,
                51.15691393820682
              ],
              [
                4.786992192929897,
                51.15696772221745
              ],
              [
                4.786448710881094,
                51.1570554252097
              ],
              [
                4.785921513288503,
                51.15717620274064
              ],
              [
                4.785415676401626,
                51.15732889190358
              ],
              [
                4.7849360709288975,
                51.15751202251802
              ],
              [
                4.784487315159965,
                51.157723831276655
              ],
              [
                4.784073730511066,
                51.157962278714
              ],
              [
                4.783699299920772,
                51.15822506883341
              ],
              [
                4.783367629496258,
                51.158509671203966
              ],
              [
                4.783081913779307,
                51.158813345315416
              ],
              [
                4.782844904966753,
                51.159133166956565
              ],
              [
                4.7826588863823405,
                51.15946605636414
              ],
              [
                4.782525650456366,
                51.15980880787136
              ],
              [
                4.782446481426337,
                51.160158120770944
              ],
              [
                4.782422142926704,
                51.16051063109597
              ],
              [
                4.782422335268462,
                51.160512836437825
              ],
              [
                4.7824221423143785,
                51.160515631095926
              ],
              [
                4.78245286997973,
                51.16086794401186
              ],
              [
                4.782538369123978,
                51.161216666511415
              ],
              [
                4.782677817528913,
                51.1615584400906
              ],
              [
                4.782869873319672,
                51.16188997309813
              ],
              [
                4.783112687845862,
                51.16220807244298
              ],
              [
                4.7834039234484695,
                51.162509674354936
              ],
              [
                4.783740775942905,
                51.16279187390202
              ],
              [
                4.784120001602783,
                51.16305195297963
              ],
              [
                4.784537948385428,
                51.163287406501496
              ],
              [
                4.784990591098885,
                51.163495966539806
              ],
              [
                4.785473570171939,
                51.1636756241812
              ],
              [
                4.785982233653556,
                51.16382464888784
              ],
              [
                4.786511682036716,
                51.1639416051763
              ],
              [
                4.787056815474072,
                51.164025366453416
              ],
              [
                4.787612382929558,
                51.16407512587518
              ],
              [
                4.788173032791125,
                51.16409040412393
              ],
              [
                4.788733364455591,
                51.16407105402859
              ],
              [
                4.789287980386998,
                51.16401726198316
              ],
              [
                4.7898315381453385,
                51.1639295461502
              ],
              [
                4.7903588018827366,
                51.16380875146605
              ],
              [
                4.79086469280941,
                51.16365604149659
              ],
              [
                4.791344338141763,
                51.16347288722196
              ],
              [
                4.7917931180598465,
                51.163261052858694
              ],
              [
                4.792206710220769,
                51.16302257885624
              ],
              [
                4.792581131398548,
                51.162759762232184
              ],
              [
                4.792912775848885,
                51.162475134435965
              ],
              [
                4.793198450029192,
                51.16217143695499
              ],
              [
                4.793435403339745,
                51.16185159489853
              ],
              [
                4.7936213545904405,
                51.161518688814404
              ],
              [
                4.793754513939157,
                51.16117592501032
              ],
              [
                4.793833600091612,
                51.160826604666106
              ],
              [
                4.793857852598544,
                51.16047409203481
              ],
              [
                4.793857659716802,
                51.160471886711576
              ],
              [
                4.79385785198622,
                51.16046909203479
              ],
              [
                4.793827038524353,
                51.16011678203828
              ],
              [
                4.793741457082187,
                51.15976806757296
              ],
              [
                4.793601933040859,
                51.159426306834035
              ],
              [
                4.793409811182324,
                51.1590947909793
              ]
            ]
          ]
        ]
      },
      "properties": {
        "type": "buffer_union_400m",
        "buffer_m": 400
      }
    },
    {
      "type": "Feature",
      "geometry": {
        "type": "Polygon",
        "coordinates": [
          [
            [
              4.7144807,
              51.1281703
            ],
            [
              4.7143274,
              51.1258264
            ],
            [
              4.7155797,
              51.1265379
            ],
            [
              4.7175244,
              51.1264721
            ],
            [
              4.7178678,
              51.1262417
            ],
            [
              4.7185312,
              51.1255694
            ],
            [
              4.7188171,
              51.1245774
            ],
            [
              4.7201991,
              51.1237898
            ],
            [
              4.7202617,
              51.1231977
            ],
            [
              4.7204159,
              51.1227759
            ],
            [
              4.719704,
              51.1225758
            ],
            [
              4.7196201,
              51.1224251
            ],
            [
              4.7199726,
              51.121991
            ],
            [
              4.7205421,
              51.1215773
            ],
            [
              4.7207871,
              51.1215239
            ],
            [
              4.7217254,
              51.1218274
            ],
            [
              4.7234132,
              51.1217465
            ],
            [
              4.7238144,
              51.121525
            ],
            [
              4.7238121,
              51.1212548
            ],
            [
              4.7236482,
              51.1209025
            ],
            [
              4.7238122,
              51.1207943
            ],
            [
              4.7253356,
              51.1206661
            ],
            [
              4.7261975,
              51.1203174
            ],
            [
              4.7277927,
              51.1198888
            ],
            [
              4.7287634,
              51.1199183
            ],
            [
              4.7289756,
              51.1198625
            ],
            [
              4.7303319,
              51.1186659
            ],
            [
              4.7307661,
              51.1180941
            ],
            [
              4.7304925,
              51.1169204
            ],
            [
              4.7306082,
              51.1166077
            ],
            [
              4.7308287,
              51.1164417
            ],
            [
              4.7315474,
              51.1163769
            ],
            [
              4.7336799,
              51.1172569
            ],
            [
              4.7347426,
              51.1175809
            ],
            [
              4.7350031,
              51.1176044
            ],
            [
              4.7352949,
              51.1174984
            ],
            [
              4.7354954,
              51.1173215
            ],
            [
              4.7354748,
              51.1170734
            ],
            [
              4.735301,
              51.1168351
            ],
            [
              4.7349477,
              51.1166663
            ],
            [
              4.7349779,
              51.1165453
            ],
            [
              4.7348531,
              51.1164183
            ],
            [
              4.7351135,
              51.1162317
            ],
            [
              4.7351881,
              51.1160277
            ],
            [
              4.7352055,
              51.1158148
            ],
            [
              4.7349569,
              51.1150903
            ],
            [
              4.7351969,
              51.1147239
            ],
            [
              4.7358232,
              51.1147429
            ],
            [
              4.7372875,
              51.1150575
            ],
            [
              4.7382926,
              51.115408
            ],
            [
              4.7391248,
              51.1155598
            ],
            [
              4.7398719,
              51.1157972
            ],
            [
              4.7407261,
              51.1159117
            ],
            [
              4.7415321,
              51.1157687
            ],
            [
              4.7424638,
              51.1157185
            ],
            [
              4.7424499,
              51.115815
            ],
            [
              4.7431109,
              51.1160879
            ],
            [
              4.7434558,
              51.116057
            ],
            [
              4.7441382,
              51.1163186
            ],
            [
              4.7442499,
              51.1162085
            ],
            [
              4.7444944,
              51.1162116
            ],
            [
              4.7444883,
              51.1163257
            ],
            [
              4.7449763,
              51.1163916
            ],
            [
              4.7456228,
              51.1161883
            ],
            [
              4.7471156,
              51.1159577
            ],
            [
              4.7472983,
              51.1157964
            ],
            [
              4.7473184,
              51.1154175
            ],
            [
              4.7474863,
              51.1152057
            ],
            [
              4.7476093,
              51.1151727
            ],
            [
              4.747701,
              51.1152567
            ],
            [
              4.7481918,
              51.1151354
            ],
            [
              4.7490982,
              51.1147049
            ],
            [
              4.749333,
              51.1138265
            ],
            [
              4.7494771,
              51.1136505
            ],
            [
              4.7502191,
              51.1138233
            ],
            [
              4.7507333,
              51.1135067
            ],
            [
              4.752541,
              51.113191
            ],
            [
              4.7534475,
              51.1125768
            ],
            [
              4.7542897,
              51.1124053
            ],
            [
              4.7546161,
              51.1121423
            ],
            [
              4.7547861,
              51.1124306
            ],
            [
              4.7563067,
              51.1121253
            ],
            [
              4.7561988,
              51.1117988
            ],
            [
              4.756293,
              51.1117536
            ],
            [
              4.757006,
              51.1118914
            ],
            [
              4.7570244,
              51.1121849
            ],
            [
              4.7583999,
              51.1123977
            ],
            [
              4.7596905,
              51.1127136
            ],
            [
              4.7611082,
              51.1131962
            ],
            [
              4.7614478,
              51.1134673
            ],
            [
              4.7619048,
              51.1142197
            ],
            [
              4.7622899,
              51.1146433
            ],
            [
              4.7621342,
              51.1147115
            ],
            [
              4.7622366,
              51.115103
            ],
            [
              4.7623774,
              51.1153073
            ],
            [
              4.7625951,
              51.1154325
            ],
            [
              4.7626353,
              51.1156075
            ],
            [
              4.7625134,
              51.1157413
            ],
            [
              4.7618412,
              51.1160716
            ],
            [
              4.7620697,
              51.1165475
            ],
            [
              4.7620529,
              51.1166483
            ],
            [
              4.7619562,
              51.1168135
            ],
            [
              4.7618399,
              51.1168182
            ],
            [
              4.761583,
              51.1172689
            ],
            [
              4.761325,
              51.1179942
            ],
            [
              4.7619268,
              51.1183958
            ],
            [
              4.7623236,
              51.1189224
            ],
            [
              4.7627778,
              51.1191215
            ],
            [
              4.763072,
              51.1193644
            ],
            [
              4.763621,
              51.1194848
            ],
            [
              4.7639585,
              51.119706
            ],
            [
              4.7642149,
              51.1197637
            ],
            [
              4.7608631,
              51.1213631
            ],
            [
              4.7602751,
              51.1215343
            ],
            [
              4.7609304,
              51.1233484
            ],
            [
              4.761334,
              51.1237751
            ],
            [
              4.7614022,
              51.1239512
            ],
            [
              4.7614043,
              51.1245203
            ],
            [
              4.7612118,
              51.1246202
            ],
            [
              4.7613105,
              51.1249016
            ],
            [
              4.7612069,
              51.1259448
            ],
            [
              4.7619638,
              51.1258365
            ],
            [
              4.7624781,
              51.1256363
            ],
            [
              4.762378,
              51.1255634
            ],
            [
              4.762356,
              51.1253933
            ],
            [
              4.7624445,
              51.1252009
            ],
            [
              4.7624149,
              51.1248755
            ],
            [
              4.7624843,
              51.1248426
            ],
            [
              4.7628159,
              51.1249248
            ],
            [
              4.7630998,
              51.1248727
            ],
            [
              4.7633968,
              51.1250032
            ],
            [
              4.7636254,
              51.1247897
            ],
            [
              4.7638959,
              51.1247468
            ],
            [
              4.7640935,
              51.1244539
            ],
            [
              4.7643165,
              51.1244223
            ],
            [
              4.7647916,
              51.1245203
            ],
            [
              4.7650036,
              51.1247074
            ],
            [
              4.7652637,
              51.1247289
            ],
            [
              4.7658941,
              51.1243543
            ],
            [
              4.7664079,
              51.1241628
            ],
            [
              4.7668288,
              51.1241551
            ],
            [
              4.7676743,
              51.1244532
            ],
            [
              4.7677784,
              51.1246584
            ],
            [
              4.7680572,
              51.1247819
            ],
            [
              4.7680282,
              51.1250879
            ],
            [
              4.7681021,
              51.1251144
            ],
            [
              4.7684774,
              51.1249183
            ],
            [
              4.7686884,
              51.1249021
            ],
            [
              4.7696201,
              51.1252212
            ],
            [
              4.7703828,
              51.1248015
            ],
            [
              4.7706409,
              51.1248762
            ],
            [
              4.7707385,
              51.1251311
            ],
            [
              4.7711209,
              51.1252821
            ],
            [
              4.7718944,
              51.1251721
            ],
            [
              4.7721731,
              51.1253728
            ],
            [
              4.7726405,
              51.1254261
            ],
            [
              4.7733931,
              51.1253892
            ],
            [
              4.7735502,
              51.1252906
            ],
            [
              4.7740256,
              51.1252113
            ],
            [
              4.7743847,
              51.1253257
            ],
            [
              4.7748036,
              51.125242
            ],
            [
              4.7750035,
              51.1253522
            ],
            [
              4.776235,
              51.1256334
            ],
            [
              4.776404,
              51.1257177
            ],
            [
              4.7765968,
              51.1260811
            ],
            [
              4.7768056,
              51.126186
            ],
            [
              4.7776764,
              51.1263261
            ],
            [
              4.7781567,
              51.126111
            ],
            [
              4.7784114,
              51.1261162
            ],
            [
              4.7787105,
              51.1262585
            ],
            [
              4.7791193,
              51.1261728
            ],
            [
              4.7793602,
              51.1262583
            ],
            [
              4.7796226,
              51.1261283
            ],
            [
              4.77972,
              51.1261497
            ],
            [
              4.7798542,
              51.1264808
            ],
            [
              4.7801324,
              51.1266407
            ],
            [
              4.7802729,
              51.1265859
            ],
            [
              4.7803906,
              51.1263425
            ],
            [
              4.7807514,
              51.1262486
            ],
            [
              4.7807785,
              51.1260356
            ],
            [
              4.7809587,
              51.1259039
            ],
            [
              4.7810501,
              51.1257067
            ],
            [
              4.7816057,
              51.1254867
            ],
            [
              4.7823776,
              51.1256282
            ],
            [
              4.782515,
              51.1255932
            ],
            [
              4.782669,
              51.1254169
            ],
            [
              4.783024,
              51.1254444
            ],
            [
              4.7831187,
              51.1251496
            ],
            [
              4.7834018,
              51.1251816
            ],
            [
              4.7836222,
              51.1249266
            ],
            [
              4.7844359,
              51.1246491
            ],
            [
              4.7847809,
              51.1247935
            ],
            [
              4.7855194,
              51.1249148
            ],
            [
              4.7856454,
              51.1248247
            ],
            [
              4.7856252,
              51.124695
            ],
            [
              4.7859015,
              51.1243141
            ],
            [
              4.7895866,
              51.1266534
            ],
            [
              4.7898202,
              51.1269932
            ],
            [
              4.7904091,
              51.1284013
            ],
            [
              4.7907647,
              51.1287835
            ],
            [
              4.7967296,
              51.132438
            ],
            [
              4.796893,
              51.1326056
            ],
            [
              4.7993029,
              51.1391707
            ],
            [
              4.7996075,
              51.1395592
            ],
            [
              4.7999616,
              51.1397482
            ],
            [
              4.8101304,
              51.1430992
            ],
            [
              4.8104201,
              51.1432529
            ],
            [
              4.8104931,
              51.1434266
            ],
            [
              4.8095998,
              51.1461835
            ],
            [
              4.8080306,
              51.1468444
            ],
            [
              4.8079977,
              51.1470695
            ],
            [
              4.8065313,
              51.1475195
            ],
            [
              4.8038977,
              51.1486063
            ],
            [
              4.805444,
              51.1511938
            ],
            [
              4.80514,
              51.1534904
            ],
            [
              4.8048793,
              51.1542697
            ],
            [
              4.8032325,
              51.156054
            ],
            [
              4.8028546,
              51.1563025
            ],
            [
              4.8010929,
              51.1558234
            ],
            [
              4.8008516,
              51.1560695
            ],
            [
              4.8010089,
              51.1561227
            ],
            [
              4.7991578,
              51.1574204
            ],
            [
              4.7988075,
              51.1572833
            ],
            [
              4.7970151,
              51.1591447
            ],
            [
              4.7958427,
              51.1600639
            ],
            [
              4.7958965,
              51.160092
            ],
            [
              4.7957845,
              51.1602027
            ],
            [
              4.7943073,
              51.1614863
            ],
            [
              4.7936381,
              51.1614655
            ],
            [
              4.7930557,
              51.1618711
            ],
            [
              4.7925996,
              51.1619159
            ],
            [
              4.7814408,
              51.1596285
            ],
            [
              4.7802561,
              51.1603453
            ],
            [
              4.7794873,
              51.1605735
            ],
            [
              4.7779712,
              51.1601646
            ],
            [
              4.7764386,
              51.1599383
            ],
            [
              4.7756373,
              51.1613998
            ],
            [
              4.7750951,
              51.160973
            ],
            [
              4.7746257,
              51.1602793
            ],
            [
              4.7731969,
              51.1613334
            ],
            [
              4.7716545,
              51.1623044
            ],
            [
              4.7707265,
              51.162357
            ],
            [
              4.7692386,
              51.1622396
            ],
            [
              4.7685048,
              51.1623216
            ],
            [
              4.7667308,
              51.1631477
            ],
            [
              4.7659224,
              51.1638742
            ],
            [
              4.7650398,
              51.1643473
            ],
            [
              4.7643524,
              51.1646059
            ],
            [
              4.7630291,
              51.1631235
            ],
            [
              4.7622739,
              51.1618456
            ],
            [
              4.7629708,
              51.1613328
            ],
            [
              4.7616697,
              51.1608936
            ],
            [
              4.761457,
              51.1605477
            ],
            [
              4.7609159,
              51.1595421
            ],
            [
              4.7613989,
              51.159162
            ],
            [
              4.7613229,
              51.1590622
            ],
            [
              4.7575943,
              51.1581375
            ],
            [
              4.7565267,
              51.1576595
            ],
            [
              4.755962,
              51.1573471
            ],
            [
              4.7558295,
              51.1571837
            ],
            [
              4.7557414,
              51.1568581
            ],
            [
              4.7560627,
              51.1565419
            ],
            [
              4.7556408,
              51.1562646
            ],
            [
              4.7543505,
              51.1560923
            ],
            [
              4.7538705,
              51.1561255
            ],
            [
              4.7533542,
              51.1562672
            ],
            [
              4.7536771,
              51.1592636
            ],
            [
              4.7535272,
              51.1598141
            ],
            [
              4.7532245,
              51.1598428
            ],
            [
              4.7526433,
              51.1595989
            ],
            [
              4.7511375,
              51.1592253
            ],
            [
              4.7503918,
              51.1589609
            ],
            [
              4.7501711,
              51.1591212
            ],
            [
              4.7495759,
              51.1589418
            ],
            [
              4.7496391,
              51.1586885
            ],
            [
              4.7495383,
              51.1584727
            ],
            [
              4.7496299,
              51.1576299
            ],
            [
              4.7498736,
              51.1568022
            ],
            [
              4.7495384,
              51.1566184
            ],
            [
              4.748439,
              51.1562751
            ],
            [
              4.7459568,
              51.1550392
            ],
            [
              4.7459827,
              51.15457
            ],
            [
              4.7461446,
              51.1539962
            ],
            [
              4.7459099,
              51.1538901
            ],
            [
              4.7459716,
              51.1531559
            ],
            [
              4.7452388,
              51.1524994
            ],
            [
              4.7451993,
              51.1522002
            ],
            [
              4.7453933,
              51.1506498
            ],
            [
              4.7425213,
              51.1499492
            ],
            [
              4.7412678,
              51.1495289
            ],
            [
              4.7368983,
              51.1513274
            ],
            [
              4.7347687,
              51.1520339
            ],
            [
              4.7330871,
              51.1520993
            ],
            [
              4.7320411,
              51.1518024
            ],
            [
              4.7308877,
              51.151192
            ],
            [
              4.7295166,
              51.1511416
            ],
            [
              4.7260765,
              51.1514573
            ],
            [
              4.7237938,
              51.151469
            ],
            [
              4.7232856,
              51.1513932
            ],
            [
              4.7213983,
              51.1506424
            ],
            [
              4.7202599,
              51.1506489
            ],
            [
              4.7202554,
              51.146932
            ],
            [
              4.7201098,
              51.1468331
            ],
            [
              4.7195672,
              51.1454273
            ],
            [
              4.7181824,
              51.1413841
            ],
            [
              4.7152255,
              51.133297
            ],
            [
              4.714398,
              51.1311251
            ],
            [
              4.7141128,
              51.1307569
            ],
            [
              4.7141674,
              51.1302939
            ],
            [
              4.7149291,
              51.1282177
            ],
            [
              4.7144807,
              51.1281703
            ]
          ]
        ]
      },
      "properties": {
        "type": "boundary",
        "gemeente": "Herenthout"
      }
    }
  ]
}