{
  "type": "FeatureCollection",
  "metadata": {
    "gemeente": "Hoeilaart",
    "slug": "hoeilaart",
    "generated_at": "2026-09-25T22:11:39.075128Z",
    "total_points": 6,
    "providers": [
      "bpost",
      "DHL",
      "InPost",
      "VintedGo",
      "Amazon"
    ],
    "bounds": [
      4.469646,
      50.75763,
      4.494062,
      50.7685985
    ]
  },
  "features": [
    {
      "type": "Feature",
      "geometry": {
        "type": "Point",
        "coordinates": [
          4.46965,
          50.76675
        ]
      },
      "properties": {
        "type": "pakketpunt",
        "locatieNaam": "Hoeilaart",
        "straatNaam": "J. B. Charlierlaan",
        "straatNr": "1",
        "vervoerder": "bpost",
        "puntType": "postkantoor",
        "bezettingsgraad": 50,
        "latitude": 50.76675,
        "longitude": 4.46965,
        "canPickup": true,
        "canDropoff": true,
        "openingstijden": null
      }
    },
    {
      "type": "Feature",
      "geometry": {
        "type": "Point",
        "coordinates": [
          4.469646,
          50.766753
        ]
      },
      "properties": {
        "type": "pakketpunt",
        "locatieNaam": "HOEILAART",
        "straatNaam": "J. B. CHARLIERLAAN",
        "straatNr": "1",
        "vervoerder": "DHL",
        "puntType": "postOffice",
        "bezettingsgraad": 50,
        "latitude": 50.766753,
        "longitude": 4.469646,
        "canPickup": true,
        "canDropoff": true,
        "openingstijden": {
          "ma": "09:30 - 12:30, 13:30 - 17:00",
          "di": "09:30 - 12:30, 13:30 - 18:00",
          "wo": "09:30 - 12:30, 13:30 - 17:00",
          "do": "09:30 - 12:30, 13:30 - 18:00",
          "vr": "09:30 - 12:30, 13:30 - 17:00",
          "za": "09:30 - 13:00",
          "zo": "gesloten"
        }
      }
    },
    {
      "type": "Feature",
      "geometry": {
        "type": "Point",
        "coordinates": [
          4.49406,
          50.75763
        ]
      },
      "properties": {
        "type": "pakketpunt",
        "locatieNaam": "",
        "straatNaam": "Joseph Kumpsstraat",
        "straatNr": "5",
        "vervoerder": "InPost",
        "puntType": "automaat",
        "bezettingsgraad": 50,
        "latitude": 50.75763,
        "longitude": 4.49406,
        "canPickup": true,
        "canDropoff": true,
        "openingstijden": "24/7"
      }
    },
    {
      "type": "Feature",
      "geometry": {
        "type": "Point",
        "coordinates": [
          4.494062,
          50.7576348
        ]
      },
      "properties": {
        "type": "pakketpunt",
        "locatieNaam": "Carrefour Express Hoeilaart",
        "straatNaam": "Jos. Kumpsstraat",
        "straatNr": "5",
        "vervoerder": "VintedGo",
        "puntType": "locker",
        "bezettingsgraad": 50,
        "latitude": 50.7576348,
        "longitude": 4.494062,
        "canPickup": true,
        "canDropoff": true,
        "openingstijden": null
      }
    },
    {
      "type": "Feature",
      "geometry": {
        "type": "Point",
        "coordinates": [
          4.4718911,
          50.7685985
        ]
      },
      "properties": {
        "type": "pakketpunt",
        "locatieNaam": "Leonidas Hoeilaart",
        "straatNaam": "Gemeenteplein",
        "straatNr": "24",
        "vervoerder": "VintedGo",
        "puntType": "parcel_shop",
        "bezettingsgraad": 50,
        "latitude": 50.7685985,
        "longitude": 4.4718911,
        "canPickup": true,
        "canDropoff": true,
        "openingstijden": null
      }
    },
    {
      "type": "Feature",
      "geometry": {
        "type": "Point",
        "coordinates": [
          4.469646,
          50.766753
        ]
      },
      "properties": {
        "type": "pakketpunt",
        "locatieNaam": "bpost - HOEILAART",
        "straatNaam": "J. B. CHARLIERLAAN,1",
        "straatNr": "",
        "vervoerder": "Amazon",
        "puntType": "3p",
        "bezettingsgraad": 50,
        "latitude": 50.766753,
        "longitude": 4.469646,
        "canPickup": true,
        "canDropoff": false,
        "openingstijden": null
      }
    },
    {
      "type": "Feature",
      "geometry": {
        "type": "MultiPolygon",
        "coordinates": [
          [
            [
              [
                4.4979850835717725,
                50.75659333705656
              ],
              [
                4.497805986535093,
                50.75635429440296
              ],
              [
                4.497590816522326,
                50.75612753772249
              ],
              [
                4.497341646059975,
                50.7559152506156
              ],
              [
                4.497060874992814,
                50.75571947731683
              ],
              [
                4.496751207364494,
                50.75554210301567
              ],
              [
                4.496415625373655,
                50.75538483570933
              ],
              [
                4.496057360656394,
                50.75524918976208
              ],
              [
                4.4956798631716195,
                50.75513647132895
              ],
              [
                4.495286767988584,
                50.75504776578411
              ],
              [
                4.494881860296011,
                50.754983927274424
              ],
              [
                4.494469038969138,
                50.754945570498776
              ],
              [
                4.4940522790447295,
                50.75493306479216
              ],
              [
                4.49363559346461,
                50.754946530571004
              ],
              [
                4.493222994455116,
                50.7549858381744
              ],
              [
                4.492818454913424,
                50.7550506091119
              ],
              [
                4.49242587017163,
                50.75514021970617
              ],
              [
                4.492049020505792,
                50.755253807095464
              ],
              [
                4.491691534750174,
                50.755390277538055
              ],
              [
                4.4913568553662575,
                50.755548316939326
              ],
              [
                4.491048205302321,
                50.755726403499764
              ],
              [
                4.490768556962265,
                50.75592282236287
              ],
              [
                4.490520603582237,
                50.75613568212185
              ],
              [
                4.490306733290616,
                50.756362933026786
              ],
              [
                4.490129006101288,
                50.75660238671679
              ],
              [
                4.489989134062049,
                50.75685173728797
              ],
              [
                4.489888464749839,
                50.75710858349404
              ],
              [
                4.489827968272368,
                50.75737045186649
              ],
              [
                4.489808227902112,
                50.75763482053154
              ],
              [
                4.489829434433793,
                50.75789914349477
              ],
              [
                4.489891384320618,
                50.75816087515969
              ],
              [
                4.489993481608285,
                50.75841749484404
              ],
              [
                4.4899937826112515,
                50.75841802549659
              ],
              [
                4.489995481227282,
                50.75842229491257
              ],
              [
                4.490136743293054,
                50.75867133112357
              ],
              [
                4.49031581021447,
                50.75891038537118
              ],
              [
                4.4905309579133394,
                50.75913715526534
              ],
              [
                4.490780114721577,
                50.75934945669767
              ],
              [
                4.491060881320121,
                50.75954524488297
              ],
              [
                4.491370553838109,
                50.75972263405956
              ],
              [
                4.4917061498901205,
                50.75987991565837
              ],
              [
                4.492064437300872,
                50.76001557476574
              ],
              [
                4.492441965240577,
                50.76012830472072
              ],
              [
                4.492835097470859,
                50.760217019706175
              ],
              [
                4.493240047380554,
                50.760280865212245
              ],
              [
                4.493652914473311,
                50.760319226270944
              ],
              [
                4.494069721954866,
                50.76033173338253
              ],
              [
                4.494486455057039,
                50.76031826607634
              ],
              [
                4.494899099728455,
                50.7602789540718
              ],
              [
                4.495303681318337,
                50.76021417602827
              ],
              [
                4.495696302879809,
                50.76012455589596
              ],
              [
                4.496073182722896,
                50.76001095690301
              ],
              [
                4.496430690854607,
                50.75987447323684
              ],
              [
                4.496765383954442,
                50.75971641950008
              ],
              [
                4.497074038547819,
                50.75953831804302
              ],
              [
                4.497353682057456,
                50.75934188429446
              ],
              [
                4.497601621433422,
                50.75912901023308
              ],
              [
                4.497815469085969,
                50.75890174615835
              ],
              [
                4.497993165871573,
                50.75866228093717
              ],
              [
                4.49813300091106,
                50.75841292091648
              ],
              [
                4.4982336280494755,
                50.758156067705634
              ],
              [
                4.49829407879981,
                50.7578941950423
              ],
              [
                4.4983137716467105,
                50.75762982496513
              ],
              [
                4.4982925176214845,
                50.757365503522806
              ],
              [
                4.498230522095691,
                50.75710377625341
              ],
              [
                4.49812838277701,
                50.756847163670315
              ],
              [
                4.4981280816924345,
                50.75684663303847
              ],
              [
                4.498126382396044,
                50.75684236373885
              ],
              [
                4.4979850835717725,
                50.75659333705656
              ]
            ]
          ],
          [
            [
              [
                4.47371757803887,
                50.76596321352294
              ],
              [
                4.473576380934594,
                50.76571415796185
              ],
              [
                4.4733973731229355,
                50.76547507852412
              ],
              [
                4.473182278981448,
                50.76524827750851
              ],
              [
                4.472933170306477,
                50.765035938942525
              ],
              [
                4.47265244634826,
                50.7648401075563
              ],
              [
                4.4723428106972385,
                50.76466266909873
              ],
              [
                4.472007245244513,
                50.76450533218487
              ],
              [
                4.471648981467269,
                50.76436961184927
              ],
              [
                4.471271469315628,
                50.76425681496334
              ],
              [
                4.470878344000274,
                50.764168027656616
              ],
              [
                4.470473391000202,
                50.764104104863314
              ],
              [
                4.470060509626958,
                50.76406566209388
              ],
              [
                4.469643675495463,
                50.764053069511284
              ],
              [
                4.4692269022619735,
                50.764066448368524
              ],
              [
                4.468814202996665,
                50.764105669841655
              ],
              [
                4.468409551561846,
                50.764170356269545
              ],
              [
                4.468016844366756,
                50.76425988478865
              ],
              [
                4.4676398628662515,
                50.76437339332751
              ],
              [
                4.467282237163719,
                50.76450978890378
              ],
              [
                4.46694741106788,
                50.76466775814369
              ],
              [
                4.466638608939419,
                50.76484577992344
              ],
              [
                4.46635880464623,
                50.76504214001039
              ],
              [
                4.466357568576233,
                50.76504320020434
              ],
              [
                4.466354804581632,
                50.76504513989923
              ],
              [
                4.466106692827466,
                50.76525794744404
              ],
              [
                4.465892663300087,
                50.76548515320939
              ],
              [
                4.465714777546632,
                50.76572456926921
              ],
              [
                4.46557474914178,
                50.76597389008205
              ],
              [
                4.4654739271682775,
                50.7662307146884
              ],
              [
                4.465413283204069,
                50.76649256982788
              ],
              [
                4.4653934019421335,
                50.76675693375426
              ],
              [
                4.4654144755342795,
                50.767021260518945
              ],
              [
                4.465476301714306,
                50.76728300448894
              ],
              [
                4.465578285719661,
                50.76753964486361
              ],
              [
                4.465719445994058,
                50.76778870995376
              ],
              [
                4.465898423617133,
                50.76802780098928
              ],
              [
                4.46611349537121,
                50.768254615225906
              ],
              [
                4.466362590320115,
                50.768466968128266
              ],
              [
                4.466643309741035,
                50.76866281441547
              ],
              [
                4.46695295021793,
                50.768840267766315
              ],
              [
                4.467288529674377,
                50.76899761899371
              ],
              [
                4.467646816095268,
                50.769133352513315
              ],
              [
                4.467733446604136,
                50.769159237570335
              ],
              [
                4.46782326379669,
                50.7693852224923
              ],
              [
                4.467964441478769,
                50.76963428475907
              ],
              [
                4.468143437516411,
                50.76987337225076
              ],
              [
                4.468358528514597,
                50.77010018225717
              ],
              [
                4.468607643351812,
                50.77031253028368
              ],
              [
                4.468888383113684,
                50.770508371096376
              ],
              [
                4.46919804418824,
                50.77068581842676
              ],
              [
                4.469533644300646,
                50.77084316314569
              ],
              [
                4.469891951236808,
                50.770978889731545
              ],
              [
                4.470269513979113,
                50.771091690873455
              ],
              [
                4.470662695954127,
                50.7711804800686
              ],
              [
                4.471067710071629,
                50.77124440209236
              ],
              [
                4.471480655216822,
                50.77128284123971
              ],
              [
                4.471897553843563,
                50.77129542725877
              ],
              [
                4.472314390305617,
                50.771282038918784
              ],
              [
                4.472727149555835,
                50.77124280517859
              ],
              [
                4.473131855839559,
                50.7711781039437
              ],
              [
                4.473524611008565,
                50.771088558424495
              ],
              [
                4.4739016320856555,
                50.77097503113047
              ],
              [
                4.474259287717159,
                50.770838615558446
              ],
              [
                4.474594133161561,
                50.77068062565528
              ],
              [
                4.4749029434766285,
                50.77050258315645
              ],
              [
                4.47518274458496,
                50.77030620292297
              ],
              [
                4.475430841918484,
                50.77009337641818
              ],
              [
                4.475644846365938,
                50.76986615348358
              ],
              [
                4.475822697273567,
                50.76962672258995
              ],
              [
                4.475962682277805,
                50.76937738975376
              ],
              [
                4.476063453779446,
                50.76912055632264
              ],
              [
                4.4761240419012704,
                50.76885869584392
              ],
              [
                4.476143863805155,
                50.768594330239
              ],
              [
                4.476122729279797,
                50.76833000551363
              ],
              [
                4.476060842546265,
                50.768068267237666
              ],
              [
                4.475958800264938,
                50.76781163603056
              ],
              [
                4.475817585764091,
                50.76756258328902
              ],
              [
                4.47563855954664,
                50.76732350738992
              ],
              [
                4.475423446167398,
                50.76709671059793
              ],
              [
                4.475174317607971,
                50.76688437689986
              ],
              [
                4.47489357331007,
                50.76668855097899
              ],
              [
                4.474583917059983,
                50.76651111853154
              ],
              [
                4.474248330947143,
                50.76635378811469
              ],
              [
                4.473890046647647,
                50.76621807470045
              ],
              [
                4.473809310415274,
                50.76619395450966
              ],
              [
                4.47371757803887,
                50.76596321352294
              ]
            ]
          ]
        ]
      },
      "properties": {
        "type": "buffer_union_300m",
        "buffer_m": 300
      }
    },
    {
      "type": "Feature",
      "geometry": {
        "type": "MultiPolygon",
        "coordinates": [
          [
            [
              [
                4.499293406365179,
                50.75624775343569
              ],
              [
                4.499054603619056,
                50.75592903247499
              ],
              [
                4.498767705304456,
                50.75562669317175
              ],
              [
                4.498435474980756,
                50.75534364688039
              ],
              [
                4.498061112557772,
                50.7550826191246
              ],
              [
                4.497648223465421,
                50.75484612336317
              ],
              [
                4.497200783927057,
                50.75463643679867
              ],
              [
                4.4967231026710435,
                50.754455578461375
              ],
              [
                4.496219779449138,
                50.75430528977892
              ],
              [
                4.495695660760671,
                50.7541870178184
              ],
              [
                4.495155793207997,
                50.75410190136165
              ],
              [
                4.494605374931366,
                50.75405075994743
              ],
              [
                4.494049705589453,
                50.7540340859857
              ],
              [
                4.493494135365708,
                50.754052040019694
              ],
              [
                4.492944013489892,
                50.75410444918118
              ],
              [
                4.492404636768752,
                50.754190808853686
              ],
              [
                4.491881198619741,
                50.75431028752812
              ],
              [
                4.491378739096881,
                50.754461734803456
              ],
              [
                4.490902096388458,
                50.7546436924565
              ],
              [
                4.49045586025228,
                50.754854408473896
              ],
              [
                4.490044327835777,
                50.755091853912
              ],
              [
                4.489671462305605,
                50.75535374242259
              ],
              [
                4.489340854684612,
                50.7556375522571
              ],
              [
                4.489055689263596,
                50.75594055053766
              ],
              [
                4.488818712921047,
                50.756259819562224
              ],
              [
                4.488632208646958,
                50.75659228489072
              ],
              [
                4.488497973526481,
                50.75693474494212
              ],
              [
                4.488417301396632,
                50.757283901818276
              ],
              [
                4.488390970344462,
                50.75763639305742
              ],
              [
                4.488419235168675,
                50.75798882401247
              ],
              [
                4.488501824879047,
                50.75833780054176
              ],
              [
                4.488637945259492,
                50.75867996169812
              ],
              [
                4.488638246248863,
                50.758680492354124
              ],
              [
                4.488639944751478,
                50.75868476178948
              ],
              [
                4.488828285997186,
                50.759016812188605
              ],
              [
                4.489067035192439,
                50.759335553762384
              ],
              [
                4.4893538938238615,
                50.75963791655836
              ],
              [
                4.48968609985829,
                50.75992098831918
              ],
              [
                4.490060454320652,
                50.760182042542176
              ],
              [
                4.4904733520883715,
                50.760418564751234
              ],
              [
                4.490920816606208,
                50.76062827672721
              ],
              [
                4.4913985381874175,
                50.76080915846309
              ],
              [
                4.491901915532191,
                50.760959467631764
              ],
              [
                4.492426100062952,
                50.76107775637861
              ],
              [
                4.4929660426487406,
                50.76116288527647
              ],
              [
                4.4935165422675185,
                50.76121403430818
              ],
              [
                4.494072296136356,
                50.76123071077079
              ],
              [
                4.494627950825131,
                50.76121275402468
              ],
              [
                4.495178153859749,
                50.761160337042064
              ],
              [
                4.495717605316124,
                50.761073964739644
              ],
              [
                4.496241108906249,
                50.760954469111645
              ],
              [
                4.496743622062628,
                50.760803001210355
              ],
              [
                4.497220304537154,
                50.76062102005137
              ],
              [
                4.497666565045011,
                50.760410278551134
              ],
              [
                4.498078105503229,
                50.76017280663238
              ],
              [
                4.498450962437033,
                50.75991089166075
              ],
              [
                4.498781545154699,
                50.759627056401555
              ],
              [
                4.499066670323078,
                50.75932403470955
              ],
              [
                4.499303592611029,
                50.75900474518632
              ],
              [
                4.499490031106152,
                50.758672263059616
              ],
              [
                4.499624191251287,
                50.75832979055588
              ],
              [
                4.49970478209065,
                50.75798062605182
              ],
              [
                4.499731028660951,
                50.75762813230224
              ],
              [
                4.4997026794097215,
                50.75727570405075
              ],
              [
                4.499620008571152,
                50.756926735335114
              ],
              [
                4.499483813478374,
                50.75658458680229
              ],
              [
                4.499483512380206,
                50.7565840561739
              ],
              [
                4.499481812970426,
                50.75657978689367
              ],
              [
                4.499293406365179,
                50.75624775343569
              ]
            ]
          ],
          [
            [
              [
                4.474885136192475,
                50.76536884796191
              ],
              [
                4.474646452405045,
                50.76505007795447
              ],
              [
                4.474359655244064,
                50.76474767953688
              ],
              [
                4.474027507295679,
                50.76446456463295
              ],
              [
                4.473653207677288,
                50.764203459427215
              ],
              [
                4.473240361214814,
                50.76396687812433
              ],
              [
                4.47279294372181,
                50.76375709875064
              ],
              [
                4.472315263714959,
                50.763576141230104
              ],
              [
                4.471811920934476,
                50.76342574794545
              ],
              [
                4.4712877620683615,
                50.76330736697093
              ],
              [
                4.470747834106051,
                50.76322213813805
              ],
              [
                4.470197335769525,
                50.76317088206757
              ],
              [
                4.469641567488258,
                50.76315409227341
              ],
              [
                4.469085880398148,
                50.76317193041409
              ],
              [
                4.468535624853885,
                50.76322422473722
              ],
              [
                4.467996098948833,
                50.76331047173211
              ],
              [
                4.467472497536369,
                50.76342984097454
              ],
              [
                4.466969862241953,
                50.763581183117225
              ],
              [
                4.4664930329457295,
                50.763763040949314
              ],
              [
                4.466046601201514,
                50.76397366341867
              ],
              [
                4.465634866039648,
                50.76421102248252
              ],
              [
                4.4652617925784845,
                50.7644728326245
              ],
              [
                4.465260556498733,
                50.76447389280702
              ],
              [
                4.465257792492362,
                50.76447583247629
              ],
              [
                4.464926973711317,
                50.76475957269105
              ],
              [
                4.464641595980147,
                50.76506251078427
              ],
              [
                4.464404408221524,
                50.765381729633695
              ],
              [
                4.464217695461175,
                50.76571415528261
              ],
              [
                4.4640832567919455,
                50.766056586532365
              ],
              [
                4.464002388011181,
                50.76640572576238
              ],
              [
                4.46397586910001,
                50.76675821068114
              ],
              [
                4.464003956666716,
                50.76711064670262
              ],
              [
                4.4640863814287135,
                50.76745963963665
              ],
              [
                4.464222350759148,
                50.76780182837826
              ],
              [
                4.464410556275411,
                50.76813391728137
              ],
              [
                4.464649186398208,
                50.76845270790449
              ],
              [
                4.464935943761818,
                50.76875512982289
              ],
              [
                4.465268067309272,
                50.76903827020996
              ],
              [
                4.4656423588608005,
                50.76929940190218
              ],
              [
                4.466055213900537,
                50.769536009677346
              ],
              [
                4.466502656285487,
                50.76974581449225
              ],
              [
                4.46652862925335,
                50.76975565425419
              ],
              [
                4.466655516916377,
                50.76997951702125
              ],
              [
                4.466894171591899,
                50.7702983029194
              ],
              [
                4.4671809546144985,
                50.77060071919767
              ],
              [
                4.467513104680076,
                50.77088385308372
              ],
              [
                4.467887423353432,
                50.77114497747663
              ],
              [
                4.46830030585744,
                50.77138157722452
              ],
              [
                4.468747775784524,
                50.771591373361474
              ],
              [
                4.469225523396381,
                50.7717723450698
              ],
              [
                4.469728947142882,
                50.77192274915583
              ],
              [
                4.470253197999778,
                50.77204113685065
              ],
              [
                4.470793226197372,
                50.77212636777397
              ],
              [
                4.471343829888978,
                50.77217762092588
              ],
              [
                4.47189970528905,
                50.772194402600434
              ],
              [
                4.472455497796556,
                50.772176551144554
              ],
              [
                4.473005853609493,
                50.77212423851621
              ],
              [
                4.473545471331679,
                50.77203796862692
              ],
              [
                4.474069153073026,
                50.77191857248444
              ],
              [
                4.474571854549443,
                50.771767200182765
              ],
              [
                4.475048733698272,
                50.771585309816714
              ],
              [
                4.475495197339705,
                50.771374653428275
              ],
              [
                4.47590694543362,
                50.77113726012045
              ],
              [
                4.476280012504818,
                50.77087541650181
              ],
              [
                4.476610805837168,
                50.770591644650565
              ],
              [
                4.476896140068656,
                50.77028867781091
              ],
              [
                4.477133267854376,
                50.76996943405631
              ],
              [
                4.477319906302674,
                50.76963698817389
              ],
              [
                4.47745425893071,
                50.76929454204128
              ],
              [
                4.477535032929148,
                50.76894539378137
              ],
              [
                4.477561451571107,
                50.76859290599279
              ],
              [
                4.477533261647476,
                50.76824047336197
              ],
              [
                4.477450735858675,
                50.767891489969074
              ],
              [
                4.477314670141681,
                50.76754931660261
              ],
              [
                4.47712637595982,
                50.767217248397586
              ],
              [
                4.476887667631304,
                50.76689848310847
              ],
              [
                4.476600844820161,
                50.76659609032252
              ],
              [
                4.476268670359541,
                50.76631298190925
              ],
              [
                4.475894343622131,
                50.7660518839907
              ],
              [
                4.475481469694955,
                50.765815310701335
              ],
              [
                4.475034024655988,
                50.76560553999033
              ],
              [
                4.475015311765091,
                50.76559845189461
              ],
              [
                4.474885136192475,
                50.76536884796191
              ]
            ]
          ]
        ]
      },
      "properties": {
        "type": "buffer_union_400m",
        "buffer_m": 400
      }
    },
    {
      "type": "Feature",
      "geometry": {
        "type": "Polygon",
        "coordinates": [
          [
            [
              4.4142882,
              50.7351488
            ],
            [
              4.4052019,
              50.7589247
            ],
            [
              4.4238975,
              50.7649031
            ],
            [
              4.4225561,
              50.7661131
            ],
            [
              4.4200587,
              50.7691293
            ],
            [
              4.4168031,
              50.7733696
            ],
            [
              4.4253134,
              50.7754944
            ],
            [
              4.4331649,
              50.7781279
            ],
            [
              4.4345951,
              50.7764837
            ],
            [
              4.4516656,
              50.7826953
            ],
            [
              4.4590986,
              50.7772629
            ],
            [
              4.4592752,
              50.7774124
            ],
            [
              4.4591591,
              50.7777183
            ],
            [
              4.4596128,
              50.7778755
            ],
            [
              4.4608004,
              50.7786844
            ],
            [
              4.4611778,
              50.7788464
            ],
            [
              4.4613891,
              50.7787987
            ],
            [
              4.4618764,
              50.7788835
            ],
            [
              4.4626075,
              50.7786924
            ],
            [
              4.4631293,
              50.7787237
            ],
            [
              4.464301,
              50.7786173
            ],
            [
              4.4645465,
              50.7785633
            ],
            [
              4.4645815,
              50.7782423
            ],
            [
              4.4649442,
              50.7780199
            ],
            [
              4.4656742,
              50.7780303
            ],
            [
              4.4657043,
              50.7783481
            ],
            [
              4.4666155,
              50.7784009
            ],
            [
              4.4661848,
              50.7791044
            ],
            [
              4.4663859,
              50.7791593
            ],
            [
              4.4662191,
              50.7795123
            ],
            [
              4.4663182,
              50.7795805
            ],
            [
              4.4668185,
              50.7795741
            ],
            [
              4.4668403,
              50.7796645
            ],
            [
              4.4666388,
              50.7799681
            ],
            [
              4.4666439,
              50.7802188
            ],
            [
              4.4680827,
              50.7806949
            ],
            [
              4.4686875,
              50.7806184
            ],
            [
              4.4691501,
              50.7804334
            ],
            [
              4.4699241,
              50.7806152
            ],
            [
              4.470127,
              50.7805091
            ],
            [
              4.4702633,
              50.7803682
            ],
            [
              4.470319,
              50.7798834
            ],
            [
              4.470634,
              50.7798915
            ],
            [
              4.4709053,
              50.7797953
            ],
            [
              4.4710936,
              50.7792369
            ],
            [
              4.4714131,
              50.7788583
            ],
            [
              4.4717231,
              50.7786231
            ],
            [
              4.4721199,
              50.7785158
            ],
            [
              4.4726783,
              50.7782022
            ],
            [
              4.4729272,
              50.7784267
            ],
            [
              4.4733821,
              50.7784564
            ],
            [
              4.4754133,
              50.7790204
            ],
            [
              4.4757332,
              50.7797997
            ],
            [
              4.4757764,
              50.7801394
            ],
            [
              4.4756178,
              50.7810586
            ],
            [
              4.478348,
              50.7807541
            ],
            [
              4.4786678,
              50.7807624
            ],
            [
              4.4786829,
              50.7808834
            ],
            [
              4.4806431,
              50.7803579
            ],
            [
              4.4807296,
              50.7795423
            ],
            [
              4.4810032,
              50.7791211
            ],
            [
              4.4817325,
              50.7784674
            ],
            [
              4.4818394,
              50.7781686
            ],
            [
              4.4817981,
              50.7778908
            ],
            [
              4.4831666,
              50.7778771
            ],
            [
              4.4830595,
              50.7777168
            ],
            [
              4.4829039,
              50.7763533
            ],
            [
              4.4831678,
              50.7765234
            ],
            [
              4.4834516,
              50.7768693
            ],
            [
              4.4838326,
              50.7770242
            ],
            [
              4.4842041,
              50.776744
            ],
            [
              4.4846241,
              50.776556
            ],
            [
              4.4852169,
              50.7767789
            ],
            [
              4.4852746,
              50.7768859
            ],
            [
              4.485761,
              50.7768737
            ],
            [
              4.4858524,
              50.7765993
            ],
            [
              4.4858066,
              50.7751024
            ],
            [
              4.4852206,
              50.7750966
            ],
            [
              4.4850708,
              50.7749137
            ],
            [
              4.4845032,
              50.7747595
            ],
            [
              4.4843625,
              50.7748826
            ],
            [
              4.483895,
              50.7747682
            ],
            [
              4.4843888,
              50.7739002
            ],
            [
              4.4839448,
              50.7736638
            ],
            [
              4.4833959,
              50.7740626
            ],
            [
              4.483032,
              50.7739935
            ],
            [
              4.4824185,
              50.7742077
            ],
            [
              4.4823459,
              50.7741892
            ],
            [
              4.4825022,
              50.7738209
            ],
            [
              4.4813504,
              50.7737593
            ],
            [
              4.4815873,
              50.7734945
            ],
            [
              4.482098,
              50.7731856
            ],
            [
              4.4836044,
              50.7726442
            ],
            [
              4.4840714,
              50.7725689
            ],
            [
              4.4841355,
              50.7724212
            ],
            [
              4.4849184,
              50.7723749
            ],
            [
              4.4852243,
              50.7720864
            ],
            [
              4.4863903,
              50.7720202
            ],
            [
              4.486594,
              50.7717191
            ],
            [
              4.4864231,
              50.7707639
            ],
            [
              4.4869122,
              50.7701154
            ],
            [
              4.486978,
              50.7699393
            ],
            [
              4.4868795,
              50.7699084
            ],
            [
              4.4870767,
              50.7691666
            ],
            [
              4.4870348,
              50.7683819
            ],
            [
              4.4868634,
              50.7679023
            ],
            [
              4.4875834,
              50.7679004
            ],
            [
              4.4888053,
              50.7680842
            ],
            [
              4.4908172,
              50.7679894
            ],
            [
              4.4910573,
              50.7682451
            ],
            [
              4.4919167,
              50.7683077
            ],
            [
              4.4921518,
              50.7684481
            ],
            [
              4.4924061,
              50.7684256
            ],
            [
              4.493876,
              50.7686976
            ],
            [
              4.4940722,
              50.7686752
            ],
            [
              4.4941875,
              50.7685659
            ],
            [
              4.4945239,
              50.7686876
            ],
            [
              4.4948107,
              50.7686276
            ],
            [
              4.4950827,
              50.7687091
            ],
            [
              4.4954771,
              50.7690739
            ],
            [
              4.4965115,
              50.7693464
            ],
            [
              4.4974621,
              50.7691545
            ],
            [
              4.4986102,
              50.7693018
            ],
            [
              4.4987953,
              50.7689872
            ],
            [
              4.5005396,
              50.7688205
            ],
            [
              4.500914,
              50.7688913
            ],
            [
              4.5013882,
              50.7691007
            ],
            [
              4.5018828,
              50.7691372
            ],
            [
              4.5029937,
              50.7688134
            ],
            [
              4.5047097,
              50.7687006
            ],
            [
              4.5061981,
              50.7683347
            ],
            [
              4.5072852,
              50.7683037
            ],
            [
              4.5077005,
              50.7681665
            ],
            [
              4.508328,
              50.7681857
            ],
            [
              4.5089187,
              50.7680985
            ],
            [
              4.508503,
              50.7676575
            ],
            [
              4.5082101,
              50.767026
            ],
            [
              4.5090676,
              50.7665996
            ],
            [
              4.5100381,
              50.7666246
            ],
            [
              4.5108452,
              50.7668445
            ],
            [
              4.5115336,
              50.7667362
            ],
            [
              4.5108189,
              50.7657521
            ],
            [
              4.510318,
              50.7634231
            ],
            [
              4.5110658,
              50.7626653
            ],
            [
              4.5102498,
              50.7622744
            ],
            [
              4.5083207,
              50.7610931
            ],
            [
              4.5047114,
              50.7604655
            ],
            [
              4.5026282,
              50.7608488
            ],
            [
              4.5019554,
              50.7596427
            ],
            [
              4.500824,
              50.7585303
            ],
            [
              4.5004904,
              50.7583301
            ],
            [
              4.4999313,
              50.7581852
            ],
            [
              4.4982281,
              50.7579862
            ],
            [
              4.4962699,
              50.7579841
            ],
            [
              4.4957296,
              50.7579191
            ],
            [
              4.4941493,
              50.7574492
            ],
            [
              4.4938222,
              50.7572477
            ],
            [
              4.4941691,
              50.7570742
            ],
            [
              4.4923061,
              50.7544833
            ],
            [
              4.4912473,
              50.7549349
            ],
            [
              4.4901979,
              50.7538733
            ],
            [
              4.4853847,
              50.7517826
            ],
            [
              4.4846922,
              50.7525254
            ],
            [
              4.4825407,
              50.7545036
            ],
            [
              4.4813114,
              50.7524958
            ],
            [
              4.4802521,
              50.7514158
            ],
            [
              4.4762352,
              50.7526243
            ],
            [
              4.4710768,
              50.7517283
            ],
            [
              4.4694441,
              50.7526561
            ],
            [
              4.4683357,
              50.752525
            ],
            [
              4.4678606,
              50.7538383
            ],
            [
              4.4663399,
              50.7544887
            ],
            [
              4.4647517,
              50.7538614
            ],
            [
              4.4641707,
              50.7546231
            ],
            [
              4.4639436,
              50.7545586
            ],
            [
              4.4635478,
              50.7551115
            ],
            [
              4.4611217,
              50.7541222
            ],
            [
              4.4392164,
              50.7421428
            ],
            [
              4.4381447,
              50.7416364
            ],
            [
              4.4241428,
              50.7359165
            ],
            [
              4.4142882,
              50.7351488
            ]
          ]
        ]
      },
      "properties": {
        "type": "boundary",
        "gemeente": "Hoeilaart"
      }
    }
  ]
}