{"type":"FeatureCollection","metadata":{"gemeente":"Huldenberg","slug":"huldenberg","generated_at":"2026-09-26T14:21:02.665346Z","total_points":30,"providers":["bpost","DHL","GLS","InPost","VintedGo","PostNL","DPD","Amazon","FedEx"],"bounds":[4.582152637052639,50.75178,4.633702,50.817604]},"features":[{"type":"Feature","geometry":{"type":"Point","coordinates":[4.58393,50.7886]},"properties":{"type":"pakketpunt","locatieNaam":"Bbox 24/7 Gem Huldenberg","straatNaam":"Gemeenteplein","straatNr":"1","vervoerder":"bpost","puntType":"automaat","bezettingsgraad":50,"latitude":50.7886,"longitude":4.58393,"canPickup":true,"canDropoff":true,"openingstijden":null}},{"type":"Feature","geometry":{"type":"Point","coordinates":[4.58607,50.78951]},"properties":{"type":"pakketpunt","locatieNaam":"Huldenberg","straatNaam":"R. Borremansstraat","straatNr":"16","vervoerder":"bpost","puntType":"postkantoor","bezettingsgraad":50,"latitude":50.78951,"longitude":4.58607,"canPickup":true,"canDropoff":true,"openingstijden":null}},{"type":"Feature","geometry":{"type":"Point","coordinates":[4.60691,50.806]},"properties":{"type":"pakketpunt","locatieNaam":"Bbox 24/7 Hoppinpunt Loonbeek","straatNaam":"Sint-Jansbergsteenweg","straatNr":"AUTOMAAT","vervoerder":"bpost","puntType":"automaat","bezettingsgraad":50,"latitude":50.806,"longitude":4.60691,"canPickup":true,"canDropoff":true,"openingstijden":null}},{"type":"Feature","geometry":{"type":"Point","coordinates":[4.62296,50.8176]},"properties":{"type":"pakketpunt","locatieNaam":"Bbox 24/7 Gemeente Neerijse","straatNaam":"Donkerstraat","straatNr":"1-3","vervoerder":"bpost","puntType":"automaat","bezettingsgraad":50,"latitude":50.8176,"longitude":4.62296,"canPickup":true,"canDropoff":true,"openingstijden":null}},{"type":"Feature","geometry":{"type":"Point","coordinates":[4.6337,50.78398]},"properties":{"type":"pakketpunt","locatieNaam":"Bbox Parking Ter Dijle","straatNaam":"Leuvensebaan","straatNr":"313","vervoerder":"bpost","puntType":"automaat","bezettingsgraad":50,"latitude":50.78398,"longitude":4.6337,"canPickup":true,"canDropoff":true,"openingstijden":null}},{"type":"Feature","geometry":{"type":"Point","coordinates":[4.61594,50.75178]},"properties":{"type":"pakketpunt","locatieNaam":"Bbox 24/7 Gem Ottenburg","straatNaam":"Leuvensebaan","straatNr":"AUTOMAAT","vervoerder":"bpost","puntType":"automaat","bezettingsgraad":50,"latitude":50.75178,"longitude":4.61594,"canPickup":true,"canDropoff":true,"openingstijden":null}},{"type":"Feature","geometry":{"type":"Point","coordinates":[4.586071,50.789514]},"properties":{"type":"pakketpunt","locatieNaam":"HULDENBERG","straatNaam":"R. BORREMANSSTRAAT","straatNr":"16","vervoerder":"DHL","puntType":"postOffice","bezettingsgraad":50,"latitude":50.789514,"longitude":4.586071,"canPickup":true,"canDropoff":true,"openingstijden":{"ma":"09:30 - 12:30","di":"14:00 - 18:00","wo":"09:30 - 12:30, 13:45 - 17:00","do":"09:30 - 12:30, 13:45 - 18:00","vr":"09:30 - 12:30","za":"gesloten","zo":"gesloten"}}},{"type":"Feature","geometry":{"type":"Point","coordinates":[4.583927,50.788597]},"properties":{"type":"pakketpunt","locatieNaam":"BBOX 24/7 GEMEENTE HULDENBERG","straatNaam":"GEMEENTEPLEIN","straatNr":"1","vervoerder":"DHL","puntType":"packStation","bezettingsgraad":50,"latitude":50.788597,"longitude":4.583927,"canPickup":true,"canDropoff":true,"openingstijden":{"ma":"00:00 - 23:59","di":"00:00 - 23:59","wo":"00:00 - 23:59","do":"00:00 - 23:59","vr":"00:00 - 23:59","za":"00:00 - 23:59","zo":"00:00 - 23:59"}}},{"type":"Feature","geometry":{"type":"Point","coordinates":[4.60691,50.805997]},"properties":{"type":"pakketpunt","locatieNaam":"BBOX 24/7 HOPPINPUNT LOONBEEK","straatNaam":"SINT-JANSBERGSTEENWEG","straatNr":"AUTOMAAT","vervoerder":"DHL","puntType":"packStation","bezettingsgraad":50,"latitude":50.805997,"longitude":4.60691,"canPickup":true,"canDropoff":true,"openingstijden":{"ma":"00:00 - 23:59","di":"00:00 - 23:59","wo":"00:00 - 23:59","do":"00:00 - 23:59","vr":"00:00 - 23:59","za":"00:00 - 23:59","zo":"00:00 - 23:59"}}},{"type":"Feature","geometry":{"type":"Point","coordinates":[4.633702,50.783978]},"properties":{"type":"pakketpunt","locatieNaam":"BBOX PARKING TER DIJLE","straatNaam":"LEUVENSEBAAN","straatNr":"313","vervoerder":"DHL","puntType":"packStation","bezettingsgraad":50,"latitude":50.783978,"longitude":4.633702,"canPickup":true,"canDropoff":true,"openingstijden":{"ma":"00:00 - 23:59","di":"00:00 - 23:59","wo":"00:00 - 23:59","do":"00:00 - 23:59","vr":"00:00 - 23:59","za":"00:00 - 23:59","zo":"00:00 - 23:59"}}},{"type":"Feature","geometry":{"type":"Point","coordinates":[4.622959,50.817604]},"properties":{"type":"pakketpunt","locatieNaam":"BBOX 24/7 GEMEENTE NEERIJSE","straatNaam":"DONKERSTRAAT","straatNr":"1-3","vervoerder":"DHL","puntType":"packStation","bezettingsgraad":50,"latitude":50.817604,"longitude":4.622959,"canPickup":true,"canDropoff":true,"openingstijden":{"ma":"00:00 - 23:59","di":"00:00 - 23:59","wo":"00:00 - 23:59","do":"00:00 - 23:59","vr":"00:00 - 23:59","za":"00:00 - 23:59","zo":"00:00 - 23:59"}}},{"type":"Feature","geometry":{"type":"Point","coordinates":[4.615935,50.751784]},"properties":{"type":"pakketpunt","locatieNaam":"BBOX 24/7 GEMEENTE OTTENBURG","straatNaam":"LEUVENSEBAAN","straatNr":"AUTOMAAT","vervoerder":"DHL","puntType":"packStation","bezettingsgraad":50,"latitude":50.751784,"longitude":4.615935,"canPickup":true,"canDropoff":true,"openingstijden":{"ma":"00:00 - 23:59","di":"00:00 - 23:59","wo":"00:00 - 23:59","do":"00:00 - 23:59","vr":"00:00 - 23:59","za":"00:00 - 23:59","zo":"00:00 - 23:59"}}},{"type":"Feature","geometry":{"type":"Point","coordinates":[4.61613,50.75185]},"properties":{"type":"pakketpunt","locatieNaam":"GLS Parcel Locker powered by bbox","straatNaam":"Leuvensebaan","straatNr":"80","vervoerder":"GLS","puntType":"locker","bezettingsgraad":50,"latitude":50.75185,"longitude":4.61613,"canPickup":true,"canDropoff":true,"openingstijden":"za: 08:00 - 24:00; zo: 08:00 - 24:00"}},{"type":"Feature","geometry":{"type":"Point","coordinates":[4.6025024,50.7807826]},"properties":{"type":"pakketpunt","locatieNaam":"Vanbever","straatNaam":"Zavelstraat","straatNr":"16","vervoerder":"GLS","puntType":"parcel_shop","bezettingsgraad":50,"latitude":50.7807826,"longitude":4.6025024,"canPickup":true,"canDropoff":true,"openingstijden":"za: 07:00 - 15:45; ma: 07:00 - 17:45"}},{"type":"Feature","geometry":{"type":"Point","coordinates":[4.58394,50.78904]},"properties":{"type":"pakketpunt","locatieNaam":"GLS Parcel Locker powered by bbox","straatNaam":"Gemeenteplein","straatNr":"1","vervoerder":"GLS","puntType":"locker","bezettingsgraad":50,"latitude":50.78904,"longitude":4.58394,"canPickup":true,"canDropoff":true,"openingstijden":"za: 08:00 - 24:00; zo: 08:00 - 24:00"}},{"type":"Feature","geometry":{"type":"Point","coordinates":[4.58218,50.78936]},"properties":{"type":"pakketpunt","locatieNaam":"Selexion Clix Bert","straatNaam":"De Peuthystraat","straatNr":"1","vervoerder":"GLS","puntType":"parcel_shop","bezettingsgraad":50,"latitude":50.78936,"longitude":4.58218,"canPickup":true,"canDropoff":true,"openingstijden":"za: 08:30 - 12:30, 13:30 - 17:00; ma: 09:30 - 12:30"}},{"type":"Feature","geometry":{"type":"Point","coordinates":[4.62299,50.81754]},"properties":{"type":"pakketpunt","locatieNaam":"GLS Parcel Locker powered by bbox","straatNaam":"Donkerstraat","straatNr":"1","vervoerder":"GLS","puntType":"locker","bezettingsgraad":50,"latitude":50.81754,"longitude":4.62299,"canPickup":true,"canDropoff":true,"openingstijden":"za: 08:00 - 24:00; zo: 08:00 - 24:00"}},{"type":"Feature","geometry":{"type":"Point","coordinates":[4.58302,50.78944]},"properties":{"type":"pakketpunt","locatieNaam":"SELEXION CLIX BERT","straatNaam":"PEUTHYSTRAAT 1","straatNr":"","vervoerder":"InPost","puntType":"servicepunt","bezettingsgraad":50,"latitude":50.78944,"longitude":4.58302,"canPickup":true,"canDropoff":true,"openingstijden":null}},{"type":"Feature","geometry":{"type":"Point","coordinates":[4.5984837,50.7792622]},"properties":{"type":"pakketpunt","locatieNaam":"Huldenberg","straatNaam":"Zavelstraat","straatNr":"16","vervoerder":"VintedGo","puntType":"parcel_shop","bezettingsgraad":50,"latitude":50.7792622,"longitude":4.5984837,"canPickup":true,"canDropoff":true,"openingstijden":null}},{"type":"Feature","geometry":{"type":"Point","coordinates":[4.58241,50.78936]},"properties":{"type":"pakketpunt","locatieNaam":"FOTO VIDEO BERT Huldenberg","straatNaam":"De Peuthystraat","straatNr":"1","vervoerder":"PostNL","puntType":"servicepunt","bezettingsgraad":50,"latitude":50.78936,"longitude":4.58241,"canPickup":true,"canDropoff":true,"openingstijden":"09:30 - 12:30, 13:30 - 17:00"}},{"type":"Feature","geometry":{"type":"Point","coordinates":[4.598276,50.779143]},"properties":{"type":"pakketpunt","locatieNaam":"Vanbever BV","straatNaam":"Zavelstraat","straatNr":"16","vervoerder":"PostNL","puntType":"servicepunt","bezettingsgraad":50,"latitude":50.779143,"longitude":4.598276,"canPickup":true,"canDropoff":true,"openingstijden":"07:00 - 16:00"}},{"type":"Feature","geometry":{"type":"Point","coordinates":[4.598476,50.779254]},"properties":{"type":"pakketpunt","locatieNaam":"BOUWMATERIALEN VAN BEVER","straatNaam":"ZAVELSTRAAT","straatNr":"16","vervoerder":"DPD","puntType":"pickup_point","bezettingsgraad":50,"latitude":50.779254,"longitude":4.598476,"canPickup":true,"canDropoff":false,"openingstijden":{"ma":"07:00 - 18:00","di":"07:00 - 18:00","wo":"07:00 - 12:30, 17:00 - 17:45","do":"07:00 - 18:00","vr":"07:00 - 18:00","za":"07:00 - 16:00","zo":"gesloten"}}},{"type":"Feature","geometry":{"type":"Point","coordinates":[4.582179,50.78936]},"properties":{"type":"pakketpunt","locatieNaam":"SELEXION CLIX BERT","straatNaam":"DE PEUTHYSTRAAT","straatNr":"1","vervoerder":"DPD","puntType":"pickup_point","bezettingsgraad":50,"latitude":50.78936,"longitude":4.582179,"canPickup":true,"canDropoff":false,"openingstijden":{"ma":"09:30 - 12:30","di":"09:30 - 12:30, 13:30 - 18:30","wo":"09:30 - 12:30, 13:30 - 18:30","do":"gesloten","vr":"09:30 - 12:30, 13:30 - 18:30","za":"09:30 - 12:30, 13:30 - 17:00","zo":"gesloten"}}},{"type":"Feature","geometry":{"type":"Point","coordinates":[4.615935,50.751784]},"properties":{"type":"pakketpunt","locatieNaam":"bpost - BBOX 24/7 GEMEENTE OTTENBURG","straatNaam":"LEUVENSEBAAN,AUTOMAAT","straatNr":"","vervoerder":"Amazon","puntType":"3p","bezettingsgraad":50,"latitude":50.751784,"longitude":4.615935,"canPickup":true,"canDropoff":false,"openingstijden":null}},{"type":"Feature","geometry":{"type":"Point","coordinates":[4.5839271,50.7885971]},"properties":{"type":"pakketpunt","locatieNaam":"bpost - BBOX 24/7 GEMEENTE HULDENBERG","straatNaam":"GEMEENTEPLEIN,1","straatNr":"","vervoerder":"Amazon","puntType":"3p","bezettingsgraad":50,"latitude":50.7885971,"longitude":4.5839271,"canPickup":true,"canDropoff":false,"openingstijden":null}},{"type":"Feature","geometry":{"type":"Point","coordinates":[4.586071,50.789514]},"properties":{"type":"pakketpunt","locatieNaam":"bpost - HULDENBERG","straatNaam":"R. BORREMANSSTRAAT,16","straatNr":"","vervoerder":"Amazon","puntType":"3p","bezettingsgraad":50,"latitude":50.789514,"longitude":4.586071,"canPickup":true,"canDropoff":false,"openingstijden":null}},{"type":"Feature","geometry":{"type":"Point","coordinates":[4.633702,50.783978]},"properties":{"type":"pakketpunt","locatieNaam":"bpost - BBOX PARKING TER DIJLE","straatNaam":"LEUVENSEBAAN,313","straatNr":"","vervoerder":"Amazon","puntType":"3p","bezettingsgraad":50,"latitude":50.783978,"longitude":4.633702,"canPickup":true,"canDropoff":false,"openingstijden":null}},{"type":"Feature","geometry":{"type":"Point","coordinates":[4.6229591,50.817604]},"properties":{"type":"pakketpunt","locatieNaam":"bpost - BBOX 24/7 GEMEENTE NEERIJSE","straatNaam":"DONKERSTRAAT,1-3","straatNr":"","vervoerder":"Amazon","puntType":"3p","bezettingsgraad":50,"latitude":50.817604,"longitude":4.6229591,"canPickup":true,"canDropoff":false,"openingstijden":null}},{"type":"Feature","geometry":{"type":"Point","coordinates":[4.60691,50.805997]},"properties":{"type":"pakketpunt","locatieNaam":"bpost - BBOX 24/7 HOPPINPUNT LOONBEEK","straatNaam":"SINT-JANSBERGSTEENWEG,AUTOMAAT","straatNr":"","vervoerder":"Amazon","puntType":"3p","bezettingsgraad":50,"latitude":50.805997,"longitude":4.60691,"canPickup":true,"canDropoff":false,"openingstijden":null}},{"type":"Feature","geometry":{"type":"Point","coordinates":[4.582152637052639,50.78935282253364]},"properties":{"type":"pakketpunt","locatieNaam":"FedEx OnSite","straatNaam":"PEUTHYSTRAAT 1","straatNr":"","vervoerder":"FedEx","puntType":"servicepunt","bezettingsgraad":50,"latitude":50.78935282253364,"longitude":4.582152637052639,"canPickup":true,"canDropoff":true,"openingstijden":{"ma":"gesloten","di":"09:30 - 12:30, 13:30 - 18:30","wo":"09:30 - 12:30, 13:30 - 18:30","do":"gesloten","vr":"09:30 - 12:30, 13:30 - 18:30","za":"09:30 - 12:30, 13:30 - 17:00","zo":"gesloten"}}},{"type":"Feature","geometry":{"type":"Polygon","coordinates":[[[4.5668961,50.8049419],[4.5679416,50.8105409],[4.5684842,50.8116427],[4.5690523,50.8123909],[4.5711893,50.8133029],[4.5732323,50.8132613],[4.5735972,50.8131646],[4.574473,50.8133446],[4.5767134,50.8141145],[4.5770904,50.8143679],[4.5776823,50.8145763],[4.5779457,50.8147879],[4.5792032,50.815321],[4.5797547,50.8154809],[4.5804635,50.8155186],[4.5808798,50.8157229],[4.5817941,50.816454],[4.58299,50.8171034],[4.5838261,50.8174081],[4.5855934,50.8177274],[4.5879423,50.8192417],[4.588144,50.8196771],[4.5885552,50.8200414],[4.5901364,50.8204113],[4.5909076,50.8209019],[4.5912506,50.8209051],[4.5915407,50.8210761],[4.5918829,50.8211163],[4.5929128,50.8214953],[4.5941985,50.8218164],[4.5941588,50.822236],[4.594007,50.8226994],[4.5949754,50.822807],[4.5945392,50.8233635],[4.5943391,50.8244262],[4.5941437,50.8246363],[4.5933965,50.8251023],[4.5933246,50.8250449],[4.592093,50.8256771],[4.5915611,50.8274266],[4.5923024,50.8283854],[4.593201,50.828799],[4.5939809,50.8293318],[4.5949248,50.830386],[4.5967612,50.8318872],[4.5977485,50.8324712],[4.5982682,50.8326574],[4.5997811,50.8337076],[4.6030797,50.8352071],[4.6052887,50.8323871],[4.6048788,50.8322453],[4.6052635,50.8318856],[4.6055962,50.8313241],[4.6072934,50.8298657],[4.60906,50.8304825],[4.6120306,50.8311088],[4.6137622,50.8317256],[4.6146352,50.8316281],[4.6155144,50.832045],[4.6177128,50.8304724],[4.6184384,50.8303582],[4.618782,50.8299483],[4.6195105,50.8299803],[4.6202792,50.8290066],[4.6200195,50.8288649],[4.6207405,50.8283597],[4.621296,50.8286562],[4.6218543,50.8281309],[4.6231538,50.8285086],[4.6260431,50.8300553],[4.6272304,50.8305754],[4.6277721,50.8309585],[4.6281786,50.8314342],[4.6286709,50.8318015],[4.6301127,50.8323874],[4.6310242,50.832558],[4.6318192,50.8326544],[4.6341306,50.8326908],[4.6343808,50.8324963],[4.6352799,50.8324829],[4.637385,50.831843],[4.6383506,50.8319501],[4.6420699,50.8314266],[4.6421706,50.8319563],[4.6437108,50.8317872],[4.6436048,50.831683],[4.6447816,50.8311976],[4.6448565,50.8309226],[4.6452182,50.8308701],[4.6455927,50.8304679],[4.6456578,50.8299112],[4.6453208,50.8295657],[4.6447039,50.829313],[4.6445904,50.8291056],[4.6447175,50.8287495],[4.6446813,50.8286302],[4.6444655,50.8285137],[4.6435784,50.8283507],[4.6433293,50.8281467],[4.64316,50.827767],[4.6432822,50.8275333],[4.6436305,50.8273911],[4.6450452,50.8275999],[4.6452357,50.8274511],[4.6451662,50.8270972],[4.6449626,50.8269382],[4.6446276,50.8268843],[4.643287,50.8270125],[4.643047,50.8269416],[4.6430274,50.8268128],[4.6431819,50.8265718],[4.6441411,50.8260988],[4.6442305,50.8259422],[4.644171,50.8257502],[4.6437366,50.8254802],[4.6428787,50.8258717],[4.6422296,50.8258861],[4.6422265,50.8257791],[4.6425591,50.8256188],[4.6426389,50.8253757],[4.6423947,50.8251993],[4.6415979,50.8251913],[4.641274,50.8250949],[4.6414591,50.824757],[4.6411438,50.8240677],[4.6412261,50.8239455],[4.641647,50.8238394],[4.6416665,50.8235151],[4.6415126,50.8231403],[4.6415805,50.822921],[4.6416857,50.8228802],[4.6420852,50.8230055],[4.6423327,50.8229074],[4.642312,50.8227357],[4.6419454,50.8221475],[4.6419925,50.8220286],[4.6423382,50.8219583],[4.6429269,50.8220248],[4.6430309,50.8219403],[4.6428668,50.8217394],[4.642441,50.8215176],[4.6421752,50.8210986],[4.6421912,50.8209384],[4.6431429,50.8202769],[4.6445158,50.8204631],[4.6446558,50.8204247],[4.644632,50.8202982],[4.6437554,50.8196635],[4.6437004,50.8195259],[4.6440707,50.8189402],[4.6442442,50.8188422],[4.6448218,50.8189597],[4.645295,50.8188978],[4.6453781,50.8187819],[4.6451052,50.8183301],[4.6455892,50.8181322],[4.6457366,50.8177214],[4.6462091,50.8173211],[4.6462319,50.8172044],[4.6460396,50.8170991],[4.6452856,50.8169722],[4.6430531,50.8163851],[4.6432545,50.8160312],[4.6433298,50.8156174],[4.6431797,50.8151495],[4.6424175,50.8142779],[4.641808,50.8139113],[4.640777,50.8127729],[4.640176,50.8116978],[4.6400496,50.8113328],[4.6384946,50.8107564],[4.6366333,50.8097992],[4.6342561,50.8091621],[4.6328331,50.8060339],[4.6321602,50.8051553],[4.6320658,50.804622],[4.632296,50.8038556],[4.6329446,50.8029506],[4.632747,50.802546],[4.632754,50.8021277],[4.6324994,50.8013321],[4.6325094,50.8005786],[4.6327489,50.7994237],[4.6323072,50.7983413],[4.6331671,50.7983434],[4.6351612,50.7992415],[4.6361321,50.8006863],[4.6407782,50.7988059],[4.6419244,50.7987667],[4.6416062,50.7984999],[4.6422663,50.7985192],[4.642679,50.7978786],[4.6433447,50.7974995],[4.6429781,50.7972497],[4.643304,50.7968494],[4.6434209,50.7965636],[4.6436044,50.7964548],[4.6436059,50.7957766],[4.6442433,50.795021],[4.6442321,50.7949098],[4.644035,50.794718],[4.6444406,50.7940781],[4.644201,50.7937076],[4.6441683,50.7934739],[4.6447563,50.7931514],[4.6451319,50.7922973],[4.645627,50.7920962],[4.6466204,50.7913011],[4.6469863,50.7904209],[4.6470401,50.7897518],[4.6470303,50.7895263],[4.6467665,50.7890083],[4.646415,50.7866477],[4.6464253,50.786376],[4.646595,50.7860812],[4.6454951,50.7860253],[4.6451536,50.7835915],[4.6442884,50.7836553],[4.6432145,50.7805201],[4.6432254,50.7788898],[4.6397087,50.7787028],[4.6395252,50.7786355],[4.6396967,50.7784897],[4.6397392,50.7781691],[4.640108,50.7779945],[4.6401415,50.7778348],[4.6397011,50.7776606],[4.6393375,50.7773928],[4.6389828,50.7768639],[4.6387606,50.776713],[4.6384308,50.7766706],[4.6378069,50.7767768],[4.6374932,50.776696],[4.6372727,50.7764422],[4.6372715,50.7762706],[4.6376938,50.775537],[4.6373586,50.7752232],[4.6369736,50.7750446],[4.6371196,50.7749238],[4.6375419,50.7748522],[4.6391565,50.7747324],[4.6394134,50.7746361],[4.6394195,50.7743856],[4.6391599,50.7742413],[4.6383396,50.7742262],[4.6380151,50.774139],[4.6378421,50.7739358],[4.6377933,50.773499],[4.637558,50.7733525],[4.6367431,50.7735428],[4.6366714,50.7734082],[4.6367061,50.7729981],[4.6363273,50.7727131],[4.6362249,50.772423],[4.6362813,50.7723434],[4.6368839,50.7721612],[4.6376669,50.7714585],[4.6385454,50.7714776],[4.6386585,50.771141],[4.6400758,50.7703449],[4.6401392,50.7700847],[4.6400422,50.7698503],[4.6401034,50.7697993],[4.640991,50.7696108],[4.6409954,50.7694671],[4.6408778,50.7692797],[4.6410264,50.7691343],[4.6417451,50.7690465],[4.6417311,50.7687394],[4.6414904,50.7683934],[4.640702,50.7683283],[4.6404956,50.7682455],[4.6404628,50.768123],[4.6416811,50.7674292],[4.6416716,50.7670864],[4.6423138,50.766322],[4.6429136,50.7662898],[4.6433342,50.7659147],[4.6438225,50.7656801],[4.6441299,50.7656768],[4.6443101,50.765538],[4.6443763,50.7653436],[4.6442325,50.7651014],[4.6442976,50.7649785],[4.6449639,50.7646201],[4.645028,50.7643733],[4.645326,50.7639033],[4.645354,50.7636792],[4.6451098,50.7633523],[4.6451121,50.7632526],[4.6453212,50.7632031],[4.6457486,50.7633276],[4.6461983,50.7629313],[4.6461287,50.7628362],[4.6457208,50.7627603],[4.645632,50.7626466],[4.6456359,50.7624828],[4.6459276,50.7621506],[4.6459499,50.7617786],[4.6461945,50.7614865],[4.6460928,50.7611085],[4.6461692,50.7608944],[4.6470534,50.7605547],[4.6471542,50.7604078],[4.6471865,50.7593013],[4.6472623,50.7590836],[4.647787,50.7591021],[4.6482733,50.7593343],[4.6485323,50.7595914],[4.6488386,50.7596666],[4.6491691,50.759559],[4.6494881,50.7589203],[4.6496984,50.7588373],[4.6500166,50.7588596],[4.6509821,50.7592656],[4.6526639,50.759685],[4.6544058,50.7588669],[4.6546175,50.7582884],[4.6552528,50.7579479],[4.655426,50.7574646],[4.6546365,50.7564976],[4.6547372,50.7563317],[4.6551663,50.7561027],[4.6550778,50.7557209],[4.6548324,50.7553729],[4.6551666,50.7549141],[4.6551486,50.754788],[4.65486,50.7546846],[4.6545404,50.7547347],[4.6539648,50.7551191],[4.6537467,50.7550104],[4.6537437,50.7547737],[4.653126,50.754956],[4.6529466,50.7548068],[4.6517959,50.7553595],[4.6517421,50.7555326],[4.651112,50.7554136],[4.650336,50.754759],[4.651186,50.7542377],[4.6507977,50.7539307],[4.6509204,50.7537416],[4.6512557,50.753494],[4.6526459,50.7528587],[4.6524152,50.7524835],[4.6519038,50.7522599],[4.651209,50.7521596],[4.6499627,50.7518282],[4.6498502,50.7516503],[4.6496081,50.7515776],[4.6491296,50.7518499],[4.6488696,50.7516312],[4.6480442,50.7519831],[4.6473084,50.7521775],[4.6448325,50.7495442],[4.6468021,50.7485134],[4.6456734,50.7477976],[4.6448127,50.7473753],[4.6435554,50.7459505],[4.6414275,50.7452221],[4.641089,50.7455316],[4.6402406,50.7456845],[4.6392434,50.7462611],[4.6390718,50.7462872],[4.6385749,50.7454134],[4.6385657,50.7450728],[4.6386816,50.7446299],[4.6378802,50.7443022],[4.6372188,50.7438841],[4.6360956,50.7434783],[4.6349037,50.7432086],[4.6344474,50.7426221],[4.6335048,50.7430281],[4.6335269,50.7433267],[4.6300016,50.7427903],[4.6291238,50.7432412],[4.6280147,50.7425629],[4.6256892,50.7441723],[4.6232741,50.7438693],[4.622069,50.7435791],[4.6218058,50.7439139],[4.6202847,50.7434348],[4.61943,50.7440369],[4.6184107,50.7435894],[4.6124719,50.7428103],[4.6098462,50.7423786],[4.609906,50.7423041],[4.6093484,50.7421218],[4.6093747,50.7419629],[4.6091006,50.7418737],[4.6089384,50.7419813],[4.6086998,50.7417535],[4.6085025,50.7419543],[4.6085312,50.7420113],[4.6059385,50.7412201],[4.6050803,50.7410308],[4.6032928,50.7420221],[4.6037911,50.7425984],[4.6015625,50.7435574],[4.598303,50.7456261],[4.5993234,50.7464246],[4.5985975,50.7474767],[4.5997759,50.7477315],[4.599502,50.748379],[4.5995926,50.7488244],[4.5992792,50.749438],[4.5992759,50.7499235],[4.5993602,50.7501604],[4.5998261,50.7506737],[4.6002684,50.7509191],[4.6003662,50.7511723],[4.600669,50.7513472],[4.601164,50.7518917],[4.6009727,50.7522648],[4.6009063,50.7527998],[4.6011209,50.7555289],[4.6010796,50.7556982],[4.6008885,50.7558883],[4.6002991,50.7562378],[4.5996391,50.7564592],[4.5989027,50.7577441],[4.5978625,50.758979],[4.5984928,50.7592735],[4.598676,50.759522],[4.5989309,50.760235],[4.5989853,50.7610368],[4.5985112,50.7614796],[4.5984689,50.7617758],[4.5983057,50.762051],[4.5983811,50.7622329],[4.5983176,50.7623217],[4.5983596,50.7624635],[4.5985224,50.7626037],[4.5981677,50.7627581],[4.5979776,50.7630079],[4.5977362,50.7631424],[4.5977272,50.7632533],[4.5975767,50.763285],[4.597554,50.7633747],[4.5972053,50.7635686],[4.5975889,50.7638382],[4.5971284,50.7640397],[4.5974536,50.7640961],[4.5975083,50.7642307],[4.5973202,50.7643955],[4.5969728,50.7643688],[4.5969089,50.7644261],[4.5970799,50.7645458],[4.5973247,50.7645524],[4.5978083,50.7644571],[4.5979295,50.7642175],[4.5981976,50.7642928],[4.5996347,50.7632068],[4.6003075,50.7634644],[4.5998703,50.7640887],[4.6021119,50.7651935],[4.6026756,50.7647372],[4.6037491,50.7653242],[4.6036396,50.7654584],[4.604594,50.7655175],[4.6051298,50.7656625],[4.6063474,50.7670457],[4.6058545,50.7675048],[4.6054257,50.7680632],[4.6048786,50.7684257],[4.6048409,50.7685058],[4.604915,50.7685802],[4.6054652,50.7688931],[4.6051368,50.7691859],[4.605142,50.7693583],[4.6062016,50.7692002],[4.6065094,50.7689906],[4.6069461,50.76899],[4.6072982,50.7691619],[4.6075644,50.7694872],[4.6075997,50.7696669],[4.6075141,50.7699204],[4.6075851,50.769965],[4.6086061,50.7697242],[4.6088426,50.7693428],[4.6092252,50.7694091],[4.6094089,50.7695381],[4.609433,50.7697481],[4.6089762,50.7699789],[4.6088741,50.7701969],[4.6097376,50.7700352],[4.6101899,50.7704054],[4.6097307,50.7706133],[4.6097093,50.7707138],[4.6098856,50.7709596],[4.6094816,50.7710955],[4.6094399,50.7711885],[4.6100293,50.7712225],[4.6104786,50.7714704],[4.6111076,50.7714995],[4.6112747,50.7716199],[4.6114816,50.7720146],[4.6115858,50.7719469],[4.6118663,50.7713287],[4.6120561,50.7712828],[4.6124166,50.7716628],[4.6127732,50.7717666],[4.6126875,50.7719346],[4.6121538,50.7723815],[4.6121335,50.7724908],[4.6126299,50.7724748],[4.6133749,50.7726748],[4.6134045,50.7727708],[4.6128108,50.7729682],[4.6112003,50.7738141],[4.6101625,50.773977],[4.6094616,50.7742733],[4.6082034,50.7745577],[4.6060229,50.7744665],[4.6053843,50.7742198],[4.604493,50.7743035],[4.6025795,50.7739271],[4.6020841,50.7740037],[4.600606,50.7740312],[4.6004297,50.77418],[4.5990054,50.7740717],[4.5976581,50.7741974],[4.596718,50.7741737],[4.5960202,50.7744775],[4.5948069,50.7742782],[4.5939286,50.7743049],[4.5931103,50.7742201],[4.5911707,50.773743],[4.5909229,50.7743572],[4.5881236,50.7763777],[4.5868325,50.7760626],[4.5855525,50.7753012],[4.584149,50.7747955],[4.5826478,50.774102],[4.5819923,50.7739231],[4.5815759,50.7736605],[4.5811604,50.7741487],[4.5809854,50.7748981],[4.5806485,50.7755236],[4.5807464,50.7764466],[4.5816266,50.7775478],[4.5822451,50.7781768],[4.5833948,50.7789278],[4.5831817,50.7801138],[4.5827879,50.7801567],[4.5828494,50.7803705],[4.5829532,50.7803588],[4.582904,50.7805534],[4.5829759,50.7805892],[4.5827397,50.7809073],[4.5810076,50.7805099],[4.5805136,50.7810401],[4.5812376,50.7812246],[4.5804103,50.7820551],[4.5808052,50.7823873],[4.5784373,50.7847782],[4.5759874,50.7834397],[4.5752239,50.7844179],[4.5746407,50.7842094],[4.5735269,50.7837556],[4.5737883,50.783447],[4.5729703,50.782583],[4.5727076,50.7825504],[4.5720397,50.7829342],[4.5716985,50.7830262],[4.5713698,50.7828354],[4.5700226,50.7840858],[4.5669195,50.7844348],[4.5655415,50.7849853],[4.5652941,50.7851565],[4.5638115,50.7856762],[4.5632092,50.7853066],[4.5624883,50.7856161],[4.5624032,50.785708],[4.5625304,50.7858618],[4.5620717,50.7859942],[4.5613112,50.7863985],[4.5607414,50.7865957],[4.5591227,50.7868106],[4.5588093,50.78694],[4.5587741,50.7870514],[4.5584004,50.7871908],[4.5582875,50.7874309],[4.5583854,50.7876843],[4.5580279,50.7881263],[4.5580593,50.788514],[4.5578018,50.788755],[4.557857,50.7888142],[4.5576348,50.7889787],[4.557574,50.7890919],[4.5576164,50.7892045],[4.5574032,50.7891871],[4.5573891,50.789276],[4.5572265,50.7893741],[4.556757,50.7895511],[4.5566544,50.7897971],[4.5564601,50.7899595],[4.5564515,50.7900817],[4.5559441,50.7905234],[4.5559667,50.7906407],[4.5554167,50.791001],[4.5553739,50.7912124],[4.5554525,50.7913148],[4.5551748,50.7915573],[4.5551914,50.791692],[4.5568588,50.7920461],[4.5585525,50.7925174],[4.5595265,50.7925096],[4.5615825,50.7932754],[4.5625328,50.7938352],[4.5646561,50.795305],[4.5655012,50.7960747],[4.5690073,50.7978008],[4.5692201,50.7979905],[4.5703487,50.7985595],[4.5707846,50.798917],[4.5712025,50.7994374],[4.5720991,50.80086],[4.5722949,50.800887],[4.5720831,50.8017976],[4.5712181,50.8032351],[4.5712474,50.8035165],[4.5713393,50.8036507],[4.5720906,50.8042456],[4.5720048,50.8049289],[4.5708662,50.8046509],[4.5704693,50.8053263],[4.5687253,50.8049257],[4.5668961,50.8049419]]]},"properties":{"type":"boundary","gemeente":"Huldenberg"}}]}