{
  "type": "FeatureCollection",
  "metadata": {
    "gemeente": "Juprelle",
    "slug": "juprelle",
    "generated_at": "2026-09-25T22:11:39.632374Z",
    "total_points": 9,
    "providers": [
      "bpost",
      "DHL",
      "GLS",
      "InPost",
      "Amazon"
    ],
    "bounds": [
      5.52814,
      50.687599,
      5.5690429,
      50.73024
    ]
  },
  "features": [
    {
      "type": "Feature",
      "geometry": {
        "type": "Point",
        "coordinates": [
          5.55497,
          50.6876
        ]
      },
      "properties": {
        "type": "pakketpunt",
        "locatieNaam": "Bbox 24/7 Total Juprelle",
        "straatNaam": "Place Carton De Wiart",
        "straatNr": "1",
        "vervoerder": "bpost",
        "puntType": "automaat",
        "bezettingsgraad": 50,
        "latitude": 50.6876,
        "longitude": 5.55497,
        "canPickup": true,
        "canDropoff": true,
        "openingstijden": null
      }
    },
    {
      "type": "Feature",
      "geometry": {
        "type": "Point",
        "coordinates": [
          5.53395,
          50.71447
        ]
      },
      "properties": {
        "type": "pakketpunt",
        "locatieNaam": "Juprelle",
        "straatNaam": "Chaussée Brunehaut",
        "straatNr": "240",
        "vervoerder": "bpost",
        "puntType": "postkantoor",
        "bezettingsgraad": 50,
        "latitude": 50.71447,
        "longitude": 5.53395,
        "canPickup": true,
        "canDropoff": true,
        "openingstijden": null
      }
    },
    {
      "type": "Feature",
      "geometry": {
        "type": "Point",
        "coordinates": [
          5.533948,
          50.714471
        ]
      },
      "properties": {
        "type": "pakketpunt",
        "locatieNaam": "JUPRELLE",
        "straatNaam": "CHAUSSÉE BRUNEHAUT",
        "straatNr": "240",
        "vervoerder": "DHL",
        "puntType": "postOffice",
        "bezettingsgraad": 50,
        "latitude": 50.714471,
        "longitude": 5.533948,
        "canPickup": true,
        "canDropoff": true,
        "openingstijden": {
          "ma": "09:30 - 12:30, 13:45 - 17:00",
          "di": "09:30 - 12:30, 13:45 - 18:00",
          "wo": "09:30 - 12:30, 13:45 - 17:00",
          "do": "09:30 - 12:30, 13:45 - 18:00",
          "vr": "09:30 - 12:30, 13:45 - 17:00",
          "za": "gesloten",
          "zo": "gesloten"
        }
      }
    },
    {
      "type": "Feature",
      "geometry": {
        "type": "Point",
        "coordinates": [
          5.554975,
          50.687599
        ]
      },
      "properties": {
        "type": "pakketpunt",
        "locatieNaam": "BBOX 24/7 TOTAL JUPRELLE",
        "straatNaam": "PLACE CARTON DE WIART",
        "straatNr": "1",
        "vervoerder": "DHL",
        "puntType": "packStation",
        "bezettingsgraad": 50,
        "latitude": 50.687599,
        "longitude": 5.554975,
        "canPickup": true,
        "canDropoff": true,
        "openingstijden": {
          "ma": "00:00 - 23:59",
          "di": "00:00 - 23:59",
          "wo": "00:00 - 23:59",
          "do": "00:00 - 23:59",
          "vr": "00:00 - 23:59",
          "za": "00:00 - 23:59",
          "zo": "00:00 - 23:59"
        }
      }
    },
    {
      "type": "Feature",
      "geometry": {
        "type": "Point",
        "coordinates": [
          5.5690429,
          50.7185384
        ]
      },
      "properties": {
        "type": "pakketpunt",
        "locatieNaam": "Duvan & Co",
        "straatNaam": "Rue Provinciale",
        "straatNr": "523",
        "vervoerder": "GLS",
        "puntType": "parcel_shop",
        "bezettingsgraad": 50,
        "latitude": 50.7185384,
        "longitude": 5.5690429,
        "canPickup": true,
        "canDropoff": true,
        "openingstijden": "vr: 09:00 - 12:30, 13:30 - 18:00; za: 09:00 - 16:00"
      }
    },
    {
      "type": "Feature",
      "geometry": {
        "type": "Point",
        "coordinates": [
          5.55487,
          50.73024
        ]
      },
      "properties": {
        "type": "pakketpunt",
        "locatieNaam": "",
        "straatNaam": "Rue du Chainay",
        "straatNr": "61",
        "vervoerder": "InPost",
        "puntType": "automaat",
        "bezettingsgraad": 50,
        "latitude": 50.73024,
        "longitude": 5.55487,
        "canPickup": true,
        "canDropoff": true,
        "openingstijden": "24/7"
      }
    },
    {
      "type": "Feature",
      "geometry": {
        "type": "Point",
        "coordinates": [
          5.52814,
          50.71086
        ]
      },
      "properties": {
        "type": "pakketpunt",
        "locatieNaam": "",
        "straatNaam": "Rue de l Eglise",
        "straatNr": "20",
        "vervoerder": "InPost",
        "puntType": "automaat",
        "bezettingsgraad": 50,
        "latitude": 50.71086,
        "longitude": 5.52814,
        "canPickup": true,
        "canDropoff": true,
        "openingstijden": "24/7"
      }
    },
    {
      "type": "Feature",
      "geometry": {
        "type": "Point",
        "coordinates": [
          5.533948,
          50.714471
        ]
      },
      "properties": {
        "type": "pakketpunt",
        "locatieNaam": "bpost - JUPRELLE",
        "straatNaam": "CHAUSSÉE BRUNEHAUT,240",
        "straatNr": "",
        "vervoerder": "Amazon",
        "puntType": "3p",
        "bezettingsgraad": 50,
        "latitude": 50.714471,
        "longitude": 5.533948,
        "canPickup": true,
        "canDropoff": false,
        "openingstijden": null
      }
    },
    {
      "type": "Feature",
      "geometry": {
        "type": "Point",
        "coordinates": [
          5.554975,
          50.687599
        ]
      },
      "properties": {
        "type": "pakketpunt",
        "locatieNaam": "bpost - BBOX 24/7 TOTAL JUPRELLE",
        "straatNaam": "PLACE CARTON DE WIART,1",
        "straatNr": "",
        "vervoerder": "Amazon",
        "puntType": "3p",
        "bezettingsgraad": 50,
        "latitude": 50.687599,
        "longitude": 5.554975,
        "canPickup": true,
        "canDropoff": false,
        "openingstijden": null
      }
    },
    {
      "type": "Feature",
      "geometry": {
        "type": "MultiPolygon",
        "coordinates": [
          [
            [
              [
                5.559017214566625,
                50.6867745778304
              ],
              [
                5.558870539367425,
                50.68652685295619
              ],
              [
                5.558686350544607,
                50.686289453819896
              ],
              [
                5.558466422354532,
                50.686064666534286
              ],
              [
                5.5582128731291665,
                50.685854655730736
              ],
              [
                5.55792814486375,
                50.68566144372017
              ],
              [
                5.557614979692208,
                50.68548689102507
              ],
              [
                5.5572763934771965,
                50.68533267846985
              ],
              [
                5.556915646769106,
                50.68520029100184
              ],
              [
                5.556536213413644,
                50.68509100339824
              ],
              [
                5.556141747109952,
                50.685005867996516
              ],
              [
                5.555736046240829,
                50.68494570456596
              ],
              [
                5.555323017313122,
                50.684911092418034
              ],
              [
                5.5549066373595135,
                50.68490236483078
              ],
              [
                5.554490915662961,
                50.68491960584145
              ],
              [
                5.554079855171373,
                50.68496264943769
              ],
              [
                5.553677413973119,
                50.68503108115522
              ],
              [
                5.553675238998848,
                50.685031600775865
              ],
              [
                5.553672414217799,
                50.68503208110029
              ],
              [
                5.553282467429973,
                50.6851252419951
              ],
              [
                5.552908769953737,
                50.685242235035915
              ],
              [
                5.552554920282682,
                50.68538193368652
              ],
              [
                5.552224325879189,
                50.68554299276556
              ],
              [
                5.551920170370358,
                50.68572386139398
              ],
              [
                5.551645382894776,
                50.6859227979228
              ],
              [
                5.551402609895044,
                50.68613788669797
              ],
              [
                5.5511941896276795,
                50.6863670565009
              ],
              [
                5.551022129635988,
                50.68660810048762
              ],
              [
                5.550888087403168,
                50.686858697434694
              ],
              [
                5.550793354372505,
                50.6871164340877
              ],
              [
                5.550738843489194,
                50.687378828397115
              ],
              [
                5.550725080384566,
                50.687643353418125
              ],
              [
                5.55075219828855,
                50.68790746164442
              ],
              [
                5.550819936720315,
                50.688168609541414
              ],
              [
                5.550927643970742,
                50.688424282043016
              ],
              [
                5.551074283353788,
                50.68867201677574
              ],
              [
                5.551258443167525,
                50.68890942777683
              ],
              [
                5.551478350269782,
                50.68913422847783
              ],
              [
                5.551731887138434,
                50.689344253732045
              ],
              [
                5.552016612252618,
                50.689537480673565
              ],
              [
                5.55232978359909,
                50.68971204820644
              ],
              [
                5.552668385077556,
                50.68986627493645
              ],
              [
                5.553029155550794,
                50.689998675371946
              ],
              [
                5.5534086202596304,
                50.69010797423784
              ],
              [
                5.5538031242999315,
                50.69019311876435
              ],
              [
                5.55420886783868,
                50.69025328883196
              ],
              [
                5.554621942729325,
                50.69028790487472
              ],
              [
                5.5550383701729995,
                50.69029663346536
              ],
              [
                5.555454139061957,
                50.69027939052859
              ],
              [
                5.5558652446350205,
                50.69023634215131
              ],
              [
                5.5562677270717415,
                50.69016790298205
              ],
              [
                5.556269902254299,
                50.69016738331377
              ],
              [
                5.556272727316443,
                50.69016690292713
              ],
              [
                5.556662709879131,
                50.690073732163334
              ],
              [
                5.557036436322864,
                50.68995672724953
              ],
              [
                5.557390307040258,
                50.68981701517773
              ],
              [
                5.557720913759495,
                50.689655941644645
              ],
              [
                5.558025072379492,
                50.68947505808437
              ],
              [
                5.5582998536413655,
                50.68927610671932
              ],
              [
                5.558542611340528,
                50.68906100377337
              ],
              [
                5.558751007807647,
                50.68883182100938
              ],
              [
                5.5589230364132245,
                50.688590765769156
              ],
              [
                5.559057040879369,
                50.68834015970838
              ],
              [
                5.5591517312133005,
                50.68808241643152
              ],
              [
                5.559206196109791,
                50.68782001824257
              ],
              [
                5.559219911703926,
                50.687555492235326
              ],
              [
                5.5591927465907585,
                50.68729138595401
              ],
              [
                5.559124963064552,
                50.687030242858484
              ],
              [
                5.559017214566625,
                50.6867745778304
              ]
            ]
          ],
          [
            [
              [
                5.532184677910472,
                50.7100365103455
              ],
              [
                5.532038071338607,
                50.709788753154385
              ],
              [
                5.531853926759646,
                50.709551313032215
              ],
              [
                5.531634018004658,
                50.709326476486474
              ],
              [
                5.531380463219188,
                50.709116408623004
              ],
              [
                5.531095704452671,
                50.70892313230227
              ],
              [
                5.5307824841333195,
                50.70874850866606
              ],
              [
                5.53044381865529,
                50.70859421922196
              ],
              [
                5.530082969332578,
                50.708461749657666
              ],
              [
                5.529703410999214,
                50.70835237554092
              ],
              [
                5.529308798557872,
                50.708267150042225
              ],
              [
                5.528902931798505,
                50.708206893798405
              ],
              [
                5.528489718825183,
                50.70817218701461
              ],
              [
                5.528073138442528,
                50.70816336388014
              ],
              [
                5.527657201863094,
                50.70818050935225
              ],
              [
                5.527245914103495,
                50.708223458338516
              ],
              [
                5.52684323544002,
                50.708291797285675
              ],
              [
                5.5264530432939845,
                50.70838486815971
              ],
              [
                5.526079094912867,
                50.70850177477902
              ],
              [
                5.5257249912058075,
                50.708641391439556
              ],
              [
                5.525394142080946,
                50.708802373749556
              ],
              [
                5.525089733617835,
                50.70898317156928
              ],
              [
                5.524814697390611,
                50.70918204393171
              ],
              [
                5.524571682237085,
                50.7093970758008
              ],
              [
                5.524363028745596,
                50.70962619650607
              ],
              [
                5.524190746705433,
                50.70986719967649
              ],
              [
                5.524056495738315,
                50.71011776448186
              ],
              [
                5.523961569297989,
                50.710375477977415
              ],
              [
                5.523906882192675,
                50.71063785833682
              ],
              [
                5.523892961751341,
                50.710902378749786
              ],
              [
                5.5239199427198,
                50.7111664917545
              ],
              [
                5.523987565936719,
                50.711427653770535
              ],
              [
                5.524095180803359,
                50.71168334959593
              ],
              [
                5.524241751524217,
                50.71193111663275
              ],
              [
                5.5244258670594535,
                50.712168568607176
              ],
              [
                5.5246457546941325,
                50.71239341855623
              ],
              [
                5.524899297094352,
                50.712603500859025
              ],
              [
                5.525184052686634,
                50.712796792100185
              ],
              [
                5.525497279164751,
                50.71297143056452
              ],
              [
                5.525835959897869,
                50.713125734174675
              ],
              [
                5.526196832985747,
                50.71325821669848
              ],
              [
                5.526576422681073,
                50.713367602070186
              ],
              [
                5.52697107287595,
                50.713452836686805
              ],
              [
                5.527376982329579,
                50.71351309956106
              ],
              [
                5.52779024129717,
                50.71354781023306
              ],
              [
                5.5282068692065724,
                50.713556634364046
              ],
              [
                5.528622853018801,
                50.71353948695847
              ],
              [
                5.529034185902115,
                50.71349653318305
              ],
              [
                5.529436905846146,
                50.71342818677513
              ],
              [
                5.529827133843189,
                50.71333510605539
              ],
              [
                5.5301828775975235,
                50.7132238881106
              ],
              [
                5.530170587445774,
                50.71323738514483
              ],
              [
                5.529998321898359,
                50.713478396664826
              ],
              [
                5.529864091515145,
                50.713728967922755
              ],
              [
                5.529769189551794,
                50.713986685911706
              ],
              [
                5.529714530580941,
                50.714249068761994
              ],
              [
                5.529700641660734,
                50.71451358963937
              ],
              [
                5.529727657233531,
                50.71477770107746
              ],
              [
                5.5297953178048305,
                50.715038859510926
              ],
              [
                5.529902972416218,
                50.71529454977229
              ],
              [
                5.530049584889461,
                50.7155423093171
              ],
              [
                5.530233743782633,
                50.71577975194374
              ],
              [
                5.530453675963215,
                50.71600459077919
              ],
              [
                5.530707263668254,
                50.71621466030957
              ],
              [
                5.530992064887885,
                50.716407937242515
              ],
              [
                5.5313053368763665,
                50.71658256000063
              ],
              [
                5.531644062564451,
                50.71673684665777
              ],
              [
                5.532004979618826,
                50.716869311145096
              ],
              [
                5.532384611868608,
                50.71697867757055
              ],
              [
                5.53277930279593,
                50.717063892513615
              ],
              [
                5.533185250767569,
                50.71712413517651
              ],
              [
                5.533598545667643,
                50.71715882529402
              ],
              [
                5.53401520657782,
                50.71716762872537
              ],
              [
                5.53443122014119,
                50.7171504606744
              ],
              [
                5.534842579239403,
                50.717107486506684
              ],
              [
                5.53524532160956,
                50.71703912015597
              ],
              [
                5.535635568027942,
                50.71694602013505
              ],
              [
                5.536009559691922,
                50.71682908318985
              ],
              [
                5.536363694439116,
                50.71668943565778
              ],
              [
                5.536694561454258,
                50.71652842261395
              ],
              [
                5.536694810549377,
                50.71652827464696
              ],
              [
                5.536696561483282,
                50.71652742256748
              ],
              [
                5.537000974143791,
                50.716346594858216
              ],
              [
                5.537276000757646,
                50.7161476941738
              ],
              [
                5.537518992757102,
                50.71593263625006
              ],
              [
                5.537727610216271,
                50.715703492416345
              ],
              [
                5.537899844377431,
                50.71546246963964
              ],
              [
                5.538034036983304,
                50.71521188926308
              ],
              [
                5.538128896229602,
                50.71495416464395
              ],
              [
                5.538183509184911,
                50.7146917779066
              ],
              [
                5.53819735055908,
                50.71442725603473
              ],
              [
                5.538170287736586,
                50.71416314653287
              ],
              [
                5.538102582027403,
                50.713901992891984
              ],
              [
                5.537994886124293,
                50.713646310095385
              ],
              [
                5.537848237792058,
                50.71339856040071
              ],
              [
                5.537664049850455,
                50.71316112963113
              ],
              [
                5.537444096548139,
                50.71293630420407
              ],
              [
                5.537190496459617,
                50.71272624911826
              ],
              [
                5.536905692070544,
                50.712532987111096
              ],
              [
                5.536592426248401,
                50.71235837918649
              ],
              [
                5.536253715825442,
                50.712204106700725
              ],
              [
                5.53589282254837,
                50.712071655178214
              ],
              [
                5.535513221674376,
                50.71196230001292
              ],
              [
                5.535118568515673,
                50.71187709419288
              ],
              [
                5.534712663254196,
                50.711816858165406
              ],
              [
                5.53429941436467,
                50.711782171940996
              ],
              [
                5.53388280099748,
                50.71177336951096
              ],
              [
                5.533466834682728,
                50.71179053563322
              ],
              [
                5.533055520723303,
                50.71183350501651
              ],
              [
                5.5326528196477485,
                50.711901863911145
              ],
              [
                5.532262609093185,
                50.71199495409106
              ],
              [
                5.53190535646833,
                50.712106654596056
              ],
              [
                5.531917168936074,
                50.71209368114003
              ],
              [
                5.532089419614275,
                50.711852666714634
              ],
              [
                5.532223632827859,
                50.711602092791374
              ],
              [
                5.532318516573923,
                50.711344372665344
              ],
              [
                5.532373157684967,
                50.71108198841774
              ],
              [
                5.532387030599555,
                50.71081746700826
              ],
              [
                5.532360002398301,
                50.71055335593702
              ],
              [
                5.532292334057668,
                50.710292198710135
              ],
              [
                5.532184677910472,
                50.7100365103455
              ]
            ]
          ],
          [
            [
              [
                5.572940676113886,
                50.71746579182717
              ],
              [
                5.572756295548016,
                50.717228416582344
              ],
              [
                5.572536155924983,
                50.71700365739839
              ],
              [
                5.5722823776131385,
                50.716793678635995
              ],
              [
                5.571997404813927,
                50.71660050229743
              ],
              [
                5.571683982016071,
                50.71642598856157
              ],
              [
                5.5713451275629335,
                50.71627181787764
              ],
              [
                5.570984104587649,
                50.716139474789664
              ],
              [
                5.5706043895958555,
                50.716030233647494
              ],
              [
                5.570209638998216,
                50.71594514634111
              ],
              [
                5.569803653914568,
                50.71588503217672
              ],
              [
                5.5693903435879735,
                50.71585046999129
              ],
              [
                5.568973687760207,
                50.715841792581834
              ],
              [
                5.568557698370128,
                50.71585908350243
              ],
              [
                5.568146380942823,
                50.71590217626014
              ],
              [
                5.567743696040327,
                50.71597065591733
              ],
              [
                5.567353521144224,
                50.71606386308509
              ],
              [
                5.566979613336198,
                50.7161809002694
              ],
              [
                5.566625573135108,
                50.71632064050897
              ],
              [
                5.5662948098380785,
                50.71648173822201
              ],
              [
                5.565990508698764,
                50.71666264215748
              ],
              [
                5.565715600258451,
                50.71686161032639
              ],
              [
                5.565472732125072,
                50.71707672677003
              ],
              [
                5.565264243471871,
                50.71730592000337
              ],
              [
                5.565092142501419,
                50.71754698295676
              ],
              [
                5.56495808709235,
                50.71779759422414
              ],
              [
                5.564863368815718,
                50.718055340413095
              ],
              [
                5.564808900475549,
                50.71831773938223
              ],
              [
                5.564795207294395,
                50.71858226414179
              ],
              [
                5.564822421829701,
                50.71884636718787
              ],
              [
                5.564890282670882,
                50.719107505035716
              ],
              [
                5.564998136930718,
                50.71936316271593
              ],
              [
                5.565144946508034,
                50.71961087799767
              ],
              [
                5.565329298062342,
                50.71984826510537
              ],
              [
                5.5655494166052515,
                50.720073037700665
              ],
              [
                5.565803182578507,
                50.72028303090741
              ],
              [
                5.5660881522548316,
                50.72047622216827
              ],
              [
                5.566401581265509,
                50.72065075073088
              ],
              [
                5.566740451028428,
                50.72080493557628
              ],
              [
                5.567101497822102,
                50.720937291616195
              ],
              [
                5.567481244225567,
                50.72104654400308
              ],
              [
                5.567876032621028,
                50.72113164041478
              ],
              [
                5.568282060436098,
                50.72119176119521
              ],
              [
                5.5686954167855705,
                50.72122632725312
              ],
              [
                5.569112120159039,
                50.7212350056427
              ],
              [
                5.569528156790485,
                50.72121771277219
              ],
              [
                5.569939519339366,
                50.721174615209485
              ],
              [
                5.570342245509652,
                50.721106128076855
              ],
              [
                5.570732456233856,
                50.721012911050494
              ],
              [
                5.5711063930534435,
                50.7208958620033
              ],
              [
                5.571460454334657,
                50.72075610835241
              ],
              [
                5.571791229970275,
                50.720594996195025
              ],
              [
                5.572095534232478,
                50.720414077337296
              ],
              [
                5.572370436459966,
                50.720215094341604
              ],
              [
                5.572613289283566,
                50.719999963736484
              ],
              [
                5.572821754118377,
                50.719770757551196
              ],
              [
                5.572993823677158,
                50.71952968335309
              ],
              [
                5.573127841288405,
                50.71927906298041
              ],
              [
                5.5732225168336145,
                50.71902131017542
              ],
              [
                5.573276939150906,
                50.71875890733382
              ],
              [
                5.57329058478636,
                50.71849438159413
              ],
              [
                5.573263323009686,
                50.71823028049794
              ],
              [
                5.573195417046928,
                50.71796914745509
              ],
              [
                5.573087521519304,
                50.71771349725031
              ],
              [
                5.572940676113886,
                50.71746579182717
              ]
            ]
          ],
          [
            [
              [
                5.558769066441823,
                50.72916786716081
              ],
              [
                5.5585847114768665,
                50.72893047024587
              ],
              [
                5.558364584782403,
                50.72870568502301
              ],
              [
                5.5581108066026585,
                50.728495676103705
              ],
              [
                5.557825821138151,
                50.72830246578069
              ],
              [
                5.557512372999857,
                50.72812791456011
              ],
              [
                5.557173480775396,
                50.72797370325215
              ],
              [
                5.556812407961804,
                50.72784131679203
              ],
              [
                5.556432631544742,
                50.7277320299472
              ],
              [
                5.556037808526406,
                50.7276468950478
              ],
              [
                5.555631740723971,
                50.72758673185821
              ],
              [
                5.555218338176941,
                50.72755211968755
              ],
              [
                5.554801581514959,
                50.72754339181407
              ],
              [
                5.554385483647653,
                50.72756063227781
              ],
              [
                5.553974051144429,
                50.72760367507163
              ],
              [
                5.553571245675164,
                50.727672105739025
              ],
              [
                5.553180945882136,
                50.72776526536283
              ],
              [
                5.552806910049427,
                50.72788225690682
              ],
              [
                5.552452739928429,
                50.72802195384924
              ],
              [
                5.552121846067079,
                50.72818301102525
              ],
              [
                5.551817414976098,
                50.72836387757418
              ],
              [
                5.551542378447993,
                50.72856281186714
              ],
              [
                5.551299385324038,
                50.72877789827165
              ],
              [
                5.551090775981063,
                50.72900706559205
              ],
              [
                5.550918559783892,
                50.72924810700827
              ],
              [
                5.5507843957208856,
                50.729498701321745
              ],
              [
                5.550689576409601,
                50.72975643530342
              ],
              [
                5.550635015627276,
                50.73001882692953
              ],
              [
                5.55062123948699,
                50.73028334928114
              ],
              [
                5.550648381345453,
                50.73054745487761
              ],
              [
                5.550716180492371,
                50.730808600209684
              ],
              [
                5.550823984635079,
                50.731064270235976
              ],
              [
                5.550970756155483,
                50.731312002606806
              ],
              [
                5.551155082080033,
                50.73154941138211
              ],
              [
                5.551375187667584,
                50.73177421001481
              ],
              [
                5.551628953485034,
                50.73198423337811
              ],
              [
                5.551913935806944,
                50.73217745862422
              ],
              [
                5.552227390143103,
                50.732352024673474
              ],
              [
                5.5525662976677115,
                50.73250625014585
              ],
              [
                5.55292739429576,
                50.732638649561785
              ],
              [
                5.553307202126409,
                50.732747947655966
              ],
              [
                5.553702062950255,
                50.732833091665945
              ],
              [
                5.554108173497281,
                50.732893261477194
              ],
              [
                5.554521622085331,
                50.73292787752616
              ],
              [
                5.554938426315432,
                50.73293660638552
              ],
              [
                5.555354571449938,
                50.7329193639774
              ],
              [
                5.555766049102994,
                50.73287631638362
              ],
              [
                5.5561688958696385,
                50.73280787824513
              ],
              [
                5.556559231520558,
                50.73271470876626
              ],
              [
                5.556933296393673,
                50.73259770536191
              ],
              [
                5.557287487621584,
                50.73245799500964
              ],
              [
                5.557618393845227,
                50.73229692338962
              ],
              [
                5.557922828078807,
                50.73211604191762
              ],
              [
                5.558197858409045,
                50.73191709279598
              ],
              [
                5.558440836232853,
                50.73170199222705
              ],
              [
                5.558649421761371,
                50.73147281195084
              ],
              [
                5.558821606544955,
                50.73123175928525
              ],
              [
                5.558955732802451,
                50.73098115586122
              ],
              [
                5.559050509369144,
                50.73072341525788
              ],
              [
                5.55910502411045,
                50.73046101975347
              ],
              [
                5.559118752682618,
                50.73019649641597
              ],
              [
                5.5590915635569536,
                50.72993239276389
              ],
              [
                5.559023719260205,
                50.72967125223178
              ],
              [
                5.558915873820118,
                50.72941558967656
              ],
              [
                5.558769066441823,
                50.72916786716081
              ]
            ]
          ]
        ]
      },
      "properties": {
        "type": "buffer_union_300m",
        "buffer_m": 300
      }
    },
    {
      "type": "Feature",
      "geometry": {
        "type": "MultiPolygon",
        "coordinates": [
          [
            [
              [
                5.560364588021625,
                50.68649973934105
              ],
              [
                5.5601690131365995,
                50.68616944169845
              ],
              [
                5.559923421599154,
                50.685852912151844
              ],
              [
                5.559630179331866,
                50.68555319875026
              ],
              [
                5.5592921109571645,
                50.685273187554436
              ],
              [
                5.558912472573965,
                50.68501557485562
              ],
              [
                5.558494920387538,
                50.68478284122304
              ],
              [
                5.558043475495181,
                50.68457722762935
              ],
              [
                5.557562485166959,
                50.68440071388343
              ],
              [
                5.557056580994139,
                50.684254999577604
              ],
              [
                5.556530634307827,
                50.68414148773247
              ],
              [
                5.555989709296222,
                50.684061271296
              ],
              [
                5.555439014270833,
                50.684015122626924
              ],
              [
                5.554883851549548,
                50.68400348606291
              ],
              [
                5.554329566437601,
                50.6840264736452
              ],
              [
                5.55378149579606,
                50.684083864040595
              ],
              [
                5.553244916691324,
                50.684175104671
              ],
              [
                5.553242741751755,
                50.68417562428368
              ],
              [
                5.553239917017559,
                50.68417610459777
              ],
              [
                5.55271999592046,
                50.68430031693493
              ],
              [
                5.552221739060272,
                50.68445630502131
              ],
              [
                5.551749944180927,
                50.6846425669098
              ],
              [
                5.551309154385659,
                50.684857309139794
              ],
              [
                5.5509036144051755,
                50.6850984639958
              ],
              [
                5.550537229730725,
                50.68536370940658
              ],
              [
                5.5502135290051795,
                50.68565049129332
              ],
              [
                5.5499356300342075,
                50.68595604815217
              ],
              [
                5.5497062097450955,
                50.68627743763506
              ],
              [
                5.549527478383116,
                50.68661156487352
              ],
              [
                5.549401158194814,
                50.68695521227277
              ],
              [
                5.549328466804749,
                50.68730507048998
              ],
              [
                5.549310105447126,
                50.68765777029855
              ],
              [
                5.549346252167325,
                50.68800991503181
              ],
              [
                5.54943656006053,
                50.68835811329375
              ],
              [
                5.549580160566177,
                50.68869901162197
              ],
              [
                5.549775671788328,
                50.689029326788045
              ],
              [
                5.550021211763522,
                50.68934587742415
              ],
              [
                5.550314416549875,
                50.68964561467113
              ],
              [
                5.550652462964592,
                50.689925651552244
              ],
              [
                5.551032095752018,
                50.69018329078956
              ],
              [
                5.551449658921373,
                50.69041605079447
              ],
              [
                5.551901130952833,
                50.69062168958138
              ],
              [
                5.552382163533044,
                50.69079822637378
              ],
              [
                5.55288812344677,
                50.69094396069427
              ],
              [
                5.553414137220681,
                50.69105748875374
              ],
              [
                5.55395513808841,
                50.69113771698175
              ],
              [
                5.554505914823428,
                50.69118387256708
              ],
              [
                5.555061161967986,
                50.691195510906965
              ],
              [
                5.555615530972814,
                50.691172519892596
              ],
              [
                5.556163681753296,
                50.69111512098977
              ],
              [
                5.55670033416385,
                50.691023867104185
              ],
              [
                5.556702509381115,
                50.691023347427965
              ],
              [
                5.556705334490123,
                50.69102286703095
              ],
              [
                5.557225319195038,
                50.690898637156344
              ],
              [
                5.557723627562028,
                50.69074262796954
              ],
              [
                5.558195459867006,
                50.690556342227865
              ],
              [
                5.558636271567633,
                50.69034157430811
              ],
              [
                5.559041817090466,
                50.69010039291238
              ],
              [
                5.559408190730284,
                50.689835121131324
              ],
              [
                5.5597318642672375,
                50.68954831405672
              ],
              [
                5.560009720939425,
                50.68924273416
              ],
              [
                5.560239085443976,
                50.68892132467415
              ],
              [
                5.56041774967827,
                50.68858718123611
              ],
              [
                5.5605439939743055,
                50.688243522062955
              ],
              [
                5.560616603622901,
                50.68789365694987
              ],
              [
                5.5606348805300145,
                50.687540955388286
              ],
              [
                5.560598649894563,
                50.68718881411229
              ],
              [
                5.560508261845128,
                50.686840624385034
              ],
              [
                5.560364588021625,
                50.68649973934105
              ]
            ]
          ],
          [
            [
              [
                5.5335328724808335,
                50.70976198267115
              ],
              [
                5.533337389086034,
                50.7094316419379
              ],
              [
                5.533091856527974,
                50.70911505774239
              ],
              [
                5.5327986401626585,
                50.70881527866005
              ],
              [
                5.532460564364389,
                50.70853519138421
              ],
              [
                5.532080885304739,
                50.70827749293887
              ],
              [
                5.53166325958167,
                50.708044664718976
              ],
              [
                5.531211709001397,
                50.70783894860802
              ],
              [
                5.530730581852265,
                50.70766232540203
              ],
              [
                5.530224511043364,
                50.70751649574731
              ],
              [
                5.529698369510466,
                50.70740286377511
              ],
              [
                5.529157223317835,
                50.70732252359
              ],
              [
                5.528606282906386,
                50.70727624874223
              ],
              [
                5.528050852956277,
                50.70726448478437
              ],
              [
                5.527496281345161,
                50.707287344984216
              ],
              [
                5.526947907691942,
                50.70734460923508
              ],
              [
                5.526411011979767,
                50.707435726173465
              ],
              [
                5.525890763751275,
                50.70755981848443
              ],
              [
                5.525392172363668,
                50.70771569134316
              ],
              [
                5.524920038781127,
                50.70790184391219
              ],
              [
                5.52447890936746,
                50.708116483783584
              ],
              [
                5.524073032122925,
                50.708357544227624
              ],
              [
                5.523706315785847,
                50.7086227040824
              ],
              [
                5.523382292192474,
                50.70890941009309
              ],
              [
                5.523104082257418,
                50.70921490148673
              ],
              [
                5.52287436590256,
                50.709536236545944
              ],
              [
                5.5226953562245695,
                50.709870320926576
              ],
              [
                5.522568778150751,
                50.710213937446845
              ],
              [
                5.522495851789922,
                50.71056377706159
              ],
              [
                5.52247728064012,
                50.71091647072365
              ],
              [
                5.522513244768282,
                50.71126862182582
              ],
              [
                5.522603399029354,
                50.711616838911034
              ],
              [
                5.522746876343757,
                50.711957768335836
              ],
              [
                5.522942296003434,
                50.712288126572545
              ],
              [
                5.523187776928205,
                50.71260473183874
              ],
              [
                5.523480955746304,
                50.712904534749214
              ],
              [
                5.523819009526349,
                50.71318464769495
              ],
              [
                5.524198682942916,
                50.71344237266549
              ],
              [
                5.524616319614902,
                50.71367522724651
              ],
              [
                5.525067897315331,
                50.71388096854152
              ],
              [
                5.525549066713648,
                50.714057614786654
              ],
              [
                5.526055193277148,
                50.71420346445021
              ],
              [
                5.526581401927441,
                50.71431711263205
              ],
              [
                5.52712262402098,
                50.71439746460462
              ],
              [
                5.527673646200021,
                50.714443746364715
              ],
              [
                5.528229160642125,
                50.714455512094176
              ],
              [
                5.528288778154289,
                50.71445305470866
              ],
              [
                5.5282848538439415,
                50.71452775190725
              ],
              [
                5.528320864109825,
                50.714879900921126
              ],
              [
                5.528411068175734,
                50.715228113230104
              ],
              [
                5.528554598482551,
                50.71556903523666
              ],
              [
                5.5287500738119455,
                50.71589938348451
              ],
              [
                5.52899561254762,
                50.716215976287344
              ],
              [
                5.529288850761023,
                50.716515764379984
              ],
              [
                5.529626964948671,
                50.716795860296045
              ],
              [
                5.5300066992032475,
                50.71705356618909
              ],
              [
                5.53042439655757,
                50.717286399828495
              ],
              [
                5.530876034200045,
                50.7174921185194
              ],
              [
                5.5313572622226,
                50.71766874071569
              ],
              [
                5.531863445527691,
                50.71781456511727
              ],
              [
                5.532389708490206,
                50.71792818706736
              ],
              [
                5.532930981943279,
                50.71800851209102
              ],
              [
                5.5334820520342936,
                50.718054766444666
              ],
              [
                5.534037610479159,
                50.71806650457409
              ],
              [
                5.534592305729274,
                50.71804361340923
              ],
              [
                5.535140794556635,
                50.71798631345408
              ],
              [
                5.535677793558543,
                50.717895156661214
              ],
              [
                5.536198130084076,
                50.71777102111145
              ],
              [
                5.536696792090162,
                50.71761510255014
              ],
              [
                5.537168976445588,
                50.71742890286174
              ],
              [
                5.53761013521634,
                50.71721421559423
              ],
              [
                5.537610384312209,
                50.717214067625314
              ],
              [
                5.537612135255038,
                50.717213215532254
              ],
              [
                5.53801801950533,
                50.71697210860408
              ],
              [
                5.5383847202854986,
                50.716706904396375
              ],
              [
                5.53870870622465,
                50.71642015735021
              ],
              [
                5.538986857552071,
                50.71611462935904
              ],
              [
                5.539216496127295,
                50.71579326315619
              ],
              [
                5.539395411208647,
                50.71545915396194
              ],
              [
                5.539521880713016,
                50.715115519663776
              ],
              [
                5.539594687763276,
                50.71476566981752
              ],
              [
                5.539613132365464,
                50.714412973767885
              ],
              [
                5.539577038104843,
                50.71406082819601
              ],
              [
                5.539486753798097,
                50.713712624406675
              ],
              [
                5.539343150087578,
                50.713371715670014
              ],
              [
                5.539147611012156,
                50.71304138493246
              ],
              [
                5.538902020637566,
                50.71272481320746
              ],
              [
                5.538608744876577,
                50.71242504895033
              ],
              [
                5.538270608675419,
                50.71214497871159
              ],
              [
                5.537890868787239,
                50.7118872993511
              ],
              [
                5.537473182395633,
                50.71165449208003
              ],
              [
                5.537021571890875,
                50.71144879858012
              ],
              [
                5.536540386138174,
                50.71127219942963
              ],
              [
                5.536034258610747,
                50.71112639504324
              ],
              [
                5.53550806279033,
                50.71101278930886
              ],
              [
                5.5349668652637405,
                50.710932476078476
              ],
              [
                5.5344158769660154,
                50.71088622864274
              ],
              [
                5.533860403038253,
                50.71087449229027
              ],
              [
                5.53379883868442,
                50.71087703306286
              ],
              [
                5.533802705761474,
                50.71080325506844
              ],
              [
                5.533766657663898,
                50.710451107403536
              ],
              [
                5.53367642318289,
                50.710102898832346
              ],
              [
                5.5335328724808335,
                50.70976198267115
              ]
            ]
          ],
          [
            [
              [
                5.574239895399543,
                50.71710822684332
              ],
              [
                5.573994048199421,
                50.71679172915332
              ],
              [
                5.573700524018976,
                50.7164920532218
              ],
              [
                5.57336215019591,
                50.7162120847485
              ],
              [
                5.5729821857707424,
                50.715954519613106
              ],
              [
                5.572564290088348,
                50.71572183792672
              ],
              [
                5.5721124875534125,
                50.71551628016166
              ],
              [
                5.571631128879344,
                50.71533982558911
              ],
              [
                5.5711248492035805,
                50.71519417323152
              ],
              [
                5.5705985234721265,
                50.715080725512934
              ],
              [
                5.5700572195220435,
                50.71500057476381
              ],
              [
                5.569506149312587,
                50.71495449271041
              ],
              [
                5.568950618773206,
                50.71494292304892
              ],
              [
                5.568395976749802,
                50.714965977176455
              ],
              [
                5.567847563539166,
                50.71502343311904
              ],
              [
                5.56731065950546,
                50.715114737667555
              ],
              [
                5.566790434271791,
                50.7152390117006
              ],
              [
                5.566291896974494,
                50.71539505864363
              ],
              [
                5.565819848057652,
                50.71558137598292
              ],
              [
                5.565378833070728,
                50.71579616972392
              ],
              [
                5.564973098913177,
                50.71603737165518
              ],
              [
                5.564606552946637,
                50.71630265925224
              ],
              [
                5.564282725367975,
                50.716589478030045
              ],
              [
                5.564004735205476,
                50.71689506612945
              ],
              [
                5.563775260265851,
                50.7172164809016
              ],
              [
                5.563596511322085,
                50.717550627234345
              ],
              [
                5.563470210791599,
                50.71789428734902
              ],
              [
                5.563397576111272,
                50.71824415178021
              ],
              [
                5.56337930797083,
                50.71859685124137
              ],
              [
                5.5634155835195465,
                50.71894898906904
              ],
              [
                5.563506054613441,
                50.71929717393354
              ],
              [
                5.563649851121606,
                50.719638052501345
              ],
              [
                5.563845589261648,
                50.71996834173416
              ],
              [
                5.5640913848856615,
                50.72028486051376
              ],
              [
                5.56438487159033,
                50.72058456028761
              ],
              [
                5.5647232234781265,
                50.72086455443976
              ],
              [
                5.565103182351494,
                50.721122146103646
              ],
              [
                5.565521089078907,
                50.72135485414874
              ],
              [
                5.565972918831229,
                50.721560437089735
              ],
              [
                5.566454319849101,
                50.721736914688
              ],
              [
                5.566960655367837,
                50.72188258703617
              ],
              [
                5.567487048295419,
                50.721996050941996
              ],
              [
                5.5680284282124735,
                50.722076213452915
              ],
              [
                5.568579580240381,
                50.72212230239074
              ],
              [
                5.569135195305452,
                50.72213387379467
              ],
              [
                5.56968992131351,
                50.72211081620065
              ],
              [
                5.570238414740283,
                50.72205335171584
              ],
              [
                5.5707753921389465,
                50.721962033877666
              ],
              [
                5.571295681067019,
                50.72183774231822
              ],
              [
                5.571794269940426,
                50.721681674285584
              ],
              [
                5.572266356333043,
                50.72149533310397
              ],
              [
                5.572707393255236,
                50.72128051368413
              ],
              [
                5.573113132964586,
                50.72103928522434
              ],
              [
                5.573479667886105,
                50.72077397126859
              ],
              [
                5.573803468247381,
                50.720487127314854
              ],
              [
                5.574081416066076,
                50.72018151618976
              ],
              [
                5.574310835162728,
                50.71986008142705
              ],
              [
                5.574489516910368,
                50.71952591890704
              ],
              [
                5.574615741473882,
                50.71918224703055
              ],
              [
                5.57468829433576,
                50.71883237571494
              ],
              [
                5.574706477950513,
                50.718479674511336
              ],
              [
                5.574670118417143,
                50.718127540150164
              ],
              [
                5.5745795671071114,
                50.71777936382788
              ],
              [
                5.57443569723399,
                50.71743849854973
              ],
              [
                5.574239895399543,
                50.71710822684332
              ]
            ]
          ],
          [
            [
              [
                5.560068715831319,
                50.72881046060879
              ],
              [
                5.559822902759338,
                50.72849393402472
              ],
              [
                5.559529395811035,
                50.72819422337434
              ],
              [
                5.559191022158837,
                50.727914214691765
              ],
              [
                5.558811040842229,
                50.72765660424395
              ],
              [
                5.558393111369258,
                50.727423872578356
              ],
              [
                5.5579412584704215,
                50.727218260648584
              ],
              [
                5.557459833344401,
                50.72704174824734
              ],
              [
                5.556953471768706,
                50.72689603495393
              ],
              [
                5.556427049478033,
                50.72678252377912
              ],
              [
                5.555885635239161,
                50.726702307664375
              ],
              [
                5.555334442073153,
                50.72665615896526
              ],
              [
                5.554778777093134,
                50.72664452201971
              ],
              [
                5.554223990439165,
                50.726667508872616
              ],
              [
                5.553675423800249,
                50.726724898197816
              ],
              [
                5.553138359017425,
                50.726816137427576
              ],
              [
                5.55261796726114,
                50.726940348069455
              ],
              [
                5.5521192592706745,
                50.727096334159306
              ],
              [
                5.551647037133241,
                50.7272825937694
              ],
              [
                5.551205848065824,
                50.7274973334611
              ],
              [
                5.550799940643765,
                50.72773848554347
              ],
              [
                5.550433223896828,
                50.728003727972165
              ],
              [
                5.550109229666204,
                50.72829050669714
              ],
              [
                5.549831078584882,
                50.72859606024508
              ],
              [
                5.5496014500092095,
                50.72891744629996
              ],
              [
                5.549422556191818,
                50.72925157002638
              ],
              [
                5.549296120945537,
                50.72959521386341
              ],
              [
                5.5492233630049705,
                50.72994506850262
              ],
              [
                5.549204984247371,
                50.73029776475189
              ],
              [
                5.549241162887891,
                50.73064990597883
              ],
              [
                5.549331551716489,
                50.730998100821196
              ],
              [
                5.5494752813952415,
                50.73133899584946
              ],
              [
                5.549670968786114,
                50.73166930786695
              ],
              [
                5.549916730230707,
                50.731985855536095
              ],
              [
                5.550210199655609,
                50.732285590026216
              ],
              [
                5.550548551330395,
                50.73256562438701
              ],
              [
                5.5509285270601625,
                50.732823261364736
              ],
              [
                5.551346467551559,
                50.73305601939243
              ],
              [
                5.551798347650659,
                50.7332616565034
              ],
              [
                5.55227981511349,
                50.733438191937225
              ],
              [
                5.552786232535561,
                50.73358392522947
              ],
              [
                5.553312722036033,
                50.73369745260083
              ],
              [
                5.553854212265287,
                50.73377768048743
              ],
              [
                5.554405487281998,
                50.733823836081314
              ],
              [
                5.554961236827562,
                50.73383547477957
              ],
              [
                5.55551610751211,
                50.73381248446995
              ],
              [
                5.556064754417393,
                50.73375508661149
              ],
              [
                5.556601892617781,
                50.7336638340998
              ],
              [
                5.557122348121427,
                50.733539605937786
              ],
              [
                5.557621107739281,
                50.733383598762856
              ],
              [
                5.558093367400115,
                50.733197315313035
              ],
              [
                5.5585345784449425,
                50.732982549943124
              ],
              [
                5.558940491453843,
                50.7327413713308
              ],
              [
                5.559307197182353,
                50.73247610254002
              ],
              [
                5.559631164212711,
                50.73218929863387
              ],
              [
                5.559909272957223,
                50.73188372205334
              ],
              [
                5.560138845686519,
                50.731562315999625
              ],
              [
                5.560317672294114,
                50.731228176076655
              ],
              [
                5.560444031550012,
                50.73088452046777
              ],
              [
                5.560516707639876,
                50.73053465893379
              ],
              [
                5.560535001831933,
                50.73018196093182
              ],
              [
                5.560498739160834,
                50.729829823161595
              ],
              [
                5.560408270065869,
                50.7294816368525
              ],
              [
                5.560264466969555,
                50.729140755106144
              ],
              [
                5.560068715831319,
                50.72881046060879
              ]
            ]
          ]
        ]
      },
      "properties": {
        "type": "buffer_union_400m",
        "buffer_m": 400
      }
    },
    {
      "type": "Feature",
      "geometry": {
        "type": "Polygon",
        "coordinates": [
          [
            [
              5.4788469,
              50.7236978
            ],
            [
              5.4814911,
              50.7256126
            ],
            [
              5.4836277,
              50.7264236
            ],
            [
              5.4864156,
              50.7270727
            ],
            [
              5.4876429,
              50.7272454
            ],
            [
              5.4889545,
              50.7275544
            ],
            [
              5.4902742,
              50.7273304
            ],
            [
              5.4907356,
              50.7273592
            ],
            [
              5.4910708,
              50.7274678
            ],
            [
              5.4916486,
              50.7279293
            ],
            [
              5.4918149,
              50.7282298
            ],
            [
              5.4919383,
              50.7288275
            ],
            [
              5.4923648,
              50.7293232
            ],
            [
              5.4931453,
              50.7299548
            ],
            [
              5.4942493,
              50.730602
            ],
            [
              5.4955797,
              50.731203
            ],
            [
              5.4961375,
              50.7313151
            ],
            [
              5.4990576,
              50.732619
            ],
            [
              5.5014302,
              50.7333748
            ],
            [
              5.5025434,
              50.7338875
            ],
            [
              5.5089458,
              50.7362726
            ],
            [
              5.5114644,
              50.7377053
            ],
            [
              5.5129155,
              50.7382536
            ],
            [
              5.5162854,
              50.7404005
            ],
            [
              5.5186976,
              50.7417906
            ],
            [
              5.5204035,
              50.7407568
            ],
            [
              5.5209318,
              50.7413408
            ],
            [
              5.5210713,
              50.7412117
            ],
            [
              5.5219645,
              50.7420944
            ],
            [
              5.5225519,
              50.7414782
            ],
            [
              5.5243597,
              50.7423456
            ],
            [
              5.5249992,
              50.7416714
            ],
            [
              5.5247012,
              50.7415704
            ],
            [
              5.5251521,
              50.7411028
            ],
            [
              5.5247873,
              50.7409738
            ],
            [
              5.5250153,
              50.740748
            ],
            [
              5.5255946,
              50.7409279
            ],
            [
              5.5257422,
              50.7406784
            ],
            [
              5.5256349,
              50.7406496
            ],
            [
              5.5261904,
              50.7400213
            ],
            [
              5.5269404,
              50.7403047
            ],
            [
              5.5281186,
              50.7387817
            ],
            [
              5.5296099,
              50.7391066
            ],
            [
              5.5300176,
              50.7383088
            ],
            [
              5.5305111,
              50.7384718
            ],
            [
              5.5322385,
              50.7368082
            ],
            [
              5.53294,
              50.7363496
            ],
            [
              5.5334508,
              50.7353585
            ],
            [
              5.534423,
              50.7343732
            ],
            [
              5.533998,
              50.7340785
            ],
            [
              5.5349556,
              50.7330031
            ],
            [
              5.5347956,
              50.732928
            ],
            [
              5.5358326,
              50.7312634
            ],
            [
              5.5373216,
              50.7305067
            ],
            [
              5.5390836,
              50.7323071
            ],
            [
              5.5402134,
              50.7345529
            ],
            [
              5.5430515,
              50.73309
            ],
            [
              5.5440187,
              50.7330124
            ],
            [
              5.5459861,
              50.7337319
            ],
            [
              5.5470631,
              50.7348673
            ],
            [
              5.5482888,
              50.7356878
            ],
            [
              5.5496653,
              50.7370253
            ],
            [
              5.5498445,
              50.7380101
            ],
            [
              5.5497464,
              50.7390444
            ],
            [
              5.5505232,
              50.740886
            ],
            [
              5.5508937,
              50.7424634
            ],
            [
              5.5518524,
              50.7437388
            ],
            [
              5.5520797,
              50.7439271
            ],
            [
              5.5523911,
              50.7439204
            ],
            [
              5.5523901,
              50.7437885
            ],
            [
              5.5526156,
              50.7437014
            ],
            [
              5.5526412,
              50.7440656
            ],
            [
              5.5528479,
              50.7445562
            ],
            [
              5.5542791,
              50.7443652
            ],
            [
              5.5572602,
              50.7448693
            ],
            [
              5.5570198,
              50.7458717
            ],
            [
              5.5598444,
              50.7468149
            ],
            [
              5.5674708,
              50.7489259
            ],
            [
              5.5715003,
              50.7493777
            ],
            [
              5.5714253,
              50.7468149
            ],
            [
              5.572767,
              50.743536
            ],
            [
              5.5748854,
              50.7408411
            ],
            [
              5.5760859,
              50.7403919
            ],
            [
              5.5770421,
              50.7381323
            ],
            [
              5.5766972,
              50.7380861
            ],
            [
              5.5769563,
              50.7374669
            ],
            [
              5.5771601,
              50.737494
            ],
            [
              5.5774615,
              50.736722
            ],
            [
              5.5780989,
              50.7366164
            ],
            [
              5.5788767,
              50.7368863
            ],
            [
              5.5789867,
              50.7367573
            ],
            [
              5.5789346,
              50.7366073
            ],
            [
              5.5793595,
              50.7361903
            ],
            [
              5.5798852,
              50.7359934
            ],
            [
              5.5799228,
              50.7356301
            ],
            [
              5.5801266,
              50.7352125
            ],
            [
              5.5810854,
              50.7347851
            ],
            [
              5.5825825,
              50.7345978
            ],
            [
              5.5831778,
              50.7340897
            ],
            [
              5.5835813,
              50.7341227
            ],
            [
              5.5838227,
              50.733868
            ],
            [
              5.5845952,
              50.7337763
            ],
            [
              5.5850136,
              50.7338884
            ],
            [
              5.5857217,
              50.7338205
            ],
            [
              5.585947,
              50.733868
            ],
            [
              5.5863665,
              50.7337776
            ],
            [
              5.5866069,
              50.7335251
            ],
            [
              5.5878836,
              50.7334368
            ],
            [
              5.5886534,
              50.7331635
            ],
            [
              5.5887951,
              50.7330345
            ],
            [
              5.5897192,
              50.7333995
            ],
            [
              5.5918729,
              50.7339926
            ],
            [
              5.5943494,
              50.7340786
            ],
            [
              5.5960302,
              50.7309817
            ],
            [
              5.5968248,
              50.729214
            ],
            [
              5.597011,
              50.728271
            ],
            [
              5.5971997,
              50.7279368
            ],
            [
              5.5990501,
              50.726224
            ],
            [
              5.5986195,
              50.7254829
            ],
            [
              5.598537,
              50.7245187
            ],
            [
              5.5987068,
              50.7237755
            ],
            [
              5.5986646,
              50.7235262
            ],
            [
              5.5982822,
              50.7234418
            ],
            [
              5.5985872,
              50.7232242
            ],
            [
              5.5949872,
              50.7210204
            ],
            [
              5.5967217,
              50.7200969
            ],
            [
              5.5958544,
              50.7194555
            ],
            [
              5.5968606,
              50.7189431
            ],
            [
              5.5960109,
              50.7181109
            ],
            [
              5.5976828,
              50.7173506
            ],
            [
              5.5968663,
              50.7168493
            ],
            [
              5.5970695,
              50.7166616
            ],
            [
              5.5963824,
              50.7163206
            ],
            [
              5.5971024,
              50.7156976
            ],
            [
              5.5960317,
              50.7151531
            ],
            [
              5.5955762,
              50.7155146
            ],
            [
              5.5947123,
              50.7151083
            ],
            [
              5.5963524,
              50.7139928
            ],
            [
              5.5969939,
              50.7145205
            ],
            [
              5.5988901,
              50.7133169
            ],
            [
              5.5987062,
              50.7131987
            ],
            [
              5.5990185,
              50.7129909
            ],
            [
              5.5976462,
              50.7121156
            ],
            [
              5.5984261,
              50.7116782
            ],
            [
              5.5974319,
              50.7109227
            ],
            [
              5.597709,
              50.7107994
            ],
            [
              5.5981091,
              50.7099436
            ],
            [
              5.5995589,
              50.7087385
            ],
            [
              5.5980419,
              50.7070418
            ],
            [
              5.5989157,
              50.7060769
            ],
            [
              5.5952929,
              50.7028231
            ],
            [
              5.5949913,
              50.7029069
            ],
            [
              5.5933963,
              50.7014136
            ],
            [
              5.5917287,
              50.7014198
            ],
            [
              5.5901521,
              50.7009215
            ],
            [
              5.5881884,
              50.7000585
            ],
            [
              5.5844034,
              50.6988908
            ],
            [
              5.5840362,
              50.6989446
            ],
            [
              5.5828081,
              50.6983873
            ],
            [
              5.582383,
              50.6983855
            ],
            [
              5.5821437,
              50.6996094
            ],
            [
              5.5795451,
              50.7010647
            ],
            [
              5.5788954,
              50.7011725
            ],
            [
              5.5779351,
              50.6985494
            ],
            [
              5.5760708,
              50.6985494
            ],
            [
              5.5752517,
              50.6986571
            ],
            [
              5.5749693,
              50.6985314
            ],
            [
              5.5749975,
              50.6982439
            ],
            [
              5.5727943,
              50.6983877
            ],
            [
              5.5674841,
              50.6983877
            ],
            [
              5.5673993,
              50.6980104
            ],
            [
              5.5628799,
              50.6981003
            ],
            [
              5.5615241,
              50.6979565
            ],
            [
              5.5604507,
              50.6976331
            ],
            [
              5.5595469,
              50.697148
            ],
            [
              5.5555486,
              50.6938274
            ],
            [
              5.5568918,
              50.6928717
            ],
            [
              5.5586133,
              50.6912565
            ],
            [
              5.5589459,
              50.6914609
            ],
            [
              5.5595121,
              50.6910782
            ],
            [
              5.5591475,
              50.6908846
            ],
            [
              5.560479,
              50.6899971
            ],
            [
              5.5607897,
              50.6896198
            ],
            [
              5.563769,
              50.6874468
            ],
            [
              5.5639137,
              50.6875517
            ],
            [
              5.5656902,
              50.6866511
            ],
            [
              5.5652243,
              50.6858286
            ],
            [
              5.5647304,
              50.6821934
            ],
            [
              5.5644527,
              50.6821281
            ],
            [
              5.564014,
              50.6827966
            ],
            [
              5.561109,
              50.6822726
            ],
            [
              5.5606958,
              50.6824215
            ],
            [
              5.5594751,
              50.6835329
            ],
            [
              5.5586754,
              50.683876
            ],
            [
              5.5579619,
              50.6839946
            ],
            [
              5.5579607,
              50.6837474
            ],
            [
              5.5567999,
              50.6840057
            ],
            [
              5.5559373,
              50.6842918
            ],
            [
              5.5509203,
              50.6852871
            ],
            [
              5.5523108,
              50.6858617
            ],
            [
              5.5542166,
              50.6869042
            ],
            [
              5.5534266,
              50.6873896
            ],
            [
              5.5528169,
              50.6870689
            ],
            [
              5.5525494,
              50.6870842
            ],
            [
              5.5516996,
              50.6873665
            ],
            [
              5.5515418,
              50.6873665
            ],
            [
              5.5513597,
              50.6872215
            ],
            [
              5.5511532,
              50.6872978
            ],
            [
              5.5512018,
              50.6873894
            ],
            [
              5.5503759,
              50.6881981
            ],
            [
              5.548882,
              50.68787
            ],
            [
              5.5485544,
              50.6874619
            ],
            [
              5.547935,
              50.6858902
            ],
            [
              5.5468545,
              50.6860542
            ],
            [
              5.5459437,
              50.6862907
            ],
            [
              5.5455914,
              50.6859055
            ],
            [
              5.5449357,
              50.6863136
            ],
            [
              5.5441341,
              50.6858139
            ],
            [
              5.542932,
              50.6863594
            ],
            [
              5.5414505,
              50.6856308
            ],
            [
              5.5403333,
              50.6844753
            ],
            [
              5.5398597,
              50.6845522
            ],
            [
              5.5394954,
              50.6834366
            ],
            [
              5.5392161,
              50.6815515
            ],
            [
              5.5378803,
              50.6798356
            ],
            [
              5.5365616,
              50.6785336
            ],
            [
              5.5332114,
              50.6803129
            ],
            [
              5.5315272,
              50.681379
            ],
            [
              5.5285782,
              50.68305
            ],
            [
              5.5259699,
              50.6840018
            ],
            [
              5.5235717,
              50.6851716
            ],
            [
              5.5226133,
              50.6854404
            ],
            [
              5.520202,
              50.6835696
            ],
            [
              5.5182828,
              50.6846088
            ],
            [
              5.5184932,
              50.6847496
            ],
            [
              5.5172006,
              50.6855302
            ],
            [
              5.5163911,
              50.6858656
            ],
            [
              5.5177758,
              50.6867365
            ],
            [
              5.5157369,
              50.6876792
            ],
            [
              5.5150668,
              50.6872243
            ],
            [
              5.5137258,
              50.6879326
            ],
            [
              5.5132522,
              50.6875291
            ],
            [
              5.5117383,
              50.6881114
            ],
            [
              5.5118544,
              50.688182
            ],
            [
              5.5112519,
              50.6885763
            ],
            [
              5.5104506,
              50.6880977
            ],
            [
              5.5097324,
              50.6885446
            ],
            [
              5.5092992,
              50.6890784
            ],
            [
              5.5080009,
              50.6900939
            ],
            [
              5.5066538,
              50.690233
            ],
            [
              5.5056611,
              50.6912843
            ],
            [
              5.5052721,
              50.6911278
            ],
            [
              5.503504,
              50.6929894
            ],
            [
              5.5039421,
              50.6933479
            ],
            [
              5.5051044,
              50.6918939
            ],
            [
              5.5078187,
              50.6933665
            ],
            [
              5.5065252,
              50.6942055
            ],
            [
              5.5080976,
              50.6951292
            ],
            [
              5.5050399,
              50.6971211
            ],
            [
              5.5056978,
              50.6974399
            ],
            [
              5.5066621,
              50.6968178
            ],
            [
              5.5073066,
              50.6971262
            ],
            [
              5.5075663,
              50.696948
            ],
            [
              5.510985,
              50.6984781
            ],
            [
              5.5143088,
              50.7011518
            ],
            [
              5.5148382,
              50.7014314
            ],
            [
              5.5147461,
              50.7014881
            ],
            [
              5.5161327,
              50.7023704
            ],
            [
              5.5166182,
              50.7020559
            ],
            [
              5.5174933,
              50.7027552
            ],
            [
              5.5140558,
              50.7045277
            ],
            [
              5.514258,
              50.7046145
            ],
            [
              5.5139815,
              50.7047976
            ],
            [
              5.5130646,
              50.7043729
            ],
            [
              5.5104061,
              50.7061223
            ],
            [
              5.5117589,
              50.7070522
            ],
            [
              5.5109694,
              50.7083163
            ],
            [
              5.5152345,
              50.7083139
            ],
            [
              5.5170727,
              50.7086372
            ],
            [
              5.5189793,
              50.708772
            ],
            [
              5.5172608,
              50.7102328
            ],
            [
              5.5186933,
              50.7106484
            ],
            [
              5.5185166,
              50.7108523
            ],
            [
              5.5191445,
              50.7110598
            ],
            [
              5.5176292,
              50.7129033
            ],
            [
              5.5173499,
              50.7142255
            ],
            [
              5.5174254,
              50.7158597
            ],
            [
              5.5156162,
              50.7168746
            ],
            [
              5.5166938,
              50.718085
            ],
            [
              5.5130432,
              50.7201388
            ],
            [
              5.5083294,
              50.7177345
            ],
            [
              5.5053212,
              50.7184083
            ],
            [
              5.5029485,
              50.7191359
            ],
            [
              5.496339,
              50.7218039
            ],
            [
              5.4941358,
              50.7223429
            ],
            [
              5.4929071,
              50.7229088
            ],
            [
              5.4923139,
              50.7218578
            ],
            [
              5.4901107,
              50.7187047
            ],
            [
              5.4902802,
              50.718058
            ],
            [
              5.4901107,
              50.7168183
            ],
            [
              5.489476,
              50.7158085
            ],
            [
              5.4893573,
              50.7158521
            ],
            [
              5.4880406,
              50.714843
            ],
            [
              5.4873595,
              50.7151032
            ],
            [
              5.486894,
              50.7145772
            ],
            [
              5.4863763,
              50.7146382
            ],
            [
              5.4861833,
              50.7141907
            ],
            [
              5.4859292,
              50.7142512
            ],
            [
              5.484784,
              50.7132482
            ],
            [
              5.4840231,
              50.7136992
            ],
            [
              5.4840767,
              50.7137332
            ],
            [
              5.4823148,
              50.7143927
            ],
            [
              5.4811556,
              50.7147064
            ],
            [
              5.4784905,
              50.7158233
            ],
            [
              5.4800821,
              50.7169734
            ],
            [
              5.4792362,
              50.7174829
            ],
            [
              5.4797195,
              50.7177726
            ],
            [
              5.4791865,
              50.7181705
            ],
            [
              5.4799662,
              50.7188133
            ],
            [
              5.478641,
              50.7201541
            ],
            [
              5.4803234,
              50.7209144
            ],
            [
              5.4794834,
              50.7215138
            ],
            [
              5.4806956,
              50.7221251
            ],
            [
              5.4788469,
              50.7236978
            ]
          ]
        ]
      },
      "properties": {
        "type": "boundary",
        "gemeente": "Juprelle"
      }
    }
  ]
}