{"type":"FeatureCollection","metadata":{"gemeente":"Kapellen","slug":"kapellen","generated_at":"2026-09-26T14:21:03.081139Z","total_points":32,"providers":["bpost","DHL","GLS","InPost","VintedGo","PostNL","Amazon"],"bounds":[4.39825,51.30132,4.45196,51.34882]},"features":[{"type":"Feature","geometry":{"type":"Point","coordinates":[4.4361,51.30132]},"properties":{"type":"pakketpunt","locatieNaam":"Bbox Lidl Kapellen","straatNaam":"Antwerpsesteenweg","straatNr":"280","vervoerder":"bpost","puntType":"automaat","bezettingsgraad":50,"latitude":51.30132,"longitude":4.4361,"canPickup":true,"canDropoff":true,"openingstijden":null}},{"type":"Feature","geometry":{"type":"Point","coordinates":[4.4299,51.31294]},"properties":{"type":"pakketpunt","locatieNaam":"Pakjesautomaat 24/7 Promenade Shop","straatNaam":"Antwerpsesteenweg","straatNr":"39","vervoerder":"bpost","puntType":"automaat","bezettingsgraad":50,"latitude":51.31294,"longitude":4.4299,"canPickup":true,"canDropoff":true,"openingstijden":null}},{"type":"Feature","geometry":{"type":"Point","coordinates":[4.43263,51.31345]},"properties":{"type":"pakketpunt","locatieNaam":"Pakjesautomaat 24/7 Station Kapellen","straatNaam":"Stationsstraat","straatNr":"62","vervoerder":"bpost","puntType":"automaat","bezettingsgraad":50,"latitude":51.31345,"longitude":4.43263,"canPickup":true,"canDropoff":true,"openingstijden":null}},{"type":"Feature","geometry":{"type":"Point","coordinates":[4.42505,51.31474]},"properties":{"type":"pakketpunt","locatieNaam":"Pakjesautomaat 24/7 P Watertoren","straatNaam":"Kerkstraat","straatNr":"64","vervoerder":"bpost","puntType":"automaat","bezettingsgraad":50,"latitude":51.31474,"longitude":4.42505,"canPickup":true,"canDropoff":true,"openingstijden":null}},{"type":"Feature","geometry":{"type":"Point","coordinates":[4.45196,51.31101]},"properties":{"type":"pakketpunt","locatieNaam":"Pakjesautomaat 24/7 Sporthal Hoogboom","straatNaam":"Kazerneweg","straatNr":"26","vervoerder":"bpost","puntType":"automaat","bezettingsgraad":50,"latitude":51.31101,"longitude":4.45196,"canPickup":true,"canDropoff":true,"openingstijden":null}},{"type":"Feature","geometry":{"type":"Point","coordinates":[4.42996,51.31542]},"properties":{"type":"pakketpunt","locatieNaam":"Bbox 24/7 Kapellen Centrum Bpost","straatNaam":"Christiaan Pallemansstraat","straatNr":"8-12","vervoerder":"bpost","puntType":"automaat","bezettingsgraad":50,"latitude":51.31542,"longitude":4.42996,"canPickup":true,"canDropoff":true,"openingstijden":null}},{"type":"Feature","geometry":{"type":"Point","coordinates":[4.42986,51.31544]},"properties":{"type":"pakketpunt","locatieNaam":"Kapellen Centrum","straatNaam":"Christiaan Pallemansstraat","straatNr":"8-12","vervoerder":"bpost","puntType":"postkantoor","bezettingsgraad":50,"latitude":51.31544,"longitude":4.42986,"canPickup":true,"canDropoff":true,"openingstijden":null}},{"type":"Feature","geometry":{"type":"Point","coordinates":[4.42616,51.31847]},"properties":{"type":"pakketpunt","locatieNaam":"Dbh T Park Kapellen","straatNaam":"Dorpsstraat","straatNr":"108","vervoerder":"bpost","puntType":"servicepunt","bezettingsgraad":50,"latitude":51.31847,"longitude":4.42616,"canPickup":true,"canDropoff":true,"openingstijden":null}},{"type":"Feature","geometry":{"type":"Point","coordinates":[4.4024,51.34756]},"properties":{"type":"pakketpunt","locatieNaam":"Pakjesautomaat 24/7 Sporthal Putte","straatNaam":"Ertbrandstraat","straatNr":"64","vervoerder":"bpost","puntType":"automaat","bezettingsgraad":50,"latitude":51.34756,"longitude":4.4024,"canPickup":true,"canDropoff":true,"openingstijden":null}},{"type":"Feature","geometry":{"type":"Point","coordinates":[4.39825,51.34882]},"properties":{"type":"pakketpunt","locatieNaam":"Bbox Delhaize Ertbrand","straatNaam":"Ertbrandstraat","straatNr":"209","vervoerder":"bpost","puntType":"automaat","bezettingsgraad":50,"latitude":51.34882,"longitude":4.39825,"canPickup":true,"canDropoff":true,"openingstijden":null}},{"type":"Feature","geometry":{"type":"Point","coordinates":[4.398255,51.348818]},"properties":{"type":"pakketpunt","locatieNaam":"BBOX DELHAIZE ERTBRAND","straatNaam":"ERTBRANDSTRAAT","straatNr":"209","vervoerder":"DHL","puntType":"packStation","bezettingsgraad":50,"latitude":51.348818,"longitude":4.398255,"canPickup":true,"canDropoff":true,"openingstijden":{"ma":"08:00 - 19:00","di":"08:00 - 19:00","wo":"08:00 - 19:00","do":"08:00 - 19:00","vr":"08:00 - 19:00","za":"08:00 - 19:00","zo":"07:30 - 13:00"}}},{"type":"Feature","geometry":{"type":"Point","coordinates":[4.402395,51.347565]},"properties":{"type":"pakketpunt","locatieNaam":"PARCEL LOCKER 24/7 SPORTHAL PUTTE","straatNaam":"ERTBRANDSTRAAT","straatNr":"64","vervoerder":"DHL","puntType":"packStation","bezettingsgraad":50,"latitude":51.347565,"longitude":4.402395,"canPickup":true,"canDropoff":true,"openingstijden":{"ma":"00:00 - 23:59","di":"00:00 - 23:59","wo":"00:00 - 23:59","do":"00:00 - 23:59","vr":"00:00 - 23:59","za":"00:00 - 23:59","zo":"00:00 - 23:59"}}},{"type":"Feature","geometry":{"type":"Point","coordinates":[4.426156,51.318467]},"properties":{"type":"pakketpunt","locatieNaam":"DBH T PARK KAPELLEN","straatNaam":"DORPSSTRAAT","straatNr":"108","vervoerder":"DHL","puntType":"parcelShop","bezettingsgraad":50,"latitude":51.318467,"longitude":4.426156,"canPickup":true,"canDropoff":true,"openingstijden":{"ma":"06:00 - 12:30, 14:00 - 18:00","di":"06:00 - 12:30, 14:00 - 18:00","wo":"06:00 - 12:30, 14:00 - 18:00","do":"06:00 - 12:30, 14:00 - 18:00","vr":"06:00 - 12:30, 14:00 - 18:00","za":"07:00 - 13:00","zo":"gesloten"}}},{"type":"Feature","geometry":{"type":"Point","coordinates":[4.429962,51.315418]},"properties":{"type":"pakketpunt","locatieNaam":"BBOX 24/7 KAPELLEN CENTRUM BPOST","straatNaam":"CHRISTIAAN PALLEMANSSTRAAT","straatNr":"8-12","vervoerder":"DHL","puntType":"packStation","bezettingsgraad":50,"latitude":51.315418,"longitude":4.429962,"canPickup":true,"canDropoff":true,"openingstijden":{"ma":"00:00 - 23:59","di":"00:00 - 23:59","wo":"00:00 - 23:59","do":"00:00 - 23:59","vr":"00:00 - 23:59","za":"00:00 - 23:59","zo":"00:00 - 23:59"}}},{"type":"Feature","geometry":{"type":"Point","coordinates":[4.429861,51.315436]},"properties":{"type":"pakketpunt","locatieNaam":"KAPELLEN CENTRUM","straatNaam":"CHRISTIAAN PALLEMANSSTRAAT","straatNr":"8-12","vervoerder":"DHL","puntType":"postOffice","bezettingsgraad":50,"latitude":51.315436,"longitude":4.429861,"canPickup":true,"canDropoff":true,"openingstijden":{"ma":"09:30 - 12:30, 13:30 - 17:00","di":"09:30 - 12:30, 13:30 - 18:00","wo":"09:30 - 12:30, 13:30 - 17:00","do":"09:30 - 12:30, 13:30 - 18:00","vr":"09:30 - 12:30, 13:30 - 17:00","za":"09:30 - 13:00","zo":"gesloten"}}},{"type":"Feature","geometry":{"type":"Point","coordinates":[4.43263,51.313455]},"properties":{"type":"pakketpunt","locatieNaam":"PARCEL LOCKER 24/7 STATION KAPELLEN","straatNaam":"STATIONSSTRAAT","straatNr":"62","vervoerder":"DHL","puntType":"packStation","bezettingsgraad":50,"latitude":51.313455,"longitude":4.43263,"canPickup":true,"canDropoff":true,"openingstijden":{"ma":"00:00 - 23:59","di":"00:00 - 23:59","wo":"00:00 - 23:59","do":"00:00 - 23:59","vr":"00:00 - 23:59","za":"00:00 - 23:59","zo":"00:00 - 23:59"}}},{"type":"Feature","geometry":{"type":"Point","coordinates":[4.429899,51.31294]},"properties":{"type":"pakketpunt","locatieNaam":"PARCEL LOCKER 24/7 PROMENADE SHOP","straatNaam":"ANTWERPSESTEENWEG","straatNr":"39","vervoerder":"DHL","puntType":"packStation","bezettingsgraad":50,"latitude":51.31294,"longitude":4.429899,"canPickup":true,"canDropoff":true,"openingstijden":{"ma":"00:00 - 23:59","di":"00:00 - 23:59","wo":"00:00 - 23:59","do":"00:00 - 23:59","vr":"00:00 - 23:59","za":"00:00 - 23:59","zo":"00:00 - 23:59"}}},{"type":"Feature","geometry":{"type":"Point","coordinates":[4.425049,51.314735]},"properties":{"type":"pakketpunt","locatieNaam":"PARCEL LOCKER 24/7 P WATERTOREN","straatNaam":"KERKSTRAAT","straatNr":"64","vervoerder":"DHL","puntType":"packStation","bezettingsgraad":50,"latitude":51.314735,"longitude":4.425049,"canPickup":true,"canDropoff":true,"openingstijden":{"ma":"00:00 - 23:59","di":"00:00 - 23:59","wo":"00:00 - 23:59","do":"00:00 - 23:59","vr":"00:00 - 23:59","za":"00:00 - 23:59","zo":"00:00 - 23:59"}}},{"type":"Feature","geometry":{"type":"Point","coordinates":[4.451959,51.311008]},"properties":{"type":"pakketpunt","locatieNaam":"PARCEL LOCKER 24/7 SPORTHAL HOOGBOO","straatNaam":"KAZERNEWEG","straatNr":"26","vervoerder":"DHL","puntType":"packStation","bezettingsgraad":50,"latitude":51.311008,"longitude":4.451959,"canPickup":true,"canDropoff":true,"openingstijden":{"ma":"00:00 - 23:59","di":"00:00 - 23:59","wo":"00:00 - 23:59","do":"00:00 - 23:59","vr":"00:00 - 23:59","za":"00:00 - 23:59","zo":"00:00 - 23:59"}}},{"type":"Feature","geometry":{"type":"Point","coordinates":[4.4361,51.30132]},"properties":{"type":"pakketpunt","locatieNaam":"BBOX LIDL KAPELLEN","straatNaam":"ANTWERPSESTEENWEG","straatNr":"280","vervoerder":"DHL","puntType":"packStation","bezettingsgraad":50,"latitude":51.30132,"longitude":4.4361,"canPickup":true,"canDropoff":true,"openingstijden":{"ma":"08:30 - 20:30","di":"08:30 - 20:30","wo":"08:30 - 20:30","do":"08:30 - 20:30","vr":"08:30 - 20:30","za":"08:30 - 20:30","zo":"gesloten"}}},{"type":"Feature","geometry":{"type":"Point","coordinates":[4.4372315,51.3014743]},"properties":{"type":"pakketpunt","locatieNaam":"GLS Parcel Locker powered by bbox","straatNaam":"Antwerpsesteenweg","straatNr":"288","vervoerder":"GLS","puntType":"locker","bezettingsgraad":50,"latitude":51.3014743,"longitude":4.4372315,"canPickup":true,"canDropoff":true,"openingstijden":"za: 08:30 - 12:30, 13:00 - 20:30; ma: 08:30 - 12:30, 13:00 - 20:30"}},{"type":"Feature","geometry":{"type":"Point","coordinates":[4.4278726,51.3139117]},"properties":{"type":"pakketpunt","locatieNaam":"Le Sable","straatNaam":"Dorpsplein","straatNr":"4","vervoerder":"GLS","puntType":"parcel_shop","bezettingsgraad":50,"latitude":51.3139117,"longitude":4.4278726,"canPickup":true,"canDropoff":true,"openingstijden":"za: 10:00 - 17:00; di: 10:00 - 18:00"}},{"type":"Feature","geometry":{"type":"Point","coordinates":[4.42629,51.31854]},"properties":{"type":"pakketpunt","locatieNaam":"DAGBLADHANDEL T PARK","straatNaam":"108 Dorpsstraat","straatNr":"","vervoerder":"InPost","puntType":"servicepunt","bezettingsgraad":50,"latitude":51.31854,"longitude":4.42629,"canPickup":true,"canDropoff":true,"openingstijden":null}},{"type":"Feature","geometry":{"type":"Point","coordinates":[4.42996,51.31312]},"properties":{"type":"pakketpunt","locatieNaam":"","straatNaam":"Antwerpsesteenweg","straatNr":"39","vervoerder":"InPost","puntType":"automaat","bezettingsgraad":50,"latitude":51.31312,"longitude":4.42996,"canPickup":true,"canDropoff":true,"openingstijden":"MON|-|-;TUE|-|-;WED|-|-;THU|-|-;FRI|-|-;SAT|-|-;SUN|-|-;"}},{"type":"Feature","geometry":{"type":"Point","coordinates":[4.42639955,51.3185597]},"properties":{"type":"pakketpunt","locatieNaam":"'T Park ","straatNaam":"Dorpsstraat","straatNr":"108","vervoerder":"VintedGo","puntType":"parcel_shop","bezettingsgraad":50,"latitude":51.3185597,"longitude":4.42639955,"canPickup":true,"canDropoff":true,"openingstijden":null}},{"type":"Feature","geometry":{"type":"Point","coordinates":[4.427937,51.3137508]},"properties":{"type":"pakketpunt","locatieNaam":"Le Sable","straatNaam":"Dorpsplein","straatNr":"4","vervoerder":"VintedGo","puntType":"parcel_shop","bezettingsgraad":50,"latitude":51.3137508,"longitude":4.427937,"canPickup":true,"canDropoff":true,"openingstijden":null}},{"type":"Feature","geometry":{"type":"Point","coordinates":[4.426376,51.318448]},"properties":{"type":"pakketpunt","locatieNaam":"Dagbladhandel 't Park","straatNaam":"Dorpsstraat","straatNr":"108","vervoerder":"PostNL","puntType":"servicepunt","bezettingsgraad":50,"latitude":51.318448,"longitude":4.426376,"canPickup":true,"canDropoff":true,"openingstijden":"07:00 - 13:00"}},{"type":"Feature","geometry":{"type":"Point","coordinates":[4.4361,51.30132]},"properties":{"type":"pakketpunt","locatieNaam":"bpost - BBOX LIDL KAPELLEN","straatNaam":"ANTWERPSESTEENWEG,280","straatNr":"","vervoerder":"Amazon","puntType":"3p","bezettingsgraad":50,"latitude":51.30132,"longitude":4.4361,"canPickup":true,"canDropoff":false,"openingstijden":null}},{"type":"Feature","geometry":{"type":"Point","coordinates":[4.398255,51.348818]},"properties":{"type":"pakketpunt","locatieNaam":"bpost - BBOX DELHAIZE ERTBRAND","straatNaam":"ERTBRANDSTRAAT,209","straatNr":"","vervoerder":"Amazon","puntType":"3p","bezettingsgraad":50,"latitude":51.348818,"longitude":4.398255,"canPickup":true,"canDropoff":false,"openingstijden":null}},{"type":"Feature","geometry":{"type":"Point","coordinates":[4.426156,51.318467]},"properties":{"type":"pakketpunt","locatieNaam":"bpost - DBH T PARK KAPELLEN","straatNaam":"DORPSSTRAAT,108","straatNr":"","vervoerder":"Amazon","puntType":"3p","bezettingsgraad":50,"latitude":51.318467,"longitude":4.426156,"canPickup":true,"canDropoff":false,"openingstijden":null}},{"type":"Feature","geometry":{"type":"Point","coordinates":[4.429861,51.315436]},"properties":{"type":"pakketpunt","locatieNaam":"bpost - KAPELLEN CENTRUM","straatNaam":"CHRISTIAAN PALLEMANSSTRAAT,8-12","straatNr":"","vervoerder":"Amazon","puntType":"3p","bezettingsgraad":50,"latitude":51.315436,"longitude":4.429861,"canPickup":true,"canDropoff":false,"openingstijden":null}},{"type":"Feature","geometry":{"type":"Point","coordinates":[4.429962,51.315418]},"properties":{"type":"pakketpunt","locatieNaam":"bpost - BBOX 24/7 KAPELLEN CENTRUM BPOST","straatNaam":"CHRISTIAAN PALLEMANSSTRAAT,8-12","straatNr":"","vervoerder":"Amazon","puntType":"3p","bezettingsgraad":50,"latitude":51.315418,"longitude":4.429962,"canPickup":true,"canDropoff":false,"openingstijden":null}},{"type":"Feature","geometry":{"type":"Polygon","coordinates":[[[4.3917171,51.3305074],[4.412422,51.30982],[4.4129514,51.3094378],[4.4128534,51.3094031],[4.413937,51.3085337],[4.4171517,51.3068863],[4.4169275,51.3067601],[4.4171852,51.3065275],[4.4175634,51.3067505],[4.4184442,51.3058429],[4.4193884,51.3039649],[4.4199034,51.3027307],[4.4205221,51.3010892],[4.4209797,51.2994099],[4.4228187,51.2996865],[4.4239452,51.2975313],[4.4245391,51.2957032],[4.424524,51.2943731],[4.4243792,51.2928429],[4.4244131,51.2926852],[4.4246089,51.2926521],[4.4254063,51.292927],[4.4269042,51.2936237],[4.4282643,51.2944411],[4.4283915,51.2947184],[4.4293427,51.294588],[4.429685,51.2947342],[4.4299774,51.2947043],[4.430254,51.2949405],[4.4310121,51.295096],[4.4318616,51.2945897],[4.4320915,51.2943581],[4.432392,51.2942626],[4.4325578,51.2940447],[4.4333004,51.2944348],[4.4336041,51.2947365],[4.4342152,51.2949207],[4.4344343,51.2951081],[4.4344649,51.2952629],[4.4349213,51.2953621],[4.4349827,51.2955034],[4.4356189,51.2957548],[4.4357091,51.2958987],[4.4359043,51.2959217],[4.4363927,51.2962668],[4.4367353,51.2963571],[4.4374988,51.2968985],[4.439354,51.2978333],[4.4396922,51.2978523],[4.439856,51.2977594],[4.4398778,51.2975714],[4.4401079,51.2975394],[4.4404229,51.2976467],[4.4405365,51.2977657],[4.4409048,51.2978198],[4.4409672,51.2980057],[4.44111,51.2980343],[4.4413702,51.2979283],[4.4420524,51.298219],[4.4424834,51.2982616],[4.4426668,51.2984257],[4.4431269,51.2984348],[4.4435387,51.2986277],[4.4435774,51.298728],[4.4439207,51.2987006],[4.4439961,51.2988349],[4.4445478,51.2987796],[4.4455572,51.2989173],[4.44642,51.2991676],[4.4466978,51.2991684],[4.4472998,51.2994119],[4.4477401,51.2994193],[4.4478356,51.299563],[4.4481313,51.2995485],[4.4488908,51.2997983],[4.4500503,51.2999893],[4.4504418,51.300186],[4.4510644,51.3003382],[4.4517264,51.3006628],[4.4520953,51.3006906],[4.4522162,51.30087],[4.4526,51.3009495],[4.4551056,51.3021416],[4.4554017,51.302168],[4.4568916,51.3026964],[4.4571853,51.3027375],[4.4574411,51.3029259],[4.4577311,51.3029234],[4.4579279,51.3030808],[4.45847,51.3032825],[4.4585814,51.3034421],[4.4588027,51.3034847],[4.4589792,51.3034136],[4.4591086,51.3036083],[4.4596678,51.3036714],[4.4598342,51.3039459],[4.4607396,51.3043945],[4.4609834,51.304386],[4.4616224,51.3047263],[4.4618443,51.3047262],[4.4620854,51.3049778],[4.4624372,51.304958],[4.4624894,51.3051393],[4.4627357,51.3051418],[4.4629486,51.3053095],[4.4641346,51.3054994],[4.464672,51.3057938],[4.4648686,51.3057567],[4.4656519,51.3060493],[4.4665606,51.3062587],[4.4669145,51.3064474],[4.4673925,51.3065364],[4.4675498,51.3067133],[4.4683819,51.3069475],[4.4683865,51.3071073],[4.4680326,51.3076045],[4.467806,51.3077943],[4.4680472,51.3080064],[4.470597,51.308551],[4.4718044,51.3089454],[4.4683796,51.310121],[4.4672771,51.3119112],[4.4681468,51.3124729],[4.4679396,51.313635],[4.4677895,51.3140377],[4.4677822,51.3144178],[4.4675669,51.314818],[4.467483,51.3152279],[4.4664834,51.316301],[4.4645122,51.3194131],[4.4685462,51.3226583],[4.473224,51.3261179],[4.4793394,51.3303052],[4.4812496,51.3314167],[4.4825057,51.3322577],[4.4849399,51.3340551],[4.4875275,51.335474],[4.4948297,51.3392594],[4.5117461,51.3477679],[4.5168603,51.3498185],[4.5190021,51.3508798],[4.5073733,51.3580323],[4.4747303,51.3524202],[4.4496531,51.3614812],[4.441761,51.3620367],[4.4199705,51.3620193],[4.419862,51.3644205],[4.405356,51.3593641],[4.3987397,51.3568867],[4.3954397,51.3559894],[4.39468,51.3558468],[4.3962788,51.3539059],[4.3970702,51.3526823],[4.3972478,51.3523202],[4.397248,51.3519384],[4.3974742,51.3506876],[4.398677,51.3474738],[4.400698,51.344682],[4.4016736,51.3425851],[4.401966,51.3422065],[4.4034867,51.340751],[4.4060515,51.3378675],[4.3930734,51.3313585],[4.392051,51.3308335],[4.3917171,51.3305074]]]},"properties":{"type":"boundary","gemeente":"Kapellen"}}]}