{
  "type": "FeatureCollection",
  "metadata": {
    "gemeente": "Koekelberg",
    "slug": "koekelberg",
    "generated_at": "2026-09-25T22:11:39.888355Z",
    "total_points": 11,
    "providers": [
      "bpost",
      "DHL",
      "InPost",
      "VintedGo",
      "DPD",
      "Amazon"
    ],
    "bounds": [
      4.3143267,
      50.85693,
      4.33199,
      50.8672
    ]
  },
  "features": [
    {
      "type": "Feature",
      "geometry": {
        "type": "Point",
        "coordinates": [
          4.32815,
          50.85693
        ]
      },
      "properties": {
        "type": "pakketpunt",
        "locatieNaam": "Koekelberg Rue Piermez",
        "straatNaam": "Philippe Piermezstraat",
        "straatNr": "20",
        "vervoerder": "bpost",
        "puntType": "servicepunt",
        "bezettingsgraad": 50,
        "latitude": 50.85693,
        "longitude": 4.32815,
        "canPickup": true,
        "canDropoff": true,
        "openingstijden": null
      }
    },
    {
      "type": "Feature",
      "geometry": {
        "type": "Point",
        "coordinates": [
          4.32999,
          50.85863
        ]
      },
      "properties": {
        "type": "pakketpunt",
        "locatieNaam": "Market 1987",
        "straatNaam": "Sint-Annakerkstraat",
        "straatNr": "128",
        "vervoerder": "bpost",
        "puntType": "servicepunt",
        "bezettingsgraad": 50,
        "latitude": 50.85863,
        "longitude": 4.32999,
        "canPickup": true,
        "canDropoff": true,
        "openingstijden": null
      }
    },
    {
      "type": "Feature",
      "geometry": {
        "type": "Point",
        "coordinates": [
          4.328149,
          50.85693
        ]
      },
      "properties": {
        "type": "pakketpunt",
        "locatieNaam": "KOEKELBERG RUE PIERMEZ",
        "straatNaam": "RUE PHILIPPE PIERMEZ",
        "straatNr": "20",
        "vervoerder": "DHL",
        "puntType": "parcelShop",
        "bezettingsgraad": 50,
        "latitude": 50.85693,
        "longitude": 4.328149,
        "canPickup": true,
        "canDropoff": true,
        "openingstijden": {
          "ma": "gesloten",
          "di": "10:00 - 19:00",
          "wo": "10:00 - 19:00",
          "do": "10:00 - 19:00",
          "vr": "10:00 - 19:00",
          "za": "10:00 - 19:00",
          "zo": "gesloten"
        }
      }
    },
    {
      "type": "Feature",
      "geometry": {
        "type": "Point",
        "coordinates": [
          4.32999,
          50.858634
        ]
      },
      "properties": {
        "type": "pakketpunt",
        "locatieNaam": "MARKET 1987",
        "straatNaam": "RUE DE L'EGLISE STE-ANNE",
        "straatNr": "128",
        "vervoerder": "DHL",
        "puntType": "parcelShop",
        "bezettingsgraad": 50,
        "latitude": 50.858634,
        "longitude": 4.32999,
        "canPickup": true,
        "canDropoff": true,
        "openingstijden": {
          "ma": "06:00 - 21:00",
          "di": "06:00 - 21:00",
          "wo": "06:00 - 21:00",
          "do": "06:00 - 21:00",
          "vr": "06:00 - 21:00",
          "za": "07:00 - 21:00",
          "zo": "08:00 - 21:00"
        }
      }
    },
    {
      "type": "Feature",
      "geometry": {
        "type": "Point",
        "coordinates": [
          4.32696,
          50.8672
        ]
      },
      "properties": {
        "type": "pakketpunt",
        "locatieNaam": "3 BRO",
        "straatNaam": "Avenue de Laeken 41",
        "straatNr": "",
        "vervoerder": "InPost",
        "puntType": "servicepunt",
        "bezettingsgraad": 50,
        "latitude": 50.8672,
        "longitude": 4.32696,
        "canPickup": true,
        "canDropoff": true,
        "openingstijden": null
      }
    },
    {
      "type": "Feature",
      "geometry": {
        "type": "Point",
        "coordinates": [
          4.3143267,
          50.8669976
        ]
      },
      "properties": {
        "type": "pakketpunt",
        "locatieNaam": "Toplots",
        "straatNaam": "Avenue De L'hôpital Français",
        "straatNr": "9",
        "vervoerder": "VintedGo",
        "puntType": "parcel_shop",
        "bezettingsgraad": 50,
        "latitude": 50.8669976,
        "longitude": 4.3143267,
        "canPickup": true,
        "canDropoff": true,
        "openingstijden": null
      }
    },
    {
      "type": "Feature",
      "geometry": {
        "type": "Point",
        "coordinates": [
          4.330759,
          50.862186
        ]
      },
      "properties": {
        "type": "pakketpunt",
        "locatieNaam": "BRABANT CASH",
        "straatNaam": "RUE JULES DEBECKER",
        "straatNr": "1",
        "vervoerder": "DPD",
        "puntType": "pickup_point",
        "bezettingsgraad": 50,
        "latitude": 50.862186,
        "longitude": 4.330759,
        "canPickup": true,
        "canDropoff": true,
        "openingstijden": {
          "ma": "09:00 - 20:00",
          "di": "09:00 - 20:00",
          "wo": "09:00 - 20:00",
          "do": "09:00 - 20:00",
          "vr": "09:00 - 20:00",
          "za": "09:00 - 20:00",
          "zo": "09:00 - 20:00"
        }
      }
    },
    {
      "type": "Feature",
      "geometry": {
        "type": "Point",
        "coordinates": [
          4.33199,
          50.86087
        ]
      },
      "properties": {
        "type": "pakketpunt",
        "locatieNaam": "4 STARS BV",
        "straatNaam": "HENRI VANHUFFELPLEIN",
        "straatNr": "10",
        "vervoerder": "DPD",
        "puntType": "pickup_point",
        "bezettingsgraad": 50,
        "latitude": 50.86087,
        "longitude": 4.33199,
        "canPickup": true,
        "canDropoff": false,
        "openingstijden": {
          "ma": "14:00 - 20:00",
          "di": "10:30 - 12:00, 13:00 - 20:00",
          "wo": "10:30 - 12:00, 13:00 - 20:00",
          "do": "10:30 - 12:00, 13:00 - 20:00",
          "vr": "10:30 - 12:00, 13:00 - 20:00",
          "za": "10:30 - 12:00, 13:00 - 20:00",
          "zo": "10:30 - 12:00, 13:00 - 20:00"
        }
      }
    },
    {
      "type": "Feature",
      "geometry": {
        "type": "Point",
        "coordinates": [
          4.315222,
          50.863671
        ]
      },
      "properties": {
        "type": "pakketpunt",
        "locatieNaam": "bpost - KOEKELBERG CARRIERE",
        "straatNaam": "RUE DE LA CARRIÈRE,21-27",
        "straatNr": "",
        "vervoerder": "Amazon",
        "puntType": "3p",
        "bezettingsgraad": 50,
        "latitude": 50.863671,
        "longitude": 4.315222,
        "canPickup": true,
        "canDropoff": false,
        "openingstijden": null
      }
    },
    {
      "type": "Feature",
      "geometry": {
        "type": "Point",
        "coordinates": [
          4.32999,
          50.858634
        ]
      },
      "properties": {
        "type": "pakketpunt",
        "locatieNaam": "bpost - MARKET 1987",
        "straatNaam": "RUE DE L'EGLISE STE-ANNE,128",
        "straatNr": "",
        "vervoerder": "Amazon",
        "puntType": "3p",
        "bezettingsgraad": 50,
        "latitude": 50.858634,
        "longitude": 4.32999,
        "canPickup": true,
        "canDropoff": false,
        "openingstijden": null
      }
    },
    {
      "type": "Feature",
      "geometry": {
        "type": "Point",
        "coordinates": [
          4.328149,
          50.85693
        ]
      },
      "properties": {
        "type": "pakketpunt",
        "locatieNaam": "bpost - KOEKELBERG RUE PIERMEZ",
        "straatNaam": "RUE PHILIPPE PIERMEZ,20",
        "straatNr": "",
        "vervoerder": "Amazon",
        "puntType": "3p",
        "bezettingsgraad": 50,
        "latitude": 50.85693,
        "longitude": 4.328149,
        "canPickup": true,
        "canDropoff": false,
        "openingstijden": null
      }
    },
    {
      "type": "Feature",
      "geometry": {
        "type": "MultiPolygon",
        "coordinates": [
          [
            [
              [
                4.332227744255861,
                50.856148149502985
              ],
              [
                4.332087026232956,
                50.855898929752705
              ],
              [
                4.331908394982706,
                50.85565964017308
              ],
              [
                4.331693571259874,
                50.855432585087065
              ],
              [
                4.331444624260087,
                50.85521995096927
              ],
              [
                4.3311639516798355,
                50.85502378539629
              ],
              [
                4.330854256617634,
                50.854845977335366
              ],
              [
                4.330518521539094,
                50.85468823896082
              ],
              [
                4.330159979556732,
                50.854552089173104
              ],
              [
                4.3297820833010014,
                50.85443883897899
              ],
              [
                4.329388471682072,
                50.85434957887303
              ],
              [
                4.328982934861922,
                50.854285168342
              ],
              [
                4.328569377773514,
                50.854246227592725
              ],
              [
                4.328151782537506,
                50.854233131583236
              ],
              [
                4.328151278297864,
                50.85423314712965
              ],
              [
                4.328150782594884,
                50.85423313158325
              ],
              [
                4.327733170194737,
                50.85424600641039
              ],
              [
                4.327319561779093,
                50.85428472810702
              ],
              [
                4.326913939962587,
                50.85434892382445
              ],
              [
                4.326520210496195,
                50.854437975424254
              ],
              [
                4.326142164676102,
                50.854551025427405
              ],
              [
                4.325783442851968,
                50.854686985267065
              ],
              [
                4.325447499385207,
                50.854844545765644
              ],
              [
                4.325137569394119,
                50.855022189735585
              ],
              [
                4.324856637605661,
                50.855218206582826
              ],
              [
                4.324607409613516,
                50.85543070877247
              ],
              [
                4.324392285819178,
                50.85565764999855
              ],
              [
                4.324213338307109,
                50.8558968448832
              ],
              [
                4.324072290876953,
                50.85614599001565
              ],
              [
                4.323970502425605,
                50.856402686128945
              ],
              [
                4.323908953839814,
                50.85666446120098
              ],
              [
                4.323888238526327,
                50.85692879425747
              ],
              [
                4.323908556671699,
                50.857193139647876
              ],
              [
                4.3239697132879815,
                50.85745495156069
              ],
              [
                4.324071120064177,
                50.85771170854169
              ],
              [
                4.324211801006601,
                50.85796093777934
              ],
              [
                4.324390401814824,
                50.85820023892328
              ],
              [
                4.324605202903809,
                50.858427307206156
              ],
              [
                4.324854135947594,
                50.858639955646304
              ],
              [
                4.325134803785879,
                50.85883613611677
              ],
              [
                4.325444503502262,
                50.85901395907787
              ],
              [
                4.325780252452164,
                50.8591717117828
              ],
              [
                4.325821834256248,
                50.85918750235112
              ],
              [
                4.32591200282619,
                50.85941577216064
              ],
              [
                4.326052698632445,
                50.859664999071185
              ],
              [
                4.326231315290722,
                50.85990429729769
              ],
              [
                4.326446133063344,
                50.8601313621009
              ],
              [
                4.3266950834636715,
                50.86034400653264
              ],
              [
                4.326975769164233,
                50.860540182504565
              ],
              [
                4.327222642278314,
                50.860681919678775
              ],
              [
                4.327216930239549,
                50.86068678977965
              ],
              [
                4.327001794986399,
                50.86091373545583
              ],
              [
                4.326822840741989,
                50.86115293396762
              ],
              [
                4.326681791370933,
                50.86140208186926
              ],
              [
                4.326580005788968,
                50.86165877986718
              ],
              [
                4.32651846485537,
                50.86192055592107
              ],
              [
                4.326497761903353,
                50.862184889047185
              ],
              [
                4.326518097000579,
                50.86244923359434
              ],
              [
                4.326579274995996,
                50.86271104375909
              ],
              [
                4.326680707372849,
                50.86296779810404
              ],
              [
                4.326821417891014,
                50.863217023843006
              ],
              [
                4.327000051965324,
                50.863456320659346
              ],
              [
                4.327214889690428,
                50.86368338382735
              ],
              [
                4.327463862387572,
                50.86389602641457
              ],
              [
                4.327744572514568,
                50.864092200350456
              ],
              [
                4.328054316747721,
                50.864270016158244
              ],
              [
                4.328390112013665,
                50.86442776115995
              ],
              [
                4.328748724220581,
                50.864563915978685
              ],
              [
                4.329126699411943,
                50.86467716917889
              ],
              [
                4.32952039704249,
                50.86476642990362
              ],
              [
                4.329926025055496,
                50.864830838386375
              ],
              [
                4.330339676422824,
                50.864869774236546
              ],
              [
                4.330757366795164,
                50.86488286241783
              ],
              [
                4.3311750728988585,
                50.86486997686264
              ],
              [
                4.331588771308646,
                50.864831241686844
              ],
              [
                4.331994477221863,
                50.86476702999379
              ],
              [
                4.332388282859656,
                50.864677960278655
              ],
              [
                4.332766395124453,
                50.86456489046813
              ],
              [
                4.333125172150085,
                50.864428909652794
              ],
              [
                4.333461158391799,
                50.864271327592306
              ],
              [
                4.333771117917561,
                50.864093662094284
              ],
              [
                4.334052065579568,
                50.863897624389075
              ],
              [
                4.334301295765477,
                50.86368510264149
              ],
              [
                4.334516408452332,
                50.863458143758464
              ],
              [
                4.334695332312411,
                50.863218933668264
              ],
              [
                4.334836344648753,
                50.86296977626156
              ],
              [
                4.3348861638672025,
                50.86284407947229
              ],
              [
                4.335002083535554,
                50.86277763119963
              ],
              [
                4.335283018194266,
                50.862581590473944
              ],
              [
                4.335532235833442,
                50.86236906603253
              ],
              [
                4.335747336550971,
                50.862142104808306
              ],
              [
                4.335926249134402,
                50.86190289275206
              ],
              [
                4.336067250995367,
                50.86165373377337
              ],
              [
                4.336168984742218,
                50.86139702754628
              ],
              [
                4.336230471231958,
                50.8611352463938
              ],
              [
                4.336251118976521,
                50.86087091147426
              ],
              [
                4.336230729813751,
                50.86060656849866
              ],
              [
                4.336169500789412,
                50.86034476321341
              ],
              [
                4.336068022233126,
                50.860088016884056
              ],
              [
                4.335927272047796,
                50.85983880201666
              ],
              [
                4.3357486062684645,
                50.859599518549956
              ],
              [
                4.335533745982446,
                50.85937247074805
              ],
              [
                4.335284760737484,
                50.85915984501536
              ],
              [
                4.335004048598357,
                50.858963688847716
              ],
              [
                4.334694313044491,
                50.85878589112178
              ],
              [
                4.334358536931374,
                50.85862816391233
              ],
              [
                4.334247447323839,
                50.85858598838678
              ],
              [
                4.3342305388996865,
                50.8583666406299
              ],
              [
                4.3341693239361145,
                50.85810483413581
              ],
              [
                4.3340678611434855,
                50.85784808591465
              ],
              [
                4.333927128272849,
                50.85759886849066
              ],
              [
                4.333748481192472,
                50.857359581827275
              ],
              [
                4.3335336408095735,
                50.85713253021935
              ],
              [
                4.33328467648022,
                50.85691990010798
              ],
              [
                4.333003986067779,
                50.856723739031175
              ],
              [
                4.332694272842468,
                50.856545935912855
              ],
              [
                4.33235851944478,
                50.85638820287976
              ],
              [
                4.3323162551698715,
                50.856372155378985
              ],
              [
                4.332227744255861,
                50.856148149502985
              ]
            ]
          ],
          [
            [
              [
                4.3191598746120174,
                50.86264036559068
              ],
              [
                4.318981283564546,
                50.86240105678354
              ],
              [
                4.318766491487121,
                50.86217397845808
              ],
              [
                4.318517567270913,
                50.86196131731275
              ],
              [
                4.318236908393281,
                50.86176512118445
              ],
              [
                4.317927217821034,
                50.86158727933466
              ],
              [
                4.317591477976764,
                50.8614295042631
              ],
              [
                4.317232922019055,
                50.86129331522364
              ],
              [
                4.316855002713071,
                50.86118002360097
              ],
              [
                4.3164613591910275,
                50.8610907202886
              ],
              [
                4.316055781922149,
                50.86102626518932
              ],
              [
                4.315642176228878,
                50.86098727893914
              ],
              [
                4.315224524699845,
                50.860974136934175
              ],
              [
                4.314806848860745,
                50.86098696571772
              ],
              [
                4.314393170471232,
                50.861025641762446
              ],
              [
                4.313987472819565,
                50.86108979265924
              ],
              [
                4.313593662386768,
                50.861178800701225
              ],
              [
                4.31321553124847,
                50.86129180882888
              ],
              [
                4.312856720575683,
                50.86142772887857
              ],
              [
                4.312520685585174,
                50.861585252055875
              ],
              [
                4.312210662276382,
                50.86176286153264
              ],
              [
                4.311929636274704,
                50.86195884704699
              ],
              [
                4.3116803140809274,
                50.86217132136585
              ],
              [
                4.311465097003588,
                50.86239823845165
              ],
              [
                4.311286058025394,
                50.86263741315908
              ],
              [
                4.311144921826799,
                50.862886542271696
              ],
              [
                4.311043048159586,
                50.863143226676925
              ],
              [
                4.310981418731241,
                50.863404994465476
              ],
              [
                4.310960627727187,
                50.863669324733266
              ],
              [
                4.310980876063095,
                50.863933671856756
              ],
              [
                4.311041969423538,
                50.864195490007745
              ],
              [
                4.31114332010697,
                50.86445225767202
              ],
              [
                4.311283952660193,
                50.86470150193525
              ],
              [
                4.311462513249102,
                50.864940822302394
              ],
              [
                4.311501909097458,
                50.86498247862663
              ],
              [
                4.311315185447893,
                50.86508944034706
              ],
              [
                4.311034135816389,
                50.86528542353212
              ],
              [
                4.310784791922802,
                50.86549789574806
              ],
              [
                4.310569555284663,
                50.865724810977625
              ],
              [
                4.310390499073093,
                50.86596398409332
              ],
              [
                4.310249348134561,
                50.866213111894105
              ],
              [
                4.3101474623628695,
                50.86646979528
              ],
              [
                4.310085823582153,
                50.866731562351575
              ],
              [
                4.310065026067995,
                50.86699589221164
              ],
              [
                4.310085270798854,
                50.86726023924056
              ],
              [
                4.310146363494126,
                50.8675220576111
              ],
              [
                4.310247716458764,
                50.86777882580691
              ],
              [
                4.310388354217698,
                50.86802807090854
              ],
              [
                4.310566922886774,
                50.868267392412875
              ],
              [
                4.310781703190856,
                50.86849448535655
              ],
              [
                4.311030627004522,
                50.86870716252041
              ],
              [
                4.311311297256691,
                50.86890337550088
              ],
              [
                4.311621011008003,
                50.86908123444521
              ],
              [
                4.311956785478939,
                50.86923902626
              ],
              [
                4.3123153867782,
                50.869375231117424
              ],
              [
                4.3126933610545075,
                50.869488537100025
              ],
              [
                4.313087067771564,
                50.86957785284245
              ],
              [
                4.313492714785215,
                50.869642318048285
              ],
              [
                4.313906394884363,
                50.86968131178054
              ],
              [
                4.314324123442942,
                50.8696944584454
              ],
              [
                4.314741876819434,
                50.869681631411915
              ],
              [
                4.315155631133144,
                50.869642954232326
              ],
              [
                4.315561401042798,
                50.8695787994513
              ],
              [
                4.31595527815295,
                50.86948978501587
              ],
              [
                4.316333468677414,
                50.869376768320265
              ],
              [
                4.316692329996009,
                50.869240837943515
              ],
              [
                4.317028405751857,
                50.86908330315945
              ],
              [
                4.317338459150521,
                50.8689056813204
              ],
              [
                4.317619504139833,
                50.868709683236226
              ],
              [
                4.317868834169843,
                50.8684971966902
              ],
              [
                4.318084048255793,
                50.868270268250264
              ],
              [
                4.3182630740932275,
                50.86803108355157
              ],
              [
                4.31840418800294,
                50.8677819462403
              ],
              [
                4.318506031514124,
                50.86752525578189
              ],
              [
                4.318567624426692,
                50.86726348434763
              ],
              [
                4.318588374227749,
                50.86699915300229
              ],
              [
                4.3185680817724235,
                50.8667348074226
              ],
              [
                4.318506943175346,
                50.866472993380135
              ],
              [
                4.318405547895542,
                50.86621623222489
              ],
              [
                4.318264873034227,
                50.86596699660577
              ],
              [
                4.318086273901383,
                50.86572768666147
              ],
              [
                4.318046871591288,
                50.86568603255702
              ],
              [
                4.318233582287411,
                50.86557906014207
              ],
              [
                4.318514603646402,
                50.86538305972896
              ],
              [
                4.318763911977459,
                50.865170571080455
              ],
              [
                4.318979106504782,
                50.864943640784745
              ],
              [
                4.319158115112245,
                50.86470445449483
              ],
              [
                4.31929921428653,
                50.86445531587223
              ],
              [
                4.319401045698672,
                50.86419862439497
              ],
              [
                4.319462629265026,
                50.863936852244144
              ],
              [
                4.31948337256262,
                50.86367252049146
              ],
              [
                4.319463076509115,
                50.86340817481756
              ],
              [
                4.319401937253698,
                50.86314636099489
              ],
              [
                4.319300544261635,
                50.86288960037134
              ],
              [
                4.3191598746120174,
                50.86264036559068
              ]
            ]
          ],
          [
            [
              [
                4.331038655308123,
                50.8664181931177
              ],
              [
                4.3308979128360185,
                50.86616897266273
              ],
              [
                4.330719248599104,
                50.865929681965085
              ],
              [
                4.330504383670032,
                50.865702625358544
              ],
              [
                4.330255387641428,
                50.86548998933228
              ],
              [
                4.329974658682068,
                50.865293821481295
              ],
              [
                4.329664900433479,
                50.86511601079476
              ],
              [
                4.329329095969784,
                50.864958269472226
              ],
              [
                4.32897047907165,
                50.86482211644258
              ],
              [
                4.32859250309089,
                50.86470886274376
              ],
              [
                4.328198807705292,
                50.86461959890406
              ],
              [
                4.3277931838833394,
                50.864555184446196
              ],
              [
                4.327379537395608,
                50.864516239614815
              ],
              [
                4.32696185122344,
                50.86450313940722
              ],
              [
                4.326544147226039,
                50.86451600996426
              ],
              [
                4.326130447434155,
                50.86455472735635
              ],
              [
                4.325724735342129,
                50.86461891877626
              ],
              [
                4.325330917570064,
                50.86470796612693
              ],
              [
                4.324952786264329,
                50.86482101197028
              ],
              [
                4.324593982597649,
                50.86495696777953
              ],
              [
                4.324257961719464,
                50.865114524415915
              ],
              [
                4.3239479594934815,
                50.86529216472908
              ],
              [
                4.323666961342267,
                50.8654881781602
              ],
              [
                4.323417673498618,
                50.8657006772073
              ],
              [
                4.3232024969405005,
                50.86592761559469
              ],
              [
                4.323023504260641,
                50.86616680797185
              ],
              [
                4.32288241969385,
                50.86641595095218
              ],
              [
                4.322780602494887,
                50.86667264528947
              ],
              [
                4.32271903382761,
                50.86693441897872
              ],
              [
                4.3226983072924465,
                50.867198751058986
              ],
              [
                4.322718623184318,
                50.86746309588914
              ],
              [
                4.322779786537282,
                50.867724907663074
              ],
              [
                4.322881208975758,
                50.86798166492789
              ],
              [
                4.323021914355502,
                50.86823089486934
              ],
              [
                4.3232005481409885,
                50.86847019713025
              ],
              [
                4.323415390429797,
                50.868697266932536
              ],
              [
                4.323664372499354,
                50.86890991727986
              ],
              [
                4.323945096717322,
                50.869106100026926
              ],
              [
                4.324254859624384,
                50.8692839256121
              ],
              [
                4.324590677967392,
                50.86944168126327
              ],
              [
                4.324949317432307,
                50.869577847500906
              ],
              [
                4.325327323800088,
                50.86969111277951
              ],
              [
                4.325721056225189,
                50.869780386125775
              ],
              [
                4.326126722315721,
                50.86984480765166
              ],
              [
                4.3265404146767485,
                50.86988375684087
              ],
              [
                4.326958148564043,
                50.86989685852867
              ],
              [
                4.32737590028474,
                50.86988398651732
              ],
              [
                4.327789645974107,
                50.86984526479227
              ],
              [
                4.328195400373988,
                50.86978106632729
              ],
              [
                4.328589255238414,
                50.86969200949017
              ],
              [
                4.328967416995576,
                50.869578952083536
              ],
              [
                4.3293262433025195,
                50.86944298307856
              ],
              [
                4.329662278139751,
                50.86928541212109
              ],
              [
                4.329972285107126,
                50.869107756911845
              ],
              [
                4.3302532785998675,
                50.868911728582084
              ],
              [
                4.330502552564202,
                50.86869921520636
              ],
              [
                4.3307177065555384,
                50.86847226361097
              ],
              [
                4.330896668848376,
                50.868233059654024
              ],
              [
                4.331037716375665,
                50.86798390716713
              ],
              [
                4.3311394913060495,
                50.867727205761824
              ],
              [
                4.3312010141000306,
                50.86746542771474
              ],
              [
                4.331221692920067,
                50.86720109415427
              ],
              [
                4.331201329304901,
                50.86693675077842
              ],
              [
                4.331140120054455,
                50.866674943337436
              ],
              [
                4.331038655308123,
                50.8664181931177
              ]
            ]
          ]
        ]
      },
      "properties": {
        "type": "buffer_union_300m",
        "buffer_m": 300
      }
    },
    {
      "type": "Feature",
      "geometry": {
        "type": "MultiPolygon",
        "coordinates": [
          [
            [
              [
                4.333399329922411,
                50.85555521024193
              ],
              [
                4.333161148159696,
                50.85523616003884
              ],
              [
                4.332874711502005,
                50.854933422856554
              ],
              [
                4.332542779069967,
                50.854649913881836
              ],
              [
                4.332168547911266,
                50.85438836309454
              ],
              [
                4.331755622197617,
                50.854151288990444
              ],
              [
                4.331307978509983,
                50.853940974341455
              ],
              [
                4.330829927546521,
                50.85375944422588
              ],
              [
                4.330326072621855,
                50.85360844653992
              ],
              [
                4.329801265356837,
                50.853489435177494
              ],
              [
                4.329260558984659,
                50.85340355603979
              ],
              [
                4.328709159721872,
                50.85335163600894
              ],
              [
                4.328152376671216,
                50.85333417499171
              ],
              [
                4.328151872441219,
                50.85333419053814
              ],
              [
                4.32815137674772,
                50.85333417499174
              ],
              [
                4.327594570813291,
                50.85335134110468
              ],
              [
                4.327043103119364,
                50.85340296907069
              ],
              [
                4.326502283427112,
                50.85348856179516
              ],
              [
                4.32597731904345,
                50.85360729515369
              ],
              [
                4.325473264713408,
                50.853758025921884
              ],
              [
                4.324994973976636,
                50.85393930277604
              ],
              [
                4.324547052455093,
                50.854149380258676
              ],
              [
                4.324133813520665,
                50.854386235575326
              ],
              [
                4.323759236768759,
                50.85464758806108
              ],
              [
                4.3234269296973,
                50.854930921129984
              ],
              [
                4.323140092959988,
                50.855233506496425
              ],
              [
                4.3229014895286255,
                50.855552430436035
              ],
              [
                4.322713418062021,
                50.85588462183331
              ],
              [
                4.322577690738773,
                50.856226881746856
              ],
              [
                4.322495615768616,
                50.85657591420758
              ],
              [
                4.322467984752084,
                50.85692835795364
              ],
              [
                4.3224950650118625,
                50.857280818797015
              ],
              [
                4.322576596971416,
                50.85762990230994
              ],
              [
                4.322711796607914,
                50.85797224651645
              ],
              [
                4.322899362957662,
                50.85830455427439
              ],
              [
                4.323137490603483,
                50.85862362503557
              ],
              [
                4.32342388702537,
                50.85892638567816
              ],
              [
                4.323755794648748,
                50.859209920113884
              ],
              [
                4.324130017379142,
                50.85947149738454
              ],
              [
                4.324542951368573,
                50.85970859797668
              ],
              [
                4.32458092722827,
                50.85972644134145
              ],
              [
                4.324740226454097,
                50.86000863599626
              ],
              [
                4.324978375233241,
                50.86032770286767
              ],
              [
                4.325264793900079,
                50.86063045887082
              ],
              [
                4.325498589387218,
                50.8608301630873
              ],
              [
                4.325322752057581,
                50.86114074430043
              ],
              [
                4.325187028557725,
                50.86148300672696
              ],
              [
                4.325104963787995,
                50.86183204049702
              ],
              [
                4.325077349250976,
                50.86218448433615
              ],
              [
                4.325104452110929,
                50.86253694405542
              ],
              [
                4.325186012573932,
                50.86288602523784
              ],
              [
                4.325321246342887,
                50.86322836592985
              ],
              [
                4.325508852125588,
                50.863560669023165
              ],
              [
                4.325620277707312,
                50.863709939911274
              ],
              [
                4.325313010611563,
                50.86375855505929
              ],
              [
                4.324787928490822,
                50.86387728275223
              ],
              [
                4.324283760183144,
                50.86402800797392
              ],
              [
                4.323805360325476,
                50.86420927945403
              ],
              [
                4.3233573355903845,
                50.86441935178688
              ],
              [
                4.322944000343564,
                50.86465620222761
              ],
              [
                4.322569335107871,
                50.864917550158324
              ],
              [
                4.322236948233386,
                50.8652008790369
              ],
              [
                4.321950041142478,
                50.865503460618164
              ],
              [
                4.321711377484712,
                50.8658223812142
              ],
              [
                4.321523256499213,
                50.866154569741745
              ],
              [
                4.321387490841867,
                50.86649682728711
              ],
              [
                4.321305389092042,
                50.86684585790395
              ],
              [
                4.3212777431086735,
                50.86719830034826
              ],
              [
                4.321304820359118,
                50.86755076044455
              ],
              [
                4.321386361296357,
                50.86789984377224
              ],
              [
                4.321521581811626,
                50.868242188357186
              ],
              [
                4.321709180740649,
                50.86857449705359
              ],
              [
                4.3219473523529315,
                50.86889356930418
              ],
              [
                4.3222338037054175,
                50.869196331972795
              ],
              [
                4.322565776694808,
                50.86947986895164
              ],
              [
                4.322940074597312,
                50.86974144925798
              ],
              [
                4.323353092841094,
                50.86997855334911
              ],
              [
                4.323800853715581,
                50.87018889740159
              ],
              [
                4.324279044683571,
                50.87037045532038
              ],
              [
                4.324783059926959,
                50.87052147826531
              ],
              [
                4.325308044725493,
                50.87064051150638
              ],
              [
                4.325848942240273,
                50.87072640844502
              ],
              [
                4.3264005422503296,
                50.870778341665805
              ],
              [
                4.326957531371493,
                50.87079581091184
              ],
              [
                4.32751454427234,
                50.870778647906825
              ],
              [
                4.328066215392226,
                50.870727017977124
              ],
              [
                4.328607230661534,
                50.87064141845812
              ],
              [
                4.3291323787242515,
                50.87052267390037
              ],
              [
                4.329636601167801,
                50.87037192812174
              ],
              [
                4.330115041274826,
                50.87019063318255
              ],
              [
                4.330563090826001,
                50.869980535390006
              ],
              [
                4.330976434501961,
                50.86974365846735
              ],
              [
                4.331351091455926,
                50.8694822840502
              ],
              [
                4.3316834536560735,
                50.86919892969848
              ],
              [
                4.331970320628257,
                50.868896324636324
              ],
              [
                4.332208930264654,
                50.86857738345401
              ],
              [
                4.3323969854021485,
                50.868245178025894
              ],
              [
                4.332532675915355,
                50.8679029079152
              ],
              [
                4.332614696112654,
                50.867553869551074
              ],
              [
                4.3326422572691285,
                50.86720142447529
              ],
              [
                4.332615095177273,
                50.86684896696446
              ],
              [
                4.33253347264451,
                50.866499891339785
              ],
              [
                4.332398176915276,
                50.86615755927943
              ],
              [
                4.332210512044277,
                50.86582526744784
              ],
              [
                4.332099060511625,
                50.865676002908444
              ],
              [
                4.332406333123559,
                50.86562737001507
              ],
              [
                4.3329314155483125,
                50.86550860828643
              ],
              [
                4.333435571999755,
                50.86535784596912
              ],
              [
                4.333913946396331,
                50.86517653528276
              ],
              [
                4.334361931151777,
                50.864966422686194
              ],
              [
                4.334775211570945,
                50.86472953204523
              ],
              [
                4.335149807416399,
                50.864468145127624
              ],
              [
                4.335482111244929,
                50.864184779613645
              ],
              [
                4.335768923144579,
                50.863882164834905
              ],
              [
                4.336007481537897,
                50.86356321547523
              ],
              [
                4.336148377070879,
                50.863314252440894
              ],
              [
                4.336380744232661,
                50.86315209990772
              ],
              [
                4.3367130313320486,
                50.86286873080205
              ],
              [
                4.3369998272725665,
                50.86256611290179
              ],
              [
                4.337238370630457,
                50.862247160920795
              ],
              [
                4.3374263648808205,
                50.861914946837395
              ],
              [
                4.337562000484499,
                50.861572670298116
              ],
              [
                4.33764397227847,
                50.86122362779397
              ],
              [
                4.337671492003695,
                50.86087118090653
              ],
              [
                4.337644295851364,
                50.86051872392979
              ],
              [
                4.337562646956576,
                50.8601696511798
              ],
              [
                4.337427332817281,
                50.85982732430694
              ],
              [
                4.337239657665118,
                50.85949503992573
              ],
              [
                4.337001429863344,
                50.8591759978735
              ],
              [
                4.336714944454867,
                50.858873270403585
              ],
              [
                4.336382961029797,
                50.85858977260918
              ],
              [
                4.336008677126848,
                50.85832823436246
              ],
              [
                4.3356008526026715,
                50.85809413325838
              ],
              [
                4.335562411156864,
                50.85792974574425
              ],
              [
                4.335427118036404,
                50.85758741634879
              ],
              [
                4.33523946597092,
                50.85725512855865
              ],
              [
                4.335001263101286,
                50.856936082244
              ],
              [
                4.334714804230275,
                50.85663334969926
              ],
              [
                4.334382848692431,
                50.85634984606653
              ],
              [
                4.334008593757925,
                50.85608830127418
              ],
              [
                4.3335956438273975,
                50.85585123376026
              ],
              [
                4.33355595499789,
                50.85583258871007
              ],
              [
                4.333399329922411,
                50.85555521024193
              ]
            ]
          ],
          [
            [
              [
                4.320472461096871,
                50.86229679135042
              ],
              [
                4.3202343329330555,
                50.86197771551002
              ],
              [
                4.319947938464529,
                50.86167494734138
              ],
              [
                4.319616036406158,
                50.861391402329765
              ],
              [
                4.319241823513623,
                50.86112981080206
              ],
              [
                4.318828903783185,
                50.86089269164642
              ],
              [
                4.318381253738578,
                50.860682328068584
              ],
              [
                4.317903184139486,
                50.86050074561801
              ],
              [
                4.317399298480216,
                50.860349692694854
              ],
              [
                4.3168744486777175,
                50.860230623724846
              ],
              [
                4.3163336883748435,
                50.8601446851639
              ],
              [
                4.315782224307415,
                50.86009270446632
              ],
              [
                4.315225366202068,
                50.86007518212297
              ],
              [
                4.31466847568577,
                50.860092286845585
              ],
              [
                4.314116914697346,
                50.86014385394346
              ],
              [
                4.313575993895986,
                50.860229386908046
              ],
              [
                4.31305092156183,
                50.860348062190305
              ],
              [
                4.312546753478989,
                50.8604987371251
              ],
              [
                4.312068344282056,
                50.860679960926355
              ],
              [
                4.3116203007332885,
                50.86088998864747
              ],
              [
                4.311206937379248,
                50.86112679797319
              ],
              [
                4.310832235013112,
                50.86138810868154
              ],
              [
                4.310499802342143,
                50.8616714045889
              ],
              [
                4.3102128412293315,
                50.86197395776763
              ],
              [
                4.3099741158440725,
                50.862292854803385
              ],
              [
                4.309785926019544,
                50.86262502483991
              ],
              [
                4.309650085074201,
                50.862967269141606
              ],
              [
                4.30956790231213,
                50.86331629188988
              ],
              [
                4.30954017037217,
                50.86366873191653
              ],
              [
                4.30956715754926,
                50.864021195069526
              ],
              [
                4.309648605163697,
                50.86437028689893
              ],
              [
                4.3097837300054005,
                50.86471264534888
              ],
              [
                4.309834159081004,
                50.86480202621736
              ],
              [
                4.309604206138922,
                50.864997970430075
              ],
              [
                4.309317218944562,
                50.86530052113369
              ],
              [
                4.309078470580711,
                50.86561941604705
              ],
              [
                4.308890261101932,
                50.86595158433434
              ],
              [
                4.308754404016076,
                50.86629382727686
              ],
              [
                4.308672208782808,
                50.86664284906903
              ],
              [
                4.3086444681612335,
                50.866995288551955
              ],
              [
                4.308671450530069,
                50.867347751578805
              ],
              [
                4.308752897256092,
                50.867696843700884
              ],
              [
                4.308888025137951,
                50.8680392028595
              ],
              [
                4.309075533903669,
                50.86837153176859
              ],
              [
                4.309313618691329,
                50.86869062967636
              ],
              [
                4.3095999873943605,
                50.868993423199626
              ],
              [
                4.309931882705786,
                50.86927699593349
              ],
              [
                4.310306108650295,
                50.86953861655094
              ],
              [
                4.310719061349456,
                50.869775765121034
              ],
              [
                4.3111667637243505,
                50.869986157392006
              ],
              [
                4.311644903801556,
                50.87016776680438
              ],
              [
                4.312148876253452,
                50.870318844022016
              ],
              [
                4.312673826772217,
                50.87043793379217
              ],
              [
                4.313214698849363,
                50.87052388897176
              ],
              [
                4.313766282509102,
                50.87057588158433
              ],
              [
                4.31432326452486,
                50.87059341080091
              ],
              [
                4.314880279633694,
                50.87057630776752
              ],
              [
                4.315431962253665,
                50.87052473723284
              ],
              [
                4.3159729982042965,
                50.87043919596011
              ],
              [
                4.316498175930209,
                50.870320507938835
              ],
              [
                4.317002436732903,
                50.87016981644229
              ],
              [
                4.317480923525284,
                50.86998857300795
              ],
              [
                4.317929027638056,
                50.869778523446946
              ],
              [
                4.318342433226001,
                50.86954169101797
              ],
              [
                4.318717158845677,
                50.86928035692817
              ],
              [
                4.319049595803558,
                50.86899703834904
              ],
              [
                4.319336542905137,
                50.868694464160306
              ],
              [
                4.3195752372705245,
                50.86837554865496
              ],
              [
                4.319763380920292,
                50.86804336346015
              ],
              [
                4.319899162876356,
                50.86770110794431
              ],
              [
                4.31998127656625,
                50.8673520783962
              ],
              [
                4.320008932364535,
                50.866999636272816
              ],
              [
                4.319981865152205,
                50.86664717582239
              ],
              [
                4.319900336822971,
                50.86629809139467
              ],
              [
                4.319765133714148,
                50.86595574475261
              ],
              [
                4.319714684510417,
                50.86586636818255
              ],
              [
                4.319944599539431,
                50.86567040420453
              ],
              [
                4.320231520563324,
                50.865367827541526
              ],
              [
                4.320470191956176,
                50.86504890991464
              ],
              [
                4.320658315959706,
                50.86471672297148
              ],
              [
                4.320794081784923,
                50.864374466097296
              ],
              [
                4.320876183014567,
                50.864025435593895
              ],
              [
                4.320903830143043,
                50.86367299292745
              ],
              [
                4.320876758134668,
                50.86332053235147
              ],
              [
                4.320795228929166,
                50.86297144821685
              ],
              [
                4.320660028872116,
                50.86262910228375
              ],
              [
                4.320472461096871,
                50.86229679135042
              ]
            ]
          ]
        ]
      },
      "properties": {
        "type": "buffer_union_400m",
        "buffer_m": 400
      }
    },
    {
      "type": "Feature",
      "geometry": {
        "type": "Polygon",
        "coordinates": [
          [
            [
              4.3070423,
              50.8642396
            ],
            [
              4.3088447,
              50.8645068
            ],
            [
              4.3104268,
              50.8643895
            ],
            [
              4.3106011,
              50.8647
            ],
            [
              4.3122341,
              50.8642278
            ],
            [
              4.3161198,
              50.8612338
            ],
            [
              4.322211,
              50.8625264
            ],
            [
              4.322633,
              50.862155
            ],
            [
              4.3268333,
              50.861146
            ],
            [
              4.3273808,
              50.8606064
            ],
            [
              4.3268959,
              50.8600587
            ],
            [
              4.3271227,
              50.8599338
            ],
            [
              4.3261142,
              50.8582943
            ],
            [
              4.3254889,
              50.8569475
            ],
            [
              4.326867,
              50.8567768
            ],
            [
              4.3288487,
              50.8567896
            ],
            [
              4.3309532,
              50.8570152
            ],
            [
              4.3327706,
              50.857113
            ],
            [
              4.3325072,
              50.8574459
            ],
            [
              4.3345032,
              50.8583491
            ],
            [
              4.3346062,
              50.8582537
            ],
            [
              4.3348506,
              50.8583569
            ],
            [
              4.3350355,
              50.8581889
            ],
            [
              4.3369642,
              50.8589676
            ],
            [
              4.3377273,
              50.8594678
            ],
            [
              4.3364981,
              50.8601951
            ],
            [
              4.3361791,
              50.860068
            ],
            [
              4.3349522,
              50.8610902
            ],
            [
              4.3348172,
              50.8616195
            ],
            [
              4.335049,
              50.8619206
            ],
            [
              4.3340007,
              50.862219
            ],
            [
              4.3341828,
              50.8623456
            ],
            [
              4.331502,
              50.8655689
            ],
            [
              4.3313949,
              50.8655749
            ],
            [
              4.3306092,
              50.8665416
            ],
            [
              4.3296159,
              50.867586
            ],
            [
              4.3283376,
              50.8671837
            ],
            [
              4.3280383,
              50.8674781
            ],
            [
              4.3277086,
              50.8673858
            ],
            [
              4.3276146,
              50.8674676
            ],
            [
              4.3251312,
              50.8666445
            ],
            [
              4.3261445,
              50.8656558
            ],
            [
              4.3248226,
              50.8650896
            ],
            [
              4.3233793,
              50.8659132
            ],
            [
              4.3227792,
              50.8661362
            ],
            [
              4.3172308,
              50.867074
            ],
            [
              4.3150825,
              50.8671999
            ],
            [
              4.3091889,
              50.8668603
            ],
            [
              4.308362,
              50.8662063
            ],
            [
              4.3072182,
              50.8655756
            ],
            [
              4.3070323,
              50.8650133
            ],
            [
              4.306922,
              50.8649287
            ],
            [
              4.3070423,
              50.8642396
            ]
          ]
        ]
      },
      "properties": {
        "type": "boundary",
        "gemeente": "Koekelberg"
      }
    }
  ]
}