{
  "type": "FeatureCollection",
  "metadata": {
    "gemeente": "Lendelede",
    "slug": "lendelede",
    "generated_at": "2026-09-25T22:11:40.414422Z",
    "total_points": 14,
    "providers": [
      "bpost",
      "DHL",
      "VintedGo",
      "PostNL",
      "Amazon"
    ],
    "bounds": [
      3.23127,
      50.885325,
      3.246322,
      50.89609
    ]
  },
  "features": [
    {
      "type": "Feature",
      "geometry": {
        "type": "Point",
        "coordinates": [
          3.24632,
          50.88533
        ]
      },
      "properties": {
        "type": "pakketpunt",
        "locatieNaam": "T Presentje",
        "straatNaam": "Stationsstraat",
        "straatNr": "64",
        "vervoerder": "bpost",
        "puntType": "servicepunt",
        "bezettingsgraad": 50,
        "latitude": 50.88533,
        "longitude": 3.24632,
        "canPickup": true,
        "canDropoff": true,
        "openingstijden": null
      }
    },
    {
      "type": "Feature",
      "geometry": {
        "type": "Point",
        "coordinates": [
          3.24547,
          50.88537
        ]
      },
      "properties": {
        "type": "pakketpunt",
        "locatieNaam": "Bbox Spar Lendelede",
        "straatNaam": "Stationsstraat",
        "straatNr": "56",
        "vervoerder": "bpost",
        "puntType": "automaat",
        "bezettingsgraad": 50,
        "latitude": 50.88537,
        "longitude": 3.24547,
        "canPickup": true,
        "canDropoff": true,
        "openingstijden": null
      }
    },
    {
      "type": "Feature",
      "geometry": {
        "type": "Point",
        "coordinates": [
          3.24136,
          50.88723
        ]
      },
      "properties": {
        "type": "pakketpunt",
        "locatieNaam": "Lendelede",
        "straatNaam": "Rozebeeksestraat",
        "straatNr": "14-22",
        "vervoerder": "bpost",
        "puntType": "postkantoor",
        "bezettingsgraad": 50,
        "latitude": 50.88723,
        "longitude": 3.24136,
        "canPickup": true,
        "canDropoff": true,
        "openingstijden": null
      }
    },
    {
      "type": "Feature",
      "geometry": {
        "type": "Point",
        "coordinates": [
          3.23127,
          50.89609
        ]
      },
      "properties": {
        "type": "pakketpunt",
        "locatieNaam": "Bbox Globus Handy Home Lendelede",
        "straatNaam": "Rijksweg",
        "straatNr": "33-35",
        "vervoerder": "bpost",
        "puntType": "automaat",
        "bezettingsgraad": 50,
        "latitude": 50.89609,
        "longitude": 3.23127,
        "canPickup": true,
        "canDropoff": true,
        "openingstijden": null
      }
    },
    {
      "type": "Feature",
      "geometry": {
        "type": "Point",
        "coordinates": [
          3.23127,
          50.896088
        ]
      },
      "properties": {
        "type": "pakketpunt",
        "locatieNaam": "BBOX GLOBUS HANDY HOME LENDELEDE",
        "straatNaam": "RIJKSWEG",
        "straatNr": "33-35",
        "vervoerder": "DHL",
        "puntType": "packStation",
        "bezettingsgraad": 50,
        "latitude": 50.896088,
        "longitude": 3.23127,
        "canPickup": true,
        "canDropoff": true,
        "openingstijden": {
          "ma": "13:30 - 18:30",
          "di": "08:30 - 18:30",
          "wo": "08:30 - 18:30",
          "do": "08:30 - 18:30",
          "vr": "08:30 - 18:30",
          "za": "08:30 - 18:00",
          "zo": "09:30 - 12:00"
        }
      }
    },
    {
      "type": "Feature",
      "geometry": {
        "type": "Point",
        "coordinates": [
          3.24136,
          50.887229
        ]
      },
      "properties": {
        "type": "pakketpunt",
        "locatieNaam": "LENDELEDE",
        "straatNaam": "ROZEBEEKSESTRAAT",
        "straatNr": "14-22",
        "vervoerder": "DHL",
        "puntType": "postOffice",
        "bezettingsgraad": 50,
        "latitude": 50.887229,
        "longitude": 3.24136,
        "canPickup": true,
        "canDropoff": true,
        "openingstijden": {
          "ma": "15:00 - 18:00",
          "di": "15:00 - 18:00",
          "wo": "09:30 - 12:00",
          "do": "09:30 - 12:00",
          "vr": "09:30 - 12:00",
          "za": "09:30 - 13:00",
          "zo": "gesloten"
        }
      }
    },
    {
      "type": "Feature",
      "geometry": {
        "type": "Point",
        "coordinates": [
          3.245471,
          50.885374
        ]
      },
      "properties": {
        "type": "pakketpunt",
        "locatieNaam": "BBOX SPAR LENDELEDE",
        "straatNaam": "STATIONSSTRAAT",
        "straatNr": "56",
        "vervoerder": "DHL",
        "puntType": "packStation",
        "bezettingsgraad": 50,
        "latitude": 50.885374,
        "longitude": 3.245471,
        "canPickup": true,
        "canDropoff": true,
        "openingstijden": {
          "ma": "14:00 - 19:00",
          "di": "08:30 - 19:00",
          "wo": "08:30 - 19:00",
          "do": "08:30 - 19:00",
          "vr": "08:30 - 19:00",
          "za": "08:30 - 18:00",
          "zo": "08:30 - 12:00"
        }
      }
    },
    {
      "type": "Feature",
      "geometry": {
        "type": "Point",
        "coordinates": [
          3.246322,
          50.885325
        ]
      },
      "properties": {
        "type": "pakketpunt",
        "locatieNaam": "T PRESENTJE",
        "straatNaam": "STATIONSSTRAAT",
        "straatNr": "64",
        "vervoerder": "DHL",
        "puntType": "parcelShop",
        "bezettingsgraad": 50,
        "latitude": 50.885325,
        "longitude": 3.246322,
        "canPickup": true,
        "canDropoff": true,
        "openingstijden": {
          "ma": "06:30 - 12:30, 13:30 - 18:00",
          "di": "06:30 - 12:30, 13:30 - 18:00",
          "wo": "06:30 - 12:30",
          "do": "06:30 - 12:30, 13:30 - 18:00",
          "vr": "06:30 - 12:30, 13:30 - 18:00",
          "za": "07:30 - 12:30",
          "zo": "gesloten"
        }
      }
    },
    {
      "type": "Feature",
      "geometry": {
        "type": "Point",
        "coordinates": [
          3.24623,
          50.88533
        ]
      },
      "properties": {
        "type": "pakketpunt",
        "locatieNaam": "'T Presentje",
        "straatNaam": "Stationsstraat",
        "straatNr": "64",
        "vervoerder": "VintedGo",
        "puntType": "parcel_shop",
        "bezettingsgraad": 50,
        "latitude": 50.88533,
        "longitude": 3.24623,
        "canPickup": true,
        "canDropoff": true,
        "openingstijden": null
      }
    },
    {
      "type": "Feature",
      "geometry": {
        "type": "Point",
        "coordinates": [
          3.24623,
          50.88533
        ]
      },
      "properties": {
        "type": "pakketpunt",
        "locatieNaam": "'t Presentje",
        "straatNaam": "Stationsstraat",
        "straatNr": "64",
        "vervoerder": "PostNL",
        "puntType": "servicepunt",
        "bezettingsgraad": 50,
        "latitude": 50.88533,
        "longitude": 3.24623,
        "canPickup": true,
        "canDropoff": true,
        "openingstijden": "06:30 - 12:30, 13:30 - 18:00"
      }
    },
    {
      "type": "Feature",
      "geometry": {
        "type": "Point",
        "coordinates": [
          3.23127,
          50.896088
        ]
      },
      "properties": {
        "type": "pakketpunt",
        "locatieNaam": "bpost - BBOX GLOBUS HANDY HOME LENDELEDE",
        "straatNaam": "RIJKSWEG,33-35",
        "straatNr": "",
        "vervoerder": "Amazon",
        "puntType": "3p",
        "bezettingsgraad": 50,
        "latitude": 50.896088,
        "longitude": 3.23127,
        "canPickup": true,
        "canDropoff": false,
        "openingstijden": null
      }
    },
    {
      "type": "Feature",
      "geometry": {
        "type": "Point",
        "coordinates": [
          3.24136,
          50.887229
        ]
      },
      "properties": {
        "type": "pakketpunt",
        "locatieNaam": "bpost - LENDELEDE",
        "straatNaam": "ROZEBEEKSESTRAAT,14-22",
        "straatNr": "",
        "vervoerder": "Amazon",
        "puntType": "3p",
        "bezettingsgraad": 50,
        "latitude": 50.887229,
        "longitude": 3.24136,
        "canPickup": true,
        "canDropoff": false,
        "openingstijden": null
      }
    },
    {
      "type": "Feature",
      "geometry": {
        "type": "Point",
        "coordinates": [
          3.246322,
          50.885325
        ]
      },
      "properties": {
        "type": "pakketpunt",
        "locatieNaam": "bpost - T PRESENTJE",
        "straatNaam": "STATIONSSTRAAT,64",
        "straatNr": "",
        "vervoerder": "Amazon",
        "puntType": "3p",
        "bezettingsgraad": 50,
        "latitude": 50.885325,
        "longitude": 3.246322,
        "canPickup": true,
        "canDropoff": false,
        "openingstijden": null
      }
    },
    {
      "type": "Feature",
      "geometry": {
        "type": "Point",
        "coordinates": [
          3.2454709,
          50.8853741
        ]
      },
      "properties": {
        "type": "pakketpunt",
        "locatieNaam": "bpost - BBOX SPAR LENDELEDE",
        "straatNaam": "STATIONSSTRAAT,56",
        "straatNr": "",
        "vervoerder": "Amazon",
        "puntType": "3p",
        "bezettingsgraad": 50,
        "latitude": 50.8853741,
        "longitude": 3.2454709,
        "canPickup": true,
        "canDropoff": false,
        "openingstijden": null
      }
    },
    {
      "type": "Feature",
      "geometry": {
        "type": "MultiPolygon",
        "coordinates": [
          [
            [
              [
                3.2451158247666654,
                50.88268247580968
              ],
              [
                3.2447011175349276,
                50.882717375953305
              ],
              [
                3.2442938138112143,
                50.8827778209106
              ],
              [
                3.243897835534229,
                50.88286322865943
              ],
              [
                3.2435169956442476,
                50.8829727768082
              ],
              [
                3.243154961383447,
                50.88310541051078
              ],
              [
                3.2428152189958044,
                50.88325985261908
              ],
              [
                3.2425010401658767,
                50.88343461597547
              ],
              [
                3.242215450519162,
                50.883628017727105
              ],
              [
                3.241961200487065,
                50.88383819552445
              ],
              [
                3.241740738816945,
                50.88406312544849
              ],
              [
                3.241556188982404,
                50.88430064149421
              ],
              [
                3.241418738995159,
                50.88453257742379
              ],
              [
                3.2410060459151095,
                50.88454146485765
              ],
              [
                3.2405913192169895,
                50.88457635046186
              ],
              [
                3.240183994084851,
                50.88463678112515
              ],
              [
                3.2397879926634894,
                50.88472217496306
              ],
              [
                3.2394071281159844,
                50.88483170971788
              ],
              [
                3.2390450679218845,
                50.88496433067251
              ],
              [
                3.2387052985748244,
                50.88511876080161
              ],
              [
                3.2383910920189045,
                50.885293513062905
              ],
              [
                3.238105474146559,
                50.885486904710405
              ],
              [
                3.2378511956609457,
                50.885697073491876
              ],
              [
                3.2376307055833893,
                50.88592199557517
              ],
              [
                3.2374461276610247,
                50.886159505030726
              ],
              [
                3.237299239902156,
                50.886407314683375
              ],
              [
                3.2371914574368486,
                50.88666303813242
              ],
              [
                3.2371238188684535,
                50.88692421272855
              ],
              [
                3.237096976248257,
                50.887188323286445
              ],
              [
                3.2370970113664574,
                50.88718897685954
              ],
              [
                3.2370969761574933,
                50.887189323286464
              ],
              [
                3.2371111886802524,
                50.88745382630457
              ],
              [
                3.237166320161628,
                50.88771617445966
              ],
              [
                3.2372618403223865,
                50.88797384113928
              ],
              [
                3.237396829870207,
                50.8882243447766
              ],
              [
                3.2375699893291787,
                50.88846527275297
              ],
              [
                3.237779651533432,
                50.888694304637866
              ],
              [
                3.2380237976653863,
                50.888909234542005
              ],
              [
                3.238300076684844,
                50.889107992368615
              ],
              [
                3.2386058279623158,
                50.88928866375736
              ],
              [
                3.238938106898925,
                50.889449508528884
              ],
              [
                3.2392937132863073,
                50.889588977452036
              ],
              [
                3.2396692221333097,
                50.88970572717168
              ],
              [
                3.240061016662324,
                50.88979863315354
              ],
              [
                3.24046532315707,
                50.88986680052046
              ],
              [
                3.240878247325543,
                50.88990957267612
              ],
              [
                3.241295811827236,
                50.889926537632505
              ],
              [
                3.241713994602263,
                50.88991753198022
              ],
              [
                3.242128767632347,
                50.88988264246331
              ],
              [
                3.2425361357593507,
                50.88982220514323
              ],
              [
                3.242932175186458,
                50.88973680216027
              ],
              [
                3.2433130712902933,
                50.889627256123546
              ],
              [
                3.2436751553788503,
                50.88949462218375
              ],
              [
                3.244014940040464,
                50.889340177865236
              ],
              [
                3.2443291527427136,
                50.88916541075554
              ],
              [
                3.2446147673571586,
                50.888972004171286
              ],
              [
                3.244869033306014,
                50.888761820938726
              ],
              [
                3.2450895020498924,
                50.88853688544536
              ],
              [
                3.245274050661634,
                50.888299364136074
              ],
              [
                3.2454096202272975,
                50.88807058374102
              ],
              [
                3.2458251158491094,
                50.888061621025805
              ],
              [
                3.2462398694344623,
                50.888026716964774
              ],
              [
                3.2462442815769075,
                50.88802606219649
              ],
              [
                3.2462560991981815,
                50.888026541824615
              ],
              [
                3.2466742641037767,
                50.888017518497705
              ],
              [
                3.2470890166685655,
                50.887982611436044
              ],
              [
                3.2474963619315793,
                50.887922156870125
              ],
              [
                3.2478923763162864,
                50.88783673710634
              ],
              [
                3.2482732454405845,
                50.88772717491543
              ],
              [
                3.2486353008723996,
                50.88759452560368
              ],
              [
                3.248975055476157,
                50.88744006684349
              ],
              [
                3.2492892370090134,
                50.88726528636149
              ],
              [
                3.2495748196428056,
                50.88707186760311
              ],
              [
                3.249829053107828,
                50.886861673511795
              ],
              [
                3.2500494891776053,
                50.88663672857964
              ],
              [
                3.250234005239705,
                50.886399199342414
              ],
              [
                3.2503808247258386,
                50.886151373507154
              ],
              [
                3.2504885342049494,
                50.88589563791383
              ],
              [
                3.250488703452706,
                50.885894983644036
              ],
              [
                3.250490533785275,
                50.88589063784362
              ],
              [
                3.250558096537323,
                50.88562945547152
              ],
              [
                3.250584862573403,
                50.8853653417206
              ],
              [
                3.250570574807294,
                50.885100840178175
              ],
              [
                3.2505153715273685,
                50.88483849812399
              ],
              [
                3.250419785038297,
                50.88458084199906
              ],
              [
                3.2502847365090397,
                50.88433035307681
              ],
              [
                3.250111527077712,
                50.88408944357079
              ],
              [
                3.249901825299892,
                50.883860433408735
              ],
              [
                3.2496576510620785,
                50.883645527896725
              ],
              [
                3.249381356115873,
                50.883446796488
              ],
              [
                3.249075601420864,
                50.88326615286087
              ],
              [
                3.248743331514754,
                50.88310533649713
              ],
              [
                3.248387746157663,
                50.88296589593823
              ],
              [
                3.2480122695236315,
                50.8828491738799
              ],
              [
                3.247620517235774,
                50.882756294248736
              ],
              [
                3.247216261562059,
                50.88268815138467
              ],
              [
                3.24680339510633,
                50.882645401433486
              ],
              [
                3.2463858933434175,
                50.88262845603183
              ],
              [
                3.245967776358309,
                50.88263747834565
              ],
              [
                3.2459196075831476,
                50.88264153247959
              ],
              [
                3.245875781584434,
                50.88264247807191
              ],
              [
                3.2454986609591736,
                50.882674217648145
              ],
              [
                3.2451158247666654,
                50.88268247580968
              ]
            ]
          ],
          [
            [
              [
                3.23523396351754,
                50.89509386434046
              ],
              [
                3.23506079160135,
                50.894852933383504
              ],
              [
                3.234851115161101,
                50.89462389705363
              ],
              [
                3.234606953839677,
                50.89440896090895
              ],
              [
                3.234330659264655,
                50.89421019469769
              ],
              [
                3.2340248923923656,
                50.89402951243337
              ],
              [
                3.233692597878045,
                50.893868653969854
              ],
              [
                3.2333369757189883,
                50.893729168253984
              ],
              [
                3.2329614504437734,
                50.89361239841633
              ],
              [
                3.232569638143981,
                50.89351946884355
              ],
              [
                3.232165311665474,
                50.89345127435647
              ],
              [
                3.23175236429385,
                50.89340847159796
              ],
              [
                3.2313347722829917,
                50.89339147271315
              ],
              [
                3.2309165565867466,
                50.89340044138296
              ],
              [
                3.230501744161278,
                50.893435291248785
              ],
              [
                3.23009432920977,
                50.89349568674368
              ],
              [
                3.22969823474171,
                50.89358104632177
              ],
              [
                3.229317274815947,
                50.893690548055325
              ],
              [
                3.228955117830261,
                50.89382313754516
              ],
              [
                3.2286152512101514,
                50.89397753806899
              ],
              [
                3.228300947836249,
                50.89415226286963
              ],
              [
                3.2280152345331774,
                50.89434562946554
              ],
              [
                3.2277608629229766,
                50.894555775845795
              ],
              [
                3.2275402829236977,
                50.89478067839397
              ],
              [
                3.227355619148419,
                50.89501817136874
              ],
              [
                3.2272086504322646,
                50.89526596775364
              ],
              [
                3.2271007926850364,
                50.89552168127582
              ],
              [
                3.2270330852352247,
                50.89578284938164
              ],
              [
                3.2270061807976678,
                50.896046956948304
              ],
              [
                3.2270062509146364,
                50.896048266865975
              ],
              [
                3.2270061806160677,
                50.896048956948334
              ],
              [
                3.2270203389813923,
                50.89631346050314
              ],
              [
                3.2270754244876723,
                50.89657581271779
              ],
              [
                3.2271709072987402,
                50.896833486940785
              ],
              [
                3.2273058684822904,
                50.897084001532704
              ],
              [
                3.2274790088358976,
                50.89732494376944
              ],
              [
                3.2276886613779987,
                50.89755399308314
              ],
              [
                3.227932807384359,
                50.897768943416736
              ],
              [
                3.2282090958162515,
                50.897967724476665
              ],
              [
                3.2285148659537595,
                50.89814842167888
              ],
              [
                3.2288471730165433,
                50.898309294595386
              ],
              [
                3.2292028165254827,
                50.898448793723944
              ],
              [
                3.229578371131975,
                50.89856557541851
              ],
              [
                3.2299702196177127,
                50.8986585148368
              ],
              [
                3.2303745877467103,
                50.8987267167796
              ],
              [
                3.2307875806332595,
                50.89876952431758
              ],
              [
                3.2312052202748722,
                50.89878652512187
              ],
              [
                3.231623483887789,
                50.898777555437825
              ],
              [
                3.232038342674948,
                50.898742701663
              ],
              [
                3.232445800652023,
                50.8986822995146
              ],
              [
                3.2328419331565756,
                50.89859693079413
              ],
              [
                3.2332229246685227,
                50.89848741778073
              ],
              [
                3.233585105576711,
                50.89835481530699
              ],
              [
                3.2339249875367586,
                50.898200400594234
              ],
              [
                3.2342392970789446,
                50.898025660944874
              ],
              [
                3.234525007141989,
                50.897832279411105
              ],
              [
                3.234779366228713,
                50.8976221185779
              ],
              [
                3.2349999249026498,
                50.89739720261709
              ],
              [
                3.2351845593705106,
                50.897159697785476
              ],
              [
                3.235331491923666,
                50.89691189155515
              ],
              [
                3.2354393080422184,
                50.89665617057734
              ],
              [
                3.235506969997577,
                50.896394997692205
              ],
              [
                3.235533826823312,
                50.89613088820618
              ],
              [
                3.2355337564683406,
                50.89612957829365
              ],
              [
                3.235533826641711,
                50.89612888820619
              ],
              [
                3.2355196203781325,
                50.895864385665504
              ],
              [
                3.235464488530176,
                50.895602037359716
              ],
              [
                3.2353689627149627,
                50.89534436979013
              ],
              [
                3.23523396351754,
                50.89509386434046
              ]
            ]
          ]
        ]
      },
      "properties": {
        "type": "buffer_union_300m",
        "buffer_m": 300
      }
    },
    {
      "type": "Feature",
      "geometry": {
        "type": "MultiPolygon",
        "coordinates": [
          [
            [
              [
                3.244997775361767,
                50.881786633712046
              ],
              [
                3.244444842677707,
                50.881833166367116
              ],
              [
                3.243901780596197,
                50.88191375816403
              ],
              [
                3.2433738180018863,
                50.88202763313013
              ],
              [
                3.2428660384907735,
                50.88217369482135
              ],
              [
                3.242383331449768,
                50.88235053687252
              ],
              [
                3.241930345000235,
                50.88255645653044
              ],
              [
                3.241511441257548,
                50.882789471039395
              ],
              [
                3.241130654336583,
                50.88304733672237
              ],
              [
                3.240791651507038,
                50.88332757057422
              ],
              [
                3.240497697872422,
                50.88362747415964
              ],
              [
                3.2404553133451874,
                50.88368202158572
              ],
              [
                3.2403351115830206,
                50.88369213237826
              ],
              [
                3.2397920209582245,
                50.88377270511683
              ],
              [
                3.2392640275061346,
                50.88388656153527
              ],
              [
                3.238756215119768,
                50.88403260536811
              ],
              [
                3.2382734735024736,
                50.88420943042219
              ],
              [
                3.2378204511084387,
                50.88441533410789
              ],
              [
                3.237401510399042,
                50.8846483338234
              ],
              [
                3.2370206858450223,
                50.88490618603412
              ],
              [
                3.236681645078374,
                50.88518640786468
              ],
              [
                3.2363876535678586,
                50.88548630099554
              ],
              [
                3.2361415431584266,
                50.88580297763525
              ],
              [
                3.235945684778037,
                50.88613338831805
              ],
              [
                3.2358019655755075,
                50.88647435126047
              ],
              [
                3.235711770710683,
                50.88682258299371
              ],
              [
                3.2356759699736566,
                50.887174729978156
              ],
              [
                3.235676005072073,
                50.88717538355169
              ],
              [
                3.2356759698526374,
                50.88717572997817
              ],
              [
                3.235694909242858,
                50.88752840089481
              ],
              [
                3.2357684075901134,
                50.887878199304
              ],
              [
                3.235895758251062,
                50.88822175635573
              ],
              [
                3.2360757358697856,
                50.88855576323741
              ],
              [
                3.236306608136332,
                50.888877003046105
              ],
              [
                3.23658615243241,
                50.88918238177805
              ],
              [
                3.23691167720536,
                50.88946895813672
              ],
              [
                3.2372800478657573,
                50.88973397187187
              ],
              [
                3.237687716960149,
                50.8899748703762
              ],
              [
                3.2381307583289023,
                50.89018933328308
              ],
              [
                3.238604904920472,
                50.890375294827464
              ],
              [
                3.2391055898977696,
                50.890530963754685
              ],
              [
                3.239627990640288,
                50.89065484058441
              ],
              [
                3.240167075217417,
                50.890745732063046
              ],
              [
                3.240717650884273,
                50.890802762665196
              ],
              [
                3.2412744141316354,
                50.89082538303271
              ],
              [
                3.2418320018064004,
                50.890813375270056
              ],
              [
                3.2423850428085266,
                50.890766855044596
              ],
              [
                3.2429282098647834,
                50.89068627047175
              ],
              [
                3.243456270878896,
                50.89057239779541
              ],
              [
                3.2439641393618017,
                50.89042633390586
              ],
              [
                3.2444469234547038,
                50.89024948576702
              ],
              [
                3.2448999730713965,
                50.89004355685564
              ],
              [
                3.2453189247046295,
                50.88981053074296
              ],
              [
                3.245699743464122,
                50.88955265197799
              ],
              [
                3.2460387619407935,
                50.88927240445659
              ],
              [
                3.246332715522684,
                50.888972487485546
              ],
              [
                3.2463716026300053,
                50.8889224368304
              ],
              [
                3.2467923611481933,
                50.88891335729391
              ],
              [
                3.2473453748620527,
                50.88886681367505
              ],
              [
                3.247888511431582,
                50.888786206107376
              ],
              [
                3.2484165390542747,
                50.88867231105628
              ],
              [
                3.2489243715628224,
                50.888526225627544
              ],
              [
                3.2494071174450707,
                50.8883493569926
              ],
              [
                3.2498601269829956,
                50.88814340882555
              ],
              [
                3.2502790370555146,
                50.887910364883126
              ],
              [
                3.2506598131727733,
                50.88765246988604
              ],
              [
                3.250998788336519,
                50.88737220788645
              ],
              [
                3.2512926983520485,
                50.887072278330606
              ],
              [
                3.2515387132518376,
                50.886755570047306
              ],
              [
                3.2517344645286537,
                50.88642513341386
              ],
              [
                3.251878067916714,
                50.88608415096756
              ],
              [
                3.2518782371457937,
                50.88608349669581
              ],
              [
                3.251880067357141,
                50.886079150873975
              ],
              [
                3.251970140918608,
                50.88573090665085
              ],
              [
                3.2520058183900766,
                50.88537875455818
              ],
              [
                3.2519867573963928,
                50.885026086062126
              ],
              [
                3.2519131427308863,
                50.88467629752688
              ],
              [
                3.2517856845286204,
                50.88433275750701
              ],
              [
                3.251605611381842,
                50.88399877431024
              ],
              [
                3.2513746584656986,
                50.88367756414313
              ],
              [
                3.2510950507901986,
                50.88337222014634
              ],
              [
                3.2507694817411426,
                50.88308568261707
              ],
              [
                3.250401087117876,
                50.88282071070509
              ],
              [
                3.2499934149187903,
                50.88257985585473
              ],
              [
                3.2495503911661494,
                50.8823654372475
              ],
              [
                3.249076282099581,
                50.88217951948193
              ],
              [
                3.248575653102201,
                50.88202389270454
              ],
              [
                3.248053324754483,
                50.88190005538288
              ],
              [
                3.247514326438268,
                50.88180919988621
              ],
              [
                3.246963847936634,
                50.881752201011935
              ],
              [
                3.246407189494382,
                50.88172960756821
              ],
              [
                3.245849710818506,
                50.88174163709329
              ],
              [
                3.2458015429518046,
                50.88174569117983
              ],
              [
                3.245757717786541,
                50.88174663672831
              ],
              [
                3.2453806042737603,
                50.881778375933415
              ],
              [
                3.244997775361767,
                50.881786633712046
              ]
            ]
          ],
          [
            [
              [
                3.2365552473921384,
                50.894762455982956
              ],
              [
                3.2363243444897076,
                50.894441217213895
              ],
              [
                3.2360447705914517,
                50.89413583832622
              ],
              [
                3.2357192187585917,
                50.893849259953164
              ],
              [
                3.2353508246253226,
                50.89358424163791
              ],
              [
                3.234943136185882,
                50.89334333527161
              ],
              [
                3.234500079619398,
                50.893128860531924
              ],
              [
                3.234025921481844,
                50.892942882557875
              ],
              [
                3.233525227629114,
                50.89278719207572
              ],
              [
                3.233002819266325,
                50.892663288166425
              ],
              [
                3.232463726545808,
                50.89257236384038
              ],
              [
                3.2319131401595667,
                50.89251529455771
              ],
              [
                3.2313563613910152,
                50.89249262980447
              ],
              [
                3.2307987511054606,
                50.892504587805526
              ],
              [
                3.230245678168857,
                50.89255105342471
              ],
              [
                3.2297024677897945,
                50.89263157927276
              ],
              [
                3.229174350280396,
                50.892745390012095
              ],
              [
                3.2286664107278478,
                50.892891389816995
              ],
              [
                3.2281835400596224,
                50.89306817291829
              ],
              [
                3.227730387972219,
                50.89327403713042
              ],
              [
                3.227311318175569,
                50.89350700023162
              ],
              [
                3.2269303663832014,
                50.89376481903998
              ],
              [
                3.226591201452184,
                50.8940450110018
              ],
              [
                3.226297090046847,
                50.894344878085285
              ],
              [
                3.226050865166701,
                50.894661532749865
              ],
              [
                3.2258548988421394,
                50.894991925741536
              ],
              [
                3.22571107926167,
                50.89533287544723
              ],
              [
                3.225620792552068,
                50.895681098525806
              ],
              [
                3.225584909388276,
                50.896033241521046
              ],
              [
                3.225584979465576,
                50.89603455143957
              ],
              [
                3.2255849091461424,
                50.896035241521076
              ],
              [
                3.2256037763222376,
                50.89638791315242
              ],
              [
                3.2256772133647234,
                50.896737716973526
              ],
              [
                3.2258045142211915,
                50.897081284082375
              ],
              [
                3.2259844540159297,
                50.89741530556961
              ],
              [
                3.2262153008038252,
                50.897736564391664
              ],
              [
                3.2264948322125155,
                50.89804196636176
              ],
              [
                3.2268203568139744,
                50.89832856995959
              ],
              [
                3.227188740020893,
                50.89859361467259
              ],
              [
                3.227596434259379,
                50.89883454759514
              ],
              [
                3.228039513127951,
                50.89904904802908
              ],
              [
                3.228513709214121,
                50.89923504984792
              ],
              [
                3.229014455204234,
                50.89939076140907
              ],
              [
                3.229536927890177,
                50.89951468282151
              ],
              [
                3.230076094648356,
                50.899605620402234
              ],
              [
                3.2306267619422027,
                50.89966269818173
              ],
              [
                3.2311836253797455,
                50.89968536634738
              ],
              [
                3.231741320842578,
                50.89967340654324
              ],
              [
                3.2322944761921137,
                50.89962693397472
              ],
              [
                3.2328377630533605,
                50.899546396298156
              ],
              [
                3.233365948175692,
                50.899432569305745
              ],
              [
                3.2338739438742437,
                50.8992865494477
              ],
              [
                3.234356857064506,
                50.89910974326391
              ],
              [
                3.2348100364164756,
                50.898903853826994
              ],
              [
                3.235229117173015,
                50.89867086432802
              ],
              [
                3.235610063199925,
                50.89841301896341
              ],
              [
                3.2359492058621693,
                50.898132801307376
              ],
              [
                3.2362432793516107,
                50.89783291037917
              ],
              [
                3.236489452126185,
                50.89751623463569
              ],
              [
                3.2366853541581895,
                50.89718582414099
              ],
              [
                3.2368290997300835,
                50.89684486118075
              ],
              [
                3.236919305559376,
                50.896496629605544
              ],
              [
                3.2369551040794207,
                50.89614448319807
              ],
              [
                3.236955033684782,
                50.896143173286404
              ],
              [
                3.236955103837286,
                50.89614248319809
              ],
              [
                3.2369361515084702,
                50.89578981336966
              ],
              [
                3.2368626320797405,
                50.8954400164977
              ],
              [
                3.23673525476965,
                50.8950964612172
              ],
              [
                3.2365552473921384,
                50.894762455982956
              ]
            ]
          ]
        ]
      },
      "properties": {
        "type": "buffer_union_400m",
        "buffer_m": 400
      }
    },
    {
      "type": "Feature",
      "geometry": {
        "type": "Polygon",
        "coordinates": [
          [
            [
              3.188206,
              50.8915031
            ],
            [
              3.1889926,
              50.8923441
            ],
            [
              3.1889947,
              50.892471
            ],
            [
              3.1894387,
              50.8924952
            ],
            [
              3.1902249,
              50.892961
            ],
            [
              3.1908987,
              50.8932396
            ],
            [
              3.1952498,
              50.893772
            ],
            [
              3.19544,
              50.893747
            ],
            [
              3.1959464,
              50.8934728
            ],
            [
              3.1972723,
              50.8944084
            ],
            [
              3.199197,
              50.8950228
            ],
            [
              3.2004606,
              50.8955252
            ],
            [
              3.2024402,
              50.8959856
            ],
            [
              3.2034471,
              50.8963307
            ],
            [
              3.2054373,
              50.8968197
            ],
            [
              3.2064216,
              50.8972723
            ],
            [
              3.2070003,
              50.8972556
            ],
            [
              3.2075019,
              50.8966917
            ],
            [
              3.207767,
              50.8965507
            ],
            [
              3.2094372,
              50.896345
            ],
            [
              3.2117832,
              50.8958535
            ],
            [
              3.2120548,
              50.8959183
            ],
            [
              3.2152304,
              50.8958157
            ],
            [
              3.2157525,
              50.8959178
            ],
            [
              3.2162878,
              50.895828
            ],
            [
              3.2222799,
              50.8958485
            ],
            [
              3.2222116,
              50.8968091
            ],
            [
              3.2246762,
              50.8969256
            ],
            [
              3.2284278,
              50.8972316
            ],
            [
              3.2302956,
              50.89759
            ],
            [
              3.235263,
              50.8981649
            ],
            [
              3.2377189,
              50.8988188
            ],
            [
              3.238716,
              50.8988419
            ],
            [
              3.2400089,
              50.8991847
            ],
            [
              3.240453,
              50.8993772
            ],
            [
              3.2412654,
              50.8993422
            ],
            [
              3.2413309,
              50.8988951
            ],
            [
              3.2421188,
              50.8989664
            ],
            [
              3.2423855,
              50.8987024
            ],
            [
              3.2434517,
              50.8984613
            ],
            [
              3.2437261,
              50.8985298
            ],
            [
              3.2445583,
              50.8984719
            ],
            [
              3.2446227,
              50.8982204
            ],
            [
              3.244954,
              50.8981223
            ],
            [
              3.2450443,
              50.89791
            ],
            [
              3.2461676,
              50.8981245
            ],
            [
              3.2465823,
              50.8965268
            ],
            [
              3.2476153,
              50.8963332
            ],
            [
              3.2480099,
              50.8965229
            ],
            [
              3.2480148,
              50.8967852
            ],
            [
              3.2490091,
              50.8973432
            ],
            [
              3.249243,
              50.8975116
            ],
            [
              3.249241,
              50.8975914
            ],
            [
              3.2510851,
              50.8977902
            ],
            [
              3.2529796,
              50.8978979
            ],
            [
              3.2546038,
              50.8976882
            ],
            [
              3.255119,
              50.8977067
            ],
            [
              3.2580024,
              50.8980677
            ],
            [
              3.2654123,
              50.8974317
            ],
            [
              3.2662811,
              50.8975256
            ],
            [
              3.2666895,
              50.8969547
            ],
            [
              3.2672915,
              50.897002
            ],
            [
              3.2684997,
              50.8935538
            ],
            [
              3.2692252,
              50.8926897
            ],
            [
              3.2696185,
              50.8928502
            ],
            [
              3.2698304,
              50.8924638
            ],
            [
              3.269389,
              50.8922861
            ],
            [
              3.2702413,
              50.8908596
            ],
            [
              3.2710443,
              50.8892187
            ],
            [
              3.2716104,
              50.8885907
            ],
            [
              3.2718574,
              50.8884301
            ],
            [
              3.2721138,
              50.888066
            ],
            [
              3.2710522,
              50.8875003
            ],
            [
              3.2718047,
              50.8867045
            ],
            [
              3.2727416,
              50.8859385
            ],
            [
              3.271844,
              50.8850893
            ],
            [
              3.270369,
              50.8847865
            ],
            [
              3.2716357,
              50.8823197
            ],
            [
              3.2706489,
              50.8821356
            ],
            [
              3.2708722,
              50.8819075
            ],
            [
              3.2713133,
              50.881177
            ],
            [
              3.2711064,
              50.881104
            ],
            [
              3.2713669,
              50.8804324
            ],
            [
              3.271146,
              50.8791809
            ],
            [
              3.271024,
              50.8791358
            ],
            [
              3.2702325,
              50.8789263
            ],
            [
              3.269584,
              50.8799122
            ],
            [
              3.2686585,
              50.8797216
            ],
            [
              3.2688424,
              50.8794527
            ],
            [
              3.2674555,
              50.878934
            ],
            [
              3.2676494,
              50.8787118
            ],
            [
              3.2663486,
              50.878361
            ],
            [
              3.2662426,
              50.8779499
            ],
            [
              3.2659209,
              50.8777896
            ],
            [
              3.2657373,
              50.8777619
            ],
            [
              3.2649695,
              50.8781428
            ],
            [
              3.2636746,
              50.8777372
            ],
            [
              3.2631413,
              50.8780886
            ],
            [
              3.2628045,
              50.8780705
            ],
            [
              3.262598,
              50.8778544
            ],
            [
              3.2624753,
              50.8778261
            ],
            [
              3.2620712,
              50.8778809
            ],
            [
              3.261847,
              50.8780392
            ],
            [
              3.2606424,
              50.8781902
            ],
            [
              3.260006,
              50.8779238
            ],
            [
              3.2588149,
              50.8772032
            ],
            [
              3.2573953,
              50.876854
            ],
            [
              3.2560339,
              50.877921
            ],
            [
              3.254762,
              50.8777336
            ],
            [
              3.2550434,
              50.8772061
            ],
            [
              3.2544079,
              50.877069
            ],
            [
              3.254492,
              50.8768498
            ],
            [
              3.2534191,
              50.8764499
            ],
            [
              3.2533547,
              50.876561
            ],
            [
              3.252488,
              50.8765048
            ],
            [
              3.2519475,
              50.8763878
            ],
            [
              3.2506017,
              50.8763527
            ],
            [
              3.2501948,
              50.876151
            ],
            [
              3.2495476,
              50.8762417
            ],
            [
              3.2492943,
              50.8764721
            ],
            [
              3.2485142,
              50.876704
            ],
            [
              3.2483343,
              50.8765013
            ],
            [
              3.2484076,
              50.8763144
            ],
            [
              3.2486629,
              50.876142
            ],
            [
              3.2492149,
              50.8761478
            ],
            [
              3.2495242,
              50.8757234
            ],
            [
              3.2492248,
              50.8755779
            ],
            [
              3.2467707,
              50.8750383
            ],
            [
              3.2468496,
              50.8748958
            ],
            [
              3.2467895,
              50.8746262
            ],
            [
              3.2461673,
              50.8744932
            ],
            [
              3.2457864,
              50.8747236
            ],
            [
              3.2445718,
              50.8746109
            ],
            [
              3.2448207,
              50.8738555
            ],
            [
              3.2437851,
              50.8737359
            ],
            [
              3.2433202,
              50.8738754
            ],
            [
              3.2429001,
              50.8733506
            ],
            [
              3.2404382,
              50.871815
            ],
            [
              3.2405509,
              50.8716743
            ],
            [
              3.2398326,
              50.8713601
            ],
            [
              3.2393415,
              50.8714605
            ],
            [
              3.236574,
              50.8714141
            ],
            [
              3.2316974,
              50.8721397
            ],
            [
              3.2269563,
              50.8720477
            ],
            [
              3.2239176,
              50.8716191
            ],
            [
              3.2236139,
              50.872316
            ],
            [
              3.2216449,
              50.8720319
            ],
            [
              3.2215355,
              50.8723905
            ],
            [
              3.2204777,
              50.8724336
            ],
            [
              3.2203392,
              50.8737585
            ],
            [
              3.2189073,
              50.8738261
            ],
            [
              3.2186108,
              50.8733936
            ],
            [
              3.2179248,
              50.8735568
            ],
            [
              3.2173677,
              50.8738376
            ],
            [
              3.2165163,
              50.8736446
            ],
            [
              3.2150882,
              50.8736726
            ],
            [
              3.2142655,
              50.873869
            ],
            [
              3.2137664,
              50.8738753
            ],
            [
              3.2123955,
              50.8741471
            ],
            [
              3.21222,
              50.874401
            ],
            [
              3.2121089,
              50.8744361
            ],
            [
              3.2105665,
              50.8742269
            ],
            [
              3.2100443,
              50.8745482
            ],
            [
              3.2097005,
              50.8746384
            ],
            [
              3.2092827,
              50.874616
            ],
            [
              3.2065382,
              50.873886
            ],
            [
              3.2061995,
              50.8737894
            ],
            [
              3.2062568,
              50.8737081
            ],
            [
              3.2060427,
              50.873661
            ],
            [
              3.2055397,
              50.8745233
            ],
            [
              3.204928,
              50.8752112
            ],
            [
              3.1974466,
              50.8814723
            ],
            [
              3.1955379,
              50.8848662
            ],
            [
              3.1890747,
              50.8854875
            ],
            [
              3.188206,
              50.8915031
            ]
          ]
        ]
      },
      "properties": {
        "type": "boundary",
        "gemeente": "Lendelede"
      }
    }
  ]
}