{"type":"FeatureCollection","metadata":{"gemeente":"Libramont-Chevigny","slug":"libramont-chevigny","generated_at":"2026-09-26T12:42:21.626586Z","total_points":34,"providers":["bpost","DHL","GLS","InPost","VintedGo","DPD","Amazon","FedEx"],"bounds":[5.35219,49.9091,5.379432,49.92783]},"features":[{"type":"Feature","geometry":{"type":"Point","coordinates":[5.37075,49.9228]},"properties":{"type":"pakketpunt","locatieNaam":"Bbox 24/7 Stockinbox Libramont","straatNaam":"Rue Du Serpont","straatNr":"63","vervoerder":"bpost","puntType":"automaat","bezettingsgraad":50,"latitude":49.9228,"longitude":5.37075,"canPickup":true,"canDropoff":true,"openingstijden":null}},{"type":"Feature","geometry":{"type":"Point","coordinates":[5.37943,49.92028]},"properties":{"type":"pakketpunt","locatieNaam":"Pakjesautomaat 24/7 Station Libramont","straatNaam":"Place De La Gare","straatNr":"1","vervoerder":"bpost","puntType":"automaat","bezettingsgraad":50,"latitude":49.92028,"longitude":5.37943,"canPickup":true,"canDropoff":true,"openingstijden":null}},{"type":"Feature","geometry":{"type":"Point","coordinates":[5.36756,49.91724]},"properties":{"type":"pakketpunt","locatieNaam":"Bbox 24/7 Brico Cremer Libramont","straatNaam":"Rue De Tibêtême","straatNr":"3","vervoerder":"bpost","puntType":"automaat","bezettingsgraad":50,"latitude":49.91724,"longitude":5.36756,"canPickup":true,"canDropoff":true,"openingstijden":null}},{"type":"Feature","geometry":{"type":"Point","coordinates":[5.35866,49.9119]},"properties":{"type":"pakketpunt","locatieNaam":"Bbox 24/7 Adsa Libramont","straatNaam":"Rue Du Flosse","straatNr":"21","vervoerder":"bpost","puntType":"automaat","bezettingsgraad":50,"latitude":49.9119,"longitude":5.35866,"canPickup":true,"canDropoff":true,"openingstijden":null}},{"type":"Feature","geometry":{"type":"Point","coordinates":[5.35331,49.91163]},"properties":{"type":"pakketpunt","locatieNaam":"Libramont","straatNaam":"L'Aliénau","straatNr":"106","vervoerder":"bpost","puntType":"postkantoor","bezettingsgraad":50,"latitude":49.91163,"longitude":5.35331,"canPickup":true,"canDropoff":true,"openingstijden":null}},{"type":"Feature","geometry":{"type":"Point","coordinates":[5.35483,49.91114]},"properties":{"type":"pakketpunt","locatieNaam":"Bbox 24/7 Chaussures Luxus Drogenbos","straatNaam":"L'Aliénau","straatNr":"1","vervoerder":"bpost","puntType":"automaat","bezettingsgraad":50,"latitude":49.91114,"longitude":5.35483,"canPickup":true,"canDropoff":true,"openingstijden":null}},{"type":"Feature","geometry":{"type":"Point","coordinates":[5.3533,49.91112]},"properties":{"type":"pakketpunt","locatieNaam":"Pakjesautomaat 24/7 Biocap Libramont","straatNaam":"L'Aliénau","straatNr":"102","vervoerder":"bpost","puntType":"automaat","bezettingsgraad":50,"latitude":49.91112,"longitude":5.3533,"canPickup":true,"canDropoff":true,"openingstijden":null}},{"type":"Feature","geometry":{"type":"Point","coordinates":[5.353308,49.911629]},"properties":{"type":"pakketpunt","locatieNaam":"LIBRAMONT","straatNaam":"L'ALIÉNAU","straatNr":"106","vervoerder":"DHL","puntType":"postOffice","bezettingsgraad":50,"latitude":49.911629,"longitude":5.353308,"canPickup":true,"canDropoff":true,"openingstijden":{"ma":"09:30 - 12:30, 13:30 - 17:00","di":"09:30 - 12:30, 13:30 - 18:00","wo":"09:30 - 12:30, 13:30 - 17:00","do":"09:30 - 12:30, 13:30 - 18:00","vr":"09:30 - 12:30, 13:30 - 17:00","za":"09:30 - 13:00","zo":"gesloten"}}},{"type":"Feature","geometry":{"type":"Point","coordinates":[5.353295,49.911125]},"properties":{"type":"pakketpunt","locatieNaam":"PARCEL LOCKER 24/7 BIOCAP LIBRAMONT","straatNaam":"L'ALIÉNAU","straatNr":"102","vervoerder":"DHL","puntType":"packStation","bezettingsgraad":50,"latitude":49.911125,"longitude":5.353295,"canPickup":true,"canDropoff":true,"openingstijden":{"ma":"00:00 - 23:59","di":"00:00 - 23:59","wo":"00:00 - 23:59","do":"00:00 - 23:59","vr":"00:00 - 23:59","za":"00:00 - 23:59","zo":"00:00 - 23:59"}}},{"type":"Feature","geometry":{"type":"Point","coordinates":[5.354828,49.911137]},"properties":{"type":"pakketpunt","locatieNaam":"BBOX 24/7 LUXUS SCHOES DROGENBOS","straatNaam":"L'ALIÉNAU","straatNr":"1","vervoerder":"DHL","puntType":"packStation","bezettingsgraad":50,"latitude":49.911137,"longitude":5.354828,"canPickup":true,"canDropoff":true,"openingstijden":{"ma":"00:00 - 23:59","di":"00:00 - 23:59","wo":"00:00 - 23:59","do":"00:00 - 23:59","vr":"00:00 - 23:59","za":"00:00 - 23:59","zo":"00:00 - 23:59"}}},{"type":"Feature","geometry":{"type":"Point","coordinates":[5.358658,49.911898]},"properties":{"type":"pakketpunt","locatieNaam":"BBOX 24/7 ADSA LIBRAMONT","straatNaam":"RUE DU FLOSSE","straatNr":"21","vervoerder":"DHL","puntType":"packStation","bezettingsgraad":50,"latitude":49.911898,"longitude":5.358658,"canPickup":true,"canDropoff":true,"openingstijden":{"ma":"00:00 - 23:59","di":"00:00 - 23:59","wo":"00:00 - 23:59","do":"00:00 - 23:59","vr":"00:00 - 23:59","za":"00:00 - 23:59","zo":"00:00 - 23:59"}}},{"type":"Feature","geometry":{"type":"Point","coordinates":[5.379432,49.920283]},"properties":{"type":"pakketpunt","locatieNaam":"PARCEL LOCKER 24/7 STATION LIBRAMON","straatNaam":"PLACE DE LA GARE","straatNr":"1","vervoerder":"DHL","puntType":"packStation","bezettingsgraad":50,"latitude":49.920283,"longitude":5.379432,"canPickup":true,"canDropoff":true,"openingstijden":{"ma":"00:00 - 23:59","di":"00:00 - 23:59","wo":"00:00 - 23:59","do":"00:00 - 23:59","vr":"00:00 - 23:59","za":"00:00 - 23:59","zo":"00:00 - 23:59"}}},{"type":"Feature","geometry":{"type":"Point","coordinates":[5.370752,49.922805]},"properties":{"type":"pakketpunt","locatieNaam":"BBOX 24/7 STOCKINBOX LIBRAMONT","straatNaam":"RUE DU SERPONT","straatNr":"63","vervoerder":"DHL","puntType":"packStation","bezettingsgraad":50,"latitude":49.922805,"longitude":5.370752,"canPickup":true,"canDropoff":true,"openingstijden":{"ma":"00:00 - 23:59","di":"00:00 - 23:59","wo":"00:00 - 23:59","do":"00:00 - 23:59","vr":"00:00 - 23:59","za":"00:00 - 23:59","zo":"00:00 - 23:59"}}},{"type":"Feature","geometry":{"type":"Point","coordinates":[5.367556,49.917243]},"properties":{"type":"pakketpunt","locatieNaam":"BBOX 24/7 BRICO CREMER LIBRAMONT","straatNaam":"RUE DE TIBÊTÊME","straatNr":"3","vervoerder":"DHL","puntType":"packStation","bezettingsgraad":50,"latitude":49.917243,"longitude":5.367556,"canPickup":true,"canDropoff":true,"openingstijden":{"ma":"00:00 - 23:59","di":"00:00 - 23:59","wo":"00:00 - 23:59","do":"00:00 - 23:59","vr":"00:00 - 23:59","za":"00:00 - 23:59","zo":"00:00 - 23:59"}}},{"type":"Feature","geometry":{"type":"Point","coordinates":[5.3621767,49.9091646]},"properties":{"type":"pakketpunt","locatieNaam":"N Joy wash station Shell","straatNaam":"Rue De Neufchateau","straatNr":"48 C","vervoerder":"GLS","puntType":"parcel_shop","bezettingsgraad":50,"latitude":49.9091646,"longitude":5.3621767,"canPickup":true,"canDropoff":true,"openingstijden":"vr: 06:00 - 18:30; ma: 06:00 - 18:30"}},{"type":"Feature","geometry":{"type":"Point","coordinates":[5.3577579,49.9116873]},"properties":{"type":"pakketpunt","locatieNaam":"GLS Parcel Locker powered by bbox","straatNaam":"Rue Du Flosse","straatNr":"21","vervoerder":"GLS","puntType":"locker","bezettingsgraad":50,"latitude":49.9116873,"longitude":5.3577579,"canPickup":true,"canDropoff":true,"openingstijden":"vr: 00:00 - 24:00; za: 00:00 - 24:00"}},{"type":"Feature","geometry":{"type":"Point","coordinates":[5.3761165,49.918775]},"properties":{"type":"pakketpunt","locatieNaam":"Kerger Papeterie","straatNaam":"Rue De L'Ancienne Gare","straatNr":"16","vervoerder":"GLS","puntType":"parcel_shop","bezettingsgraad":50,"latitude":49.918775,"longitude":5.3761165,"canPickup":true,"canDropoff":true,"openingstijden":"vr: 09:00 - 12:30, 13:30 - 18:00; za: 09:00 - 12:30"}},{"type":"Feature","geometry":{"type":"Point","coordinates":[5.3708595,49.9229275]},"properties":{"type":"pakketpunt","locatieNaam":"GLS Parcel Locker powered by bbox","straatNaam":"Rue Du Serpont","straatNr":"63","vervoerder":"GLS","puntType":"locker","bezettingsgraad":50,"latitude":49.9229275,"longitude":5.3708595,"canPickup":true,"canDropoff":true,"openingstijden":"vr: 00:00 - 24:00; za: 00:00 - 24:00"}},{"type":"Feature","geometry":{"type":"Point","coordinates":[5.36207,49.9091]},"properties":{"type":"pakketpunt","locatieNaam":"SHELL","straatNaam":"48c Rue de Neufchâteau","straatNr":"","vervoerder":"InPost","puntType":"servicepunt","bezettingsgraad":50,"latitude":49.9091,"longitude":5.36207,"canPickup":true,"canDropoff":true,"openingstijden":null}},{"type":"Feature","geometry":{"type":"Point","coordinates":[5.36568,49.91649]},"properties":{"type":"pakketpunt","locatieNaam":"CHAMALO (TEXTILE)","straatNaam":"56d Avenue de Bouillon","straatNr":"","vervoerder":"InPost","puntType":"servicepunt","bezettingsgraad":50,"latitude":49.91649,"longitude":5.36568,"canPickup":true,"canDropoff":true,"openingstijden":null}},{"type":"Feature","geometry":{"type":"Point","coordinates":[5.35809,49.91199]},"properties":{"type":"pakketpunt","locatieNaam":"","straatNaam":"Rue du Flosse","straatNr":"21","vervoerder":"InPost","puntType":"automaat","bezettingsgraad":50,"latitude":49.91199,"longitude":5.35809,"canPickup":true,"canDropoff":true,"openingstijden":"24/7"}},{"type":"Feature","geometry":{"type":"Point","coordinates":[5.36005,49.92783]},"properties":{"type":"pakketpunt","locatieNaam":"","straatNaam":"Rue du Serpont","straatNr":"123","vervoerder":"InPost","puntType":"automaat","bezettingsgraad":50,"latitude":49.92783,"longitude":5.36005,"canPickup":true,"canDropoff":true,"openingstijden":"24/7"}},{"type":"Feature","geometry":{"type":"Point","coordinates":[5.36895,49.91801]},"properties":{"type":"pakketpunt","locatieNaam":"","straatNaam":"Avenue de Bouillon","straatNr":"48","vervoerder":"InPost","puntType":"automaat","bezettingsgraad":50,"latitude":49.91801,"longitude":5.36895,"canPickup":true,"canDropoff":true,"openingstijden":"24/7"}},{"type":"Feature","geometry":{"type":"Point","coordinates":[5.36231715,49.90923814]},"properties":{"type":"pakketpunt","locatieNaam":"Station Shell ","straatNaam":"Rue De Neufchâteau","straatNr":"48C","vervoerder":"VintedGo","puntType":"parcel_shop","bezettingsgraad":50,"latitude":49.90923814,"longitude":5.36231715,"canPickup":true,"canDropoff":true,"openingstijden":null}},{"type":"Feature","geometry":{"type":"Point","coordinates":[5.3790121,49.9207473]},"properties":{"type":"pakketpunt","locatieNaam":"Marcolux","straatNaam":"21 Rue De La Gare","straatNr":"","vervoerder":"VintedGo","puntType":"parcel_shop","bezettingsgraad":50,"latitude":49.9207473,"longitude":5.3790121,"canPickup":true,"canDropoff":true,"openingstijden":null}},{"type":"Feature","geometry":{"type":"Point","coordinates":[5.35219,49.91456]},"properties":{"type":"pakketpunt","locatieNaam":"LEROY GAUTHIER","straatNaam":"RUE DE SAINT-HUBERT","straatNr":"7","vervoerder":"DPD","puntType":"pickup_point","bezettingsgraad":50,"latitude":49.91456,"longitude":5.35219,"canPickup":true,"canDropoff":false,"openingstijden":{"ma":"gesloten","di":"09:00 - 12:00, 13:00 - 18:00","wo":"09:00 - 12:00, 13:00 - 18:00","do":"09:00 - 12:00, 13:00 - 18:00","vr":"09:00 - 12:00, 13:00 - 18:00","za":"09:00 - 12:00, 13:00 - 17:00","zo":"gesloten"}}},{"type":"Feature","geometry":{"type":"Point","coordinates":[5.35995,49.90932]},"properties":{"type":"pakketpunt","locatieNaam":"STATION SHELL LIBRAMONT","straatNaam":"RUE DE NEUFCHATEAU","straatNr":"48","vervoerder":"DPD","puntType":"pickup_point","bezettingsgraad":50,"latitude":49.90932,"longitude":5.35995,"canPickup":true,"canDropoff":false,"openingstijden":{"ma":"05:15 - 18:30","di":"05:15 - 18:30","wo":"05:15 - 18:30","do":"05:15 - 18:30","vr":"05:15 - 18:30","za":"06:15 - 18:00","zo":"gesloten"}}},{"type":"Feature","geometry":{"type":"Point","coordinates":[5.3533082,49.9116287]},"properties":{"type":"pakketpunt","locatieNaam":"bpost - LIBRAMONT","straatNaam":"L'ALIÉNAU,106","straatNr":"","vervoerder":"Amazon","puntType":"3p","bezettingsgraad":50,"latitude":49.9116287,"longitude":5.3533082,"canPickup":true,"canDropoff":false,"openingstijden":null}},{"type":"Feature","geometry":{"type":"Point","coordinates":[5.354828,49.911137]},"properties":{"type":"pakketpunt","locatieNaam":"bpost - BBOX 24/7 LUXUS SCHOES DROGENBOS","straatNaam":"L'ALIÉNAU,1","straatNr":"","vervoerder":"Amazon","puntType":"3p","bezettingsgraad":50,"latitude":49.911137,"longitude":5.354828,"canPickup":true,"canDropoff":false,"openingstijden":null}},{"type":"Feature","geometry":{"type":"Point","coordinates":[5.358658,49.911898]},"properties":{"type":"pakketpunt","locatieNaam":"bpost - BBOX 24/7 ADSA LIBRAMONT","straatNaam":"RUE DU FLOSSE,21","straatNr":"","vervoerder":"Amazon","puntType":"3p","bezettingsgraad":50,"latitude":49.911898,"longitude":5.358658,"canPickup":true,"canDropoff":false,"openingstijden":null}},{"type":"Feature","geometry":{"type":"Point","coordinates":[5.367556,49.917243]},"properties":{"type":"pakketpunt","locatieNaam":"bpost - BBOX 24/7 BRICO CREMER LIBRAMONT","straatNaam":"RUE DE TIBÊTÊME,3","straatNr":"","vervoerder":"Amazon","puntType":"3p","bezettingsgraad":50,"latitude":49.917243,"longitude":5.367556,"canPickup":true,"canDropoff":false,"openingstijden":null}},{"type":"Feature","geometry":{"type":"Point","coordinates":[5.370752,49.922805]},"properties":{"type":"pakketpunt","locatieNaam":"bpost - BBOX 24/7 STOCKINBOX LIBRAMONT","straatNaam":"RUE DU SERPONT,63","straatNr":"","vervoerder":"Amazon","puntType":"3p","bezettingsgraad":50,"latitude":49.922805,"longitude":5.370752,"canPickup":true,"canDropoff":false,"openingstijden":null}},{"type":"Feature","geometry":{"type":"Point","coordinates":[5.362065,49.9091]},"properties":{"type":"pakketpunt","locatieNaam":"FedEx OnSite","straatNaam":"48C RUE DE NEUFCHATEAU","straatNr":"","vervoerder":"FedEx","puntType":"servicepunt","bezettingsgraad":50,"latitude":49.9091,"longitude":5.362065,"canPickup":true,"canDropoff":true,"openingstijden":{"ma":"05:30 - 18:30","di":"05:30 - 18:30","wo":"05:30 - 18:30","do":"05:30 - 18:30","vr":"05:30 - 18:30","za":"06:30 - 18:30","zo":"gesloten"}}},{"type":"Feature","geometry":{"type":"Point","coordinates":[5.365676,49.916492]},"properties":{"type":"pakketpunt","locatieNaam":"FedEx OnSite","straatNaam":"56D AVENUE DE BOUILLON","straatNr":"","vervoerder":"FedEx","puntType":"servicepunt","bezettingsgraad":50,"latitude":49.916492,"longitude":5.365676,"canPickup":true,"canDropoff":true,"openingstijden":{"ma":"gesloten","di":"10:00 - 13:00, 13:30 - 18:00","wo":"10:00 - 13:00, 13:30 - 18:00","do":"10:00 - 13:00, 13:30 - 18:00","vr":"10:00 - 13:00, 13:30 - 18:00","za":"10:00 - 13:00, 13:30 - 18:00","zo":"gesloten"}}},{"type":"Feature","geometry":{"type":"Polygon","coordinates":[[[5.2983626,49.9132352],[5.2986201,49.9133466],[5.2990147,49.9132218],[5.2990269,49.9134203],[5.2992256,49.9134109],[5.2994013,49.9132732],[5.3010021,49.913286],[5.3014491,49.9131611],[5.30177,49.9132119],[5.3017628,49.9131318],[5.3021314,49.9130555],[5.3023193,49.9132197],[5.3025837,49.9131069],[5.3034571,49.9132237],[5.3049642,49.9131335],[5.3057819,49.9132194],[5.307061,49.9130519],[5.3077242,49.9131691],[5.3082016,49.9131026],[5.3086697,49.9133021],[5.3088748,49.9132537],[5.3098579,49.913398],[5.3110059,49.9131553],[5.3114605,49.9131311],[5.311435,49.91291],[5.3119057,49.9128591],[5.3122222,49.9129929],[5.3126769,49.9129316],[5.3146148,49.9129981],[5.3160779,49.9126769],[5.3175075,49.9126415],[5.3179446,49.9127825],[5.3180708,49.9129049],[5.3198786,49.9131087],[5.3200127,49.9132788],[5.3211782,49.9135994],[5.3226399,49.9143142],[5.3240979,49.9158628],[5.3258479,49.9162693],[5.3266091,49.9183364],[5.327602,49.9203969],[5.3298177,49.9223144],[5.3298122,49.9246657],[5.3294987,49.926199],[5.3291282,49.9267586],[5.328337,49.9274665],[5.3276315,49.9283039],[5.3264587,49.9301372],[5.3259069,49.9312202],[5.325375,49.9326111],[5.3252637,49.9334727],[5.3257956,49.9362274],[5.3255448,49.9369945],[5.3257593,49.9384082],[5.3260131,49.9411144],[5.3263535,49.9413687],[5.3265788,49.9417269],[5.3268202,49.9440373],[5.327087,49.9443816],[5.3270696,49.9447752],[5.3269958,49.9448667],[5.3271018,49.9450341],[5.3268108,49.9450876],[5.3269234,49.9454993],[5.3270857,49.9456952],[5.3270696,49.9457901],[5.3269503,49.9457547],[5.3268845,49.9458445],[5.3269623,49.9460559],[5.3267947,49.9462794],[5.3269127,49.946515],[5.3266726,49.9465625],[5.3265721,49.9468257],[5.3266737,49.9469558],[5.3258636,49.9492317],[5.3242922,49.9505882],[5.3240749,49.9506728],[5.3236803,49.9511112],[5.3237417,49.9518602],[5.3231817,49.9520263],[5.3232381,49.9523831],[5.3229779,49.9529561],[5.3231817,49.9534393],[5.3228843,49.9539908],[5.3229457,49.9545248],[5.3234285,49.9558536],[5.3233688,49.9563475],[5.3236431,49.9563995],[5.3235385,49.9566931],[5.3235894,49.9568821],[5.3239354,49.9571961],[5.324496,49.9575016],[5.3244933,49.9576413],[5.3248742,49.9577276],[5.3252283,49.9579657],[5.3251901,49.9580188],[5.3252766,49.9581405],[5.3251525,49.9581732],[5.3252283,49.9582591],[5.3259015,49.9583298],[5.3259207,49.9585237],[5.3262958,49.9585438],[5.3263521,49.9587077],[5.3265291,49.9588354],[5.3268859,49.9588717],[5.3263307,49.9603349],[5.3271969,49.9616389],[5.3286239,49.9640698],[5.3303413,49.9656086],[5.3297893,49.9667134],[5.3273971,49.9677392],[5.3267224,49.969199],[5.3270291,49.9711716],[5.3290532,49.9726707],[5.3275678,49.9741839],[5.3270924,49.9742095],[5.326674,49.9743889],[5.3262395,49.9742751],[5.3260732,49.9743234],[5.3258157,49.9744165],[5.3252685,49.9749513],[5.3249305,49.9754239],[5.324657,49.9760345],[5.3249145,49.9764761],[5.3248836,49.9765606],[5.3244115,49.9767745],[5.3243083,49.9769177],[5.3242908,49.97701],[5.3244933,49.9770643],[5.3245322,49.9771428],[5.324319,49.9773791],[5.3242431,49.9778373],[5.324437,49.9780406],[5.3243726,49.9781907],[5.3240427,49.9783407],[5.3242224,49.9785305],[5.3246006,49.9784874],[5.3247938,49.9786098],[5.3247857,49.9787099],[5.3243458,49.979129],[5.3238201,49.9793274],[5.323403,49.9797559],[5.3241554,49.9799914],[5.3242868,49.980138],[5.3247026,49.980038],[5.3253195,49.9802174],[5.3249466,49.980702],[5.3269315,49.9815437],[5.3290236,49.9819232],[5.329678,49.9821577],[5.3310406,49.9824337],[5.3326821,49.9826062],[5.3370059,49.9828079],[5.3386688,49.9834064],[5.3392922,49.9835509],[5.340879,49.9834409],[5.3430676,49.9834409],[5.3434861,49.9833719],[5.3444184,49.9828622],[5.3457549,49.9834546],[5.3492582,49.9851311],[5.3513087,49.9865642],[5.3533512,49.9882594],[5.3526163,49.9885405],[5.3533472,49.9900981],[5.3541613,49.9907047],[5.3546897,49.991341],[5.3554165,49.9916463],[5.3593004,49.9917532],[5.3600514,49.9918359],[5.361029,49.9921737],[5.3631091,49.9948777],[5.364992,49.9962312],[5.36695,49.9982985],[5.3669205,49.998459],[5.3667482,49.9984856],[5.3653961,49.9983938],[5.3652757,49.9987933],[5.3652515,49.9992749],[5.3662799,49.9990024],[5.3665319,49.99954],[5.3679215,49.9991343],[5.3688973,49.9991709],[5.3715876,49.9980864],[5.371322,49.9978019],[5.3742843,49.9963068],[5.3768125,49.9945759],[5.3770512,49.9946897],[5.3773684,49.9946621],[5.3779685,49.9949035],[5.3785023,49.9944518],[5.3791031,49.9940914],[5.3787115,49.9937422],[5.3789932,49.9936155],[5.380314,49.9933793],[5.3804415,49.9935413],[5.3815868,49.9933034],[5.382818,49.9934706],[5.3871578,49.9937224],[5.3937668,49.9939827],[5.3941047,49.9939465],[5.3944534,49.9935637],[5.3947967,49.9934723],[5.3948987,49.9933551],[5.3948799,49.9931413],[5.3946412,49.9927292],[5.394727,49.9926947],[5.3951584,49.9928783],[5.3976452,49.9929016],[5.3979242,49.9925291],[5.3992599,49.9924015],[5.39904,49.9914014],[5.4016159,49.9914311],[5.4015612,49.9912841],[5.405724,49.990622],[5.4069696,49.9905911],[5.4092302,49.9903412],[5.4106372,49.9909535],[5.4137385,49.9917118],[5.4159122,49.9930631],[5.4161203,49.9937879],[5.4172403,49.9951637],[5.4184055,49.9958363],[5.4194462,49.9961881],[5.4229009,49.9969881],[5.4252183,49.9979812],[5.4263985,49.9981261],[5.4301643,49.9994847],[5.4306686,50.0000778],[5.4311299,50.0002916],[5.4328638,50.0019536],[5.4342949,50.0029397],[5.4350137,50.0039465],[5.4370522,50.0088327],[5.437181,50.0109521],[5.4381036,50.0114895],[5.4382002,50.0125034],[5.437696,50.0134342],[5.4370844,50.0141236],[5.436552,50.015012],[5.4381309,50.0159149],[5.4385865,50.0163849],[5.4390746,50.0166986],[5.4405284,50.0180773],[5.4413652,50.0186909],[5.4423362,50.0191562],[5.4432743,50.0197755],[5.4465097,50.0206693],[5.4475735,50.0208026],[5.4494065,50.0208072],[5.4505223,50.0210278],[5.4516113,50.0211174],[5.4523247,50.0212966],[5.454374,50.0214414],[5.4554951,50.0217585],[5.4574048,50.0216275],[5.4590732,50.0219032],[5.4601207,50.0218885],[5.4597437,50.0225857],[5.4598349,50.023692],[5.4603382,50.0251859],[5.4628122,50.0250499],[5.4633486,50.0251602],[5.4644,50.0250981],[5.4669374,50.0244295],[5.4691583,50.0240573],[5.4724842,50.0235851],[5.4765397,50.023306],[5.4774678,50.0233301],[5.4811639,50.0237333],[5.4815179,50.023854],[5.4833633,50.0240918],[5.4842162,50.02414],[5.4856471,50.0240684],[5.4869762,50.0239048],[5.4891354,50.0230664],[5.4915936,50.022646],[5.4948163,50.0219722],[5.4948807,50.0218946],[5.4951918,50.0218636],[5.4971445,50.022085],[5.4984614,50.0221238],[5.498709,50.0219809],[5.4985325,50.0217835],[5.4966201,50.0210657],[5.4959549,50.0211751],[5.4944274,50.0211743],[5.493549,50.020653],[5.4931641,50.0205513],[5.4924533,50.0201747],[5.490911,50.0185737],[5.4897764,50.0163814],[5.4893205,50.0160092],[5.4893446,50.0158127],[5.4897094,50.015362],[5.4894465,50.0150319],[5.4886043,50.014751],[5.48706,50.0131491],[5.4872149,50.0129705],[5.4873517,50.0124827],[5.487301,50.0122971],[5.4875153,50.0110366],[5.4881269,50.0101919],[5.4891246,50.0092129],[5.4893919,50.0040285],[5.4899868,50.003718],[5.4899763,50.0034146],[5.4901265,50.0033336],[5.4902351,50.0034155],[5.490455,50.0033155],[5.4906267,50.0031155],[5.4909861,50.0028983],[5.4905975,50.0020633],[5.492751,50.0011812],[5.495165,50.000033],[5.4960287,49.9995399],[5.5000442,49.998034],[5.5001271,49.9980709],[5.5043717,49.9951597],[5.5060312,49.9942269],[5.5139887,49.9908634],[5.5158448,49.9898666],[5.5201471,49.9879939],[5.5211395,49.987373],[5.5226362,49.9861175],[5.5232477,49.9852897],[5.5262732,49.9832684],[5.5271852,49.9814126],[5.5287409,49.9798189],[5.5298977,49.9775866],[5.5316216,49.9764347],[5.5320075,49.9759196],[5.531289,49.9756585],[5.5302875,49.9743355],[5.5302,49.9707179],[5.5297946,49.9687935],[5.5306506,49.9685408],[5.5315196,49.9681302],[5.531922,49.9678231],[5.5321795,49.966995],[5.5326829,49.9665102],[5.5338156,49.9663911],[5.5344657,49.966196],[5.5399847,49.9667983],[5.5405426,49.9670329],[5.5409825,49.9670674],[5.5413151,49.9669018],[5.5426562,49.9671295],[5.5446036,49.9676812],[5.5468565,49.96734],[5.5475646,49.9668052],[5.5483049,49.9669501],[5.5492519,49.966313],[5.5448097,49.9642369],[5.5421064,49.962093],[5.5473843,49.9573709],[5.5532116,49.9525759],[5.5496283,49.952105],[5.5488424,49.9488372],[5.5350716,49.9457691],[5.5306954,49.9459234],[5.5272301,49.9435045],[5.5261445,49.9417286],[5.524326,49.9400904],[5.5241382,49.939809],[5.5242441,49.9390345],[5.5248463,49.9383348],[5.525136,49.9378023],[5.5247873,49.9372593],[5.5234709,49.9363289],[5.5236018,49.9358575],[5.5231297,49.9345799],[5.5231592,49.9341466],[5.5240714,49.9328089],[5.5248517,49.9322475],[5.5260161,49.931849],[5.5271676,49.9312694],[5.5279788,49.9311837],[5.5250642,49.9282211],[5.5241049,49.9274677],[5.5222825,49.9264958],[5.5187713,49.9249316],[5.5173658,49.9241228],[5.5169091,49.9214199],[5.5160175,49.9197425],[5.5144635,49.9186317],[5.5064463,49.9120484],[5.5062045,49.9114315],[5.5055442,49.9105691],[5.5022149,49.9077842],[5.4971625,49.9032471],[5.495154,49.9030318],[5.4930138,49.9029896],[5.4921234,49.9028307],[5.4907179,49.9023539],[5.4892695,49.9024714],[5.4881966,49.9026994],[5.4854393,49.9027201],[5.4798549,49.9024956],[5.4786196,49.9023623],[5.4735571,49.9003844],[5.4676026,49.8991439],[5.4658377,49.8980935],[5.4658967,49.8977237],[5.4657841,49.8973713],[5.4650116,49.8974231],[5.4643497,49.8975658],[5.4622596,49.8976581],[5.4617715,49.8976131],[5.4607362,49.897741],[5.4595077,49.8977479],[5.4587797,49.8978734],[5.4581344,49.8979034],[5.457201,49.8977997],[5.4553985,49.8979311],[5.4543042,49.8979103],[5.4520726,49.8971017],[5.4514834,49.8977579],[5.4509568,49.8977237],[5.4487135,49.8990904],[5.4439187,49.900571],[5.4415701,49.9004052],[5.4387903,49.9008889],[5.4371832,49.9002537],[5.4368484,49.899023],[5.4346137,49.8979444],[5.4301361,49.8950115],[5.4311017,49.8937215],[5.4294026,49.8932866],[5.4287696,49.8930413],[5.4279327,49.8928719],[5.4267204,49.8928236],[5.4244298,49.8924745],[5.424183,49.8921911],[5.4222465,49.8919319],[5.4222009,49.8919941],[5.4207337,49.891868],[5.420267,49.8916848],[5.4194248,49.8919613],[5.4188776,49.8928218],[5.4186828,49.8927403],[5.4181856,49.8922853],[5.4177229,49.8920659],[5.4174999,49.8920359],[5.4167962,49.8923259],[5.4160693,49.8923829],[5.414511,49.8921427],[5.4127107,49.8917293],[5.4117697,49.8909833],[5.4104528,49.8904873],[5.409463,49.889765],[5.4088901,49.8901888],[5.4071403,49.8895698],[5.4069257,49.8898307],[5.4066896,49.8897132],[5.4065663,49.8899102],[5.4048684,49.8892855],[5.4043722,49.8892077],[5.4043239,49.8891291],[5.403648,49.8888768],[5.4012448,49.8882893],[5.4011536,49.888386],[5.4009604,49.8883273],[5.4008746,49.8882029],[5.3997588,49.8879056],[5.3994048,49.8874114],[5.3991473,49.88742],[5.3989112,49.8876499],[5.3985518,49.8875427],[5.3976506,49.887484],[5.3974682,49.8873906],[5.3983319,49.8865957],[5.3982756,49.8864989],[5.3980315,49.8864142],[5.3973395,49.885863],[5.3964114,49.8857143],[5.3962398,49.8852581],[5.3954619,49.8851682],[5.3954941,49.8854724],[5.3945768,49.8854966],[5.3944266,49.8849712],[5.3934234,49.8841278],[5.3929084,49.883993],[5.3918302,49.8840138],[5.3915191,49.8837822],[5.3911711,49.8838939],[5.3908807,49.8836612],[5.3906232,49.8836716],[5.3905052,49.8838237],[5.3898293,49.8837545],[5.3902209,49.8834296],[5.3894216,49.8830217],[5.3890192,49.8826346],[5.3869057,49.8816633],[5.3863478,49.8812416],[5.3794438,49.8782203],[5.3787249,49.8778193],[5.3780597,49.8773284],[5.375914,49.8765783],[5.3745407,49.8765264],[5.3743722,49.8766101],[5.3692782,49.8759042],[5.3673041,49.8759387],[5.3655613,49.8756839],[5.3645521,49.8753303],[5.3633096,49.875154],[5.3626198,49.8753542],[5.3611243,49.8759283],[5.3596951,49.8768822],[5.3574046,49.8779599],[5.3559713,49.8787548],[5.3552007,49.8790349],[5.3526157,49.8803204],[5.3529811,49.8803432],[5.3522871,49.8807249],[5.3519484,49.8810442],[5.3520665,49.8811029],[5.3482304,49.8826957],[5.3449889,49.8868772],[5.3414424,49.8877215],[5.3388342,49.8874052],[5.3359115,49.8865649],[5.3337477,49.885675],[5.3332888,49.8859911],[5.3329611,49.8856417],[5.331407,49.8862099],[5.3312096,49.8866043],[5.3310889,49.8866596],[5.3301045,49.8868705],[5.3297585,49.8870675],[5.3260012,49.8874119],[5.3257459,49.8877501],[5.3248581,49.8873976],[5.3242922,49.8868929],[5.3228036,49.8859805],[5.3209668,49.8842879],[5.3182411,49.8833985],[5.3180104,49.8836474],[5.3181714,49.8837822],[5.3183003,49.8842706],[5.3186166,49.8844631],[5.3189599,49.8845219],[5.3193033,49.8851025],[5.3188634,49.8853272],[5.320006,49.8857835],[5.3202581,49.8859978],[5.3202206,49.8862086],[5.3199577,49.8862846],[5.3195813,49.8866254],[5.3177369,49.886651],[5.3150868,49.8863952],[5.3133058,49.886575],[5.3103286,49.8865387],[5.3093576,49.8864039],[5.3070617,49.886613],[5.3055891,49.8866181],[5.3049615,49.8869258],[5.3041369,49.8869673],[5.3031483,49.887363],[5.3030062,49.8874321],[5.3025896,49.8881957],[5.3008169,49.8908665],[5.3007843,49.892743],[5.2999969,49.8961923],[5.2959548,49.8993032],[5.2946425,49.9011629],[5.2942489,49.9060564],[5.291465,49.9077537],[5.2978349,49.911112],[5.2983338,49.9115231],[5.2987361,49.9116474],[5.2988648,49.9118202],[5.2987455,49.9122571],[5.2992779,49.9124243],[5.2993047,49.9125266],[5.2992061,49.9126667],[5.2989081,49.9126773],[5.2987512,49.9127824],[5.2985839,49.9130985],[5.2983626,49.9132352]]]},"properties":{"type":"boundary","gemeente":"Libramont-Chevigny"}}]}