{"type":"FeatureCollection","metadata":{"gemeente":"Lievegem","slug":"lievegem","generated_at":"2026-09-26T14:21:04.007851Z","total_points":38,"providers":["bpost","DHL","GLS","InPost","VintedGo","PostNL","DPD","Amazon"],"bounds":[3.561315,51.093976,3.643942,51.15426]},"features":[{"type":"Feature","geometry":{"type":"Point","coordinates":[3.64394,51.09398]},"properties":{"type":"pakketpunt","locatieNaam":"Bbox 24/7 Q8 Easy Lievegem","straatNaam":"Grote Baan","straatNr":"24","vervoerder":"bpost","puntType":"automaat","bezettingsgraad":50,"latitude":51.09398,"longitude":3.64394,"canPickup":true,"canDropoff":true,"openingstijden":null}},{"type":"Feature","geometry":{"type":"Point","coordinates":[3.60712,51.09576]},"properties":{"type":"pakketpunt","locatieNaam":"Lovendegem","straatNaam":"Dorp","straatNr":"25","vervoerder":"bpost","puntType":"postkantoor","bezettingsgraad":50,"latitude":51.09576,"longitude":3.60712,"canPickup":true,"canDropoff":true,"openingstijden":null}},{"type":"Feature","geometry":{"type":"Point","coordinates":[3.61503,51.10373]},"properties":{"type":"pakketpunt","locatieNaam":"Bbox 24/7 Delhaize Lovendegem","straatNaam":"Laagland","straatNr":"AUTOMAAT","vervoerder":"bpost","puntType":"automaat","bezettingsgraad":50,"latitude":51.10373,"longitude":3.61503,"canPickup":true,"canDropoff":true,"openingstijden":null}},{"type":"Feature","geometry":{"type":"Point","coordinates":[3.56532,51.11532]},"properties":{"type":"pakketpunt","locatieNaam":"Bbox Cado Zomergem","straatNaam":"Weldadigheidstraat","straatNr":"32A","vervoerder":"bpost","puntType":"automaat","bezettingsgraad":50,"latitude":51.11532,"longitude":3.56532,"canPickup":true,"canDropoff":true,"openingstijden":null}},{"type":"Feature","geometry":{"type":"Point","coordinates":[3.5654,51.11548]},"properties":{"type":"pakketpunt","locatieNaam":"Cado Supermarkt Zomergem","straatNaam":"Weldadigheidstraat","straatNr":"32A","vervoerder":"bpost","puntType":"servicepunt","bezettingsgraad":50,"latitude":51.11548,"longitude":3.5654,"canPickup":true,"canDropoff":true,"openingstijden":null}},{"type":"Feature","geometry":{"type":"Point","coordinates":[3.60267,51.14481]},"properties":{"type":"pakketpunt","locatieNaam":"Bbox 24/7 Delhaize Waarschoot","straatNaam":"Hendrik Consciencelaan","straatNr":"53","vervoerder":"bpost","puntType":"automaat","bezettingsgraad":50,"latitude":51.14481,"longitude":3.60267,"canPickup":true,"canDropoff":true,"openingstijden":null}},{"type":"Feature","geometry":{"type":"Point","coordinates":[3.56575,51.11956]},"properties":{"type":"pakketpunt","locatieNaam":"Zomergem","straatNaam":"Dreef","straatNr":"80","vervoerder":"bpost","puntType":"postkantoor","bezettingsgraad":50,"latitude":51.11956,"longitude":3.56575,"canPickup":true,"canDropoff":true,"openingstijden":null}},{"type":"Feature","geometry":{"type":"Point","coordinates":[3.56132,51.11558]},"properties":{"type":"pakketpunt","locatieNaam":"Bockaert Katrien","straatNaam":"Dekenijstraat","straatNr":"43","vervoerder":"bpost","puntType":"servicepunt","bezettingsgraad":50,"latitude":51.11558,"longitude":3.56132,"canPickup":true,"canDropoff":true,"openingstijden":null}},{"type":"Feature","geometry":{"type":"Point","coordinates":[3.6142,51.15309]},"properties":{"type":"pakketpunt","locatieNaam":"Waarschoot","straatNaam":"Stationsstraat","straatNr":"113","vervoerder":"bpost","puntType":"postkantoor","bezettingsgraad":50,"latitude":51.15309,"longitude":3.6142,"canPickup":true,"canDropoff":true,"openingstijden":null}},{"type":"Feature","geometry":{"type":"Point","coordinates":[3.61533,51.15426]},"properties":{"type":"pakketpunt","locatieNaam":"Pakjesautomaat 24/7 Station Waarschoot","straatNaam":"Stationsplein","straatNr":"8","vervoerder":"bpost","puntType":"automaat","bezettingsgraad":50,"latitude":51.15426,"longitude":3.61533,"canPickup":true,"canDropoff":true,"openingstijden":null}},{"type":"Feature","geometry":{"type":"Point","coordinates":[3.565318,51.11532]},"properties":{"type":"pakketpunt","locatieNaam":"BBOX CADO ZOMERGEM","straatNaam":"WELDADIGHEIDSTRAAT","straatNr":"32A","vervoerder":"DHL","puntType":"packStation","bezettingsgraad":50,"latitude":51.11532,"longitude":3.565318,"canPickup":true,"canDropoff":true,"openingstijden":{"ma":"08:30 - 17:30","di":"08:30 - 17:30","wo":"08:30 - 17:30","do":"08:30 - 17:30","vr":"08:30 - 17:30","za":"08:30 - 17:30","zo":"08:30 - 12:30"}}},{"type":"Feature","geometry":{"type":"Point","coordinates":[3.5654,51.115478]},"properties":{"type":"pakketpunt","locatieNaam":"CADO SUPERMARKT ZOMERGEM","straatNaam":"WELDADIGHEIDSTRAAT","straatNr":"32A","vervoerder":"DHL","puntType":"parcelShop","bezettingsgraad":50,"latitude":51.115478,"longitude":3.5654,"canPickup":true,"canDropoff":true,"openingstijden":{"ma":"gesloten","di":"08:30 - 19:00","wo":"08:30 - 19:00","do":"08:30 - 19:00","vr":"08:30 - 19:00","za":"08:30 - 18:00","zo":"08:30 - 12:00"}}},{"type":"Feature","geometry":{"type":"Point","coordinates":[3.561315,51.115582]},"properties":{"type":"pakketpunt","locatieNaam":"BOCKAERT KATRIEN","straatNaam":"DEKENIJSTRAAT","straatNr":"43","vervoerder":"DHL","puntType":"parcelShop","bezettingsgraad":50,"latitude":51.115582,"longitude":3.561315,"canPickup":true,"canDropoff":true,"openingstijden":{"ma":"06:30 - 12:00","di":"06:30 - 12:00, 13:30 - 18:00","wo":"06:30 - 12:00, 13:30 - 18:00","do":"06:30 - 12:00, 13:30 - 18:00","vr":"06:30 - 12:00, 13:30 - 18:00","za":"07:00 - 12:00","zo":"gesloten"}}},{"type":"Feature","geometry":{"type":"Point","coordinates":[3.565749,51.119563]},"properties":{"type":"pakketpunt","locatieNaam":"ZOMERGEM","straatNaam":"DREEF","straatNr":"80","vervoerder":"DHL","puntType":"postOffice","bezettingsgraad":50,"latitude":51.119563,"longitude":3.565749,"canPickup":true,"canDropoff":true,"openingstijden":{"ma":"09:30 - 12:30","di":"14:00 - 18:00","wo":"09:30 - 12:30","do":"14:00 - 18:00","vr":"09:30 - 12:30, 14:00 - 17:00","za":"09:30 - 13:00","zo":"gesloten"}}},{"type":"Feature","geometry":{"type":"Point","coordinates":[3.607125,51.095763]},"properties":{"type":"pakketpunt","locatieNaam":"LOVENDEGEM","straatNaam":"DORP","straatNr":"25","vervoerder":"DHL","puntType":"postOffice","bezettingsgraad":50,"latitude":51.095763,"longitude":3.607125,"canPickup":true,"canDropoff":true,"openingstijden":{"ma":"09:30 - 12:30, 14:00 - 18:00","di":"14:00 - 18:00","wo":"09:30 - 12:30","do":"09:30 - 12:30","vr":"09:30 - 12:30","za":"09:30 - 13:00","zo":"gesloten"}}},{"type":"Feature","geometry":{"type":"Point","coordinates":[3.615033,51.103733]},"properties":{"type":"pakketpunt","locatieNaam":"BBOX 24/7 DELHAIZE LOVENDEGEM","straatNaam":"LAAGLAND","straatNr":"AUTOMAAT","vervoerder":"DHL","puntType":"packStation","bezettingsgraad":50,"latitude":51.103733,"longitude":3.615033,"canPickup":true,"canDropoff":true,"openingstijden":{"ma":"00:00 - 23:59","di":"00:00 - 23:59","wo":"00:00 - 23:59","do":"00:00 - 23:59","vr":"00:00 - 23:59","za":"00:00 - 23:59","zo":"00:00 - 23:59"}}},{"type":"Feature","geometry":{"type":"Point","coordinates":[3.602672,51.144813]},"properties":{"type":"pakketpunt","locatieNaam":"BBOX 24/7 DELHAIZE WAARSCHOOT","straatNaam":"HENDRIK CONSCIENCELAAN","straatNr":"53","vervoerder":"DHL","puntType":"packStation","bezettingsgraad":50,"latitude":51.144813,"longitude":3.602672,"canPickup":true,"canDropoff":true,"openingstijden":{"ma":"00:00 - 23:59","di":"00:00 - 23:59","wo":"00:00 - 23:59","do":"00:00 - 23:59","vr":"00:00 - 23:59","za":"00:00 - 23:59","zo":"00:00 - 23:59"}}},{"type":"Feature","geometry":{"type":"Point","coordinates":[3.643942,51.093976]},"properties":{"type":"pakketpunt","locatieNaam":"BBOX 24/7 Q8 EASY LIEVEGEM","straatNaam":"GROTE BAAN","straatNr":"24","vervoerder":"DHL","puntType":"packStation","bezettingsgraad":50,"latitude":51.093976,"longitude":3.643942,"canPickup":true,"canDropoff":true,"openingstijden":{"ma":"00:00 - 23:59","di":"00:00 - 23:59","wo":"00:00 - 23:59","do":"00:00 - 23:59","vr":"00:00 - 23:59","za":"00:00 - 23:59","zo":"00:00 - 23:59"}}},{"type":"Feature","geometry":{"type":"Point","coordinates":[3.6142,51.153089]},"properties":{"type":"pakketpunt","locatieNaam":"WAARSCHOOT","straatNaam":"STATIONSSTRAAT","straatNr":"113","vervoerder":"DHL","puntType":"postOffice","bezettingsgraad":50,"latitude":51.153089,"longitude":3.6142,"canPickup":true,"canDropoff":true,"openingstijden":{"ma":"09:30 - 12:30","di":"09:30 - 12:30, 14:00 - 18:00","wo":"09:30 - 12:30","do":"14:00 - 18:00","vr":"09:30 - 12:30","za":"09:30 - 13:00","zo":"gesloten"}}},{"type":"Feature","geometry":{"type":"Point","coordinates":[3.615327,51.154258]},"properties":{"type":"pakketpunt","locatieNaam":"PARCEL LOCKER 24/7 STATION WAARSCHO","straatNaam":"STATIONSPLEIN","straatNr":"8","vervoerder":"DHL","puntType":"packStation","bezettingsgraad":50,"latitude":51.154258,"longitude":3.615327,"canPickup":true,"canDropoff":true,"openingstijden":{"ma":"00:00 - 23:59","di":"00:00 - 23:59","wo":"00:00 - 23:59","do":"00:00 - 23:59","vr":"00:00 - 23:59","za":"00:00 - 23:59","zo":"00:00 - 23:59"}}},{"type":"Feature","geometry":{"type":"Point","coordinates":[3.6018075,51.1451487]},"properties":{"type":"pakketpunt","locatieNaam":"GLS Parcel Locker powered by bbox","straatNaam":"Hendrik Consciencelaan","straatNr":"53","vervoerder":"GLS","puntType":"locker","bezettingsgraad":50,"latitude":51.1451487,"longitude":3.6018075,"canPickup":true,"canDropoff":true,"openingstijden":"za: 00:00 - 24:00; zo: 00:00 - 24:00"}},{"type":"Feature","geometry":{"type":"Point","coordinates":[3.63229,51.10678]},"properties":{"type":"pakketpunt","locatieNaam":"","straatNaam":"Oostveld Kouter","straatNr":"165","vervoerder":"InPost","puntType":"automaat","bezettingsgraad":50,"latitude":51.10678,"longitude":3.63229,"canPickup":true,"canDropoff":true,"openingstijden":"24/7"}},{"type":"Feature","geometry":{"type":"Point","coordinates":[3.60585,51.09466]},"properties":{"type":"pakketpunt","locatieNaam":"","straatNaam":"dorp","straatNr":"1","vervoerder":"InPost","puntType":"automaat","bezettingsgraad":50,"latitude":51.09466,"longitude":3.60585,"canPickup":true,"canDropoff":true,"openingstijden":"24/7"}},{"type":"Feature","geometry":{"type":"Point","coordinates":[3.6352917,51.1066899]},"properties":{"type":"pakketpunt","locatieNaam":"Groenten En Fruit 'T Konijntje","straatNaam":"Asterstraat","straatNr":"3","vervoerder":"VintedGo","puntType":"parcel_shop","bezettingsgraad":50,"latitude":51.1066899,"longitude":3.6352917,"canPickup":true,"canDropoff":true,"openingstijden":null}},{"type":"Feature","geometry":{"type":"Point","coordinates":[3.6117084,51.1530759]},"properties":{"type":"pakketpunt","locatieNaam":"Carrefour Waarschoot","straatNaam":"Stationsstraat","straatNr":"77","vervoerder":"VintedGo","puntType":"locker","bezettingsgraad":50,"latitude":51.1530759,"longitude":3.6117084,"canPickup":true,"canDropoff":true,"openingstijden":null}},{"type":"Feature","geometry":{"type":"Point","coordinates":[3.565269,51.115168]},"properties":{"type":"pakketpunt","locatieNaam":"Cado","straatNaam":"Weldadigheidstraat","straatNr":"32A","vervoerder":"PostNL","puntType":"servicepunt","bezettingsgraad":50,"latitude":51.115168,"longitude":3.565269,"canPickup":true,"canDropoff":true,"openingstijden":"08:30 - 18:00"}},{"type":"Feature","geometry":{"type":"Point","coordinates":[3.63540400000005,51.106645]},"properties":{"type":"pakketpunt","locatieNaam":"'T Konijntje","straatNaam":"Asterstraat","straatNr":"3","vervoerder":"PostNL","puntType":"servicepunt","bezettingsgraad":50,"latitude":51.106645,"longitude":3.63540400000005,"canPickup":true,"canDropoff":true,"openingstijden":"09:00 - 12:15, 13:30 - 18:00"}},{"type":"Feature","geometry":{"type":"Point","coordinates":[3.56556,51.11539]},"properties":{"type":"pakketpunt","locatieNaam":"ALVO CADO SUPERMARKT ZOMERGEM","straatNaam":"WELDADIGHEIDSTRAAT","straatNr":"32A","vervoerder":"DPD","puntType":"pickup_point","bezettingsgraad":50,"latitude":51.11539,"longitude":3.56556,"canPickup":true,"canDropoff":true,"openingstijden":{"ma":"12:30 - 19:00","di":"08:30 - 19:00","wo":"08:30 - 19:00","do":"08:30 - 19:00","vr":"08:30 - 19:00","za":"08:30 - 18:00","zo":"08:30 - 12:30"}}},{"type":"Feature","geometry":{"type":"Point","coordinates":[3.6352917,51.1066899]},"properties":{"type":"pakketpunt","locatieNaam":"'T KONIJNTJE","straatNaam":"ASTERSTRAAT","straatNr":"3","vervoerder":"DPD","puntType":"pickup_point","bezettingsgraad":50,"latitude":51.1066899,"longitude":3.6352917,"canPickup":true,"canDropoff":true,"openingstijden":{"ma":"09:00 - 12:00","di":"09:00 - 12:15, 13:30 - 18:00","wo":"09:00 - 12:15, 13:30 - 18:00","do":"09:00 - 12:00","vr":"09:00 - 12:15, 13:30 - 18:00","za":"09:00 - 12:15, 13:30 - 18:00","zo":"09:00 - 12:00"}}},{"type":"Feature","geometry":{"type":"Point","coordinates":[3.602672,51.144813]},"properties":{"type":"pakketpunt","locatieNaam":"bpost - BBOX 24/7 DELHAIZE WAARSCHOOT","straatNaam":"HENDRIK CONSCIENCELAAN,53","straatNr":"","vervoerder":"Amazon","puntType":"3p","bezettingsgraad":50,"latitude":51.144813,"longitude":3.602672,"canPickup":true,"canDropoff":false,"openingstijden":null}},{"type":"Feature","geometry":{"type":"Point","coordinates":[3.6142,51.153089]},"properties":{"type":"pakketpunt","locatieNaam":"bpost - WAARSCHOOT","straatNaam":"STATIONSSTRAAT,113","straatNr":"","vervoerder":"Amazon","puntType":"3p","bezettingsgraad":50,"latitude":51.153089,"longitude":3.6142,"canPickup":true,"canDropoff":false,"openingstijden":null}},{"type":"Feature","geometry":{"type":"Point","coordinates":[3.565749,51.119563]},"properties":{"type":"pakketpunt","locatieNaam":"bpost - ZOMERGEM","straatNaam":"DREEF,80","straatNr":"","vervoerder":"Amazon","puntType":"3p","bezettingsgraad":50,"latitude":51.119563,"longitude":3.565749,"canPickup":true,"canDropoff":false,"openingstijden":null}},{"type":"Feature","geometry":{"type":"Point","coordinates":[3.561315,51.115582]},"properties":{"type":"pakketpunt","locatieNaam":"bpost - BOCKAERT KATRIEN","straatNaam":"DEKENIJSTRAAT,43","straatNr":"","vervoerder":"Amazon","puntType":"3p","bezettingsgraad":50,"latitude":51.115582,"longitude":3.561315,"canPickup":true,"canDropoff":false,"openingstijden":null}},{"type":"Feature","geometry":{"type":"Point","coordinates":[3.5654,51.115478]},"properties":{"type":"pakketpunt","locatieNaam":"bpost - CADO SUPERMARKT ZOMERGEM","straatNaam":"WELDADIGHEIDSTRAAT,32A","straatNr":"","vervoerder":"Amazon","puntType":"3p","bezettingsgraad":50,"latitude":51.115478,"longitude":3.5654,"canPickup":true,"canDropoff":false,"openingstijden":null}},{"type":"Feature","geometry":{"type":"Point","coordinates":[3.565318,51.11532]},"properties":{"type":"pakketpunt","locatieNaam":"bpost - BBOX CADO ZOMERGEM","straatNaam":"WELDADIGHEIDSTRAAT,32A","straatNr":"","vervoerder":"Amazon","puntType":"3p","bezettingsgraad":50,"latitude":51.11532,"longitude":3.565318,"canPickup":true,"canDropoff":false,"openingstijden":null}},{"type":"Feature","geometry":{"type":"Point","coordinates":[3.615033,51.103733]},"properties":{"type":"pakketpunt","locatieNaam":"bpost - BBOX 24/7 DELHAIZE LOVENDEGEM","straatNaam":"LAAGLAND,AUTOMAAT","straatNr":"","vervoerder":"Amazon","puntType":"3p","bezettingsgraad":50,"latitude":51.103733,"longitude":3.615033,"canPickup":true,"canDropoff":false,"openingstijden":null}},{"type":"Feature","geometry":{"type":"Point","coordinates":[3.607125,51.095763]},"properties":{"type":"pakketpunt","locatieNaam":"bpost - LOVENDEGEM","straatNaam":"DORP,25","straatNr":"","vervoerder":"Amazon","puntType":"3p","bezettingsgraad":50,"latitude":51.095763,"longitude":3.607125,"canPickup":true,"canDropoff":false,"openingstijden":null}},{"type":"Feature","geometry":{"type":"Point","coordinates":[3.643942,51.093976]},"properties":{"type":"pakketpunt","locatieNaam":"bpost - BBOX 24/7 Q8 EASY LIEVEGEM","straatNaam":"GROTE BAAN,24","straatNr":"","vervoerder":"Amazon","puntType":"3p","bezettingsgraad":50,"latitude":51.093976,"longitude":3.643942,"canPickup":true,"canDropoff":false,"openingstijden":null}},{"type":"Feature","geometry":{"type":"Polygon","coordinates":[[[3.5101692,51.1142999],[3.5113493,51.1139092],[3.5121266,51.1140427],[3.5123805,51.1142242],[3.5156569,51.1179688],[3.5184391,51.1189587],[3.518574,51.1194091],[3.5179735,51.119441],[3.5179107,51.1197643],[3.5185401,51.1197146],[3.5193663,51.1214645],[3.522649,51.123231],[3.5245909,51.1265169],[3.512451,51.1329261],[3.5124155,51.1340615],[3.5127145,51.1349803],[3.5121485,51.1363427],[3.5158286,51.1467583],[3.5158269,51.1469533],[3.5151144,51.147501],[3.5161611,51.1481161],[3.5165818,51.148517],[3.5172839,51.1489269],[3.5174701,51.1491504],[3.5205342,51.1503645],[3.5210667,51.150491],[3.5214144,51.1508458],[3.5220326,51.1512944],[3.5223312,51.1520974],[3.5230062,51.1524427],[3.5233512,51.1528669],[3.523555,51.153461],[3.522829,51.154102],[3.523311,51.154338],[3.523165,51.154537],[3.524188,51.154903],[3.525136,51.154621],[3.525664,51.155559],[3.527095,51.157169],[3.528169,51.157913],[3.528857,51.15781],[3.529502,51.158569],[3.529214,51.158695],[3.530254,51.159763],[3.530108,51.159904],[3.532457,51.161357],[3.533225,51.16156],[3.534445,51.162143],[3.535425,51.161666],[3.536021,51.161903],[3.537111,51.161712],[3.539787,51.162395],[3.541734,51.162212],[3.543678,51.162208],[3.5450031,51.1623117],[3.550799,51.163784],[3.554128,51.164775],[3.559425,51.165981],[3.561503,51.166568],[3.561908,51.167957],[3.56282,51.169849],[3.569963,51.170131],[3.570023,51.169914],[3.571129,51.168792],[3.573101,51.167133],[3.5738028,51.1666854],[3.574682,51.166622],[3.575336,51.166786],[3.58159,51.168933],[3.583352,51.169555],[3.5847623,51.1701663],[3.583904,51.172454],[3.5931763,51.1727035],[3.593947,51.173709],[3.593833,51.17538],[3.606138,51.173019],[3.608545,51.172657],[3.6094883,51.1726806],[3.6103125,51.1729737],[3.6114541,51.1730893],[3.6124583,51.1728803],[3.6133529,51.172383],[3.6140137,51.1721897],[3.6146986,51.1722662],[3.6158078,51.1726153],[3.6187537,51.1725799],[3.6272283,51.1729544],[3.6377135,51.1726801],[3.6457734,51.1698975],[3.6411312,51.1665264],[3.6460471,51.1629457],[3.640575,51.1617602],[3.6400772,51.1616655],[3.6399301,51.1617359],[3.633724,51.159446],[3.6327267,51.158993],[3.6328275,51.1586205],[3.6326672,51.1579687],[3.6323688,51.1573379],[3.6377708,51.1565236],[3.638434,51.1565951],[3.6390683,51.1565488],[3.6404852,51.1562246],[3.6408614,51.1560583],[3.6413737,51.1556397],[3.6418451,51.1550617],[3.6460247,51.1482991],[3.6460769,51.1481359],[3.6459655,51.1468998],[3.6461252,51.146121],[3.6465054,51.1450323],[3.6475374,51.1429011],[3.6476903,51.1424011],[3.6478271,51.1406478],[3.6475186,51.1367839],[3.6472383,51.1347844],[3.6464769,51.1315814],[3.6464367,51.130745],[3.646962,51.128353],[3.6470996,51.1263552],[3.6465704,51.1218714],[3.6461332,51.1207401],[3.6461632,51.1205849],[3.6477479,51.1178847],[3.6485787,51.1162418],[3.6484601,51.115985],[3.6483426,51.115077],[3.647951,51.1135584],[3.6471927,51.1128321],[3.6479549,51.1102087],[3.6480685,51.1092251],[3.6480778,51.1081785],[3.6477868,51.1050478],[3.6475923,51.1012093],[3.6477479,51.1003673],[3.6478525,51.0983158],[3.6480725,51.096959],[3.6490032,51.0945687],[3.6526924,51.0897826],[3.6546385,51.0890996],[3.6590159,51.0871453],[3.6592031,51.0872038],[3.6618108,51.0859558],[3.6625431,51.0854992],[3.6670115,51.0832576],[3.6658563,51.0824045],[3.663308,51.081192],[3.662476,51.080875],[3.662367,51.080528],[3.661938,51.079948],[3.660111,51.078754],[3.6588885,51.0781491],[3.654258,51.082443],[3.652204,51.081161],[3.65155,51.080345],[3.650771,51.080303],[3.650035,51.079925],[3.649314,51.079814],[3.648066,51.079315],[3.647805,51.079002],[3.647521,51.07888],[3.646876,51.078769],[3.64438,51.079174],[3.642294,51.078788],[3.640944,51.078781],[3.6404514,51.0828103],[3.6407125,51.0828655],[3.64086,51.083312],[3.639294,51.083747],[3.638663,51.08403],[3.637537,51.084251],[3.636796,51.084247],[3.635867,51.08406],[3.634939,51.083793],[3.634337,51.08337],[3.632711,51.082736],[3.6311987,51.0819227],[3.6307508,51.0817613],[3.630121,51.081676],[3.629765,51.081306],[3.629212,51.080116],[3.62831,51.079353],[3.626569,51.078178],[3.627956,51.077495],[3.626689,51.076683],[3.625472,51.075534],[3.624307,51.074676],[3.623136,51.074142],[3.622464,51.074531],[3.622078,51.074855],[3.62167,51.075305],[3.621568,51.075725],[3.6181516,51.0780929],[3.6180788,51.0778584],[3.6179097,51.0777101],[3.6175569,51.0774997],[3.6167718,51.0772449],[3.6165795,51.0770822],[3.6152989,51.0771454],[3.6150116,51.077043],[3.6147295,51.0767851],[3.6135618,51.0767519],[3.6127576,51.0764684],[3.6120301,51.0764874],[3.6117199,51.0766603],[3.6110137,51.0765051],[3.6096381,51.0768313],[3.6095572,51.0771184],[3.6091693,51.0775472],[3.6082909,51.077733],[3.6075093,51.0782998],[3.6065757,51.078307],[3.6047917,51.0790917],[3.6037587,51.079257],[3.6035802,51.0793715],[3.6033971,51.0796555],[3.603221,51.0797283],[3.6027448,51.0797352],[3.6005628,51.0801494],[3.6002613,51.0799796],[3.5998415,51.0800487],[3.5994938,51.0803579],[3.5979738,51.0802278],[3.597254,51.0800312],[3.5970229,51.0801974],[3.5959628,51.0798786],[3.5944542,51.0797699],[3.592925,51.0812584],[3.5923895,51.0818917],[3.5922664,51.0824182],[3.5945324,51.0834402],[3.5944899,51.0837036],[3.5963906,51.0860654],[3.5966845,51.0866906],[3.5978036,51.0880164],[3.5977509,51.0888789],[3.5970235,51.0891377],[3.5979196,51.0916135],[3.5946306,51.092367],[3.5945821,51.0929575],[3.5903306,51.0964531],[3.5877384,51.0987373],[3.5859738,51.0994446],[3.5857787,51.099707],[3.5838491,51.1011325],[3.5812821,51.0998204],[3.5797933,51.1000021],[3.578231,51.1000394],[3.5768277,51.0996942],[3.5748244,51.0988175],[3.5750262,51.0981715],[3.5721732,51.0979604],[3.5718311,51.0975651],[3.5714915,51.0975135],[3.5720112,51.0966446],[3.5716732,51.0958447],[3.5716245,51.0953441],[3.5682922,51.0955604],[3.5663117,51.095547],[3.5657697,51.0960468],[3.563942,51.0960104],[3.5624638,51.0955928],[3.5613995,51.0954657],[3.5598435,51.0951434],[3.5552415,51.0947526],[3.554872,51.0941027],[3.553352,51.0939006],[3.5458995,51.0931547],[3.5299828,51.0908655],[3.5253694,51.0909059],[3.5243611,51.0937539],[3.5239901,51.0937499],[3.5224611,51.0962029],[3.5217711,51.0980679],[3.5215511,51.0992009],[3.5215271,51.1006049],[3.5219081,51.1016499],[3.5229531,51.1023559],[3.5205771,51.1026119],[3.5185671,51.1032069],[3.5170191,51.1035229],[3.5159321,51.1035879],[3.5144681,51.1039889],[3.5130641,51.1042139],[3.5126451,51.1052899],[3.5123841,51.1055029],[3.5118701,51.1055379],[3.5096511,51.1085589],[3.5119171,51.1093329],[3.5112491,51.1101189],[3.5118701,51.1103549],[3.5109281,51.1119119],[3.5114181,51.1121829],[3.5103011,51.1128689],[3.5100931,51.1137539],[3.5101692,51.1142999]]]},"properties":{"type":"boundary","gemeente":"Lievegem"}}]}