{"type":"FeatureCollection","metadata":{"gemeente":"Limbourg","slug":"limbourg","generated_at":"2026-10-06T09:08:54.118107Z","total_points":9,"providers":["bpost","DHL","GLS","InPost","VintedGo","DPD","Amazon","FedEx"],"bounds":[5.93839,50.6171,5.9425751,50.62075]},"features":[{"type":"Feature","geometry":{"type":"Point","coordinates":[5.94154,50.62075]},"properties":{"type":"pakketpunt","locatieNaam":"Limbourg","straatNaam":"Place Léon D'Andrimont","straatNr":"27","vervoerder":"bpost","puntType":"postkantoor","bezettingsgraad":50,"latitude":50.62075,"longitude":5.94154,"canPickup":true,"canDropoff":true,"openingstijden":null}},{"type":"Feature","geometry":{"type":"Point","coordinates":[5.941542,50.62075]},"properties":{"type":"pakketpunt","locatieNaam":"LIMBOURG","straatNaam":"PLACE LÉON D'ANDRIMONT","straatNr":"27","vervoerder":"DHL","puntType":"postOffice","bezettingsgraad":50,"latitude":50.62075,"longitude":5.941542,"canPickup":true,"canDropoff":true,"openingstijden":{"ma":"13:45 - 17:00","di":"09:30 - 12:30, 13:45 - 18:00","wo":"13:45 - 17:00","do":"09:30 - 12:30, 13:45 - 18:00","vr":"13:45 - 17:00","za":"09:30 - 13:00","zo":"gesloten"}}},{"type":"Feature","geometry":{"type":"Point","coordinates":[5.9425751,50.6192892]},"properties":{"type":"pakketpunt","locatieNaam":"Librairie Dethier","straatNaam":"Avenue Victor David","straatNr":"37","vervoerder":"GLS","puntType":"parcel_shop","bezettingsgraad":50,"latitude":50.6192892,"longitude":5.9425751,"canPickup":true,"canDropoff":true,"openingstijden":"di: 07:00 - 18:00; wo: 07:00 - 18:00"}},{"type":"Feature","geometry":{"type":"Point","coordinates":[5.94247,50.61912]},"properties":{"type":"pakketpunt","locatieNaam":"LIBRAIRIE DETHIER","straatNaam":"37 Avenue Victor David","straatNr":"","vervoerder":"InPost","puntType":"servicepunt","bezettingsgraad":50,"latitude":50.61912,"longitude":5.94247,"canPickup":true,"canDropoff":true,"openingstijden":null}},{"type":"Feature","geometry":{"type":"Point","coordinates":[5.93839,50.6171]},"properties":{"type":"pakketpunt","locatieNaam":"","straatNaam":"Avenue Reine Astrid","straatNr":"3","vervoerder":"InPost","puntType":"automaat","bezettingsgraad":50,"latitude":50.6171,"longitude":5.93839,"canPickup":true,"canDropoff":true,"openingstijden":"24/7"}},{"type":"Feature","geometry":{"type":"Point","coordinates":[5.9425,50.61915]},"properties":{"type":"pakketpunt","locatieNaam":"Librairie Dethier","straatNaam":"Avenue Victor David","straatNr":"37","vervoerder":"VintedGo","puntType":"parcel_shop","bezettingsgraad":50,"latitude":50.61915,"longitude":5.9425,"canPickup":true,"canDropoff":true,"openingstijden":null}},{"type":"Feature","geometry":{"type":"Point","coordinates":[5.9425,50.61918]},"properties":{"type":"pakketpunt","locatieNaam":"LIBRAIRIE DETHIER","straatNaam":"AVENUE VICTOR DAVID","straatNr":"37","vervoerder":"DPD","puntType":"pickup_point","bezettingsgraad":50,"latitude":50.61918,"longitude":5.9425,"canPickup":true,"canDropoff":false,"openingstijden":{"ma":"gesloten","di":"07:00 - 18:00","wo":"07:00 - 18:00","do":"07:00 - 18:00","vr":"07:00 - 18:00","za":"08:00 - 16:00","zo":"gesloten"}}},{"type":"Feature","geometry":{"type":"Point","coordinates":[5.941542,50.62075]},"properties":{"type":"pakketpunt","locatieNaam":"bpost - LIMBOURG","straatNaam":"PLACE LÉON D'ANDRIMONT,27","straatNr":"","vervoerder":"Amazon","puntType":"3p","bezettingsgraad":50,"latitude":50.62075,"longitude":5.941542,"canPickup":true,"canDropoff":false,"openingstijden":null}},{"type":"Feature","geometry":{"type":"Point","coordinates":[5.942467,50.619124]},"properties":{"type":"pakketpunt","locatieNaam":"FedEx OnSite","straatNaam":"37 AVENUE VICTOR DAVID","straatNr":"","vervoerder":"FedEx","puntType":"servicepunt","bezettingsgraad":50,"latitude":50.619124,"longitude":5.942467,"canPickup":true,"canDropoff":true,"openingstijden":{"ma":"08:00 - 12:00","di":"07:00 - 18:00","wo":"07:00 - 18:00","do":"07:00 - 18:00","vr":"07:00 - 18:00","za":"08:00 - 16:00","zo":"gesloten"}}},{"type":"Feature","geometry":{"type":"Polygon","coordinates":[[[5.9007308,50.6264473],[5.9008049,50.6263224],[5.9007026,50.6261963],[5.9001946,50.6259622],[5.899567,50.6252721],[5.8988594,50.6249263],[5.8983709,50.6244821],[5.8983329,50.6243597],[5.8985538,50.6239966],[5.8988148,50.6238307],[5.898875,50.6236926],[5.8988287,50.6233138],[5.8993432,50.6229782],[5.899561,50.6229941],[5.9000921,50.6228007],[5.9009282,50.6227342],[5.9010476,50.6226432],[5.9013758,50.6219986],[5.90165,50.6218026],[5.902157,50.6219381],[5.9030566,50.6219393],[5.9035491,50.6222009],[5.9039041,50.622279],[5.9053042,50.622123],[5.9054628,50.6215169],[5.9054102,50.6208487],[5.9056731,50.620311],[5.9066639,50.6198757],[5.9070584,50.619797],[5.9082291,50.6192608],[5.9093021,50.6187368],[5.9096126,50.6185054],[5.9102514,50.618286],[5.9114411,50.6180285],[5.9115136,50.6179302],[5.9114814,50.617737],[5.9111334,50.6170924],[5.9113077,50.6166031],[5.9116309,50.616444],[5.9123196,50.616393],[5.9126836,50.6160542],[5.9127004,50.6158913],[5.9123357,50.6154573],[5.9121244,50.6148791],[5.9121276,50.6143061],[5.9120331,50.6141883],[5.9118679,50.6142069],[5.9112689,50.6140149],[5.9106948,50.6131397],[5.910204,50.6114164],[5.910318,50.6108019],[5.9106335,50.6103488],[5.9110894,50.6100864],[5.9132046,50.6095826],[5.9140147,50.6090568],[5.9138994,50.6088066],[5.9140617,50.6086099],[5.9142441,50.6081343],[5.9141524,50.6077138],[5.9136057,50.6070968],[5.9126503,50.6066269],[5.9134434,50.6058205],[5.9142575,50.6054252],[5.9145627,50.604937],[5.9149857,50.6044685],[5.9151025,50.6042301],[5.9151044,50.6040007],[5.9152902,50.6036682],[5.9157186,50.6033266],[5.916019,50.6028768],[5.9168525,50.6026223],[5.9172032,50.6026972],[5.9176144,50.6026639],[5.9183241,50.6020061],[5.9192886,50.6015297],[5.9194882,50.601304],[5.9194066,50.6012178],[5.9197761,50.6008739],[5.919764,50.6007079],[5.9193543,50.6003563],[5.9190131,50.6002651],[5.9190398,50.6000907],[5.9188348,50.5997217],[5.9188507,50.5993519],[5.9186523,50.5981932],[5.9187448,50.597508],[5.9189621,50.5973224],[5.9188735,50.5966993],[5.919009,50.5957905],[5.9188668,50.5957348],[5.918891,50.5955219],[5.9193,50.5943922],[5.9201182,50.5927984],[5.9203637,50.5927137],[5.9221634,50.5909091],[5.9223779,50.5904732],[5.9226796,50.5894831],[5.9235192,50.5890709],[5.9242407,50.5883436],[5.9244547,50.5877691],[5.9244661,50.5869363],[5.9246363,50.5863129],[5.9246417,50.5860601],[5.9243668,50.5852376],[5.9245559,50.5845811],[5.9254698,50.5826035],[5.9255724,50.58172],[5.925736,50.5813998],[5.9261353,50.5809439],[5.9267767,50.5789498],[5.9269796,50.5786082],[5.9276743,50.5778713],[5.9300248,50.5768786],[5.9313214,50.5767088],[5.9321351,50.5764515],[5.9329951,50.5762869],[5.9401166,50.5764894],[5.9438815,50.5777229],[5.9448427,50.5788212],[5.9451307,50.5790537],[5.9472854,50.5794476],[5.9477851,50.5793988],[5.9484209,50.5796636],[5.9494444,50.5795325],[5.9495889,50.579647],[5.9502024,50.5797039],[5.9507076,50.5800295],[5.9511942,50.5800864],[5.9517128,50.5800227],[5.9521014,50.5800926],[5.9524521,50.5801957],[5.9525307,50.580299],[5.9528424,50.5802936],[5.9535106,50.5805923],[5.9540336,50.5806941],[5.9541878,50.5808273],[5.9547152,50.5810064],[5.9551021,50.5810573],[5.9551137,50.5811342],[5.9555075,50.5812352],[5.9562149,50.5816218],[5.9562153,50.5816831],[5.956406,50.5817245],[5.9564781,50.5818775],[5.9567142,50.5819376],[5.9572425,50.5823553],[5.9578466,50.582391],[5.958379,50.5829488],[5.9589136,50.5830382],[5.9595814,50.5836522],[5.9596458,50.5842453],[5.9595677,50.5842995],[5.9596311,50.5845365],[5.9592991,50.5848226],[5.9589779,50.5849524],[5.9586333,50.5854114],[5.9587942,50.5854889],[5.9587499,50.5855268],[5.9588358,50.5856756],[5.9586789,50.5859636],[5.9587131,50.586234],[5.9589151,50.5862947],[5.958927,50.5866759],[5.9591557,50.5870899],[5.9598262,50.5870974],[5.9612652,50.5878215],[5.9618516,50.5878936],[5.9620705,50.5879971],[5.9624118,50.5885802],[5.9630125,50.5890203],[5.9635296,50.5891905],[5.9638394,50.5897845],[5.9641506,50.5900612],[5.964444,50.5900674],[5.9645194,50.5901796],[5.9650391,50.5901212],[5.9655172,50.590326],[5.9668529,50.5906066],[5.9680901,50.5912813],[5.9684005,50.5912834],[5.9688444,50.5917543],[5.9692816,50.5919326],[5.9695834,50.5922468],[5.9697424,50.592455],[5.9696907,50.592609],[5.9698107,50.5926852],[5.9698916,50.592939],[5.9708816,50.5932063],[5.9711045,50.5934353],[5.9716966,50.5933624],[5.9718653,50.5932076],[5.9719283,50.5933033],[5.9721856,50.5933204],[5.9722053,50.5932182],[5.9729619,50.59334],[5.9744242,50.593875],[5.9753555,50.5944859],[5.9752777,50.5946016],[5.9747788,50.5948213],[5.9746526,50.5950258],[5.9745857,50.5959927],[5.9746686,50.5963742],[5.9745225,50.5970876],[5.9744288,50.597342],[5.9742266,50.5975603],[5.9741296,50.5980303],[5.9741311,50.5983176],[5.9745975,50.5986749],[5.9746207,50.5988121],[5.9736452,50.5998196],[5.9729772,50.5998702],[5.9708303,50.6007103],[5.9709937,50.6010363],[5.9717053,50.6006541],[5.9723975,50.6004129],[5.9725169,50.6004615],[5.9723738,50.6005359],[5.9720705,50.6010424],[5.971697,50.6020247],[5.9715114,50.6022975],[5.9721748,50.6023415],[5.9719548,50.6018824],[5.972278,50.6008924],[5.9726856,50.6005739],[5.9729568,50.6010499],[5.9734015,50.601327],[5.9737847,50.6014451],[5.9736779,50.6016442],[5.9729705,50.6022652],[5.9732238,50.6022877],[5.9745438,50.6021729],[5.9746365,50.6019512],[5.9759549,50.6018046],[5.9764065,50.601862],[5.9764327,50.6019453],[5.9777422,50.6021154],[5.9785183,50.6020566],[5.9785042,50.6018064],[5.9787426,50.6014745],[5.9789036,50.600989],[5.9796262,50.6008339],[5.9798429,50.6008417],[5.9805525,50.6014408],[5.9808106,50.6014136],[5.9814667,50.6011406],[5.9815869,50.601174],[5.9816126,50.601428],[5.9815949,50.6020143],[5.9814454,50.6020747],[5.9813455,50.602348],[5.9813244,50.6026518],[5.9814458,50.6029326],[5.9808528,50.6032416],[5.9811536,50.6036609],[5.9811686,50.6040278],[5.9816052,50.6041613],[5.9824448,50.6040425],[5.9832183,50.6041406],[5.9835148,50.6046157],[5.9839171,50.6049119],[5.9837615,50.6051894],[5.9832171,50.605472],[5.9823602,50.6051732],[5.9814227,50.604677],[5.9813046,50.6045323],[5.9802155,50.6044311],[5.9819938,50.6053598],[5.9758692,50.6104134],[5.971992,50.6131605],[5.9700784,50.6142166],[5.9587553,50.6177523],[5.959698,50.6179371],[5.9602343,50.6185821],[5.9588241,50.6191029],[5.9557865,50.6198168],[5.9542416,50.6210182],[5.9520686,50.6220203],[5.9517467,50.6217821],[5.9488903,50.6231404],[5.9487377,50.6235418],[5.9478068,50.6241056],[5.9475011,50.6244471],[5.9460761,50.6247517],[5.9453763,50.6254829],[5.944713,50.6259041],[5.9446919,50.6261604],[5.9436468,50.6266131],[5.9410071,50.6276492],[5.9408144,50.6274231],[5.9395126,50.6277357],[5.9385454,50.6277918],[5.938395,50.6274979],[5.938107,50.6277635],[5.9379977,50.6284574],[5.9382015,50.6287415],[5.938797,50.6291056],[5.9392158,50.6292232],[5.9398649,50.6292539],[5.9408033,50.6294527],[5.9410477,50.6293246],[5.9411493,50.6293557],[5.941624,50.6297334],[5.942185,50.6303853],[5.9406678,50.6307994],[5.9388506,50.6315675],[5.9389663,50.6316289],[5.9388533,50.6318074],[5.9374034,50.6328867],[5.9368048,50.6334062],[5.936735,50.6336023],[5.9362663,50.6339783],[5.9360008,50.6344903],[5.9356843,50.6347676],[5.9357426,50.6349061],[5.9352236,50.6352155],[5.9346315,50.6357828],[5.9344746,50.6358496],[5.934079,50.6366704],[5.9340937,50.6368137],[5.9346597,50.6375405],[5.9352565,50.6380977],[5.9350812,50.6382186],[5.9362078,50.6389994],[5.9345072,50.6409454],[5.9341665,50.6411912],[5.9344684,50.6412933],[5.9347044,50.6432476],[5.9359918,50.6433259],[5.9372028,50.6435759],[5.937011,50.6441517],[5.9373151,50.6444823],[5.9380285,50.6447604],[5.9385922,50.645321],[5.9381278,50.646042],[5.9380285,50.646582],[5.9377413,50.6467492],[5.9388269,50.6475682],[5.9388366,50.6477121],[5.9378066,50.6493675],[5.9366635,50.650394],[5.9363817,50.6509324],[5.935961,50.6520948],[5.9354375,50.651866],[5.9341652,50.6520965],[5.9330961,50.6525208],[5.9324955,50.6518856],[5.9315715,50.6531423],[5.9286717,50.6520506],[5.9272534,50.650912],[5.9265665,50.6505872],[5.9216386,50.6494409],[5.9203837,50.6490734],[5.9203684,50.6489629],[5.9200528,50.6486994],[5.9200881,50.6485642],[5.919428,50.6475803],[5.9190973,50.6474966],[5.9189883,50.6473718],[5.9189872,50.6471698],[5.9188497,50.6471694],[5.9188668,50.6468609],[5.9185208,50.646309],[5.9183656,50.6458115],[5.917974,50.6450942],[5.9179884,50.6449432],[5.9177132,50.6445465],[5.9174617,50.6443934],[5.9173628,50.6441732],[5.9172595,50.643662],[5.9173091,50.6435026],[5.9174534,50.6434229],[5.9172615,50.6433291],[5.9156754,50.6435451],[5.9151655,50.6434735],[5.9149217,50.6431706],[5.9149121,50.6430411],[5.9135678,50.6415491],[5.9132433,50.6413107],[5.9097581,50.6404596],[5.9077921,50.6400952],[5.9053841,50.6393371],[5.9050953,50.6393719],[5.900278,50.6373915],[5.8998471,50.6369744],[5.8997132,50.6365977],[5.899675,50.6356608],[5.89997,50.6351946],[5.9003703,50.63503],[5.9010949,50.6352347],[5.9012786,50.6350128],[5.9025715,50.6345073],[5.9031562,50.6338774],[5.903234,50.6335691],[5.9040295,50.6334472],[5.9041408,50.6331346],[5.9057693,50.6324778],[5.9052899,50.6319351],[5.90521,50.6316986],[5.9047738,50.6316394],[5.9047232,50.6312791],[5.9046042,50.6311362],[5.9040332,50.6308742],[5.9027367,50.6299019],[5.9015733,50.628152],[5.9012603,50.6272265],[5.9007308,50.6264473]]]},"properties":{"type":"boundary","gemeente":"Limbourg"}}]}