{
  "type": "FeatureCollection",
  "metadata": {
    "gemeente": "Lincent",
    "slug": "lincent",
    "generated_at": "2026-09-25T22:11:40.787965Z",
    "total_points": 4,
    "providers": [
      "bpost",
      "DHL",
      "InPost",
      "Amazon"
    ],
    "bounds": [
      5.02862,
      50.71461,
      5.032861,
      50.71999
    ]
  },
  "features": [
    {
      "type": "Feature",
      "geometry": {
        "type": "Point",
        "coordinates": [
          5.03286,
          50.71461
        ]
      },
      "properties": {
        "type": "pakketpunt",
        "locatieNaam": "Lincent",
        "straatNaam": "Rue Des Ecoles",
        "straatNr": "1",
        "vervoerder": "bpost",
        "puntType": "postkantoor",
        "bezettingsgraad": 50,
        "latitude": 50.71461,
        "longitude": 5.03286,
        "canPickup": true,
        "canDropoff": true,
        "openingstijden": null
      }
    },
    {
      "type": "Feature",
      "geometry": {
        "type": "Point",
        "coordinates": [
          5.032861,
          50.714613
        ]
      },
      "properties": {
        "type": "pakketpunt",
        "locatieNaam": "LINCENT",
        "straatNaam": "RUE DES ECOLES",
        "straatNr": "1",
        "vervoerder": "DHL",
        "puntType": "postOffice",
        "bezettingsgraad": 50,
        "latitude": 50.714613,
        "longitude": 5.032861,
        "canPickup": true,
        "canDropoff": true,
        "openingstijden": {
          "ma": "10:30 - 12:30, 13:30 - 18:30",
          "di": "09:30 - 11:30",
          "wo": "09:30 - 11:30",
          "do": "09:30 - 11:30",
          "vr": "09:30 - 11:30",
          "za": "gesloten",
          "zo": "gesloten"
        }
      }
    },
    {
      "type": "Feature",
      "geometry": {
        "type": "Point",
        "coordinates": [
          5.02862,
          50.71999
        ]
      },
      "properties": {
        "type": "pakketpunt",
        "locatieNaam": "LIBRAIRIE SERVAIS",
        "straatNaam": "133 Route de Huy",
        "straatNr": "",
        "vervoerder": "InPost",
        "puntType": "servicepunt",
        "bezettingsgraad": 50,
        "latitude": 50.71999,
        "longitude": 5.02862,
        "canPickup": true,
        "canDropoff": true,
        "openingstijden": null
      }
    },
    {
      "type": "Feature",
      "geometry": {
        "type": "Point",
        "coordinates": [
          5.032861,
          50.714613
        ]
      },
      "properties": {
        "type": "pakketpunt",
        "locatieNaam": "bpost - LINCENT",
        "straatNaam": "RUE DES ECOLES,1",
        "straatNr": "",
        "vervoerder": "Amazon",
        "puntType": "3p",
        "bezettingsgraad": 50,
        "latitude": 50.714613,
        "longitude": 5.032861,
        "canPickup": true,
        "canDropoff": false,
        "openingstijden": null
      }
    },
    {
      "type": "Feature",
      "geometry": {
        "type": "MultiPolygon",
        "coordinates": [
          [
            [
              [
                5.036913561862518,
                50.713803659533596
              ],
              [
                5.036769549679318,
                50.71355528716231
              ],
              [
                5.036587888914558,
                50.71331707263899
              ],
              [
                5.036370329486102,
                50.71309130993085
              ],
              [
                5.036118966922419,
                50.71288017306443
              ],
              [
                5.035836222169499,
                50.71268569519604
              ],
              [
                5.035524818268634,
                50.71250974903924
              ],
              [
                5.035187754129947,
                50.71235402883786
              ],
              [
                5.0348282756543075,
                50.71222003405763
              ],
              [
                5.034449844481646,
                50.71210905495357
              ],
              [
                5.03405610466632,
                50.71202216015119
              ],
              [
                5.033650847599952,
                50.711960186361395
              ],
              [
                5.0332379755189525,
                50.711923730327605
              ],
              [
                5.032821463947294,
                50.711913143082626
              ],
              [
                5.032405323435406,
                50.711928526570176
              ],
              [
                5.031993560962651,
                50.71196973266389
              ],
              [
                5.031590141374092,
                50.712036364592755
              ],
              [
                5.0311989492219515,
                50.71212778075979
              ],
              [
                5.030823751378254,
                50.71224310091693
              ],
              [
                5.030468160777865,
                50.7123812146369
              ],
              [
                5.030135601640298,
                50.71254079200078
              ],
              [
                5.0298292765046195,
                50.71272029639847
              ],
              [
                5.029552135394435,
                50.712917999319096
              ],
              [
                5.029306847409662,
                50.71313199698933
              ],
              [
                5.029095775018595,
                50.71336022869953
              ],
              [
                5.028920951297939,
                50.713600496641554
              ],
              [
                5.028784060340332,
                50.713850487067745
              ],
              [
                5.028686421018526,
                50.71410779256723
              ],
              [
                5.028628974263261,
                50.71436993524544
              ],
              [
                5.028612273978104,
                50.71463439058384
              ],
              [
                5.028636481679721,
                50.71489861175021
              ],
              [
                5.028701364916083,
                50.715160054125285
              ],
              [
                5.028702012334132,
                50.71516163448418
              ],
              [
                5.028702364663101,
                50.715163054160456
              ],
              [
                5.028807299238065,
                50.715419199843964
              ],
              [
                5.028951275163735,
                50.71566758190876
              ],
              [
                5.029132906395626,
                50.71590580816021
              ],
              [
                5.029350444151286,
                50.71613158418035
              ],
              [
                5.029601793735655,
                50.716342735431006
              ],
              [
                5.029884534702122,
                50.716537228203016
              ],
              [
                5.030195944155542,
                50.716713189210026
              ],
              [
                5.0305330229730885,
                50.716868923637435
              ],
              [
                5.030892524690504,
                50.717002931472706
              ],
              [
                5.03127098677543,
                50.71711392195903
              ],
              [
                5.031664763986333,
                50.717200826033434
              ],
              [
                5.03207006349527,
                50.71726280662857
              ],
              [
                5.032482981435569,
                50.717299266739374
              ],
              [
                5.032899540521689,
                50.71730985517628
              ],
              [
                5.033315728378016,
                50.71729446994964
              ],
              [
                5.03372753620652,
                50.717253259252594
              ],
              [
                5.034130997419872,
                50.717186620032926
              ],
              [
                5.034522225866932,
                50.71709519416768
              ],
              [
                5.034897453281544,
                50.71697986227756
              ],
              [
                5.035253065593062,
                50.716841735240614
              ],
              [
                5.035585637748193,
                50.716682143487475
              ],
              [
                5.03589196670813,
                50.716502624181125
              ],
              [
                5.036169102302752,
                50.71630490640527
              ],
              [
                5.036414375644489,
                50.71609089450408
              ],
              [
                5.036625424828089,
                50.71586264973405
              ],
              [
                5.036800217668943,
                50.71562237040507
              ],
              [
                5.036937071261284,
                50.71537237070243
              ],
              [
                5.037034668168379,
                50.71511505839347
              ],
              [
                5.037092069089488,
                50.71485291163438
              ],
              [
                5.037108721882367,
                50.71458845510054
              ],
              [
                5.037084466855322,
                50.714324235670105
              ],
              [
                5.037019538278865,
                50.714062797895615
              ],
              [
                5.0370188905970785,
                50.714061217582355
              ],
              [
                5.037018538025903,
                50.71405979793078
              ],
              [
                5.036913561862518,
                50.713803659533596
              ]
            ]
          ],
          [
            [
              [
                5.0327790621513495,
                50.71943994939307
              ],
              [
                5.032674097043139,
                50.719183807518796
              ],
              [
                5.032530090761161,
                50.71893543024525
              ],
              [
                5.032348430687005,
                50.71869720944179
              ],
              [
                5.032130866732046,
                50.718471439136046
              ],
              [
                5.031879494468484,
                50.7182602934278
              ],
              [
                5.031596734935844,
                50.71806580555845
              ],
              [
                5.031285311317843,
                50.71788984833791
              ],
              [
                5.030948222714553,
                50.71773411611651
              ],
              [
                5.0305887152624775,
                50.71760010847578
              ],
              [
                5.030210250880597,
                50.71748911579452
              ],
              [
                5.029816473943048,
                50.71740220682899
              ],
              [
                5.02941117619889,
                50.71734021842649
              ],
              [
                5.028998260276177,
                50.71730374747115
              ],
              [
                5.028581702120972,
                50.717293145139394
              ],
              [
                5.028165512732181,
                50.71730851352027
              ],
              [
                5.027753699559711,
                50.717349704632824
              ],
              [
                5.027350227936718,
                50.717416321850344
              ],
              [
                5.026958982916371,
                50.717507723717496
              ],
              [
                5.026583731879675,
                50.717623030123924
              ],
              [
                5.026228088273612,
                50.717761130774754
              ],
              [
                5.025895476828032,
                50.71792069587693
              ],
              [
                5.025589100585634,
                50.71810018893843
              ],
              [
                5.02531191006212,
                50.718297881557575
              ],
              [
                5.025066574833225,
                50.71851187006025
              ],
              [
                5.0248554578222056,
                50.718740093825105
              ],
              [
                5.024680592535487,
                50.71898035512056
              ],
              [
                5.024543663466054,
                50.71923034026299
              ],
              [
                5.024445989853771,
                50.71948764189241
              ],
              [
                5.024388512959715,
                50.719749782151546
              ],
              [
                5.024371786977839,
                50.72001423654521
              ],
              [
                5.024395973672429,
                50.72027845825026
              ],
              [
                5.024460840793933,
                50.720539902642344
              ],
              [
                5.024565764289462,
                50.7207960518028
              ],
              [
                5.024709734287672,
                50.72104443877031
              ],
              [
                5.024891364801334,
                50.721282671302994
              ],
              [
                5.025108907055069,
                50.72150845492245
              ],
              [
                5.025360266310639,
                50.721719615017314
              ],
              [
                5.025643022028413,
                50.72191411779322
              ],
              [
                5.025954451171274,
                50.72209008986749
              ],
              [
                5.026291554426835,
                50.72224583631894
              ],
              [
                5.026651085095514,
                50.7223798570192
              ],
              [
                5.027029580366127,
                50.722490861087564
              ],
              [
                5.027423394677502,
                50.722577779330194
              ],
              [
                5.027828734844325,
                50.72263977454333
              ],
              [
                5.028241696608263,
                50.72267624958104
              ],
              [
                5.028658302261601,
                50.72268685311003
              ],
              [
                5.029074538980105,
                50.72267148299525
              ],
              [
                5.029486397495012,
                50.722630287284304
              ],
              [
                5.0298899107306845,
                50.722563662780594
              ],
              [
                5.0302811920348,
                50.72247225121947
              ],
              [
                5.030656472631991,
                50.72235693308384
              ],
              [
                5.031012137939278,
                50.72221881911928
              ],
              [
                5.031344762392848,
                50.72205923963052
              ],
              [
                5.031651142450112,
                50.72187973166244
              ],
              [
                5.031928327448766,
                50.72168202418957
              ],
              [
                5.03217364802539,
                50.721468021456836
              ],
              [
                5.032384741819807,
                50.72123978463246
              ],
              [
                5.032559576217792,
                50.72099951194988
              ],
              [
                5.032696467913398,
                50.72074951753033
              ],
              [
                5.032794099103016,
                50.7204922090903
              ],
              [
                5.032851530155847,
                50.72023006474881
              ],
              [
                5.0328682086395915,
                50.71996560915791
              ],
              [
                5.03284397461529,
                50.719701389186746
              ],
              [
                5.0327790621513495,
                50.71943994939307
              ]
            ]
          ]
        ]
      },
      "properties": {
        "type": "buffer_union_300m",
        "buffer_m": 300
      }
    },
    {
      "type": "Feature",
      "geometry": {
        "type": "Polygon",
        "coordinates": [
          [
            [
              5.038264718334066,
              50.713534848122386
            ],
            [
              5.0380726940305935,
              50.713203687115396
            ],
            [
              5.037830473112406,
              50.71288607035783
            ],
            [
              5.037540389055555,
              50.71258505637245
            ],
            [
              5.037205236083117,
              50.712303543747616
            ],
            [
              5.036828242233983,
              50.71204424323556
            ],
            [
              5.036413038262307,
              50.7118096516604
            ],
            [
              5.035963622667628,
              50.711602027887075
            ],
            [
              5.035484323192597,
              50.71142337108179
            ],
            [
              5.0349797551588535,
              50.711275401473024
            ],
            [
              5.034454777041808,
              50.711159543797564
            ],
            [
              5.03391444371124,
              50.71107691359078
            ],
            [
              5.033363957786893,
              50.71102830645245
            ],
            [
              5.032808619576111,
              50.71101419039144
            ],
            [
              5.032253776074046,
              50.711034701322546
            ],
            [
              5.031704769515873,
              50.71108964175871
            ],
            [
              5.031166885974672,
              50.71117848271122
            ],
            [
              5.0306453044982264,
              50.711300368779696
            ],
            [
              5.030145047272874,
              50.71145412638275
            ],
            [
              5.02967093129278,
              50.71163827505086
            ],
            [
              5.029227521998712,
              50.71185104167249
            ],
            [
              5.028819089331694,
              50.712090377557
            ],
            [
              5.028449566623934,
              50.71235397815052
            ],
            [
              5.028122512722441,
              50.712639305215426
            ],
            [
              5.027841077709973,
              50.71294361126035
            ],
            [
              5.027607972553608,
              50.71326396598603
            ],
            [
              5.02742544297384,
              50.71359728449277
            ],
            [
              5.027295247786692,
              50.713940356978625
            ],
            [
              5.027218641928627,
              50.714289879642344
            ],
            [
              5.027196364329094,
              50.71464248649411
            ],
            [
              5.027228630749164,
              50.71499478176782
            ],
            [
              5.027315131656918,
              50.71534337262305
            ],
            [
              5.027315779031013,
              50.71534495298955
            ],
            [
              5.027316131319605,
              50.715346372669934
            ],
            [
              5.027456034840687,
              50.71568790186701
            ],
            [
              5.027647994679912,
              50.71601908010754
            ],
            [
              5.027890163087839,
              50.716336717715876
            ],
            [
              5.027969566906982,
              50.71641913123348
            ],
            [
              5.027464954311219,
              50.71646960438206
            ],
            [
              5.026927001393473,
              50.716558425719725
            ],
            [
              5.0264053494287095,
              50.71668029272187
            ],
            [
              5.025905021281806,
              50.71683403199077
            ],
            [
              5.025430834629659,
              50.71701816323343
            ],
            [
              5.024987355593394,
              50.71723091350611
            ],
            [
              5.024578854785482,
              50.717470234275595
            ],
            [
              5.024209266194205,
              50.717733821133635
            ],
            [
              5.023882149300959,
              50.71801913597492
            ],
            [
              5.023600654795097,
              50.71832343142578
            ],
            [
              5.023367494216671,
              50.71864377728902
            ],
            [
              5.023184913819989,
              50.71897708875035
            ],
            [
              5.023054672910605,
              50.719320156075746
            ],
            [
              5.02297802686549,
              50.71966967551364
            ],
            [
              5.022955715001353,
              50.72002228110536
            ],
            [
              5.022987953409514,
              50.72037457709699
            ],
            [
              5.023074432828118,
              50.72072317064119
            ],
            [
              5.023214321573922,
              50.721064704473925
            ],
            [
              5.023406273507245,
              50.721395889251184
            ],
            [
              5.023648440955085,
              50.721713535234365
            ],
            [
              5.023938492469495,
              50.72201458301878
            ],
            [
              5.0242736352516095,
              50.722296133008875
            ],
            [
              5.02465064202645,
              50.72255547335603
            ],
            [
              5.025065882110535,
              50.722790106089306
            ],
            [
              5.025515356373571,
              50.72299777118695
            ],
            [
              5.025994735757689,
              50.72317646835623
            ],
            [
              5.026499402983049,
              50.72332447631136
            ],
            [
              5.027024497037604,
              50.723440369363274
            ],
            [
              5.027564960021698,
              50.72352303116102
            ],
            [
              5.02811558589518,
              50.72357166545193
            ],
            [
              5.028671070656169,
              50.72358580375664
            ],
            [
              5.029226063466609,
              50.723565309884926
            ],
            [
              5.02977521823051,
              50.723510381248374
            ],
            [
              5.030313245126353,
              50.72342154695749
            ],
            [
              5.030834961595595,
              50.72329966272161
            ],
            [
              5.031335342294486,
              50.72314590260078
            ],
            [
              5.031809567526589,
              50.722961747689276
            ],
            [
              5.03225306968817,
              50.722748971840446
            ],
            [
              5.032661577278066,
              50.72250962457036
            ],
            [
              5.033031156047369,
              50.72224601130569
            ],
            [
              5.033358246892133,
              50.72196067116657
            ],
            [
              5.033639700124033,
              50.721656352498755
            ],
            [
              5.033872805789158,
              50.72133598639176
            ],
            [
              5.03405531974348,
              50.721002658437754
            ],
            [
              5.034185485234794,
              50.72065957900463
            ],
            [
              5.034262049784397,
              50.720310052309195
            ],
            [
              5.034284277207412,
              50.719957444589056
            ],
            [
              5.034251954657542,
              50.7196051516799
            ],
            [
              5.034165394630159,
              50.71925656631063
            ],
            [
              5.034025431906259,
              50.71891504543111
            ],
            [
              5.033833415468457,
              50.71858387788757
            ],
            [
              5.03359119546863,
              50.718266252756344
            ],
            [
              5.033511778709806,
              50.718183843091865
            ],
            [
              5.0340164031799235,
              50.7181333438747
            ],
            [
              5.034554360709976,
              50.718044489962246
            ],
            [
              5.0350760067005185,
              50.717922586654
            ],
            [
              5.035576316486856,
              50.7177688081937
            ],
            [
              5.0360504710557565,
              50.7175846358523
            ],
            [
              5.036493903484262,
              50.717371843650966
            ],
            [
              5.036902342942989,
              50.71713248126326
            ],
            [
              5.03727185583933,
              50.71686885426146
            ],
            [
              5.037598883703838,
              50.71658350189794
            ],
            [
              5.03788027745477,
              50.716279172636206
            ],
            [
              5.038113327711032,
              50.7159587976677
            ],
            [
              5.038295790862144,
              50.71562546266994
            ],
            [
              5.038425910645028,
              50.71528237807862
            ],
            [
              5.038502435020996,
              50.71493284816014
            ],
            [
              5.038524628191834,
              50.714580239183114
            ],
            [
              5.038492277640847,
              50.714227946995315
            ],
            [
              5.038405696132781,
              50.7138793643186
            ],
            [
              5.038405048407047,
              50.71387778401295
            ],
            [
              5.0384046957955,
              50.71387636436549
            ],
            [
              5.038264718334066,
              50.713534848122386
            ]
          ]
        ]
      },
      "properties": {
        "type": "buffer_union_400m",
        "buffer_m": 400
      }
    },
    {
      "type": "Feature",
      "geometry": {
        "type": "Polygon",
        "coordinates": [
          [
            [
              4.9925251,
              50.7236317
            ],
            [
              4.993638,
              50.7233263
            ],
            [
              4.9935132,
              50.7231673
            ],
            [
              4.9956374,
              50.7224989
            ],
            [
              4.9957743,
              50.722666
            ],
            [
              4.9966822,
              50.7223551
            ],
            [
              4.9964294,
              50.7219726
            ],
            [
              4.996811,
              50.7218514
            ],
            [
              4.9966783,
              50.7217094
            ],
            [
              4.9976024,
              50.7213904
            ],
            [
              4.9971545,
              50.7213186
            ],
            [
              4.997073,
              50.7212013
            ],
            [
              4.9970206,
              50.7210664
            ],
            [
              4.9971042,
              50.7208352
            ],
            [
              4.9971099,
              50.7204283
            ],
            [
              4.9969309,
              50.7204077
            ],
            [
              4.9964866,
              50.7205377
            ],
            [
              4.9964274,
              50.7203006
            ],
            [
              4.9961458,
              50.7201914
            ],
            [
              4.9961341,
              50.7200439
            ],
            [
              4.9962684,
              50.7198182
            ],
            [
              4.9965988,
              50.7199301
            ],
            [
              4.9969463,
              50.7197923
            ],
            [
              4.9974978,
              50.719821
            ],
            [
              4.9975475,
              50.7196585
            ],
            [
              4.9972922,
              50.7193746
            ],
            [
              4.997739,
              50.7192823
            ],
            [
              4.9977895,
              50.7191261
            ],
            [
              4.9973797,
              50.7191034
            ],
            [
              4.9971958,
              50.718889
            ],
            [
              4.9968519,
              50.7187192
            ],
            [
              4.9965965,
              50.7188445
            ],
            [
              4.9961817,
              50.7188998
            ],
            [
              4.9957001,
              50.7186414
            ],
            [
              4.9954447,
              50.718854
            ],
            [
              4.9949585,
              50.7187405
            ],
            [
              4.9949299,
              50.718233
            ],
            [
              4.9944929,
              50.7180191
            ],
            [
              4.9947023,
              50.7177592
            ],
            [
              4.9944443,
              50.7175423
            ],
            [
              4.9947901,
              50.7173512
            ],
            [
              4.9948165,
              50.7172666
            ],
            [
              4.9951447,
              50.7171477
            ],
            [
              4.9954876,
              50.7171514
            ],
            [
              4.995611,
              50.7170675
            ],
            [
              4.9962179,
              50.7172241
            ],
            [
              4.9963645,
              50.7171771
            ],
            [
              4.9965314,
              50.7169774
            ],
            [
              4.9969399,
              50.7168954
            ],
            [
              4.9978097,
              50.7159428
            ],
            [
              4.9975206,
              50.715553
            ],
            [
              4.9977365,
              50.715477
            ],
            [
              4.9978313,
              50.7152484
            ],
            [
              4.9979652,
              50.7151408
            ],
            [
              4.9997998,
              50.7146984
            ],
            [
              5.0008872,
              50.7141057
            ],
            [
              5.0010976,
              50.7141629
            ],
            [
              5.0012124,
              50.714062
            ],
            [
              5.0016665,
              50.7140124
            ],
            [
              5.0021071,
              50.7137866
            ],
            [
              5.0026851,
              50.7137243
            ],
            [
              5.0027669,
              50.7136336
            ],
            [
              5.0030258,
              50.7136328
            ],
            [
              5.0046697,
              50.7131621
            ],
            [
              5.0060693,
              50.7130043
            ],
            [
              5.0067961,
              50.712369
            ],
            [
              5.0076164,
              50.7120831
            ],
            [
              5.0085942,
              50.7120085
            ],
            [
              5.0093612,
              50.711769
            ],
            [
              5.0096207,
              50.7117817
            ],
            [
              5.0099757,
              50.7119343
            ],
            [
              5.0101551,
              50.7116823
            ],
            [
              5.010259,
              50.7106296
            ],
            [
              5.0100348,
              50.7090156
            ],
            [
              5.0094334,
              50.70742
            ],
            [
              5.0097172,
              50.7073723
            ],
            [
              5.0096258,
              50.7071018
            ],
            [
              5.0102338,
              50.707065
            ],
            [
              5.0109649,
              50.7068791
            ],
            [
              5.0127523,
              50.7060559
            ],
            [
              5.0139242,
              50.7049112
            ],
            [
              5.0147458,
              50.7044263
            ],
            [
              5.0162575,
              50.7030969
            ],
            [
              5.0169698,
              50.7026743
            ],
            [
              5.0186333,
              50.7019919
            ],
            [
              5.0195371,
              50.7010576
            ],
            [
              5.0225849,
              50.6991849
            ],
            [
              5.0234387,
              50.6984734
            ],
            [
              5.0282474,
              50.698521
            ],
            [
              5.0310457,
              50.698794
            ],
            [
              5.0378739,
              50.700029
            ],
            [
              5.0388818,
              50.7001366
            ],
            [
              5.0380113,
              50.701867
            ],
            [
              5.0374711,
              50.7025036
            ],
            [
              5.0389422,
              50.7027644
            ],
            [
              5.0391399,
              50.7025847
            ],
            [
              5.0402133,
              50.7028183
            ],
            [
              5.0405805,
              50.7019559
            ],
            [
              5.0415691,
              50.7021356
            ],
            [
              5.0414561,
              50.7023512
            ],
            [
              5.0444784,
              50.7031058
            ],
            [
              5.044309,
              50.7034291
            ],
            [
              5.0483199,
              50.7047227
            ],
            [
              5.0488566,
              50.704076
            ],
            [
              5.0495345,
              50.704561
            ],
            [
              5.050975,
              50.7049024
            ],
            [
              5.0508903,
              50.7052618
            ],
            [
              5.0523874,
              50.7049024
            ],
            [
              5.053037,
              50.7054773
            ],
            [
              5.0536866,
              50.7054953
            ],
            [
              5.0544211,
              50.7053516
            ],
            [
              5.0546764,
              50.7056399
            ],
            [
              5.0551467,
              50.7059057
            ],
            [
              5.054695,
              50.7063615
            ],
            [
              5.0572126,
              50.7078768
            ],
            [
              5.0581423,
              50.7075738
            ],
            [
              5.0596792,
              50.7084213
            ],
            [
              5.0594656,
              50.7085615
            ],
            [
              5.0608582,
              50.7091917
            ],
            [
              5.0594871,
              50.7103356
            ],
            [
              5.0591922,
              50.7102137
            ],
            [
              5.0589925,
              50.7103967
            ],
            [
              5.0590952,
              50.7104402
            ],
            [
              5.058555,
              50.7111262
            ],
            [
              5.0572112,
              50.7107011
            ],
            [
              5.0569129,
              50.7116354
            ],
            [
              5.0575596,
              50.7137547
            ],
            [
              5.0571705,
              50.7145759
            ],
            [
              5.0564545,
              50.7157039
            ],
            [
              5.0548734,
              50.7166003
            ],
            [
              5.0543171,
              50.7169975
            ],
            [
              5.0527701,
              50.7181619
            ],
            [
              5.0509477,
              50.7199103
            ],
            [
              5.0482867,
              50.7216764
            ],
            [
              5.046294,
              50.7226935
            ],
            [
              5.0446912,
              50.7231452
            ],
            [
              5.0440089,
              50.7234706
            ],
            [
              5.0451306,
              50.7243387
            ],
            [
              5.0452162,
              50.7242993
            ],
            [
              5.0464287,
              50.7253116
            ],
            [
              5.0454476,
              50.7257389
            ],
            [
              5.0467555,
              50.7267643
            ],
            [
              5.0464106,
              50.7280505
            ],
            [
              5.046243,
              50.7284031
            ],
            [
              5.0453437,
              50.7289872
            ],
            [
              5.046996,
              50.7312754
            ],
            [
              5.0457962,
              50.7318647
            ],
            [
              5.0459231,
              50.7319717
            ],
            [
              5.0424487,
              50.7340745
            ],
            [
              5.0456479,
              50.7357002
            ],
            [
              5.0458935,
              50.7361064
            ],
            [
              5.0454436,
              50.7363586
            ],
            [
              5.045564,
              50.7364189
            ],
            [
              5.0450994,
              50.7367283
            ],
            [
              5.0460658,
              50.737429
            ],
            [
              5.0461742,
              50.7373695
            ],
            [
              5.0481305,
              50.7390489
            ],
            [
              5.0442327,
              50.7405074
            ],
            [
              5.0443228,
              50.740587
            ],
            [
              5.0411851,
              50.7417872
            ],
            [
              5.0413101,
              50.742068
            ],
            [
              5.039155,
              50.7423757
            ],
            [
              5.0392113,
              50.7425656
            ],
            [
              5.0367864,
              50.7429715
            ],
            [
              5.0368381,
              50.7430849
            ],
            [
              5.0350586,
              50.7442141
            ],
            [
              5.0349046,
              50.744164
            ],
            [
              5.0343741,
              50.7449517
            ],
            [
              5.0332518,
              50.7444118
            ],
            [
              5.0325481,
              50.7453448
            ],
            [
              5.0318911,
              50.7458266
            ],
            [
              5.0300776,
              50.7469019
            ],
            [
              5.0282148,
              50.7477068
            ],
            [
              5.0281058,
              50.7476255
            ],
            [
              5.0262226,
              50.7482809
            ],
            [
              5.0215747,
              50.7503392
            ],
            [
              5.019531,
              50.7507729
            ],
            [
              5.0188872,
              50.7499518
            ],
            [
              5.0204874,
              50.7484512
            ],
            [
              5.0189868,
              50.7474482
            ],
            [
              5.0190775,
              50.74706
            ],
            [
              5.018584,
              50.746802
            ],
            [
              5.0187556,
              50.7466663
            ],
            [
              5.0184338,
              50.7458109
            ],
            [
              5.0174467,
              50.7446975
            ],
            [
              5.0164811,
              50.7437742
            ],
            [
              5.017039,
              50.7407733
            ],
            [
              5.0164382,
              50.7405017
            ],
            [
              5.0167815,
              50.7399586
            ],
            [
              5.0159447,
              50.7396055
            ],
            [
              5.0162236,
              50.7384241
            ],
            [
              5.0171034,
              50.7370933
            ],
            [
              5.0163524,
              50.7353957
            ],
            [
              5.0167601,
              50.7350154
            ],
            [
              5.0156443,
              50.7345673
            ],
            [
              5.017275,
              50.7330055
            ],
            [
              5.0153653,
              50.7322585
            ],
            [
              5.0127046,
              50.7305743
            ],
            [
              5.0112454,
              50.7313213
            ],
            [
              5.0085632,
              50.7331413
            ],
            [
              5.0083057,
              50.7326931
            ],
            [
              5.0078433,
              50.7305757
            ],
            [
              5.0076411,
              50.7290289
            ],
            [
              5.0059258,
              50.7291681
            ],
            [
              5.0021688,
              50.7284283
            ],
            [
              5.000581,
              50.728863
            ],
            [
              4.9999003,
              50.7276511
            ],
            [
              4.9994142,
              50.7277659
            ],
            [
              4.9993333,
              50.7276493
            ],
            [
              4.9976914,
              50.728149
            ],
            [
              4.9974074,
              50.7277987
            ],
            [
              4.9970937,
              50.7278883
            ],
            [
              4.9960842,
              50.7265685
            ],
            [
              4.9953129,
              50.7268148
            ],
            [
              4.9947726,
              50.7260027
            ],
            [
              4.9940291,
              50.7262564
            ],
            [
              4.99388,
              50.7258973
            ],
            [
              4.993809,
              50.7254091
            ],
            [
              4.9935332,
              50.7248253
            ],
            [
              4.9925251,
              50.7236317
            ]
          ]
        ]
      },
      "properties": {
        "type": "boundary",
        "gemeente": "Lincent"
      }
    }
  ]
}