{
  "type": "FeatureCollection",
  "metadata": {
    "gemeente": "Linkebeek",
    "slug": "linkebeek",
    "generated_at": "2026-09-25T22:11:40.800973Z",
    "total_points": 6,
    "providers": [
      "bpost",
      "DHL",
      "Amazon"
    ],
    "bounds": [
      4.3259569,
      50.773596,
      4.335103,
      50.77524
    ]
  },
  "features": [
    {
      "type": "Feature",
      "geometry": {
        "type": "Point",
        "coordinates": [
          4.32596,
          50.77524
        ]
      },
      "properties": {
        "type": "pakketpunt",
        "locatieNaam": "Bbox 24/7 Q8 Linkebeek",
        "straatNaam": "Alsembergsesteenweg",
        "straatNr": "66",
        "vervoerder": "bpost",
        "puntType": "automaat",
        "bezettingsgraad": 50,
        "latitude": 50.77524,
        "longitude": 4.32596,
        "canPickup": true,
        "canDropoff": true,
        "openingstijden": null
      }
    },
    {
      "type": "Feature",
      "geometry": {
        "type": "Point",
        "coordinates": [
          4.3351,
          50.7736
        ]
      },
      "properties": {
        "type": "pakketpunt",
        "locatieNaam": "Linkebeek",
        "straatNaam": "Stationsstraat",
        "straatNr": "80",
        "vervoerder": "bpost",
        "puntType": "postkantoor",
        "bezettingsgraad": 50,
        "latitude": 50.7736,
        "longitude": 4.3351,
        "canPickup": true,
        "canDropoff": true,
        "openingstijden": null
      }
    },
    {
      "type": "Feature",
      "geometry": {
        "type": "Point",
        "coordinates": [
          4.325957,
          50.775236
        ]
      },
      "properties": {
        "type": "pakketpunt",
        "locatieNaam": "BBOX 24/7 Q8 LINKEBEEK",
        "straatNaam": "CHAUSSEE D'ALSEMBERG",
        "straatNr": "66",
        "vervoerder": "DHL",
        "puntType": "packStation",
        "bezettingsgraad": 50,
        "latitude": 50.775236,
        "longitude": 4.325957,
        "canPickup": true,
        "canDropoff": true,
        "openingstijden": {
          "ma": "00:00 - 23:59",
          "di": "00:00 - 23:59",
          "wo": "00:00 - 23:59",
          "do": "00:00 - 23:59",
          "vr": "00:00 - 23:59",
          "za": "00:00 - 23:59",
          "zo": "00:00 - 23:59"
        }
      }
    },
    {
      "type": "Feature",
      "geometry": {
        "type": "Point",
        "coordinates": [
          4.335103,
          50.773596
        ]
      },
      "properties": {
        "type": "pakketpunt",
        "locatieNaam": "LINKEBEEK",
        "straatNaam": "RUE DE LA STATION",
        "straatNr": "80",
        "vervoerder": "DHL",
        "puntType": "postOffice",
        "bezettingsgraad": 50,
        "latitude": 50.773596,
        "longitude": 4.335103,
        "canPickup": true,
        "canDropoff": true,
        "openingstijden": {
          "ma": "09:30 - 12:30, 13:30 - 17:00",
          "di": "09:30 - 12:30, 13:30 - 18:00",
          "wo": "09:30 - 12:30, 13:30 - 17:00",
          "do": "09:30 - 12:30, 13:30 - 18:00",
          "vr": "09:30 - 12:30, 13:30 - 17:00",
          "za": "09:30 - 13:00",
          "zo": "gesloten"
        }
      }
    },
    {
      "type": "Feature",
      "geometry": {
        "type": "Point",
        "coordinates": [
          4.3259569,
          50.7752361
        ]
      },
      "properties": {
        "type": "pakketpunt",
        "locatieNaam": "bpost - BBOX 24/7 Q8 LINKEBEEK",
        "straatNaam": "CHAUSSEE D'ALSEMBERG,66",
        "straatNr": "",
        "vervoerder": "Amazon",
        "puntType": "3p",
        "bezettingsgraad": 50,
        "latitude": 50.7752361,
        "longitude": 4.3259569,
        "canPickup": true,
        "canDropoff": false,
        "openingstijden": null
      }
    },
    {
      "type": "Feature",
      "geometry": {
        "type": "Point",
        "coordinates": [
          4.335103,
          50.773596
        ]
      },
      "properties": {
        "type": "pakketpunt",
        "locatieNaam": "bpost - LINKEBEEK",
        "straatNaam": "RUE DE LA STATION,80",
        "straatNr": "",
        "vervoerder": "Amazon",
        "puntType": "3p",
        "bezettingsgraad": 50,
        "latitude": 50.773596,
        "longitude": 4.335103,
        "canPickup": true,
        "canDropoff": false,
        "openingstijden": null
      }
    },
    {
      "type": "Feature",
      "geometry": {
        "type": "MultiPolygon",
        "coordinates": [
          [
            [
              [
                4.339274718735274,
                50.773070640141455
              ],
              [
                4.339173411350387,
                50.77281389048489
              ],
              [
                4.339032905626422,
                50.772564673508114
              ],
              [
                4.338854555242113,
                50.7723253891703
              ],
              [
                4.338640078245679,
                50.77209834174398
              ],
              [
                4.33839154049232,
                50.77188571763006
              ],
              [
                4.338111335736425,
                50.7716895643089
              ],
              [
                4.337802162570734,
                50.771511770629886
              ],
              [
                4.337466998434822,
                50.77135404862894
              ],
              [
                4.337109070943295,
                50.771217917049
              ],
              [
                4.336731826809764,
                50.77110468672155
              ],
              [
                4.336338898665549,
                50.77101544794997
              ],
              [
                4.3359340700922,
                50.77095106001566
              ],
              [
                4.335521239203963,
                50.770912142907974
              ],
              [
                4.3351043811300904,
                50.770899071357256
              ],
              [
                4.334687509757457,
                50.770911971228465
              ],
              [
                4.334274639100928,
                50.77095071830973
              ],
              [
                4.333869744672486,
                50.771014939507886
              ],
              [
                4.3334767252201765,
                50.771104016439104
              ],
              [
                4.333099365204329,
                50.77121709138036
              ],
              [
                4.332741298371584,
                50.771353075524566
              ],
              [
                4.332405972776695,
                50.77151065945999
              ],
              [
                4.332096617588356,
                50.77168832577325
              ],
              [
                4.331816211998227,
                50.77188436365499
              ],
              [
                4.331567456532302,
                50.772096885367624
              ],
              [
                4.33135274704081,
                50.772323844417045
              ],
              [
                4.331349812808915,
                50.77232777455128
              ],
              [
                4.331349746803269,
                50.77232784432226
              ],
              [
                4.331171151349258,
                50.77256705515399
              ],
              [
                4.331030390373116,
                50.772816214209286
              ],
              [
                4.330928820011227,
                50.77307292208704
              ],
              [
                4.3308674190479275,
                50.77333470665172
              ],
              [
                4.330846779465983,
                50.77359904683755
              ],
              [
                4.330867100720194,
                50.77386339692531
              ],
              [
                4.3309281877902315,
                50.774125211058205
              ],
              [
                4.331029453032495,
                50.77438196776061
              ],
              [
                4.33116992181413,
                50.77463119422373
              ],
              [
                4.331348241875966,
                50.77487049012394
              ],
              [
                4.331562696335053,
                50.775097550744476
              ],
              [
                4.3318112202023995,
                50.77531018917753
              ],
              [
                4.332091420257465,
                50.77550635739265
              ],
              [
                4.332400598088484,
                50.7756841659683
              ],
              [
                4.332735776077031,
                50.77584190229631
              ],
              [
                4.333093726076674,
                50.77597804708337
              ],
              [
                4.333471000509459,
                50.77609128899077
              ],
              [
                4.333863965580397,
                50.77618053727035
              ],
              [
                4.334268836289661,
                50.77624493227561
              ],
              [
                4.3346817129046205,
                50.77628385374579
              ],
              [
                4.335098618539706,
                50.77629692678317
              ],
              [
                4.335515537481289,
                50.776284025466005
              ],
              [
                4.335928453887502,
                50.776245274061985
              ],
              [
                4.336333390489307,
                50.77618104583075
              ],
              [
                4.336726446919069,
                50.77609195942671
              ],
              [
                4.337103837296561,
                50.77597887293718
              ],
              [
                4.337461926709492,
                50.77584287561334
              ],
              [
                4.337797266236488,
                50.775685277373675
              ],
              [
                4.338106626174567,
                50.77550759618155
              ],
              [
                4.338387027150619,
                50.77531154341829
              ],
              [
                4.33863576881701,
                50.77509900739361
              ],
              [
                4.338850455854821,
                50.774872035151816
              ],
              [
                4.338853389619139,
                50.77486810483221
              ],
              [
                4.338853389619142,
                50.77486810483221
              ],
              [
                4.338853455617232,
                50.77486803505705
              ],
              [
                4.33903202076641,
                50.774628812650114
              ],
              [
                4.339172744815693,
                50.774379644092924
              ],
              [
                4.339274273046975,
                50.77412292915166
              ],
              [
                4.339335628294254,
                50.77386114023319
              ],
              [
                4.339356220330975,
                50.773596798570544
              ],
              [
                4.339335851528938,
                50.773332449939694
              ],
              [
                4.339274718735274,
                50.773070640141455
              ]
            ]
          ],
          [
            [
              [
                4.329494492364236,
                50.77373861864219
              ],
              [
                4.329245987255586,
                50.773525975207185
              ],
              [
                4.328965810841895,
                50.77332980008457
              ],
              [
                4.328656661443128,
                50.773151982333694
              ],
              [
                4.328321516270133,
                50.77299423422232
              ],
              [
                4.327963602755043,
                50.772858074744775
              ],
              [
                4.327586367476994,
                50.77274481500124
              ],
              [
                4.327193442982122,
                50.77265554557834
              ],
              [
                4.326788612816905,
                50.772591126052596
              ],
              [
                4.326375775110956,
                50.772552176717596
              ],
              [
                4.325958905059189,
                50.772539072613974
              ],
              [
                4.325542016663803,
                50.77255193992014
              ],
              [
                4.325129124103536,
                50.77259065473779
              ],
              [
                4.324724203101219,
                50.77265484428443
              ],
              [
                4.3243311526607,
                50.77274389048099
              ],
              [
                4.323953757540596,
                50.77285693590044
              ],
              [
                4.3235956518254595,
                50.77299289201993
              ],
              [
                4.3232602839443315,
                50.77315044969761
              ],
              [
                4.322950883472967,
                50.77332809177296
              ],
              [
                4.322670430038955,
                50.773524107670056
              ],
              [
                4.322421624628889,
                50.77373660986303
              ],
              [
                4.3224215526550145,
                50.77373668591966
              ],
              [
                4.322421524624566,
                50.77373670986004
              ],
              [
                4.322206763568578,
                50.77396365204262
              ],
              [
                4.3220281154575755,
                50.774202848827784
              ],
              [
                4.321887301206261,
                50.77445199678644
              ],
              [
                4.3217856774640175,
                50.77470869662432
              ],
              [
                4.321724223529224,
                50.774970476283386
              ],
              [
                4.321703531894788,
                50.77523481474518
              ],
              [
                4.321723802516836,
                50.775499166307156
              ],
              [
                4.321784840862716,
                50.77576098509829
              ],
              [
                4.321886059758162,
                50.77601774959824
              ],
              [
                4.32202648501679,
                50.77626698692308
              ],
              [
                4.322204764798721,
                50.77650629664469
              ],
              [
                4.322205685418881,
                50.7765072716248
              ],
              [
                4.322207864571531,
                50.77651019674275
              ],
              [
                4.3224222824146095,
                50.77673727400535
              ],
              [
                4.322670773652123,
                50.776949931745854
              ],
              [
                4.322950945377949,
                50.77714612174787
              ],
              [
                4.3232600994533215,
                50.77732395438007
              ],
              [
                4.323595258488756,
                50.77748171680256
              ],
              [
                4.323953194520504,
                50.77761788947078
              ],
              [
                4.324330460105251,
                50.77773116077738
              ],
              [
                4.324723421533323,
                50.77782043969109
              ],
              [
                4.325128293840045,
                50.77788486627037
              ],
              [
                4.325541177277438,
                50.77792381995029
              ],
              [
                4.325958094894239,
                50.777936925522894
              ],
              [
                4.326375030861392,
                50.77792405675305
              ],
              [
                4.326787969173,
                50.77788533759498
              ],
              [
                4.327192932348972,
                50.777821140997695
              ],
              [
                4.327586019765627,
                50.777732085310895
              ],
              [
                4.327963445244169,
                50.77761902832606
              ],
              [
                4.328321573534106,
                50.77748305901018
              ],
              [
                4.328656955339487,
                50.777325487012
              ],
              [
                4.328966360549988,
                50.77714783004211
              ],
              [
                4.329246809356328,
                50.77695179924862
              ],
              [
                4.329495600950078,
                50.77673928272962
              ],
              [
                4.329710339531341,
                50.77651232734161
              ],
              [
                4.329888957373962,
                50.7762731189791
              ],
              [
                4.3300297347264065,
                50.776023961516
              ],
              [
                4.330131316357161,
                50.775767254611715
              ],
              [
                4.3301927245859195,
                50.775505470595746
              ],
              [
                4.330213368675884,
                50.77524113065396
              ],
              [
                4.330193050497584,
                50.77497678054583
              ],
              [
                4.33013196641068,
                50.774714966086435
              ],
              [
                4.330030705346599,
                50.77445820862978
              ],
              [
                4.329890243111513,
                50.77420898078913
              ],
              [
                4.329711932965478,
                50.77396968262835
              ],
              [
                4.329711839253514,
                50.7739695834003
              ],
              [
                4.329708932727667,
                50.77396568272317
              ],
              [
                4.329494492364236,
                50.77373861864219
              ]
            ]
          ]
        ]
      },
      "properties": {
        "type": "buffer_union_300m",
        "buffer_m": 300
      }
    },
    {
      "type": "Feature",
      "geometry": {
        "type": "Polygon",
        "coordinates": [
          [
            [
              4.340665270957107,
              50.7728954871466
            ],
            [
              4.340530185081569,
              50.77255315583679
            ],
            [
              4.340342835908968,
              50.772220868642066
            ],
            [
              4.340105028659624,
              50.77190182542699
            ],
            [
              4.339819054323329,
              50.77159909845623
            ],
            [
              4.339487667566054,
              50.77131560281841
            ],
            [
              4.339114060178856,
              50.77105406836509
            ],
            [
              4.338701830325534,
              50.77081701343496
            ],
            [
              4.338254947885731,
              50.77060672061548
            ],
            [
              4.337777716227407,
              50.77042521477497
            ],
            [
              4.337274730776672,
              50.77027424357606
            ],
            [
              4.33675083478344,
              50.77015526065781
            ],
            [
              4.336211072708065,
              50.77006941164764
            ],
            [
              4.33566064167672,
              50.77001752313774
            ],
            [
              4.335104841471628,
              50.77000009473142
            ],
            [
              4.3345490235362085,
              50.77001729423601
            ],
            [
              4.333998539484474,
              50.77006895604817
            ],
            [
              4.333458689608805,
              50.77015458274728
            ],
            [
              4.33293467188019,
              50.77027334988171
            ],
            [
              4.332431531930354,
              50.77042411390176
            ],
            [
              4.331954114495895,
              50.770605423163325
            ],
            [
              4.331507016790647,
              50.770815531896694
            ],
            [
              4.331094544254178,
              50.77105241700624
            ],
            [
              4.33072066910172,
              50.77131379753994
            ],
            [
              4.330388992074218,
              50.771597156641455
            ],
            [
              4.3301027077566685,
              50.77189976577429
            ],
            [
              4.33009977344686,
              50.77190369587762
            ],
            [
              4.330099707439956,
              50.7719037656479
            ],
            [
              4.329861573441668,
              50.772222710852105
            ],
            [
              4.329686721227502,
              50.77253219900957
            ],
            [
              4.329556495482436,
              50.77245729570163
            ],
            [
              4.329109638324234,
              50.77224696806851
            ],
            [
              4.3286324252992,
              50.772065425031634
            ],
            [
              4.3281294516542195,
              50.77191441461184
            ],
            [
              4.327605560525691,
              50.7717953908258
            ],
            [
              4.327065796327243,
              50.771709499694474
            ],
            [
              4.32651535620556,
              50.7716575682156
            ],
            [
              4.325959540030421,
              50.77164009640623
            ],
            [
              4.325403699398988,
              50.77165725249159
            ],
            [
              4.3248531861437325,
              50.77170887128634
            ],
            [
              4.324313300838115,
              50.771794455784146
            ],
            [
              4.323789241794116,
              50.77191318193966
            ],
            [
              4.323286055041093,
              50.772063906597786
            ],
            [
              4.322808585766099,
              50.77224517849341
            ],
            [
              4.322361431681914,
              50.77245525221664
            ],
            [
              4.321948898770753,
              50.77269210500903
            ],
            [
              4.321574959828982,
              50.77295345622976
            ],
            [
              4.321243216211579,
              50.77323678930478
            ],
            [
              4.321243144236564,
              50.77323686536071
            ],
            [
              4.321243116205816,
              50.773236889300804
            ],
            [
              4.320956763137563,
              50.773539475944084
            ],
            [
              4.320718558931506,
              50.77385840241903
            ],
            [
              4.320530798398943,
              50.77419059758557
            ],
            [
              4.32039529072068,
              50.774532862465925
            ],
            [
              4.320313341987365,
              50.77488190104307
            ],
            [
              4.3202857425797125,
              50.775234351996204
            ],
            [
              4.320312759511754,
              50.775586821067925
            ],
            [
              4.320394133812611,
              50.77593591375123
            ],
            [
              4.320529082973738,
              50.77627826798196
            ],
            [
              4.320716308439936,
              50.77661058652152
            ],
            [
              4.3209540080736755,
              50.776929668718054
            ],
            [
              4.320954928676212,
              50.7769306437079
            ],
            [
              4.320957107770747,
              50.7769335688488
            ],
            [
              4.321242993214982,
              50.77723634146265
            ],
            [
              4.32157431177349,
              50.77751988829705
            ],
            [
              4.321947873023637,
              50.77778147827461
            ],
            [
              4.322360079487513,
              50.778018591759704
            ],
            [
              4.322806961272929,
              50.77822894483868
            ],
            [
              4.323284214310203,
              50.77841051132979
            ],
            [
              4.323787241816305,
              50.77856154231049
            ],
            [
              4.32431119858649,
              50.77868058297362
            ],
            [
              4.3248510376860585,
              50.77876648664921
            ],
            [
              4.325401559091395,
              50.778818425857075
            ],
            [
              4.325957459810479,
              50.778835900282736
            ],
            [
              4.326513384998565,
              50.778818741600034
            ],
            [
              4.327063979575042,
              50.77876711509367
            ],
            [
              4.327603939842576,
              50.77868151806596
            ],
            [
              4.328128064609604,
              50.77856277504333
            ],
            [
              4.328631305322135,
              50.778412029828765
            ],
            [
              4.3291088147204375,
              50.7782307344769
            ],
            [
              4.329555993550648,
              50.778020635298745
            ],
            [
              4.3299685348802885,
              50.77778375603063
            ],
            [
              4.330342465590046,
              50.77752237833052
            ],
            [
              4.330674184641734,
              50.77723901978975
            ],
            [
              4.330960497753654,
              50.776936409672544
            ],
            [
              4.331198648149677,
              50.77661746261768
            ],
            [
              4.331374475390622,
              50.77630625602159
            ],
            [
              4.331500744340688,
              50.77637887388239
            ],
            [
              4.331947651399204,
              50.77658919216844
            ],
            [
              4.332424923062299,
              50.77677072148429
            ],
            [
              4.332927962367338,
              50.776921713265494
            ],
            [
              4.333451923995766,
              50.777040713082435
            ],
            [
              4.333991760965972,
              50.777126574658624
            ],
            [
              4.3345422732747805,
              50.77717847091938
            ],
            [
              4.335098158017769,
              50.777195901963914
            ],
            [
              4.335654060504105,
              50.777178699883954
            ],
            [
              4.336204625871923,
              50.777127030382225
            ],
            [
              4.336744550705351,
              50.77704139117523
            ],
            [
              4.337268634154295,
              50.776922607195665
            ],
            [
              4.337771828062937,
              50.776771822641
            ],
            [
              4.3382492856225765,
              50.77659048994485
            ],
            [
              4.338696408078892,
              50.77638035577785
            ],
            [
              4.339108889042629,
              50.776143444213346
            ],
            [
              4.339482755976142,
              50.77588203722037
            ],
            [
              4.339814408455731,
              50.77559865267228
            ],
            [
              4.340100652841091,
              50.77529602008377
            ],
            [
              4.34010358652746,
              50.775292089733284
            ],
            [
              4.340103586527464,
              50.775292089733284
            ],
            [
              4.340103652524296,
              50.77529201995741
            ],
            [
              4.340341732660844,
              50.77497305417721
            ],
            [
              4.340529356525557,
              50.77464082732393
            ],
            [
              4.340664718142842,
              50.77429853916691
            ],
            [
              4.34074651498436,
              50.773949486308915
            ],
            [
              4.3407739604716395,
              50.77359703043118
            ],
            [
              4.340746791506309,
              50.77324456591419
            ],
            [
              4.340665270957107,
              50.7728954871466
            ]
          ]
        ]
      },
      "properties": {
        "type": "buffer_union_400m",
        "buffer_m": 400
      }
    },
    {
      "type": "Feature",
      "geometry": {
        "type": "Polygon",
        "coordinates": [
          [
            [
              4.3254839,
              50.7789345
            ],
            [
              4.3257641,
              50.7799032
            ],
            [
              4.3267372,
              50.7794856
            ],
            [
              4.3269613,
              50.779292
            ],
            [
              4.3270254,
              50.7790804
            ],
            [
              4.327286,
              50.7789834
            ],
            [
              4.3275114,
              50.7787209
            ],
            [
              4.3278545,
              50.7785728
            ],
            [
              4.3277046,
              50.7784677
            ],
            [
              4.3277155,
              50.7783657
            ],
            [
              4.3279736,
              50.7783127
            ],
            [
              4.3284511,
              50.7779605
            ],
            [
              4.3287496,
              50.7779114
            ],
            [
              4.3296212,
              50.7775514
            ],
            [
              4.329962,
              50.7773068
            ],
            [
              4.3300789,
              50.7771309
            ],
            [
              4.3302864,
              50.7770853
            ],
            [
              4.3308918,
              50.7764321
            ],
            [
              4.3307238,
              50.7762981
            ],
            [
              4.3310881,
              50.7759083
            ],
            [
              4.3310191,
              50.775739
            ],
            [
              4.3312119,
              50.7755089
            ],
            [
              4.3355717,
              50.7744707
            ],
            [
              4.3407685,
              50.7735971
            ],
            [
              4.3410273,
              50.7738247
            ],
            [
              4.3413419,
              50.7739559
            ],
            [
              4.3418016,
              50.7744007
            ],
            [
              4.343953,
              50.7750988
            ],
            [
              4.3440364,
              50.7753856
            ],
            [
              4.3444521,
              50.7752956
            ],
            [
              4.3447375,
              50.7754533
            ],
            [
              4.3455504,
              50.7754124
            ],
            [
              4.3458966,
              50.7755054
            ],
            [
              4.3461475,
              50.7754375
            ],
            [
              4.3470936,
              50.7754901
            ],
            [
              4.3475235,
              50.7752941
            ],
            [
              4.3478019,
              50.7747823
            ],
            [
              4.3485465,
              50.7746422
            ],
            [
              4.3488096,
              50.7747025
            ],
            [
              4.3489289,
              50.774564
            ],
            [
              4.3493166,
              50.7744653
            ],
            [
              4.3496154,
              50.7745619
            ],
            [
              4.3499066,
              50.7745298
            ],
            [
              4.35031,
              50.7743436
            ],
            [
              4.3514976,
              50.7740636
            ],
            [
              4.3523003,
              50.7736583
            ],
            [
              4.3530004,
              50.7735138
            ],
            [
              4.3537353,
              50.7736022
            ],
            [
              4.353971,
              50.7734923
            ],
            [
              4.3544575,
              50.7736121
            ],
            [
              4.3546433,
              50.7736091
            ],
            [
              4.3547975,
              50.7734991
            ],
            [
              4.3553212,
              50.7735661
            ],
            [
              4.3629017,
              50.7723432
            ],
            [
              4.3625111,
              50.771915
            ],
            [
              4.3637574,
              50.7713191
            ],
            [
              4.363137,
              50.7705644
            ],
            [
              4.3631047,
              50.7703138
            ],
            [
              4.3632478,
              50.7696159
            ],
            [
              4.3630205,
              50.7695597
            ],
            [
              4.3640145,
              50.7687438
            ],
            [
              4.3639322,
              50.7686523
            ],
            [
              4.3645569,
              50.7684745
            ],
            [
              4.3657807,
              50.7682995
            ],
            [
              4.3674919,
              50.7674819
            ],
            [
              4.3673698,
              50.7672226
            ],
            [
              4.3665798,
              50.766477
            ],
            [
              4.3666932,
              50.7662813
            ],
            [
              4.3662487,
              50.7659813
            ],
            [
              4.366256,
              50.7648925
            ],
            [
              4.3661366,
              50.7643793
            ],
            [
              4.3659444,
              50.7641983
            ],
            [
              4.3650651,
              50.7638096
            ],
            [
              4.3641186,
              50.7637257
            ],
            [
              4.3645605,
              50.7634478
            ],
            [
              4.3653237,
              50.7637745
            ],
            [
              4.3656499,
              50.763607
            ],
            [
              4.366469,
              50.7640084
            ],
            [
              4.3672758,
              50.7632384
            ],
            [
              4.3668927,
              50.7630113
            ],
            [
              4.366484,
              50.7625806
            ],
            [
              4.3664602,
              50.7624558
            ],
            [
              4.3663553,
              50.7624219
            ],
            [
              4.3657347,
              50.7626437
            ],
            [
              4.3651455,
              50.7623981
            ],
            [
              4.3649577,
              50.7624276
            ],
            [
              4.3642649,
              50.7628804
            ],
            [
              4.3637292,
              50.7625583
            ],
            [
              4.3639943,
              50.7623587
            ],
            [
              4.3639891,
              50.7622647
            ],
            [
              4.3633535,
              50.7620046
            ],
            [
              4.3631125,
              50.7621408
            ],
            [
              4.3623453,
              50.7621978
            ],
            [
              4.3619402,
              50.7623895
            ],
            [
              4.3612874,
              50.7620563
            ],
            [
              4.3613686,
              50.7619762
            ],
            [
              4.3609651,
              50.7616598
            ],
            [
              4.3605657,
              50.7619463
            ],
            [
              4.3586043,
              50.7607231
            ],
            [
              4.3583036,
              50.7601419
            ],
            [
              4.3581556,
              50.7590346
            ],
            [
              4.3564514,
              50.757931
            ],
            [
              4.3559916,
              50.7571159
            ],
            [
              4.355225,
              50.7570201
            ],
            [
              4.352167,
              50.7562576
            ],
            [
              4.34699,
              50.7592995
            ],
            [
              4.345656,
              50.7593619
            ],
            [
              4.3448231,
              50.7602169
            ],
            [
              4.3418292,
              50.7600564
            ],
            [
              4.3412842,
              50.7606743
            ],
            [
              4.3399991,
              50.7609765
            ],
            [
              4.3382513,
              50.7620447
            ],
            [
              4.3381153,
              50.7632982
            ],
            [
              4.3309231,
              50.7665732
            ],
            [
              4.3310031,
              50.7669373
            ],
            [
              4.3313019,
              50.7670446
            ],
            [
              4.3298507,
              50.7680441
            ],
            [
              4.3284178,
              50.7678847
            ],
            [
              4.3280697,
              50.7690276
            ],
            [
              4.3274501,
              50.7689639
            ],
            [
              4.3273495,
              50.7690851
            ],
            [
              4.3265209,
              50.7686949
            ],
            [
              4.3247584,
              50.7675987
            ],
            [
              4.3243434,
              50.767923
            ],
            [
              4.3249407,
              50.7682622
            ],
            [
              4.3242773,
              50.7687448
            ],
            [
              4.3225866,
              50.7678124
            ],
            [
              4.3221357,
              50.7684299
            ],
            [
              4.3219775,
              50.7694454
            ],
            [
              4.3225569,
              50.7695985
            ],
            [
              4.323699,
              50.7701066
            ],
            [
              4.3249246,
              50.7705247
            ],
            [
              4.32359,
              50.7715648
            ],
            [
              4.3243653,
              50.7718693
            ],
            [
              4.3253287,
              50.7725259
            ],
            [
              4.3242364,
              50.773338
            ],
            [
              4.3238693,
              50.7729611
            ],
            [
              4.3220192,
              50.7750308
            ],
            [
              4.3234827,
              50.7754783
            ],
            [
              4.3229196,
              50.7763778
            ],
            [
              4.3228402,
              50.7766838
            ],
            [
              4.3229393,
              50.7769042
            ],
            [
              4.3227272,
              50.7773989
            ],
            [
              4.3216749,
              50.7772792
            ],
            [
              4.3225408,
              50.778118
            ],
            [
              4.3252469,
              50.7789279
            ],
            [
              4.3254839,
              50.7789345
            ]
          ]
        ]
      },
      "properties": {
        "type": "boundary",
        "gemeente": "Linkebeek"
      }
    }
  ]
}