{"type":"FeatureCollection","metadata":{"gemeente":"Lokeren","slug":"lokeren","generated_at":"2026-09-29T08:27:13.335439Z","total_points":74,"providers":["bpost","DHL","GLS","InPost","VintedGo","PostNL","DPD","Amazon","ViaTim"],"bounds":[3.90174,51.08078,4.019621,51.1744036]},"features":[{"type":"Feature","geometry":{"type":"Point","coordinates":[3.90733,51.1008]},"properties":{"type":"pakketpunt","locatieNaam":"Bbox 24/7 Carrefour Zeveneken","straatNaam":"Drongenstraat","straatNr":"21","vervoerder":"bpost","puntType":"automaat","bezettingsgraad":50,"latitude":51.1008,"longitude":3.90733,"canPickup":true,"canDropoff":true,"openingstijden":null}},{"type":"Feature","geometry":{"type":"Point","coordinates":[3.92689,51.12092]},"properties":{"type":"pakketpunt","locatieNaam":"Pakjesautomaat 24/7 Amelies Lokeren","straatNaam":"Doorslaardorp","straatNr":"67","vervoerder":"bpost","puntType":"automaat","bezettingsgraad":50,"latitude":51.12092,"longitude":3.92689,"canPickup":true,"canDropoff":true,"openingstijden":null}},{"type":"Feature","geometry":{"type":"Point","coordinates":[3.96338,51.11001]},"properties":{"type":"pakketpunt","locatieNaam":"Bbox 24/7 Lidl Gentse Steenweg Lokeren","straatNaam":"Gentse Steenweg","straatNr":"48","vervoerder":"bpost","puntType":"automaat","bezettingsgraad":50,"latitude":51.11001,"longitude":3.96338,"canPickup":true,"canDropoff":true,"openingstijden":null}},{"type":"Feature","geometry":{"type":"Point","coordinates":[3.96913,51.10924]},"properties":{"type":"pakketpunt","locatieNaam":"Bbox 24/7 I-Mens Lokeren","straatNaam":"Pastorijstraat","straatNr":"1","vervoerder":"bpost","puntType":"automaat","bezettingsgraad":50,"latitude":51.10924,"longitude":3.96913,"canPickup":true,"canDropoff":true,"openingstijden":null}},{"type":"Feature","geometry":{"type":"Point","coordinates":[3.95706,51.1382]},"properties":{"type":"pakketpunt","locatieNaam":"Bbox 24/7 Q8 Easy Lokeren","straatNaam":"Bautschoot","straatNr":"105","vervoerder":"bpost","puntType":"automaat","bezettingsgraad":50,"latitude":51.1382,"longitude":3.95706,"canPickup":true,"canDropoff":true,"openingstijden":null}},{"type":"Feature","geometry":{"type":"Point","coordinates":[3.98647,51.10744]},"properties":{"type":"pakketpunt","locatieNaam":"Pakjesautomaat 24/7 Station Lokeren","straatNaam":"Stationsplein","straatNr":"27","vervoerder":"bpost","puntType":"automaat","bezettingsgraad":50,"latitude":51.10744,"longitude":3.98647,"canPickup":true,"canDropoff":true,"openingstijden":null}},{"type":"Feature","geometry":{"type":"Point","coordinates":[3.9573,51.14761]},"properties":{"type":"pakketpunt","locatieNaam":"Bbox Spar Eksaarde","straatNaam":"Eksaarde Dorp","straatNr":"44","vervoerder":"bpost","puntType":"automaat","bezettingsgraad":50,"latitude":51.14761,"longitude":3.9573,"canPickup":true,"canDropoff":true,"openingstijden":null}},{"type":"Feature","geometry":{"type":"Point","coordinates":[3.98989,51.104]},"properties":{"type":"pakketpunt","locatieNaam":"Lokeren","straatNaam":"Markt","straatNr":"69","vervoerder":"bpost","puntType":"postkantoor","bezettingsgraad":50,"latitude":51.104,"longitude":3.98989,"canPickup":true,"canDropoff":true,"openingstijden":null}},{"type":"Feature","geometry":{"type":"Point","coordinates":[3.98998,51.10387]},"properties":{"type":"pakketpunt","locatieNaam":"Bbox Lokeren Bpost","straatNaam":"Markt","straatNr":"69","vervoerder":"bpost","puntType":"automaat","bezettingsgraad":50,"latitude":51.10387,"longitude":3.98998,"canPickup":true,"canDropoff":true,"openingstijden":null}},{"type":"Feature","geometry":{"type":"Point","coordinates":[3.98696,51.11228]},"properties":{"type":"pakketpunt","locatieNaam":"Pakjesautomaat 24/7 Lukoil Lokeren","straatNaam":"Bergendriesstraat","straatNr":"75","vervoerder":"bpost","puntType":"automaat","bezettingsgraad":50,"latitude":51.11228,"longitude":3.98696,"canPickup":true,"canDropoff":true,"openingstijden":null}},{"type":"Feature","geometry":{"type":"Point","coordinates":[4.0035,51.08078]},"properties":{"type":"pakketpunt","locatieNaam":"Bbox 24/7 Amp Lokeren","straatNaam":"Brandstraat","straatNr":"30","vervoerder":"bpost","puntType":"automaat","bezettingsgraad":50,"latitude":51.08078,"longitude":4.0035,"canPickup":true,"canDropoff":true,"openingstijden":null}},{"type":"Feature","geometry":{"type":"Point","coordinates":[4.01962,51.09176]},"properties":{"type":"pakketpunt","locatieNaam":"Bbox 24/7 Delhaize Lokeren 2","straatNaam":"Oeverstraat","straatNr":"2","vervoerder":"bpost","puntType":"automaat","bezettingsgraad":50,"latitude":51.09176,"longitude":4.01962,"canPickup":true,"canDropoff":true,"openingstijden":null}},{"type":"Feature","geometry":{"type":"Point","coordinates":[4.01642,51.09308]},"properties":{"type":"pakketpunt","locatieNaam":"Bbox 24/7 Lidl Dijkstraat Lokeren","straatNaam":"Dijkstraat","straatNr":"3A","vervoerder":"bpost","puntType":"automaat","bezettingsgraad":50,"latitude":51.09308,"longitude":4.01642,"canPickup":true,"canDropoff":true,"openingstijden":null}},{"type":"Feature","geometry":{"type":"Point","coordinates":[4.01398,51.09414]},"properties":{"type":"pakketpunt","locatieNaam":"Bbox 24/7 Thiry Paints Lokeren","straatNaam":"Zelebaan","straatNr":"106","vervoerder":"bpost","puntType":"automaat","bezettingsgraad":50,"latitude":51.09414,"longitude":4.01398,"canPickup":true,"canDropoff":true,"openingstijden":null}},{"type":"Feature","geometry":{"type":"Point","coordinates":[4.01426,51.09249]},"properties":{"type":"pakketpunt","locatieNaam":"Bbox 24/7 Dreamland Lokeren","straatNaam":"Zelebaan","straatNr":"73","vervoerder":"bpost","puntType":"automaat","bezettingsgraad":50,"latitude":51.09249,"longitude":4.01426,"canPickup":true,"canDropoff":true,"openingstijden":null}},{"type":"Feature","geometry":{"type":"Point","coordinates":[3.94137,51.17426]},"properties":{"type":"pakketpunt","locatieNaam":"Pakjesautomaat 24/7 Marktplein","straatNaam":"Moerbekemarkt","straatNr":"6","vervoerder":"bpost","puntType":"automaat","bezettingsgraad":50,"latitude":51.17426,"longitude":3.94137,"canPickup":true,"canDropoff":true,"openingstijden":null}},{"type":"Feature","geometry":{"type":"Point","coordinates":[3.94033,51.17426]},"properties":{"type":"pakketpunt","locatieNaam":"Moerbeke","straatNaam":"Opperstraat","straatNr":"20","vervoerder":"bpost","puntType":"postkantoor","bezettingsgraad":50,"latitude":51.17426,"longitude":3.94033,"canPickup":true,"canDropoff":true,"openingstijden":null}},{"type":"Feature","geometry":{"type":"Point","coordinates":[3.92689,51.120924]},"properties":{"type":"pakketpunt","locatieNaam":"PARCEL LOCKER 24/7 AMELIES LOKEREN","straatNaam":"DOORSLAARDORP","straatNr":"67","vervoerder":"DHL","puntType":"packStation","bezettingsgraad":50,"latitude":51.120924,"longitude":3.92689,"canPickup":true,"canDropoff":true,"openingstijden":{"ma":"00:00 - 23:59","di":"00:00 - 23:59","wo":"00:00 - 23:59","do":"00:00 - 23:59","vr":"00:00 - 23:59","za":"00:00 - 23:59","zo":"00:00 - 23:59"}}},{"type":"Feature","geometry":{"type":"Point","coordinates":[3.90733,51.100802]},"properties":{"type":"pakketpunt","locatieNaam":"BBOX 24/7 CARREFOUR ZEVENEKEN","straatNaam":"DRONGENSTRAAT","straatNr":"21","vervoerder":"DHL","puntType":"packStation","bezettingsgraad":50,"latitude":51.100802,"longitude":3.90733,"canPickup":true,"canDropoff":true,"openingstijden":{"ma":"00:00 - 23:59","di":"00:00 - 23:59","wo":"00:00 - 23:59","do":"00:00 - 23:59","vr":"00:00 - 23:59","za":"00:00 - 23:59","zo":"00:00 - 23:59"}}},{"type":"Feature","geometry":{"type":"Point","coordinates":[3.963376,51.110008]},"properties":{"type":"pakketpunt","locatieNaam":"BBOX 24/7 LIDL GENTSE STEENWEG LOKE","straatNaam":"GENTSE STEENWEG","straatNr":"48","vervoerder":"DHL","puntType":"packStation","bezettingsgraad":50,"latitude":51.110008,"longitude":3.963376,"canPickup":true,"canDropoff":true,"openingstijden":{"ma":"00:00 - 23:59","di":"00:00 - 23:59","wo":"00:00 - 23:59","do":"00:00 - 23:59","vr":"00:00 - 23:59","za":"00:00 - 23:59","zo":"00:00 - 23:59"}}},{"type":"Feature","geometry":{"type":"Point","coordinates":[3.969126,51.109236]},"properties":{"type":"pakketpunt","locatieNaam":"BBOX 24/7 I-MENS LOKEREN","straatNaam":"PASTORIJSTRAAT","straatNr":"1","vervoerder":"DHL","puntType":"packStation","bezettingsgraad":50,"latitude":51.109236,"longitude":3.969126,"canPickup":true,"canDropoff":true,"openingstijden":{"ma":"00:00 - 23:59","di":"00:00 - 23:59","wo":"00:00 - 23:59","do":"00:00 - 23:59","vr":"00:00 - 23:59","za":"00:00 - 23:59","zo":"00:00 - 23:59"}}},{"type":"Feature","geometry":{"type":"Point","coordinates":[3.95706,51.138201]},"properties":{"type":"pakketpunt","locatieNaam":"BBOX 24/7 Q8 EASY LOKEREN","straatNaam":"BAUTSCHOOT","straatNr":"105","vervoerder":"DHL","puntType":"packStation","bezettingsgraad":50,"latitude":51.138201,"longitude":3.95706,"canPickup":true,"canDropoff":true,"openingstijden":{"ma":"00:00 - 23:59","di":"00:00 - 23:59","wo":"00:00 - 23:59","do":"00:00 - 23:59","vr":"00:00 - 23:59","za":"00:00 - 23:59","zo":"00:00 - 23:59"}}},{"type":"Feature","geometry":{"type":"Point","coordinates":[3.986472,51.107438]},"properties":{"type":"pakketpunt","locatieNaam":"PARCEL LOCKER 24/7 STATION LOKEREN","straatNaam":"STATIONSPLEIN","straatNr":"27","vervoerder":"DHL","puntType":"packStation","bezettingsgraad":50,"latitude":51.107438,"longitude":3.986472,"canPickup":true,"canDropoff":true,"openingstijden":{"ma":"00:00 - 23:59","di":"00:00 - 23:59","wo":"00:00 - 23:59","do":"00:00 - 23:59","vr":"00:00 - 23:59","za":"00:00 - 23:59","zo":"00:00 - 23:59"}}},{"type":"Feature","geometry":{"type":"Point","coordinates":[3.986956,51.112279]},"properties":{"type":"pakketpunt","locatieNaam":"PARCEL LOCKER 24/7 LUKOIL LOKEREN","straatNaam":"BERGENDRIESSTRAAT","straatNr":"75","vervoerder":"DHL","puntType":"packStation","bezettingsgraad":50,"latitude":51.112279,"longitude":3.986956,"canPickup":true,"canDropoff":true,"openingstijden":{"ma":"00:00 - 23:59","di":"00:00 - 23:59","wo":"00:00 - 23:59","do":"00:00 - 23:59","vr":"00:00 - 23:59","za":"00:00 - 23:59","zo":"00:00 - 23:59"}}},{"type":"Feature","geometry":{"type":"Point","coordinates":[3.957305,51.147606]},"properties":{"type":"pakketpunt","locatieNaam":"BBOX SPAR EKSAARDE","straatNaam":"EKSAARDE DORP","straatNr":"44","vervoerder":"DHL","puntType":"packStation","bezettingsgraad":50,"latitude":51.147606,"longitude":3.957305,"canPickup":true,"canDropoff":true,"openingstijden":{"ma":"12:00 - 19:00","di":"08:00 - 19:00","wo":"08:00 - 19:00","do":"08:00 - 19:00","vr":"08:00 - 19:00","za":"08:00 - 18:00","zo":"08:00 - 12:00"}}},{"type":"Feature","geometry":{"type":"Point","coordinates":[3.989888,51.104002]},"properties":{"type":"pakketpunt","locatieNaam":"LOKEREN","straatNaam":"MARKT","straatNr":"69","vervoerder":"DHL","puntType":"postOffice","bezettingsgraad":50,"latitude":51.104002,"longitude":3.989888,"canPickup":true,"canDropoff":true,"openingstijden":{"ma":"09:30 - 12:30, 13:30 - 17:00","di":"09:30 - 12:30, 13:30 - 18:00","wo":"09:30 - 12:30, 13:30 - 17:00","do":"09:30 - 12:30, 13:30 - 18:00","vr":"09:30 - 12:30, 13:30 - 17:00","za":"09:30 - 13:00","zo":"gesloten"}}},{"type":"Feature","geometry":{"type":"Point","coordinates":[3.98998,51.10387]},"properties":{"type":"pakketpunt","locatieNaam":"BBOX LOKEREN BPOST","straatNaam":"MARKT","straatNr":"69","vervoerder":"DHL","puntType":"packStation","bezettingsgraad":50,"latitude":51.10387,"longitude":3.98998,"canPickup":true,"canDropoff":true,"openingstijden":{"ma":"06:00 - 23:00","di":"06:00 - 23:00","wo":"06:00 - 23:00","do":"06:00 - 23:00","vr":"06:00 - 23:00","za":"06:00 - 23:00","zo":"06:00 - 23:00"}}},{"type":"Feature","geometry":{"type":"Point","coordinates":[4.0035,51.08078]},"properties":{"type":"pakketpunt","locatieNaam":"BBOX 24/7 AMP LOKEREN","straatNaam":"BRANDSTRAAT","straatNr":"30","vervoerder":"DHL","puntType":"packStation","bezettingsgraad":50,"latitude":51.08078,"longitude":4.0035,"canPickup":true,"canDropoff":true,"openingstijden":{"ma":"00:00 - 23:59","di":"00:00 - 23:59","wo":"00:00 - 23:59","do":"00:00 - 23:59","vr":"00:00 - 23:59","za":"00:00 - 23:59","zo":"00:00 - 23:59"}}},{"type":"Feature","geometry":{"type":"Point","coordinates":[4.013981,51.094138]},"properties":{"type":"pakketpunt","locatieNaam":"BBOX 24/7 THIRY PAINTS LOKEREN","straatNaam":"ZELEBAAN","straatNr":"106","vervoerder":"DHL","puntType":"packStation","bezettingsgraad":50,"latitude":51.094138,"longitude":4.013981,"canPickup":true,"canDropoff":true,"openingstijden":{"ma":"00:00 - 23:59","di":"00:00 - 23:59","wo":"00:00 - 23:59","do":"00:00 - 23:59","vr":"00:00 - 23:59","za":"00:00 - 23:59","zo":"00:00 - 23:59"}}},{"type":"Feature","geometry":{"type":"Point","coordinates":[4.014264,51.092487]},"properties":{"type":"pakketpunt","locatieNaam":"BBOX 24/7 DREAMLAND LOKEREN","straatNaam":"ZELEBAAN","straatNr":"73","vervoerder":"DHL","puntType":"packStation","bezettingsgraad":50,"latitude":51.092487,"longitude":4.014264,"canPickup":true,"canDropoff":true,"openingstijden":{"ma":"00:00 - 23:59","di":"00:00 - 23:59","wo":"00:00 - 23:59","do":"00:00 - 23:59","vr":"00:00 - 23:59","za":"00:00 - 23:59","zo":"00:00 - 23:59"}}},{"type":"Feature","geometry":{"type":"Point","coordinates":[3.940332,51.174256]},"properties":{"type":"pakketpunt","locatieNaam":"MOERBEKE","straatNaam":"OPPERSTRAAT","straatNr":"20","vervoerder":"DHL","puntType":"postOffice","bezettingsgraad":50,"latitude":51.174256,"longitude":3.940332,"canPickup":true,"canDropoff":true,"openingstijden":{"ma":"14:15 - 18:00","di":"09:30 - 12:30","wo":"09:30 - 12:30","do":"14:15 - 18:00","vr":"09:30 - 12:30","za":"09:30 - 13:00","zo":"gesloten"}}},{"type":"Feature","geometry":{"type":"Point","coordinates":[3.941375,51.174256]},"properties":{"type":"pakketpunt","locatieNaam":"PARCEL LOCKER 24/7 MARKTPLEIN","straatNaam":"MOERBEKEMARKT","straatNr":"6","vervoerder":"DHL","puntType":"packStation","bezettingsgraad":50,"latitude":51.174256,"longitude":3.941375,"canPickup":true,"canDropoff":true,"openingstijden":{"ma":"00:00 - 23:59","di":"00:00 - 23:59","wo":"00:00 - 23:59","do":"00:00 - 23:59","vr":"00:00 - 23:59","za":"00:00 - 23:59","zo":"00:00 - 23:59"}}},{"type":"Feature","geometry":{"type":"Point","coordinates":[4.016421,51.093081]},"properties":{"type":"pakketpunt","locatieNaam":"BBOX 24/7 LIDL DIJKSTRAAT LOKEREN","straatNaam":"DIJKSTRAAT","straatNr":"3A","vervoerder":"DHL","puntType":"packStation","bezettingsgraad":50,"latitude":51.093081,"longitude":4.016421,"canPickup":true,"canDropoff":true,"openingstijden":{"ma":"00:00 - 23:59","di":"00:00 - 23:59","wo":"00:00 - 23:59","do":"00:00 - 23:59","vr":"00:00 - 23:59","za":"00:00 - 23:59","zo":"00:00 - 23:59"}}},{"type":"Feature","geometry":{"type":"Point","coordinates":[4.019621,51.091762]},"properties":{"type":"pakketpunt","locatieNaam":"BBOX 24/7 DELHAIZE LOKEREN 2","straatNaam":"OEVERSTRAAT","straatNr":"2","vervoerder":"DHL","puntType":"packStation","bezettingsgraad":50,"latitude":51.091762,"longitude":4.019621,"canPickup":true,"canDropoff":true,"openingstijden":{"ma":"00:00 - 23:59","di":"00:00 - 23:59","wo":"00:00 - 23:59","do":"00:00 - 23:59","vr":"00:00 - 23:59","za":"00:00 - 23:59","zo":"00:00 - 23:59"}}},{"type":"Feature","geometry":{"type":"Point","coordinates":[3.96034,51.08749]},"properties":{"type":"pakketpunt","locatieNaam":"ViaTim - Chantal","straatNaam":"Hillarestraat","straatNr":"257","vervoerder":"GLS","puntType":"parcel_shop","bezettingsgraad":50,"latitude":51.08749,"longitude":3.96034,"canPickup":true,"canDropoff":true,"openingstijden":"di: 10:00 - 20:00; wo: 14:00 - 20:00"}},{"type":"Feature","geometry":{"type":"Point","coordinates":[3.9075149,51.1010761]},"properties":{"type":"pakketpunt","locatieNaam":"GLS Parcel Locker powered by bbox","straatNaam":"Drongenstraat","straatNr":"21","vervoerder":"GLS","puntType":"locker","bezettingsgraad":50,"latitude":51.1010761,"longitude":3.9075149,"canPickup":true,"canDropoff":true,"openingstijden":"di: 00:00 - 24:00; wo: 00:00 - 24:00"}},{"type":"Feature","geometry":{"type":"Point","coordinates":[3.9018557,51.1074627]},"properties":{"type":"pakketpunt","locatieNaam":"SR DE STER","straatNaam":"Gentse Steenweg","straatNr":"436","vervoerder":"GLS","puntType":"parcel_shop","bezettingsgraad":50,"latitude":51.1074627,"longitude":3.9018557,"canPickup":true,"canDropoff":true,"openingstijden":"di: 06:00 - 18:00; wo: 06:00 - 18:00"}},{"type":"Feature","geometry":{"type":"Point","coordinates":[4.019394,51.0922467]},"properties":{"type":"pakketpunt","locatieNaam":"GLS Parcel Locker powered by bbox","straatNaam":"Oeverstraat","straatNr":"2","vervoerder":"GLS","puntType":"locker","bezettingsgraad":50,"latitude":51.0922467,"longitude":4.019394,"canPickup":true,"canDropoff":true,"openingstijden":"di: 00:00 - 24:00; wo: 00:00 - 24:00"}},{"type":"Feature","geometry":{"type":"Point","coordinates":[4.01422,51.09242]},"properties":{"type":"pakketpunt","locatieNaam":"GLS Parcel Locker powered by bbox","straatNaam":"Zelebaan","straatNr":"73","vervoerder":"GLS","puntType":"locker","bezettingsgraad":50,"latitude":51.09242,"longitude":4.01422,"canPickup":true,"canDropoff":true,"openingstijden":"di: 06:00 - 24:00; wo: 06:00 - 24:00"}},{"type":"Feature","geometry":{"type":"Point","coordinates":[4.016829,51.0929334]},"properties":{"type":"pakketpunt","locatieNaam":"GLS Parcel Locker powered by bbox","straatNaam":"Dijkstraat","straatNr":"3 A","vervoerder":"GLS","puntType":"locker","bezettingsgraad":50,"latitude":51.0929334,"longitude":4.016829,"canPickup":true,"canDropoff":true,"openingstijden":"di: 06:00 - 24:00; wo: 06:00 - 24:00"}},{"type":"Feature","geometry":{"type":"Point","coordinates":[3.9941867,51.1027533]},"properties":{"type":"pakketpunt","locatieNaam":"Repair Service","straatNaam":"Kerkstraat","straatNr":"72","vervoerder":"GLS","puntType":"parcel_shop","bezettingsgraad":50,"latitude":51.1027533,"longitude":3.9941867,"canPickup":true,"canDropoff":true,"openingstijden":"di: 10:00 - 19:00; do: 10:00 - 19:00"}},{"type":"Feature","geometry":{"type":"Point","coordinates":[3.9901523,51.1038836]},"properties":{"type":"pakketpunt","locatieNaam":"GLS Parcel Locker powered by bbox","straatNaam":"Markt","straatNr":"69 B","vervoerder":"GLS","puntType":"locker","bezettingsgraad":50,"latitude":51.1038836,"longitude":3.9901523,"canPickup":true,"canDropoff":true,"openingstijden":"di: 06:00 - 23:00; wo: 06:00 - 23:00"}},{"type":"Feature","geometry":{"type":"Point","coordinates":[3.9688665,51.1094802]},"properties":{"type":"pakketpunt","locatieNaam":"GLS Parcel Locker powered by bbox","straatNaam":"Pastorijstraat","straatNr":"1","vervoerder":"GLS","puntType":"locker","bezettingsgraad":50,"latitude":51.1094802,"longitude":3.9688665,"canPickup":true,"canDropoff":true,"openingstijden":"di: 00:00 - 24:00; wo: 00:00 - 24:00"}},{"type":"Feature","geometry":{"type":"Point","coordinates":[3.9633244,51.11053]},"properties":{"type":"pakketpunt","locatieNaam":"GLS Parcel Locker powered by bbox","straatNaam":"Gentse Steenweg","straatNr":"48","vervoerder":"GLS","puntType":"locker","bezettingsgraad":50,"latitude":51.11053,"longitude":3.9633244,"canPickup":true,"canDropoff":true,"openingstijden":"di: 00:00 - 23:50; wo: 00:00 - 23:50"}},{"type":"Feature","geometry":{"type":"Point","coordinates":[3.9621541,51.1227065]},"properties":{"type":"pakketpunt","locatieNaam":"De Tuinkamer","straatNaam":"Eksaardebaan","straatNr":"100","vervoerder":"GLS","puntType":"parcel_shop","bezettingsgraad":50,"latitude":51.1227065,"longitude":3.9621541,"canPickup":true,"canDropoff":true,"openingstijden":"di: 09:00 - 12:00, 13:00 - 18:00; wo: 09:00 - 12:00, 13:00 - 18:00"}},{"type":"Feature","geometry":{"type":"Point","coordinates":[3.9574622,51.1472108]},"properties":{"type":"pakketpunt","locatieNaam":"GLS Parcel Locker powered by bbox","straatNaam":"Eksaarde-Dorp","straatNr":"44","vervoerder":"GLS","puntType":"locker","bezettingsgraad":50,"latitude":51.1472108,"longitude":3.9574622,"canPickup":true,"canDropoff":true,"openingstijden":"di: 00:00 - 24:00; wo: 00:00 - 24:00"}},{"type":"Feature","geometry":{"type":"Point","coordinates":[3.96213,51.12255]},"properties":{"type":"pakketpunt","locatieNaam":"DE TUINKAMER","straatNaam":"100 Eksaardebaan","straatNr":"","vervoerder":"InPost","puntType":"servicepunt","bezettingsgraad":50,"latitude":51.12255,"longitude":3.96213,"canPickup":true,"canDropoff":true,"openingstijden":null}},{"type":"Feature","geometry":{"type":"Point","coordinates":[3.90174,51.10731]},"properties":{"type":"pakketpunt","locatieNaam":"De Ster","straatNaam":"Gentse Steenweg","straatNr":"436","vervoerder":"VintedGo","puntType":"parcel_shop","bezettingsgraad":50,"latitude":51.10731,"longitude":3.90174,"canPickup":true,"canDropoff":true,"openingstijden":null}},{"type":"Feature","geometry":{"type":"Point","coordinates":[3.96034,51.08749]},"properties":{"type":"pakketpunt","locatieNaam":"C. Demey","straatNaam":"Hillarestraat","straatNr":"257","vervoerder":"VintedGo","puntType":"social","bezettingsgraad":50,"latitude":51.08749,"longitude":3.96034,"canPickup":true,"canDropoff":true,"openingstijden":null}},{"type":"Feature","geometry":{"type":"Point","coordinates":[4.0101272,51.0912263]},"properties":{"type":"pakketpunt","locatieNaam":"Forever Beauty & Nails - Laseur Dorien","straatNaam":"Smeierstraat","straatNr":"4","vervoerder":"VintedGo","puntType":"locker","bezettingsgraad":50,"latitude":51.0912263,"longitude":4.0101272,"canPickup":true,"canDropoff":true,"openingstijden":null}},{"type":"Feature","geometry":{"type":"Point","coordinates":[3.9450169,51.1744036]},"properties":{"type":"pakketpunt","locatieNaam":"Rahil Market","straatNaam":"Sportstraat","straatNr":"1","vervoerder":"VintedGo","puntType":"locker","bezettingsgraad":50,"latitude":51.1744036,"longitude":3.9450169,"canPickup":true,"canDropoff":true,"openingstijden":null}},{"type":"Feature","geometry":{"type":"Point","coordinates":[3.9843452,51.1112594]},"properties":{"type":"pakketpunt","locatieNaam":"24/24 Open Automaten Shop ","straatNaam":"Bergendriesstraat","straatNr":"1","vervoerder":"VintedGo","puntType":"locker","bezettingsgraad":50,"latitude":51.1112594,"longitude":3.9843452,"canPickup":true,"canDropoff":true,"openingstijden":null}},{"type":"Feature","geometry":{"type":"Point","coordinates":[4.0189915,51.0919124]},"properties":{"type":"pakketpunt","locatieNaam":"Delhaize Lokeren","straatNaam":"Oeverstraat","straatNr":"2","vervoerder":"VintedGo","puntType":"locker","bezettingsgraad":50,"latitude":51.0919124,"longitude":4.0189915,"canPickup":true,"canDropoff":true,"openingstijden":null}},{"type":"Feature","geometry":{"type":"Point","coordinates":[3.901789,51.107191]},"properties":{"type":"pakketpunt","locatieNaam":"Krantenwinkel De Ster","straatNaam":"Gentse Steenweg","straatNr":"436","vervoerder":"PostNL","puntType":"servicepunt","bezettingsgraad":50,"latitude":51.107191,"longitude":3.901789,"canPickup":true,"canDropoff":true,"openingstijden":"06:00 - 18:00"}},{"type":"Feature","geometry":{"type":"Point","coordinates":[3.994219,51.102637]},"properties":{"type":"pakketpunt","locatieNaam":"Repair Service","straatNaam":"Kerkstraat","straatNr":"72W001","vervoerder":"PostNL","puntType":"servicepunt","bezettingsgraad":50,"latitude":51.102637,"longitude":3.994219,"canPickup":true,"canDropoff":true,"openingstijden":"10:00 - 19:00"}},{"type":"Feature","geometry":{"type":"Point","coordinates":[3.962693,51.122827]},"properties":{"type":"pakketpunt","locatieNaam":"De Tuinkamer","straatNaam":"Eksaardebaan","straatNr":"100","vervoerder":"PostNL","puntType":"servicepunt","bezettingsgraad":50,"latitude":51.122827,"longitude":3.962693,"canPickup":true,"canDropoff":true,"openingstijden":"09:00 - 12:00, 13:00 - 18:00"}},{"type":"Feature","geometry":{"type":"Point","coordinates":[3.96034,51.08749]},"properties":{"type":"pakketpunt","locatieNaam":"DPD BUURPUNT VIATIM EN CHANTAL","straatNaam":"HILLARESTRAAT","straatNr":"257","vervoerder":"DPD","puntType":"pickup_point","bezettingsgraad":50,"latitude":51.08749,"longitude":3.96034,"canPickup":true,"canDropoff":true,"openingstijden":{"ma":"10:00 - 20:00","di":"10:00 - 20:00","wo":"14:00 - 20:00","do":"10:00 - 20:00","vr":"14:00 - 20:00","za":"gesloten","zo":"gesloten"}}},{"type":"Feature","geometry":{"type":"Point","coordinates":[3.99291,51.10389]},"properties":{"type":"pakketpunt","locatieNaam":"PSM LOKEREN","straatNaam":"KERKSTRAAT","straatNr":"8","vervoerder":"DPD","puntType":"pickup_point","bezettingsgraad":50,"latitude":51.10389,"longitude":3.99291,"canPickup":true,"canDropoff":true,"openingstijden":{"ma":"06:30 - 18:00","di":"06:30 - 18:00","wo":"06:30 - 18:00","do":"06:30 - 18:00","vr":"06:30 - 18:00","za":"06:30 - 17:00","zo":"gesloten"}}},{"type":"Feature","geometry":{"type":"Point","coordinates":[3.96228,51.122719]},"properties":{"type":"pakketpunt","locatieNaam":"DE TUINKAMER","straatNaam":"EKSAARDEBAAN","straatNr":"100","vervoerder":"DPD","puntType":"pickup_point","bezettingsgraad":50,"latitude":51.122719,"longitude":3.96228,"canPickup":true,"canDropoff":false,"openingstijden":{"ma":"13:00 - 18:00","di":"09:00 - 12:00, 13:00 - 18:00","wo":"09:00 - 12:00, 13:00 - 18:00","do":"09:00 - 12:00, 13:00 - 18:00","vr":"09:00 - 12:00, 13:00 - 18:00","za":"09:00 - 12:00, 13:00 - 18:00","zo":"gesloten"}}},{"type":"Feature","geometry":{"type":"Point","coordinates":[3.901743,51.107314]},"properties":{"type":"pakketpunt","locatieNaam":"KRANTENSHOP DE STER","straatNaam":"GENTSE STEENWEG","straatNr":"436","vervoerder":"DPD","puntType":"pickup_point","bezettingsgraad":50,"latitude":51.107314,"longitude":3.901743,"canPickup":true,"canDropoff":false,"openingstijden":{"ma":"06:00 - 12:00","di":"06:00 - 18:00","wo":"06:00 - 18:00","do":"06:00 - 18:00","vr":"06:00 - 18:00","za":"06:00 - 18:00","zo":"10:00 - 12:00"}}},{"type":"Feature","geometry":{"type":"Point","coordinates":[3.940332,51.174256]},"properties":{"type":"pakketpunt","locatieNaam":"bpost - MOERBEKE","straatNaam":"OPPERSTRAAT,20","straatNr":"","vervoerder":"Amazon","puntType":"3p","bezettingsgraad":50,"latitude":51.174256,"longitude":3.940332,"canPickup":true,"canDropoff":false,"openingstijden":null}},{"type":"Feature","geometry":{"type":"Point","coordinates":[3.957305,51.147606]},"properties":{"type":"pakketpunt","locatieNaam":"bpost - BBOX SPAR EKSAARDE","straatNaam":"EKSAARDE DORP,44","straatNr":"","vervoerder":"Amazon","puntType":"3p","bezettingsgraad":50,"latitude":51.147606,"longitude":3.957305,"canPickup":true,"canDropoff":false,"openingstijden":null}},{"type":"Feature","geometry":{"type":"Point","coordinates":[3.98998,51.10387]},"properties":{"type":"pakketpunt","locatieNaam":"bpost - BBOX LOKEREN BPOST","straatNaam":"MARKT,69","straatNr":"","vervoerder":"Amazon","puntType":"3p","bezettingsgraad":50,"latitude":51.10387,"longitude":3.98998,"canPickup":true,"canDropoff":false,"openingstijden":null}},{"type":"Feature","geometry":{"type":"Point","coordinates":[3.989888,51.104002]},"properties":{"type":"pakketpunt","locatieNaam":"bpost - LOKEREN","straatNaam":"MARKT,69","straatNr":"","vervoerder":"Amazon","puntType":"3p","bezettingsgraad":50,"latitude":51.104002,"longitude":3.989888,"canPickup":true,"canDropoff":false,"openingstijden":null}},{"type":"Feature","geometry":{"type":"Point","coordinates":[3.969126,51.109236]},"properties":{"type":"pakketpunt","locatieNaam":"bpost - BBOX 24/7 I-MENS LOKEREN","straatNaam":"PASTORIJSTRAAT,1","straatNr":"","vervoerder":"Amazon","puntType":"3p","bezettingsgraad":50,"latitude":51.109236,"longitude":3.969126,"canPickup":true,"canDropoff":false,"openingstijden":null}},{"type":"Feature","geometry":{"type":"Point","coordinates":[3.95706,51.138201]},"properties":{"type":"pakketpunt","locatieNaam":"bpost - BBOX 24/7 Q8 EASY LOKEREN","straatNaam":"BAUTSCHOOT,105","straatNr":"","vervoerder":"Amazon","puntType":"3p","bezettingsgraad":50,"latitude":51.138201,"longitude":3.95706,"canPickup":true,"canDropoff":false,"openingstijden":null}},{"type":"Feature","geometry":{"type":"Point","coordinates":[3.963376,51.110008]},"properties":{"type":"pakketpunt","locatieNaam":"bpost - BBOX 24/7 LIDL GENTSE STEENWEG LOKEREN","straatNaam":"GENTSE STEENWEG,48","straatNr":"","vervoerder":"Amazon","puntType":"3p","bezettingsgraad":50,"latitude":51.110008,"longitude":3.963376,"canPickup":true,"canDropoff":false,"openingstijden":null}},{"type":"Feature","geometry":{"type":"Point","coordinates":[4.0142636,51.0924873]},"properties":{"type":"pakketpunt","locatieNaam":"bpost - BBOX 24/7 DREAMLAND LOKEREN","straatNaam":"ZELEBAAN,73","straatNr":"","vervoerder":"Amazon","puntType":"3p","bezettingsgraad":50,"latitude":51.0924873,"longitude":4.0142636,"canPickup":true,"canDropoff":false,"openingstijden":null}},{"type":"Feature","geometry":{"type":"Point","coordinates":[4.013981,51.094138]},"properties":{"type":"pakketpunt","locatieNaam":"bpost - BBOX 24/7 THIRY PAINTS LOKEREN","straatNaam":"ZELEBAAN,106","straatNr":"","vervoerder":"Amazon","puntType":"3p","bezettingsgraad":50,"latitude":51.094138,"longitude":4.013981,"canPickup":true,"canDropoff":false,"openingstijden":null}},{"type":"Feature","geometry":{"type":"Point","coordinates":[4.016421,51.093081]},"properties":{"type":"pakketpunt","locatieNaam":"bpost - BBOX 24/7 LIDL DIJKSTRAAT LOKEREN","straatNaam":"DIJKSTRAAT,3A","straatNr":"","vervoerder":"Amazon","puntType":"3p","bezettingsgraad":50,"latitude":51.093081,"longitude":4.016421,"canPickup":true,"canDropoff":false,"openingstijden":null}},{"type":"Feature","geometry":{"type":"Point","coordinates":[4.019621,51.091762]},"properties":{"type":"pakketpunt","locatieNaam":"bpost - BBOX 24/7 DELHAIZE LOKEREN 2","straatNaam":"OEVERSTRAAT,2","straatNr":"","vervoerder":"Amazon","puntType":"3p","bezettingsgraad":50,"latitude":51.091762,"longitude":4.019621,"canPickup":true,"canDropoff":false,"openingstijden":null}},{"type":"Feature","geometry":{"type":"Point","coordinates":[4.0035,51.08078]},"properties":{"type":"pakketpunt","locatieNaam":"bpost - BBOX 24/7 AMP LOKEREN","straatNaam":"BRANDSTRAAT,30","straatNr":"","vervoerder":"Amazon","puntType":"3p","bezettingsgraad":50,"latitude":51.08078,"longitude":4.0035,"canPickup":true,"canDropoff":false,"openingstijden":null}},{"type":"Feature","geometry":{"type":"Point","coordinates":[3.90733,51.100802]},"properties":{"type":"pakketpunt","locatieNaam":"bpost - BBOX 24/7 CARREFOUR ZEVENEKEN","straatNaam":"DRONGENSTRAAT,21","straatNr":"","vervoerder":"Amazon","puntType":"3p","bezettingsgraad":50,"latitude":51.100802,"longitude":3.90733,"canPickup":true,"canDropoff":false,"openingstijden":null}},{"type":"Feature","geometry":{"type":"Point","coordinates":[3.9603757,51.0874803]},"properties":{"type":"pakketpunt","locatieNaam":"ViaTim en Chantal","straatNaam":"Hillarestraat","straatNr":"257","vervoerder":"ViaTim","puntType":"servicepunt","bezettingsgraad":50,"latitude":51.0874803,"longitude":3.9603757,"canPickup":true,"canDropoff":true,"openingstijden":{"ma":"10:00 - 20:00","di":"10:00 - 20:00","wo":"14:00 - 20:00","do":"10:00 - 20:00","vr":"14:00 - 20:00","za":"gesloten","zo":"gesloten"}}},{"type":"Feature","geometry":{"type":"Polygon","coordinates":[[[3.8974968,51.1473328],[3.8982658,51.1473958],[3.8984022,51.1474897],[3.8985977,51.1478544],[3.8991509,51.1480751],[3.9001271,51.1480232],[3.9005503,51.1477446],[3.9011325,51.1476024],[3.9014988,51.1476906],[3.9017139,51.1480244],[3.9021028,51.1482339],[3.9023907,51.1483118],[3.9026831,51.1482477],[3.9029403,51.1499526],[3.9031948,51.1539691],[3.9029357,51.1555504],[3.9089109,51.1560252],[3.9100646,51.1563353],[3.9091936,51.1569985],[3.908116,51.1581741],[3.9077396,51.1586606],[3.9072607,51.1595257],[3.9069223,51.1596978],[3.9057059,51.1616542],[3.9052769,51.162006],[3.9033297,51.1631957],[3.9021335,51.1647009],[3.9021139,51.165249],[3.9017429,51.1671235],[3.9018451,51.167844],[3.901978,51.1681781],[3.9024731,51.1682615],[3.9024963,51.1686807],[3.9036967,51.1710967],[3.9039083,51.1710324],[3.9040289,51.1717825],[3.9057488,51.175893],[3.9056629,51.1758923],[3.9057028,51.1759966],[3.9076357,51.1803577],[3.9077839,51.1803749],[3.9083266,51.1816909],[3.9080692,51.1817497],[3.9105743,51.1879054],[3.9119317,51.1885442],[3.9129338,51.1924674],[3.9123053,51.1925207],[3.9124612,51.1950761],[3.9126379,51.1951486],[3.9142168,51.1951451],[3.9157513,51.1951329],[3.9160107,51.1950668],[3.9175509,51.1953178],[3.9194057,51.1954672],[3.9191778,51.1959691],[3.9187602,51.1963086],[3.918045,51.1978828],[3.9200887,51.1985871],[3.92039,51.1985986],[3.9205915,51.1985163],[3.9221641,51.1989506],[3.9203385,51.204311],[3.9193408,51.206852],[3.9187823,51.207726],[3.9186289,51.2077653],[3.9179435,51.2094645],[3.9180931,51.2095708],[3.9160043,51.2146357],[3.9163182,51.2148027],[3.9167355,51.2148872],[3.9181693,51.2147331],[3.9185272,51.2148381],[3.9186752,51.2149726],[3.9188211,51.2156282],[3.9194513,51.2170032],[3.9196322,51.2170708],[3.9254499,51.2171063],[3.9294185,51.220261],[3.9333299,51.2144947],[3.9359801,51.2118928],[3.9431382,51.2136151],[3.9426191,51.2147097],[3.9466395,51.215508],[3.9492046,51.2155093],[3.9506032,51.2157759],[3.9523516,51.2163128],[3.953171,51.2164725],[3.9539802,51.2164537],[3.9578681,51.2157677],[3.9585634,51.215807],[3.9589024,51.2159867],[3.9590751,51.2162102],[3.9598245,51.2179474],[3.9601795,51.218285],[3.9609652,51.2187813],[3.961204,51.2190919],[3.9615647,51.2202193],[3.9619213,51.2204548],[3.9632249,51.2205632],[3.9635537,51.2207857],[3.9637485,51.2210246],[3.9637278,51.2227675],[3.9636317,51.2231681],[3.9640319,51.2237353],[3.964619,51.2241015],[3.972009,51.2246736],[3.976484,51.2253622],[3.9770319,51.2252892],[3.9777451,51.22503],[3.9796289,51.2236648],[3.9808252,51.2231685],[3.9829236,51.2225234],[3.9839302,51.2223985],[3.985273,51.2224959],[3.9859323,51.2226326],[3.9865145,51.2228877],[3.987405,51.2217444],[3.9913886,51.2184532],[3.9930878,51.2171984],[3.9942121,51.2160472],[3.993794,51.2157042],[3.9925202,51.2153179],[3.9823276,51.2134012],[3.9796712,51.2121185],[3.9780052,51.2112214],[3.9780325,51.2111795],[3.9711234,51.2079537],[3.9716493,51.206787],[3.9717586,51.206769],[3.9723874,51.2056265],[3.9724848,51.2050667],[3.9803865,51.1910647],[3.9821268,51.1876315],[3.9820917,51.1872697],[3.9795767,51.1867622],[3.9798139,51.1863549],[3.9796612,51.1861189],[3.9797406,51.1859477],[3.981539,51.1829661],[3.9819365,51.1823235],[3.9842015,51.1793647],[3.9844251,51.1794448],[3.9857949,51.176414],[3.9872805,51.1765096],[3.9878433,51.1763653],[3.988842,51.175407],[3.9906305,51.1740254],[3.9907888,51.1736772],[3.991117,51.1719188],[3.9920249,51.1685984],[3.9940225,51.1642073],[3.9998012,51.1599786],[4.0009411,51.1586866],[4.0010304,51.1584247],[4.000779,51.158182],[3.9999612,51.1577051],[3.9999512,51.1575875],[4.0005387,51.1567481],[4.0005523,51.1564658],[4.0000304,51.1559342],[3.9998389,51.1553299],[3.999701,51.1551335],[3.9987638,51.1546116],[3.99553,51.1539192],[3.9929291,51.1528511],[3.9915273,51.1520547],[3.9902115,51.1520145],[3.9890738,51.1524439],[3.9887257,51.1525039],[3.9882557,51.1524357],[3.9879236,51.1522731],[3.9877656,51.152104],[3.9876056,51.1516922],[3.9877117,51.1509623],[3.9875347,51.1499676],[3.9874005,51.1498264],[3.9866125,51.1494071],[3.9864495,51.1492132],[3.9863379,51.1487889],[3.9858304,51.1484514],[3.9853255,51.1477307],[3.9864925,51.1458728],[3.9890881,51.1451824],[3.9915578,51.1438454],[3.9915984,51.1437504],[3.9938078,51.1424896],[3.9953488,51.1419024],[3.9972974,51.1409035],[4.0019552,51.1388499],[4.0110104,51.1354338],[4.0122704,51.1341613],[4.0150475,51.1305961],[4.0165955,51.1277701],[4.017274,51.1263115],[4.0210964,51.1214392],[4.0226406,51.1176752],[4.0235176,51.1164241],[4.0246254,51.1143937],[4.0250803,51.1133607],[4.0261411,51.111992],[4.025772,51.1118691],[4.0262791,51.1104644],[4.0263551,51.1096664],[4.0259556,51.1078619],[4.0258516,51.1077883],[4.0260172,51.106454],[4.0259507,51.1057365],[4.0259798,51.1047032],[4.0259032,51.1045346],[4.0257643,51.1043254],[4.0255073,51.1041427],[4.0243579,51.1036156],[4.0229806,51.1027562],[4.0222299,51.1025017],[4.0216091,51.1019743],[4.0209203,51.1010454],[4.0199544,51.100236],[4.0194924,51.0996941],[4.0199904,51.0992545],[4.0202314,51.0992693],[4.0202864,51.0991582],[4.0204722,51.09919],[4.020835,51.0985926],[4.0215287,51.0988597],[4.0218284,51.0988092],[4.0220888,51.0986305],[4.0222732,51.0983255],[4.0219888,51.0975111],[4.0222916,51.0970341],[4.0227836,51.0968889],[4.0239029,51.0969438],[4.0252628,51.096403],[4.0254458,51.0963938],[4.025829,51.0965556],[4.0275259,51.0978099],[4.0288209,51.0985067],[4.0293764,51.0986864],[4.0299706,51.098605],[4.030237,51.0983739],[4.0301468,51.0975564],[4.0302444,51.0972951],[4.0308344,51.0968661],[4.0320979,51.0956574],[4.0340519,51.0948901],[4.015278,51.083824],[4.012227,51.082172],[4.009004,51.080711],[4.004243,51.078853],[3.998264,51.077075],[3.995074,51.076309],[3.991597,51.075664],[3.988234,51.075153],[3.980536,51.07447],[3.9282181,51.0712889],[3.9260289,51.0735148],[3.9229439,51.0763046],[3.9223547,51.0767462],[3.9218399,51.0770172],[3.9217162,51.0769319],[3.9208344,51.0773506],[3.9201616,51.0778316],[3.9190957,51.0789341],[3.9182954,51.0801006],[3.9180904,51.0802661],[3.9170361,51.0807075],[3.9080113,51.0820836],[3.9058912,51.0875518],[3.9020974,51.0923646],[3.901967,51.0923664],[3.904141,51.0970106],[3.9044066,51.0971765],[3.9053383,51.0974032],[3.9050497,51.0980919],[3.9041973,51.0980575],[3.9039677,51.09893],[3.9038648,51.0999203],[3.9037321,51.0998897],[3.9023791,51.1026933],[3.9023077,51.1026896],[3.9013622,51.1048493],[3.9011566,51.1048488],[3.9006387,51.106853],[3.90063,51.1069296],[3.9010049,51.1069377],[3.9009209,51.1081763],[3.9010457,51.1091144],[3.9013873,51.1103929],[3.9015707,51.1115231],[3.9026416,51.1153919],[3.9028506,51.1164019],[3.9019971,51.1215899],[3.9015848,51.1235786],[3.9012529,51.1246583],[3.9010256,51.12506],[3.8980865,51.1282526],[3.897205,51.1293794],[3.8970685,51.1293574],[3.8966258,51.1334529],[3.8967635,51.1339851],[3.8978199,51.1367182],[3.8978422,51.1372447],[3.8984543,51.1396895],[3.8984745,51.1402266],[3.8990772,51.1423861],[3.8987851,51.1440153],[3.8974968,51.1473328]]]},"properties":{"type":"boundary","gemeente":"Lokeren"}}]}