{"type":"FeatureCollection","metadata":{"gemeente":"Lummen","slug":"lummen","generated_at":"2026-09-29T08:27:13.427836Z","total_points":29,"providers":["bpost","DHL","InPost","VintedGo","PostNL","DPD","Amazon"],"bounds":[5.142765,50.965969,5.224184,51.00143]},"features":[{"type":"Feature","geometry":{"type":"Point","coordinates":[5.22418,50.97529]},"properties":{"type":"pakketpunt","locatieNaam":"Bbox 24/7 Kerkfabriek Lummen","straatNaam":"Sint-Janstraat","straatNr":"36","vervoerder":"bpost","puntType":"automaat","bezettingsgraad":50,"latitude":50.97529,"longitude":5.22418,"canPickup":true,"canDropoff":true,"openingstijden":null}},{"type":"Feature","geometry":{"type":"Point","coordinates":[5.19794,50.98681]},"properties":{"type":"pakketpunt","locatieNaam":"Bbox 24/7 Lidl Lummen","straatNaam":"Dokter Vanderhoeydonckstraat","straatNr":"42","vervoerder":"bpost","puntType":"automaat","bezettingsgraad":50,"latitude":50.98681,"longitude":5.19794,"canPickup":true,"canDropoff":true,"openingstijden":null}},{"type":"Feature","geometry":{"type":"Point","coordinates":[5.19285,50.98437]},"properties":{"type":"pakketpunt","locatieNaam":"Bbox 24/7 Carrefour Lummen","straatNaam":"Neerstraat","straatNr":"18","vervoerder":"bpost","puntType":"automaat","bezettingsgraad":50,"latitude":50.98437,"longitude":5.19285,"canPickup":true,"canDropoff":true,"openingstijden":null}},{"type":"Feature","geometry":{"type":"Point","coordinates":[5.19348,50.98667]},"properties":{"type":"pakketpunt","locatieNaam":"Lummen","straatNaam":"Dorpsstraat","straatNr":"13","vervoerder":"bpost","puntType":"postkantoor","bezettingsgraad":50,"latitude":50.98667,"longitude":5.19348,"canPickup":true,"canDropoff":true,"openingstijden":null}},{"type":"Feature","geometry":{"type":"Point","coordinates":[5.19363,50.9869]},"properties":{"type":"pakketpunt","locatieNaam":"Pakjesautomaat Bpost Lummen","straatNaam":"Dorpsstraat","straatNr":"13","vervoerder":"bpost","puntType":"automaat","bezettingsgraad":50,"latitude":50.9869,"longitude":5.19363,"canPickup":true,"canDropoff":true,"openingstijden":null}},{"type":"Feature","geometry":{"type":"Point","coordinates":[5.14333,50.96597]},"properties":{"type":"pakketpunt","locatieNaam":"Spar Express Linkhout Ne","straatNaam":"Linkhoutstraat","straatNr":"154","vervoerder":"bpost","puntType":"servicepunt","bezettingsgraad":50,"latitude":50.96597,"longitude":5.14333,"canPickup":true,"canDropoff":true,"openingstijden":null}},{"type":"Feature","geometry":{"type":"Point","coordinates":[5.14503,50.99712]},"properties":{"type":"pakketpunt","locatieNaam":"Bbox 24/7 Oc Kalen Dries Lummen","straatNaam":"Meldertsebaan","straatNr":"2","vervoerder":"bpost","puntType":"automaat","bezettingsgraad":50,"latitude":50.99712,"longitude":5.14503,"canPickup":true,"canDropoff":true,"openingstijden":null}},{"type":"Feature","geometry":{"type":"Point","coordinates":[5.14333,50.965969]},"properties":{"type":"pakketpunt","locatieNaam":"SPAR EXPRESS LINKHOUT NE","straatNaam":"LINKHOUTSTRAAT","straatNr":"154","vervoerder":"DHL","puntType":"parcelShop","bezettingsgraad":50,"latitude":50.965969,"longitude":5.14333,"canPickup":true,"canDropoff":true,"openingstijden":{"ma":"07:30 - 18:30","di":"07:30 - 18:30","wo":"07:30 - 18:30","do":"07:30 - 12:00","vr":"07:30 - 18:30","za":"08:00 - 17:00","zo":"08:00 - 12:30"}}},{"type":"Feature","geometry":{"type":"Point","coordinates":[5.145033,50.997118]},"properties":{"type":"pakketpunt","locatieNaam":"BBOX 24/7 OC KALEN DRIES LUMMEN","straatNaam":"MELDERTSEBAAN","straatNr":"2","vervoerder":"DHL","puntType":"packStation","bezettingsgraad":50,"latitude":50.997118,"longitude":5.145033,"canPickup":true,"canDropoff":true,"openingstijden":{"ma":"00:00 - 23:59","di":"00:00 - 23:59","wo":"00:00 - 23:59","do":"00:00 - 23:59","vr":"00:00 - 23:59","za":"00:00 - 23:59","zo":"00:00 - 23:59"}}},{"type":"Feature","geometry":{"type":"Point","coordinates":[5.193475,50.986671]},"properties":{"type":"pakketpunt","locatieNaam":"LUMMEN","straatNaam":"DORPSSTRAAT","straatNr":"13","vervoerder":"DHL","puntType":"postOffice","bezettingsgraad":50,"latitude":50.986671,"longitude":5.193475,"canPickup":true,"canDropoff":true,"openingstijden":{"ma":"09:30 - 12:30, 13:30 - 17:00","di":"09:30 - 12:30, 13:30 - 18:00","wo":"09:30 - 12:30, 13:30 - 17:00","do":"09:30 - 12:30, 13:30 - 18:00","vr":"09:30 - 12:30, 13:30 - 17:00","za":"09:30 - 13:00","zo":"gesloten"}}},{"type":"Feature","geometry":{"type":"Point","coordinates":[5.193628,50.986901]},"properties":{"type":"pakketpunt","locatieNaam":"PARCEL LOCKER BPOST LUMMEN","straatNaam":"DORPSSTRAAT","straatNr":"13","vervoerder":"DHL","puntType":"packStation","bezettingsgraad":50,"latitude":50.986901,"longitude":5.193628,"canPickup":true,"canDropoff":true,"openingstijden":{"ma":"06:00 - 23:00","di":"06:00 - 23:00","wo":"06:00 - 23:00","do":"06:00 - 23:00","vr":"06:00 - 23:00","za":"06:00 - 23:00","zo":"06:00 - 23:00"}}},{"type":"Feature","geometry":{"type":"Point","coordinates":[5.192847,50.984374]},"properties":{"type":"pakketpunt","locatieNaam":"BBOX 24/7 CARREFOUR LUMMEN","straatNaam":"NEERSTRAAT","straatNr":"18","vervoerder":"DHL","puntType":"packStation","bezettingsgraad":50,"latitude":50.984374,"longitude":5.192847,"canPickup":true,"canDropoff":true,"openingstijden":{"ma":"00:00 - 23:59","di":"00:00 - 23:59","wo":"00:00 - 23:59","do":"00:00 - 23:59","vr":"00:00 - 23:59","za":"00:00 - 23:59","zo":"00:00 - 23:59"}}},{"type":"Feature","geometry":{"type":"Point","coordinates":[5.197939,50.986809]},"properties":{"type":"pakketpunt","locatieNaam":"BBOX 24/7 LIDL LUMMEN","straatNaam":"DOKTER VANDERHOEYDONCKSTRAAT","straatNr":"42","vervoerder":"DHL","puntType":"packStation","bezettingsgraad":50,"latitude":50.986809,"longitude":5.197939,"canPickup":true,"canDropoff":true,"openingstijden":{"ma":"00:00 - 23:59","di":"00:00 - 23:59","wo":"00:00 - 23:59","do":"00:00 - 23:59","vr":"00:00 - 23:59","za":"00:00 - 23:59","zo":"00:00 - 23:59"}}},{"type":"Feature","geometry":{"type":"Point","coordinates":[5.224184,50.975286]},"properties":{"type":"pakketpunt","locatieNaam":"BBOX 24/7 KERKFABRIEK LUMMEN","straatNaam":"SINT-JANSTRAAT","straatNr":"36","vervoerder":"DHL","puntType":"packStation","bezettingsgraad":50,"latitude":50.975286,"longitude":5.224184,"canPickup":true,"canDropoff":true,"openingstijden":{"ma":"00:00 - 23:59","di":"00:00 - 23:59","wo":"00:00 - 23:59","do":"00:00 - 23:59","vr":"00:00 - 23:59","za":"00:00 - 23:59","zo":"00:00 - 23:59"}}},{"type":"Feature","geometry":{"type":"Point","coordinates":[5.17751,51.00132]},"properties":{"type":"pakketpunt","locatieNaam":"","straatNaam":"Larenstraat","straatNr":"11","vervoerder":"InPost","puntType":"automaat","bezettingsgraad":50,"latitude":51.00132,"longitude":5.17751,"canPickup":true,"canDropoff":true,"openingstijden":"24/7"}},{"type":"Feature","geometry":{"type":"Point","coordinates":[5.1928,50.98446]},"properties":{"type":"pakketpunt","locatieNaam":"","straatNaam":"Neerstraat","straatNr":"19","vervoerder":"InPost","puntType":"automaat","bezettingsgraad":50,"latitude":50.98446,"longitude":5.1928,"canPickup":true,"canDropoff":true,"openingstijden":"24/7"}},{"type":"Feature","geometry":{"type":"Point","coordinates":[5.17783,51.00143]},"properties":{"type":"pakketpunt","locatieNaam":"Brandstoffen Timmermans ","straatNaam":"Larenstraat","straatNr":"11","vervoerder":"VintedGo","puntType":"parcel_shop","bezettingsgraad":50,"latitude":51.00143,"longitude":5.17783,"canPickup":true,"canDropoff":true,"openingstijden":null}},{"type":"Feature","geometry":{"type":"Point","coordinates":[5.1427784,50.9995418]},"properties":{"type":"pakketpunt","locatieNaam":"Spar Express Meldert","straatNaam":"Pastorijstraat","straatNr":"13","vervoerder":"VintedGo","puntType":"parcel_shop","bezettingsgraad":50,"latitude":50.9995418,"longitude":5.1427784,"canPickup":true,"canDropoff":true,"openingstijden":null}},{"type":"Feature","geometry":{"type":"Point","coordinates":[5.1430818546784,50.966059614886]},"properties":{"type":"pakketpunt","locatieNaam":"Spar Express Linkhout","straatNaam":"Linkhoutstraat","straatNr":"156","vervoerder":"PostNL","puntType":"servicepunt","bezettingsgraad":50,"latitude":50.966059614886,"longitude":5.1430818546784,"canPickup":true,"canDropoff":true,"openingstijden":"07:30 - 18:30"}},{"type":"Feature","geometry":{"type":"Point","coordinates":[5.19411,50.98716]},"properties":{"type":"pakketpunt","locatieNaam":"Dagwinkel Luna","straatNaam":"Dorpsstraat","straatNr":"21","vervoerder":"PostNL","puntType":"servicepunt","bezettingsgraad":50,"latitude":50.98716,"longitude":5.19411,"canPickup":true,"canDropoff":true,"openingstijden":"09:00 - 20:00"}},{"type":"Feature","geometry":{"type":"Point","coordinates":[5.142765,50.99953]},"properties":{"type":"pakketpunt","locatieNaam":"Spar Express Meldert","straatNaam":"Pastorijstraat","straatNr":"13","vervoerder":"PostNL","puntType":"servicepunt","bezettingsgraad":50,"latitude":50.99953,"longitude":5.142765,"canPickup":true,"canDropoff":true,"openingstijden":null}},{"type":"Feature","geometry":{"type":"Point","coordinates":[5.14315,50.96616]},"properties":{"type":"pakketpunt","locatieNaam":"SPAR EXPRESS LINKHOUT","straatNaam":"LINKHOUTSTRAAT","straatNr":"156","vervoerder":"DPD","puntType":"pickup_point","bezettingsgraad":50,"latitude":50.96616,"longitude":5.14315,"canPickup":true,"canDropoff":false,"openingstijden":{"ma":"07:30 - 18:30","di":"07:30 - 18:30","wo":"07:30 - 18:30","do":"gesloten","vr":"07:30 - 18:30","za":"08:00 - 17:00","zo":"08:00 - 12:30"}}},{"type":"Feature","geometry":{"type":"Point","coordinates":[5.19889,50.99834]},"properties":{"type":"pakketpunt","locatieNaam":"DPD PUDO LUMMEN","straatNaam":"BOSSTRAAT","straatNr":"46 /BUS","vervoerder":"DPD","puntType":"pickup_point","bezettingsgraad":50,"latitude":50.99834,"longitude":5.19889,"canPickup":true,"canDropoff":false,"openingstijden":{"ma":"09:00 - 17:00","di":"09:00 - 17:00","wo":"09:00 - 17:00","do":"09:00 - 17:00","vr":"09:00 - 17:00","za":"gesloten","zo":"gesloten"}}},{"type":"Feature","geometry":{"type":"Point","coordinates":[5.145033,50.997118]},"properties":{"type":"pakketpunt","locatieNaam":"bpost - BBOX 24/7 OC KALEN DRIES LUMMEN","straatNaam":"MELDERTSEBAAN,2","straatNr":"","vervoerder":"Amazon","puntType":"3p","bezettingsgraad":50,"latitude":50.997118,"longitude":5.145033,"canPickup":true,"canDropoff":false,"openingstijden":null}},{"type":"Feature","geometry":{"type":"Point","coordinates":[5.193475,50.986671]},"properties":{"type":"pakketpunt","locatieNaam":"bpost - LUMMEN","straatNaam":"DORPSSTRAAT,13","straatNr":"","vervoerder":"Amazon","puntType":"3p","bezettingsgraad":50,"latitude":50.986671,"longitude":5.193475,"canPickup":true,"canDropoff":false,"openingstijden":null}},{"type":"Feature","geometry":{"type":"Point","coordinates":[5.192847,50.984374]},"properties":{"type":"pakketpunt","locatieNaam":"bpost - BBOX 24/7 CARREFOUR LUMMEN","straatNaam":"NEERSTRAAT,18","straatNr":"","vervoerder":"Amazon","puntType":"3p","bezettingsgraad":50,"latitude":50.984374,"longitude":5.192847,"canPickup":true,"canDropoff":false,"openingstijden":null}},{"type":"Feature","geometry":{"type":"Point","coordinates":[5.197939,50.986809]},"properties":{"type":"pakketpunt","locatieNaam":"bpost - BBOX 24/7 LIDL LUMMEN","straatNaam":"DOKTER VANDERHOEYDONCKSTRAAT,42","straatNr":"","vervoerder":"Amazon","puntType":"3p","bezettingsgraad":50,"latitude":50.986809,"longitude":5.197939,"canPickup":true,"canDropoff":false,"openingstijden":null}},{"type":"Feature","geometry":{"type":"Point","coordinates":[5.14333,50.965969]},"properties":{"type":"pakketpunt","locatieNaam":"bpost - SPAR EXPRESS LINKHOUT NE","straatNaam":"LINKHOUTSTRAAT,154","straatNr":"","vervoerder":"Amazon","puntType":"3p","bezettingsgraad":50,"latitude":50.965969,"longitude":5.14333,"canPickup":true,"canDropoff":false,"openingstijden":null}},{"type":"Feature","geometry":{"type":"Point","coordinates":[5.224184,50.975286]},"properties":{"type":"pakketpunt","locatieNaam":"bpost - BBOX 24/7 KERKFABRIEK LUMMEN","straatNaam":"SINT-JANSTRAAT,36","straatNr":"","vervoerder":"Amazon","puntType":"3p","bezettingsgraad":50,"latitude":50.975286,"longitude":5.224184,"canPickup":true,"canDropoff":false,"openingstijden":null}},{"type":"Feature","geometry":{"type":"Polygon","coordinates":[[[5.1084758,50.961375],[5.1114777,50.9621518],[5.1126148,50.9617906],[5.1127426,50.9615526],[5.1129884,50.9614983],[5.1149785,50.9626183],[5.1152713,50.9626543],[5.1154525,50.96283],[5.1158247,50.9634095],[5.1160423,50.9641616],[5.1158664,50.9654994],[5.1160601,50.9669644],[5.1164795,50.9689145],[5.1164014,50.9689692],[5.1164832,50.9694483],[5.1205404,50.9705761],[5.1380483,50.9763895],[5.1393837,50.9769387],[5.139257,50.9773905],[5.1383834,50.9786743],[5.1383926,50.9787775],[5.1393585,50.979028],[5.1383135,50.9805747],[5.1382542,50.9807871],[5.1359865,50.9828879],[5.1344581,50.9841531],[5.1343658,50.9841332],[5.1337509,50.9850786],[5.1329685,50.9853086],[5.1321961,50.9860326],[5.130138,50.9873833],[5.1303965,50.9875017],[5.1303554,50.9877289],[5.1316058,50.9883496],[5.1316988,50.9885017],[5.1316994,50.9887009],[5.1314692,50.9889858],[5.131644,50.9891353],[5.1297211,50.9905135],[5.1278705,50.9921527],[5.1261511,50.9934799],[5.1256435,50.9939899],[5.125206,50.9946347],[5.1252486,50.9952075],[5.1253381,50.9954154],[5.1249371,50.9961651],[5.1252065,50.9962192],[5.1244358,50.9977386],[5.1245705,50.9978233],[5.1253012,50.9978496],[5.1223778,51.0016818],[5.1228175,51.0017325],[5.1221571,51.0027477],[5.1229588,51.0027107],[5.1221429,51.0041253],[5.1220123,51.0041026],[5.1208724,51.0058763],[5.1215269,51.0060537],[5.1224809,51.0079083],[5.1223781,51.007876],[5.1220378,51.0082229],[5.121917,51.0081852],[5.1214611,51.0086953],[5.121839,51.0088369],[5.1213841,51.0092568],[5.1210786,51.0091394],[5.1207101,51.0095414],[5.1214298,51.0098259],[5.1201006,51.0112062],[5.1207889,51.0114784],[5.1196954,51.0126788],[5.1192681,51.013371],[5.1178475,51.014914],[5.1173616,51.0151674],[5.1160929,51.0174839],[5.1152737,51.0191995],[5.1180868,51.020296],[5.1182069,51.0204247],[5.1181291,51.0207351],[5.1202456,51.0213842],[5.1204919,51.0213214],[5.1227665,51.0228636],[5.1234043,51.0231467],[5.1231761,51.0233739],[5.1242286,51.0237904],[5.1255557,51.0241596],[5.1273721,51.0245326],[5.1287262,51.0219662],[5.1271255,51.0216061],[5.1250984,51.0207644],[5.1252884,51.0205728],[5.1249191,51.0204801],[5.1239087,51.0196803],[5.1250008,51.0187467],[5.1249222,51.0186734],[5.1250627,51.0183197],[5.1250103,51.0181046],[5.1265698,51.0162409],[5.1270455,51.0159017],[5.1290061,51.0154404],[5.1298612,51.0150475],[5.1406374,51.0175385],[5.1431422,51.0185471],[5.1449544,51.0194388],[5.1472771,51.0201795],[5.1475366,51.0204068],[5.1477001,51.0207559],[5.1478203,51.0208463],[5.1490452,51.0213682],[5.1501216,51.0216246],[5.152246,51.0223438],[5.1568429,51.0233277],[5.1597188,51.0241778],[5.1639081,51.0226322],[5.1643077,51.0229922],[5.165722,51.0222683],[5.1658018,51.0221373],[5.1669024,51.021518],[5.171075,51.0196533],[5.1736509,51.0183753],[5.1762749,51.0167109],[5.1769399,51.0165282],[5.1771145,51.0163657],[5.177582,51.01644],[5.1777822,51.0166712],[5.1782303,51.0165594],[5.1790616,51.0168745],[5.1787231,51.0169582],[5.1789675,51.0172169],[5.1784771,51.0175439],[5.1785568,51.017637],[5.1790896,51.0176753],[5.1789118,51.0178269],[5.1790472,51.0181041],[5.1791538,51.018139],[5.1791677,51.0182294],[5.1790948,51.0181621],[5.1790358,51.0182989],[5.1794003,51.0184091],[5.1800556,51.0184613],[5.1802037,51.0185869],[5.1802555,51.0187536],[5.1804039,51.0186996],[5.1804383,51.0185514],[5.1808026,51.0186198],[5.180816,51.0191306],[5.1810429,51.0191168],[5.1810813,51.0192694],[5.1812066,51.0193478],[5.1817036,51.0194725],[5.1822256,51.019839],[5.1822069,51.0199768],[5.1827302,51.0200501],[5.1826612,51.0202081],[5.1827619,51.0203586],[5.1829507,51.0205095],[5.1830782,51.0204813],[5.1832851,51.0205957],[5.1831473,51.0207471],[5.183061,51.0206432],[5.1830145,51.0207819],[5.1833394,51.0210858],[5.1834058,51.021341],[5.1832323,51.0214245],[5.1832289,51.0212157],[5.1829296,51.0215585],[5.1825847,51.021714],[5.1828891,51.0218764],[5.1829116,51.0220778],[5.1831694,51.0220641],[5.1830891,51.0221381],[5.1832494,51.0224229],[5.1831002,51.0226166],[5.1834822,51.0226118],[5.18355,51.0226903],[5.1833791,51.0228581],[5.1836668,51.0229429],[5.1839733,51.0228243],[5.1841707,51.0228571],[5.1842489,51.023021],[5.1840039,51.0231773],[5.1841137,51.0232838],[5.1845456,51.023313],[5.1846656,51.0234606],[5.1845684,51.0236887],[5.1847038,51.0237904],[5.1848725,51.0237733],[5.1848425,51.0240627],[5.1852217,51.0239957],[5.1854574,51.0242133],[5.1854166,51.0243081],[5.1858702,51.0245902],[5.1858882,51.0247502],[5.185687,51.0248123],[5.1857231,51.0249034],[5.1863475,51.0247996],[5.1863871,51.025084],[5.1865748,51.025125],[5.1866672,51.0249131],[5.1867896,51.0248558],[5.1869534,51.0248742],[5.1872402,51.0250808],[5.1872786,51.024932],[5.1877929,51.024917],[5.1878387,51.024956],[5.187676,51.025203],[5.1877446,51.0253123],[5.1876801,51.0257647],[5.1883546,51.0256975],[5.1884633,51.0257684],[5.1885045,51.0261524],[5.189075,51.0262162],[5.1892891,51.0260358],[5.1896465,51.0260288],[5.1898029,51.0258893],[5.1902994,51.0258794],[5.190694,51.0262067],[5.1919615,51.0266468],[5.1920776,51.0267076],[5.1920851,51.0268217],[5.1923977,51.0268311],[5.1924138,51.0270039],[5.1925815,51.0268801],[5.1929878,51.02697],[5.1937734,51.0266677],[5.1939204,51.0268863],[5.1941943,51.0267718],[5.1945318,51.0269108],[5.1949489,51.026753],[5.1952201,51.026737],[5.1953279,51.0267786],[5.1951817,51.0269625],[5.1951913,51.0271069],[5.1955961,51.0272146],[5.1957235,51.0271337],[5.1958672,51.027155],[5.1960266,51.0273216],[5.1968363,51.0275557],[5.1970743,51.0279767],[5.1980896,51.0286679],[5.1994471,51.0291368],[5.1997475,51.0291036],[5.2000404,51.0291719],[5.2003406,51.0290738],[5.200591,51.0297488],[5.2008682,51.0299293],[5.2020187,51.0303712],[5.2019965,51.0304857],[5.2025108,51.0310968],[5.203007,51.0315139],[5.2030466,51.031789],[5.2033287,51.0321484],[5.2032684,51.0324003],[5.2033135,51.0326662],[5.2029911,51.0330824],[5.2030226,51.0332524],[5.2039869,51.033653],[5.2042581,51.0340309],[5.2038122,51.0345286],[5.2036414,51.0348933],[5.2036129,51.0353449],[5.2033475,51.0358279],[5.2033735,51.0364408],[5.2031497,51.0366134],[5.2024309,51.0366924],[5.2019997,51.0377475],[5.2016894,51.0380497],[5.2013825,51.0386933],[5.2011723,51.0389116],[5.2010613,51.0392726],[5.2009791,51.0393473],[5.200734,51.0393589],[5.2007267,51.0394435],[5.2017967,51.0394484],[5.20164,51.0403657],[5.2020141,51.0405101],[5.2022542,51.0404869],[5.2026239,51.0407181],[5.2033138,51.0409286],[5.2034886,51.0410386],[5.2038005,51.0414447],[5.2048116,51.0403132],[5.2036402,51.0393207],[5.2055056,51.0369037],[5.2068132,51.0361421],[5.2077861,51.0359819],[5.2107152,51.0363439],[5.2111015,51.0362398],[5.2123915,51.0348451],[5.2138547,51.0350895],[5.2141567,51.0351041],[5.2143054,51.0349556],[5.2145255,51.0349843],[5.2146075,51.0350406],[5.2145153,51.035197],[5.2148773,51.0353458],[5.2158888,51.0345806],[5.2166485,51.0350366],[5.2180083,51.034508],[5.2212322,51.0344045],[5.22334,51.0345951],[5.2236403,51.0337987],[5.2250893,51.0308514],[5.2246562,51.0307317],[5.2242756,51.030497],[5.2262542,51.0287082],[5.2276686,51.0271678],[5.2283378,51.0262396],[5.2290049,51.0256582],[5.2299253,51.0245633],[5.230041,51.0243299],[5.2301072,51.0238797],[5.231736,51.0223347],[5.2327695,51.0215625],[5.2353294,51.0202143],[5.2359805,51.0195098],[5.2376407,51.0180254],[5.2382067,51.0173674],[5.2389282,51.0163389],[5.2395381,51.0166589],[5.2406274,51.0150515],[5.2404604,51.0149485],[5.2420493,51.0141373],[5.2422719,51.0141261],[5.2446527,51.0129776],[5.2456354,51.0123954],[5.2473383,51.0130457],[5.2492617,51.013375],[5.2498076,51.0129421],[5.2500577,51.0129202],[5.250286,51.0130039],[5.2512563,51.0119743],[5.2515074,51.0115411],[5.2526867,51.0106799],[5.2529568,51.0105792],[5.2525022,51.010496],[5.252082,51.0100121],[5.2520432,51.0098744],[5.2521941,51.0097446],[5.2520549,51.0096047],[5.2520144,51.0093769],[5.2516623,51.0092377],[5.2517066,51.0090634],[5.2516382,51.0088565],[5.2513298,51.0087755],[5.2510099,51.0084612],[5.2508308,51.0084825],[5.2494119,51.0074064],[5.2477875,51.0070281],[5.2468802,51.0062754],[5.246431,51.0061408],[5.2456813,51.0057638],[5.2446604,51.0055359],[5.2445135,51.0054176],[5.2444924,51.005164],[5.2443435,51.004922],[5.2434939,51.0042897],[5.2433806,51.0040882],[5.2423614,51.0040382],[5.2422011,51.0039],[5.2391417,51.0028877],[5.2387454,51.0029588],[5.238438,51.0028647],[5.2383505,51.0029597],[5.2364987,51.0026453],[5.2365135,51.002797],[5.2363365,51.0028681],[5.2361001,51.0027095],[5.2355663,51.0026016],[5.2354436,51.002605],[5.2353689,51.0027158],[5.2351265,51.0027002],[5.2350007,51.0028561],[5.2345075,51.0028379],[5.2343107,51.0029901],[5.2333062,51.0028538],[5.2331004,51.0026413],[5.2327755,51.0028308],[5.2324275,51.0027746],[5.2320746,51.0029346],[5.230731,51.0023429],[5.2306323,51.002061],[5.2306163,51.0016225],[5.2305216,51.0016054],[5.2304991,51.0017111],[5.2304137,51.0017141],[5.2301032,51.0013453],[5.2299999,51.0013603],[5.2299225,51.0014835],[5.2296497,51.0014338],[5.2297408,51.0015525],[5.2296787,51.0015989],[5.2293065,51.0016306],[5.2300258,50.9997126],[5.2305502,50.9986183],[5.2304883,50.9986006],[5.2309542,50.9977046],[5.2340975,50.9967481],[5.2361427,50.9950064],[5.2379692,50.9929507],[5.237814,50.992882],[5.2393009,50.9917048],[5.2401871,50.9908333],[5.2402109,50.9907803],[5.2400297,50.9906634],[5.2391432,50.990334],[5.239008,50.9903558],[5.2390593,50.9901743],[5.2388963,50.9901287],[5.2391317,50.9897277],[5.2388671,50.9896627],[5.23817,50.989061],[5.2393188,50.9875879],[5.2396517,50.9866679],[5.2394274,50.9864203],[5.240601,50.9858349],[5.2404161,50.9857133],[5.2405233,50.9855584],[5.2418904,50.9838041],[5.2420571,50.9838099],[5.242408,50.9833944],[5.2443206,50.9809575],[5.2446718,50.9802575],[5.2476576,50.9762778],[5.2489989,50.9730654],[5.2495296,50.9725731],[5.2456179,50.9729877],[5.2445902,50.9733167],[5.2396543,50.9692636],[5.2392105,50.969317],[5.2386687,50.9686635],[5.2382454,50.9673583],[5.2388863,50.966375],[5.2389119,50.9657635],[5.2387225,50.9653037],[5.2382402,50.9654972],[5.2377132,50.9653708],[5.2371042,50.9654584],[5.2365575,50.965234],[5.234739,50.9651383],[5.2313996,50.9650311],[5.2312883,50.9650554],[5.2313222,50.9651981],[5.2312647,50.9652203],[5.2304715,50.9641918],[5.2297944,50.9642129],[5.22859,50.9647597],[5.2281306,50.9646218],[5.2276252,50.9649311],[5.2272088,50.9649339],[5.2271298,50.9651812],[5.2268586,50.9655008],[5.2270604,50.9656012],[5.227049,50.9657238],[5.2266789,50.9658061],[5.2262477,50.9657803],[5.2257436,50.9660802],[5.2255844,50.9660904],[5.225608,50.9663456],[5.2254719,50.9664985],[5.2249286,50.9665003],[5.2246786,50.9668305],[5.2244055,50.9669233],[5.2236257,50.9668233],[5.2235315,50.9666321],[5.223275,50.966424],[5.2221522,50.9660095],[5.2215867,50.9663122],[5.2219659,50.9666111],[5.2218845,50.9668932],[5.2219067,50.9671771],[5.2216554,50.967346],[5.2214848,50.9673372],[5.2210617,50.9671264],[5.2205712,50.9664364],[5.2191504,50.9671376],[5.2188056,50.9670088],[5.2185279,50.9667758],[5.2181436,50.9667385],[5.2180921,50.9664793],[5.2177602,50.9662954],[5.2167914,50.9662631],[5.2163652,50.9659382],[5.2159302,50.96594],[5.2151504,50.9662104],[5.212344,50.9677757],[5.2118948,50.967852],[5.2094473,50.9678823],[5.2082709,50.9680214],[5.1996784,50.9708164],[5.1989145,50.9706517],[5.1985618,50.97065],[5.1959003,50.9712333],[5.1949178,50.9712536],[5.1945808,50.9711946],[5.194152,50.9709893],[5.1937566,50.9706029],[5.1930901,50.9706042],[5.1899029,50.9700332],[5.1887445,50.9699825],[5.1869767,50.9710132],[5.1863333,50.9711411],[5.1840176,50.9706068],[5.1819481,50.9700121],[5.1804645,50.9699182],[5.1789617,50.9695617],[5.1745364,50.9687177],[5.1732629,50.9688057],[5.1716834,50.9686355],[5.1666549,50.9683737],[5.1649685,50.9676076],[5.1627953,50.9673143],[5.1609934,50.9667511],[5.1583334,50.9660704],[5.1535656,50.9638064],[5.1532638,50.9637185],[5.1526005,50.9637269],[5.1512841,50.9633699],[5.1492482,50.9621159],[5.1484518,50.9617616],[5.1452933,50.9606268],[5.1404588,50.9592087],[5.1376127,50.9580714],[5.1345528,50.9585945],[5.1332112,50.9587159],[5.1319934,50.9585967],[5.1315214,50.9583075],[5.130951,50.9584867],[5.130667,50.9584866],[5.130086,50.9582879],[5.1294171,50.9578954],[5.1283855,50.9584892],[5.1276257,50.9583555],[5.1264729,50.9561729],[5.1244914,50.9568849],[5.1245466,50.9566913],[5.1224128,50.9570493],[5.1222791,50.9569063],[5.1224103,50.9561226],[5.1181186,50.9571934],[5.1175976,50.957382],[5.1174679,50.9582012],[5.1175608,50.9583464],[5.1177678,50.9583651],[5.1183374,50.9580916],[5.1183564,50.9583342],[5.1180284,50.9587613],[5.1136806,50.9588371],[5.1095864,50.9593413],[5.1085206,50.9598107],[5.10889,50.9601723],[5.1096481,50.960686],[5.1098602,50.9610937],[5.1086168,50.9612463],[5.1084582,50.9612852],[5.1084758,50.961375]]]},"properties":{"type":"boundary","gemeente":"Lummen"}}]}