{
  "type": "FeatureCollection",
  "metadata": {
    "gemeente": "Malle",
    "slug": "malle",
    "generated_at": "2026-09-25T22:11:41.301914Z",
    "total_points": 17,
    "providers": [
      "bpost",
      "DHL",
      "GLS",
      "InPost",
      "VintedGo",
      "PostNL",
      "DPD",
      "Amazon",
      "ViaTim"
    ],
    "bounds": [
      4.69277,
      51.2967,
      4.739721,
      51.3036319
    ]
  },
  "features": [
    {
      "type": "Feature",
      "geometry": {
        "type": "Point",
        "coordinates": [
          4.73972,
          51.30139
        ]
      },
      "properties": {
        "type": "pakketpunt",
        "locatieNaam": "Malle",
        "straatNaam": "Turnhoutsebaan",
        "straatNr": "55-57",
        "vervoerder": "bpost",
        "puntType": "postkantoor",
        "bezettingsgraad": 50,
        "latitude": 51.30139,
        "longitude": 4.73972,
        "canPickup": true,
        "canDropoff": true,
        "openingstijden": null
      }
    },
    {
      "type": "Feature",
      "geometry": {
        "type": "Point",
        "coordinates": [
          4.73395,
          51.30281
        ]
      },
      "properties": {
        "type": "pakketpunt",
        "locatieNaam": "Bbox Delhaize Oostmalle",
        "straatNaam": "Hoogstraatsebaan",
        "straatNr": "23",
        "vervoerder": "bpost",
        "puntType": "automaat",
        "bezettingsgraad": 50,
        "latitude": 51.30281,
        "longitude": 4.73395,
        "canPickup": true,
        "canDropoff": true,
        "openingstijden": null
      }
    },
    {
      "type": "Feature",
      "geometry": {
        "type": "Point",
        "coordinates": [
          4.739721,
          51.301388
        ]
      },
      "properties": {
        "type": "pakketpunt",
        "locatieNaam": "MALLE",
        "straatNaam": "TURNHOUTSEBAAN",
        "straatNr": "55-57",
        "vervoerder": "DHL",
        "puntType": "postOffice",
        "bezettingsgraad": 50,
        "latitude": 51.301388,
        "longitude": 4.739721,
        "canPickup": true,
        "canDropoff": true,
        "openingstijden": {
          "ma": "09:30 - 12:30, 14:30 - 17:00",
          "di": "14:30 - 18:00",
          "wo": "14:00 - 17:00",
          "do": "14:30 - 18:00",
          "vr": "09:30 - 12:30, 14:30 - 17:00",
          "za": "09:30 - 13:00",
          "zo": "gesloten"
        }
      }
    },
    {
      "type": "Feature",
      "geometry": {
        "type": "Point",
        "coordinates": [
          4.733946,
          51.302809
        ]
      },
      "properties": {
        "type": "pakketpunt",
        "locatieNaam": "BBOX DELHAIZE OOSTMALLE",
        "straatNaam": "HOOGSTRAATSEBAAN",
        "straatNr": "23",
        "vervoerder": "DHL",
        "puntType": "packStation",
        "bezettingsgraad": 50,
        "latitude": 51.302809,
        "longitude": 4.733946,
        "canPickup": true,
        "canDropoff": true,
        "openingstijden": {
          "ma": "13:00 - 19:00",
          "di": "08:00 - 19:00",
          "wo": "08:00 - 19:00",
          "do": "08:00 - 19:00",
          "vr": "08:00 - 19:00",
          "za": "08:00 - 18:00",
          "zo": "08:00 - 13:00"
        }
      }
    },
    {
      "type": "Feature",
      "geometry": {
        "type": "Point",
        "coordinates": [
          4.6929895,
          51.2968994
        ]
      },
      "properties": {
        "type": "pakketpunt",
        "locatieNaam": "ViaTim - Elektronische sigaretten",
        "straatNaam": "Antwerpsesteenweg",
        "straatNr": "259",
        "vervoerder": "GLS",
        "puntType": "parcel_shop",
        "bezettingsgraad": 50,
        "latitude": 51.2968994,
        "longitude": 4.6929895,
        "canPickup": true,
        "canDropoff": true,
        "openingstijden": "vr: 10:00 - 12:30, 13:00 - 17:30; za: 10:00 - 12:30, 13:00 - 17:00"
      }
    },
    {
      "type": "Feature",
      "geometry": {
        "type": "Point",
        "coordinates": [
          4.70315,
          51.29883
        ]
      },
      "properties": {
        "type": "pakketpunt",
        "locatieNaam": "Geronika Elektro",
        "straatNaam": "Antwerpsesteenweg",
        "straatNr": "146c",
        "vervoerder": "GLS",
        "puntType": "parcel_shop",
        "bezettingsgraad": 50,
        "latitude": 51.29883,
        "longitude": 4.70315,
        "canPickup": true,
        "canDropoff": true,
        "openingstijden": "vr: 09:30 - 12:30, 13:00 - 16:00; za: 09:30 - 12:30, 13:00 - 16:00"
      }
    },
    {
      "type": "Feature",
      "geometry": {
        "type": "Point",
        "coordinates": [
          4.7356601,
          51.3035207
        ]
      },
      "properties": {
        "type": "pakketpunt",
        "locatieNaam": "Magic Tour Club",
        "straatNaam": "Hoogstraatsebaan",
        "straatNr": "26 A",
        "vervoerder": "GLS",
        "puntType": "parcel_shop",
        "bezettingsgraad": 50,
        "latitude": 51.3035207,
        "longitude": 4.7356601,
        "canPickup": true,
        "canDropoff": true,
        "openingstijden": "vr: 10:00 - 18:00; za: 10:00 - 18:00"
      }
    },
    {
      "type": "Feature",
      "geometry": {
        "type": "Point",
        "coordinates": [
          4.7345631,
          51.3036319
        ]
      },
      "properties": {
        "type": "pakketpunt",
        "locatieNaam": "GLS Parcel Locker powered by bbox",
        "straatNaam": "Hoogstraatsebaan",
        "straatNr": "23",
        "vervoerder": "GLS",
        "puntType": "locker",
        "bezettingsgraad": 50,
        "latitude": 51.3036319,
        "longitude": 4.7345631,
        "canPickup": true,
        "canDropoff": true,
        "openingstijden": "vr: 08:00 - 12:30, 13:00 - 19:00; za: 08:00 - 12:30, 13:00 - 18:00"
      }
    },
    {
      "type": "Feature",
      "geometry": {
        "type": "Point",
        "coordinates": [
          4.69361,
          51.2968
        ]
      },
      "properties": {
        "type": "pakketpunt",
        "locatieNaam": "E-WAY ELEKTRONISCHE SIGARETTEN (WESTMALLE)",
        "straatNaam": "Antwerpsesteenweg 259",
        "straatNr": "",
        "vervoerder": "InPost",
        "puntType": "servicepunt",
        "bezettingsgraad": 50,
        "latitude": 51.2968,
        "longitude": 4.69361,
        "canPickup": true,
        "canDropoff": true,
        "openingstijden": null
      }
    },
    {
      "type": "Feature",
      "geometry": {
        "type": "Point",
        "coordinates": [
          4.69277,
          51.29699
        ]
      },
      "properties": {
        "type": "pakketpunt",
        "locatieNaam": "ODETTE",
        "straatNaam": "Antwerpsesteenweg 257",
        "straatNr": "",
        "vervoerder": "InPost",
        "puntType": "servicepunt",
        "bezettingsgraad": 50,
        "latitude": 51.29699,
        "longitude": 4.69277,
        "canPickup": true,
        "canDropoff": true,
        "openingstijden": null
      }
    },
    {
      "type": "Feature",
      "geometry": {
        "type": "Point",
        "coordinates": [
          4.69292,
          51.2967
        ]
      },
      "properties": {
        "type": "pakketpunt",
        "locatieNaam": "E-Way Elektronische Sigaretten BV",
        "straatNaam": "Antwerpsesteenweg",
        "straatNr": "259",
        "vervoerder": "VintedGo",
        "puntType": "parcel_shop",
        "bezettingsgraad": 50,
        "latitude": 51.2967,
        "longitude": 4.69292,
        "canPickup": true,
        "canDropoff": true,
        "openingstijden": null
      }
    },
    {
      "type": "Feature",
      "geometry": {
        "type": "Point",
        "coordinates": [
          4.7356923,
          51.3033732
        ]
      },
      "properties": {
        "type": "pakketpunt",
        "locatieNaam": "Magic Tour Club",
        "straatNaam": "Hoogstraatsebaan",
        "straatNr": "26A",
        "vervoerder": "VintedGo",
        "puntType": "parcel_shop",
        "bezettingsgraad": 50,
        "latitude": 51.3033732,
        "longitude": 4.7356923,
        "canPickup": true,
        "canDropoff": true,
        "openingstijden": null
      }
    },
    {
      "type": "Feature",
      "geometry": {
        "type": "Point",
        "coordinates": [
          4.73462519228881,
          51.3017025061941
        ]
      },
      "properties": {
        "type": "pakketpunt",
        "locatieNaam": "UNIQ Mobile Repair Store Malle",
        "straatNaam": "Dorpsplaats",
        "straatNr": "22-1",
        "vervoerder": "PostNL",
        "puntType": "servicepunt",
        "bezettingsgraad": 50,
        "latitude": 51.3017025061941,
        "longitude": 4.73462519228881,
        "canPickup": true,
        "canDropoff": true,
        "openingstijden": "10:00 - 18:00"
      }
    },
    {
      "type": "Feature",
      "geometry": {
        "type": "Point",
        "coordinates": [
          4.73452,
          51.30168
        ]
      },
      "properties": {
        "type": "pakketpunt",
        "locatieNaam": "UNIQ MOBILE REPAIR STORE MALLE",
        "straatNaam": "DORPSPLAATS",
        "straatNr": "22",
        "vervoerder": "DPD",
        "puntType": "pickup_point",
        "bezettingsgraad": 50,
        "latitude": 51.30168,
        "longitude": 4.73452,
        "canPickup": true,
        "canDropoff": false,
        "openingstijden": {
          "ma": "10:00 - 18:00",
          "di": "10:00 - 18:00",
          "wo": "10:00 - 18:00",
          "do": "10:00 - 18:00",
          "vr": "10:00 - 18:00",
          "za": "10:00 - 18:00",
          "zo": "gesloten"
        }
      }
    },
    {
      "type": "Feature",
      "geometry": {
        "type": "Point",
        "coordinates": [
          4.733946,
          51.302809
        ]
      },
      "properties": {
        "type": "pakketpunt",
        "locatieNaam": "bpost - BBOX DELHAIZE OOSTMALLE",
        "straatNaam": "HOOGSTRAATSEBAAN,23",
        "straatNr": "",
        "vervoerder": "Amazon",
        "puntType": "3p",
        "bezettingsgraad": 50,
        "latitude": 51.302809,
        "longitude": 4.733946,
        "canPickup": true,
        "canDropoff": false,
        "openingstijden": null
      }
    },
    {
      "type": "Feature",
      "geometry": {
        "type": "Point",
        "coordinates": [
          4.7397208,
          51.3013877
        ]
      },
      "properties": {
        "type": "pakketpunt",
        "locatieNaam": "bpost - MALLE",
        "straatNaam": "TURNHOUTSEBAAN,55-57",
        "straatNr": "",
        "vervoerder": "Amazon",
        "puntType": "3p",
        "bezettingsgraad": 50,
        "latitude": 51.3013877,
        "longitude": 4.7397208,
        "canPickup": true,
        "canDropoff": false,
        "openingstijden": null
      }
    },
    {
      "type": "Feature",
      "geometry": {
        "type": "Point",
        "coordinates": [
          4.692989499999999,
          51.2967451
        ]
      },
      "properties": {
        "type": "pakketpunt",
        "locatieNaam": "ViaTim & E-Way Elektronische Sigaretten BV",
        "straatNaam": "Antwerpsesteenweg",
        "straatNr": "259",
        "vervoerder": "ViaTim",
        "puntType": "servicepunt",
        "bezettingsgraad": 50,
        "latitude": 51.2967451,
        "longitude": 4.692989499999999,
        "canPickup": true,
        "canDropoff": true,
        "openingstijden": {
          "ma": "11:00 - 17:30",
          "di": "10:00 - 17:30",
          "wo": "10:00 - 17:30",
          "do": "10:00 - 17:30",
          "vr": "10:00 - 17:30",
          "za": "10:00 - 17:00",
          "zo": "gesloten"
        }
      }
    },
    {
      "type": "Feature",
      "geometry": {
        "type": "MultiPolygon",
        "coordinates": [
          [
            [
              [
                4.693322308700032,
                51.29401536624837
              ],
              [
                4.692900671470008,
                51.294003570694834
              ],
              [
                4.692479220352055,
                51.29401774174354
              ],
              [
                4.692062013451715,
                51.29405774294264
              ],
              [
                4.691653068028491,
                51.29412318912331
              ],
              [
                4.691256321833233,
                51.294213450106696
              ],
              [
                4.690875595209146,
                51.29432765676877
              ],
              [
                4.690514554320537,
                51.294464709405304
              ],
              [
                4.690176675862598,
                51.29462328831602
              ],
              [
                4.6898652135914585,
                51.294801866506724
              ],
              [
                4.689583166996349,
                51.29499872438713
              ],
              [
                4.689333252415293,
                51.295211966323166
              ],
              [
                4.689117876872405,
                51.29543953888476
              ],
              [
                4.688939114888867,
                51.29567925061341
              ],
              [
                4.688798688491203,
                51.29592879312004
              ],
              [
                4.688768448424896,
                51.296005932193076
              ],
              [
                4.688648665302094,
                51.296218787992814
              ],
              [
                4.688547925965092,
                51.296475758023746
              ],
              [
                4.688487846165735,
                51.29673768112528
              ],
              [
                4.688469005180074,
                51.29700203489565
              ],
              [
                4.688491585157556,
                51.297266273482805
              ],
              [
                4.688555369339897,
                51.29752785210162
              ],
              [
                4.688659744121722,
                51.2977842515424
              ],
              [
                4.688803704934117,
                51.298033002434764
              ],
              [
                4.6889858658954555,
                51.298271709033
              ],
              [
                4.689204473137447,
                51.29849807229375
              ],
              [
                4.689457421678884,
                51.2987099120235
              ],
              [
                4.689742275685231,
                51.29890518788241
              ],
              [
                4.6900562919194195,
                51.29908201904189
              ],
              [
                4.6903964461583,
                51.29923870230621
              ],
              [
                4.690759462320456,
                51.299373728523605
              ],
              [
                4.691141844024728,
                51.299485797128
              ],
              [
                4.691539908275235,
                51.2995738286716
              ],
              [
                4.691949820947972,
                51.299636975226846
              ],
              [
                4.692367633736557,
                51.299674628557696
              ],
              [
                4.692789322200555,
                51.29968642598108
              ],
              [
                4.693210824548963,
                51.29967225386211
              ],
              [
                4.693628080784413,
                51.29963224870918
              ],
              [
                4.69403707183005,
                51.29956679585836
              ],
              [
                4.694433858261225,
                51.29947652576006
              ],
              [
                4.694639666605893,
                51.299414788962686
              ],
              [
                4.6948771131581815,
                51.299376787075275
              ],
              [
                4.695273896340581,
                51.299286514155696
              ],
              [
                4.6956546527318705,
                51.299172293589436
              ],
              [
                4.6960157149986035,
                51.299035225551364
              ],
              [
                4.696353605587872,
                51.298876630273206
              ],
              [
                4.6966650702305515,
                51.29869803532163
              ],
              [
                4.696947109289309,
                51.29850116087897
              ],
              [
                4.697197006649154,
                51.29828790316872
              ],
              [
                4.6974123558722,
                51.2980603161855
              ],
              [
                4.697591083364903,
                51.2978205919061
              ],
              [
                4.697731468334928,
                51.29757103917227
              ],
              [
                4.697832159345986,
                51.297314061448844
              ],
              [
                4.6978921873118455,
                51.29705213367196
              ],
              [
                4.697910974805214,
                51.296787778410184
              ],
              [
                4.6978883415927335,
                51.296523541568426
              ],
              [
                4.697824506343821,
                51.296261967868745
              ],
              [
                4.6977200844978775,
                51.296005576344264
              ],
              [
                4.697576082311497,
                51.29575683608186
              ],
              [
                4.697393887143943,
                51.29551814244759
              ],
              [
                4.6971752540754,
                51.29529179402329
              ],
              [
                4.696922288987641,
                51.29507997047645
              ],
              [
                4.696637428270721,
                51.29488471157619
              ],
              [
                4.696323415351599,
                51.29470789755716
              ],
              [
                4.695983274271052,
                51.29455123102008
              ],
              [
                4.695620280563392,
                51.29441622054305
              ],
              [
                4.695237929719365,
                51.29430416616109
              ],
              [
                4.694839903535624,
                51.29421614685326
              ],
              [
                4.694430034674334,
                51.29415301015802
              ],
              [
                4.69423858829752,
                51.29413575849839
              ],
              [
                4.694149939190625,
                51.294116153911474
              ],
              [
                4.693740072145459,
                51.29405301482575
              ],
              [
                4.693322308700032,
                51.29401536624837
              ]
            ]
          ],
          [
            [
              [
                4.707116041435224,
                51.29778651750134
              ],
              [
                4.706933789407409,
                51.29754783874628
              ],
              [
                4.7067151004206265,
                51.297321508125755
              ],
              [
                4.706462080895043,
                51.297109705135746
              ],
              [
                4.706177167744823,
                51.2969144693474
              ],
              [
                4.705863104901712,
                51.29673768077277
              ],
              [
                4.705522916887096,
                51.296581041767524
              ],
              [
                4.7051598796870975,
                51.29644606064464
              ],
              [
                4.70477748921113,
                51.29633403715646
              ],
              [
                4.7043794276373445,
                51.296246049984575
              ],
              [
                4.703969527968572,
                51.29618294635798
              ],
              [
                4.703551737139462,
                51.29614533389895
              ],
              [
                4.703130078029289,
                51.29613357477522
              ],
              [
                4.702708610745353,
                51.296147782214376
              ],
              [
                4.702291393548841,
                51.29618781941418
              ],
              [
                4.701882443798411,
                51.29625330085919
              ],
              [
                4.701485699286621,
                51.296343596030944
              ],
              [
                4.701104980340541,
                51.29645783547627
              ],
              [
                4.700743953050643,
                51.2965949191752
              ],
              [
                4.7004060939812975,
                51.29675352712834
              ],
              [
                4.70009465670208,
                51.296932132061855
              ],
              [
                4.699812640461724,
                51.29712901412792
              ],
              [
                4.699562761306116,
                51.297342277459535
              ],
              [
                4.699347425918412,
                51.29756986842051
              ],
              [
                4.699168708433275,
                51.297809595375185
              ],
              [
                4.699028330448878,
                51.29805914978779
              ],
              [
                4.698927644429639,
                51.298316128448526
              ],
              [
                4.698867620660208,
                51.29857805661253
              ],
              [
                4.698848837877147,
                51.298842411829284
              ],
              [
                4.698871477669453,
                51.29910664823274
              ],
              [
                4.6989353227028285,
                51.29936822105873
              ],
              [
                4.699039758785862,
                51.299624611153284
              ],
              [
                4.69918378075923,
                51.299873349236
              ],
              [
                4.6993660021522095,
                51.30011203968447
              ],
              [
                4.699584668514402,
                51.30033838361082
              ],
              [
                4.699837674295092,
                51.30055020100772
              ],
              [
                4.7001225831083255,
                51.30074545175037
              ],
              [
                4.7004366511890225,
                51.300922255252054
              ],
              [
                4.7007768538145225,
                51.30107890858344
              ],
              [
                4.701139914437213,
                51.301213902881
              ],
              [
                4.701522336247559,
                51.30132593788613
              ],
              [
                4.701920435863248,
                51.301413934474624
              ],
              [
                4.7023303788195205,
                51.30147704505563
              ],
              [
                4.702748216518211,
                51.301514661739596
              ],
              [
                4.703169924278875,
                51.30152642219644
              ],
              [
                4.703591440124599,
                51.30151221314734
              ],
              [
                4.704008703927997,
                51.3014721714564
              ],
              [
                4.704417696539333,
                51.30140668281166
              ],
              [
                4.7048144785189265,
                51.30131637800827
              ],
              [
                4.705195228099845,
                51.30120212686955
              ],
              [
                4.705556278014332,
                51.3010650298648
              ],
              [
                4.705894150828569,
                51.30090640750476
              ],
              [
                4.706205592444773,
                51.300727787616935
              ],
              [
                4.706487603447542,
                51.30053089062385
              ],
              [
                4.706737467992266,
                51.300317612966076
              ],
              [
                4.706952779957279,
                51.300090008830416
              ],
              [
                4.707131466108037,
                51.29985027035879
              ],
              [
                4.70727180605053,
                51.299600706529574
              ],
              [
                4.70737244878227,
                51.29934372091444
              ],
              [
                4.7074324256821205,
                51.299081788525505
              ],
              [
                4.707451159814691,
                51.298817431975635
              ],
              [
                4.707428471460596,
                51.298553197182116
              ],
              [
                4.707364579820336,
                51.29829162884726
              ],
              [
                4.707260100876397,
                51.29803524595241
              ],
              [
                4.707116041435224,
                51.29778651750134
              ]
            ]
          ],
          [
            [
              [
                4.730142267409811,
                51.301549859318094
              ],
              [
                4.729963693262024,
                51.30178963232272
              ],
              [
                4.729823468393327,
                51.302039222799515
              ],
              [
                4.729722943794008,
                51.302296227191206
              ],
              [
                4.729663088194533,
                51.302558170505016
              ],
              [
                4.729644478712174,
                51.30282253014432
              ],
              [
                4.729667295267119,
                51.30308676020031
              ],
              [
                4.729731318822806,
                51.30334831596977
              ],
              [
                4.729835933468498,
                51.30360467846282
              ],
              [
                4.729980132325038,
                51.303853378664705
              ],
              [
                4.730162527217942,
                51.304092021317715
              ],
              [
                4.730381362025532,
                51.30431830799411
              ],
              [
                4.730422366007525,
                51.304352604202094
              ],
              [
                4.7304529713498855,
                51.3044275996004
              ],
              [
                4.730597176053105,
                51.30467629896563
              ],
              [
                4.730779577334747,
                51.30491494058647
              ],
              [
                4.730998419011617,
                51.305141226045116
              ],
              [
                4.7312515938441635,
                51.30535297589724
              ],
              [
                4.731536663817838,
                51.30554815066849
              ],
              [
                4.7318508836149205,
                51.30572487050375
              ],
              [
                4.732191227051027,
                51.30588143327945
              ],
              [
                4.732554416221854,
                51.30601633100425
              ],
              [
                4.732936953079286,
                51.30612826434964
              ],
              [
                4.733335153132491,
                51.306216155170546
              ],
              [
                4.733745180948959,
                51.30627915689491
              ],
              [
                4.734163087112867,
                51.306316662681645
              ],
              [
                4.734584846284108,
                51.30632831126888
              ],
              [
                4.735006395990459,
                51.30631399045531
              ],
              [
                4.7354236757783585,
                51.306273838181575
              ],
              [
                4.735803022224332,
                51.30621299580135
              ],
              [
                4.736103458149252,
                51.3062027864743
              ],
              [
                4.736520735993597,
                51.306162630334306
              ],
              [
                4.736929724035859,
                51.30609702956293
              ],
              [
                4.737326482880529,
                51.306006616035326
              ],
              [
                4.737707190983764,
                51.30589226062203
              ],
              [
                4.738068181477652,
                51.305755064796735
              ],
              [
                4.738405977501108,
                51.30559635002192
              ],
              [
                4.738717325696437,
                51.305417645015176
              ],
              [
                4.738999227548531,
                51.30522067101878
              ],
              [
                4.73924896826459,
                51.30500732521492
              ],
              [
                4.739464142916116,
                51.30477966244658
              ],
              [
                4.739642679591577,
                51.30453987542027
              ],
              [
                4.739782859337056,
                51.304290273581856
              ],
              [
                4.739864178322908,
                51.304082258332244
              ],
              [
                4.740163571805396,
                51.30407207366096
              ],
              [
                4.740580827043602,
                51.30403190318353
              ],
              [
                4.740989790639576,
                51.30396628833628
              ],
              [
                4.7413865234333334,
                51.30387586112996
              ],
              [
                4.7417672041320165,
                51.30376149256684
              ],
              [
                4.742128166131734,
                51.30362428424726
              ],
              [
                4.742465932845913,
                51.303465557754045
              ],
              [
                4.742777251199212,
                51.30328684191766
              ],
              [
                4.743059122964006,
                51.30308985808464
              ],
              [
                4.743308833637316,
                51.30287650353192
              ],
              [
                4.743523978580031,
                51.302648833186716
              ],
              [
                4.743702486166764,
                51.30240903982851
              ],
              [
                4.743842637723757,
                51.302159432964125
              ],
              [
                4.743842919735343,
                51.302158711373046
              ],
              [
                4.743843637563142,
                51.30215743292998
              ],
              [
                4.743944083892819,
                51.30190041654435
              ],
              [
                4.744003858277275,
                51.301638465947086
              ],
              [
                4.744022385731724,
                51.301374103926236
              ],
              [
                4.743999488527341,
                51.301109876451534
              ],
              [
                4.743935387875971,
                51.30084832815464
              ],
              [
                4.743830701772857,
                51.3005919778237
              ],
              [
                4.7436864390192355,
                51.300343294148654
              ],
              [
                4.743686331293462,
                51.30034315325703
              ],
              [
                4.743686238998168,
                51.30034299415523
              ],
              [
                4.743503789464456,
                51.30010437195662
              ],
              [
                4.7432849106779305,
                51.299878109128436
              ],
              [
                4.743031710886052,
                51.299666384513685
              ],
              [
                4.742746628738405,
                51.29947123692865
              ],
              [
                4.742432409793593,
                51.29929454553589
              ],
              [
                4.742092080075643,
                51.29913801175522
              ],
              [
                4.74172891693468,
                51.29900314288632
              ],
              [
                4.741346417492351,
                51.2988912376005
              ],
              [
                4.740948264975632,
                51.29880337344115
              ],
              [
                4.740538293262689,
                51.29874039645278
              ],
              [
                4.7401204499816085,
                51.29870291303825
              ],
              [
                4.739698758516536,
                51.2986912841227
              ],
              [
                4.73927727928623,
                51.29870562167998
              ],
              [
                4.7388600706669255,
                51.29874578765495
              ],
              [
                4.738451149934808,
                51.29881139529219
              ],
              [
                4.738054454603244,
                51.298901812858134
              ],
              [
                4.73767380452605,
                51.299016169721035
              ],
              [
                4.737312865130948,
                51.29915336473029
              ],
              [
                4.736975112136412,
                51.29931207681464
              ],
              [
                4.736834636956571,
                51.299392712828215
              ],
              [
                4.736633583836912,
                51.299318035787266
              ],
              [
                4.736251094057483,
                51.299206114061384
              ],
              [
                4.735852948466314,
                51.299118232785375
              ],
              [
                4.735842322472333,
                51.29911660004122
              ],
              [
                4.73574776142394,
                51.29909572765741
              ],
              [
                4.735337794173113,
                51.299032732675904
              ],
              [
                4.734919952456701,
                51.298995230919424
              ],
              [
                4.734498259643798,
                51.29898358348977
              ],
              [
                4.734076776166145,
                51.29899790253902
              ],
              [
                4.733659560440858,
                51.299038050190276
              ],
              [
                4.733250629812523,
                51.29910363986453
              ],
              [
                4.732853921889755,
                51.2991940400012
              ],
              [
                4.732473256647561,
                51.29930838013637
              ],
              [
                4.7321122996596285,
                51.299445559280485
              ],
              [
                4.731774526813769,
                51.299604256515096
              ],
              [
                4.731463190849722,
                51.29978294370655
              ],
              [
                4.731181290041084,
                51.29997990021486
              ],
              [
                4.7309315393226745,
                51.300193229456085
              ],
              [
                4.730716344141319,
                51.300420877159276
              ],
              [
                4.730537777281981,
                51.3006606511422
              ],
              [
                4.730397558892735,
                51.30091024241607
              ],
              [
                4.7302970399014495,
                51.30116724741594
              ],
              [
                4.7302371889845585,
                51.30142919114316
              ],
              [
                4.730235648506421,
                51.30145107912264
              ],
              [
                4.730142267409811,
                51.301549859318094
              ]
            ]
          ]
        ]
      },
      "properties": {
        "type": "buffer_union_300m",
        "buffer_m": 300
      }
    },
    {
      "type": "Feature",
      "geometry": {
        "type": "MultiPolygon",
        "coordinates": [
          [
            [
              [
                4.693456401289083,
                51.29312048736321
              ],
              [
                4.692894229124234,
                51.29310476025563
              ],
              [
                4.692332305089695,
                51.29312365463041
              ],
              [
                4.691776039578291,
                51.293176988565484
              ],
              [
                4.691230788538129,
                51.29326424854075
              ],
              [
                4.690701801937717,
                51.29338459437913
              ],
              [
                4.690194173248045,
                51.29353686733082
              ],
              [
                4.689712790426535,
                51.293719601223316
              ],
              [
                4.689262288873472,
                51.29393103656984
              ],
              [
                4.688847006812838,
                51.29416913750114
              ],
              [
                4.688470943526384,
                51.29443161135786
              ],
              [
                4.688137720842649,
                51.29471593075538
              ],
              [
                4.687850548251653,
                51.29501935790921
              ],
              [
                4.68761219198142,
                51.295338970987295
              ],
              [
                4.687424948334675,
                51.29567169223588
              ],
              [
                4.687394706159028,
                51.2957488309664
              ],
              [
                4.6872749174164285,
                51.29596168539942
              ],
              [
                4.687140588684115,
                51.296304310560735
              ],
              [
                4.687060471871795,
                51.296653540422604
              ],
              [
                4.687035339747681,
                51.29700601181879
              ],
              [
                4.687065435593108,
                51.297358330291395
              ],
              [
                4.687150470811746,
                51.297707102779846
              ],
              [
                4.687289627661169,
                51.298048970299604
              ],
              [
                4.687481567082296,
                51.2983806402954
              ],
              [
                4.687724441553087,
                51.29869891835741
              ],
              [
                4.6880159128443015,
                51.29900073899464
              ],
              [
                4.688353174507757,
                51.29928319516882
              ],
              [
                4.688732978881669,
                51.29954356630378
              ],
              [
                4.689151668353863,
                51.29977934450034
              ],
              [
                4.689605210582273,
                51.299988258703394
              ],
              [
                4.690089237333729,
                51.3001682965882
              ],
              [
                4.690599086566785,
                51.300317723954116
              ],
              [
                4.69112984735275,
                51.300435101439014
              ],
              [
                4.691676407201439,
                51.300519298392366
              ],
              [
                4.692233501334671,
                51.30056950377334
              ],
              [
                4.692795763431547,
                51.30058523396839
              ],
              [
                4.693357777355182,
                51.300566337452906
              ],
              [
                4.693914129360939,
                51.30051299625177
              ],
              [
                4.69445946028154,
                51.300425724184805
              ],
              [
                4.694988517184643,
                51.30030536191394
              ],
              [
                4.695130560480345,
                51.3002627528752
              ],
              [
                4.695299515386496,
                51.3002357124739
              ],
              [
                4.6958285679576734,
                51.30011534644128
              ],
              [
                4.696336249955715,
                51.29996304975481
              ],
              [
                4.696817671340988,
                51.29978028941413
              ],
              [
                4.697268195182997,
                51.29956882584188
              ],
              [
                4.697502764173359,
                51.29943432205218
              ],
              [
                4.697530408613028,
                51.2995475947232
              ],
              [
                4.697669647198097,
                51.299889449782185
              ],
              [
                4.697861668168476,
                51.30022110269919
              ],
              [
                4.698104623216613,
                51.30053935922878
              ],
              [
                4.698396173337055,
                51.30084115408727
              ],
              [
                4.698733511322184,
                51.30112358048461
              ],
              [
                4.699113388774891,
                51.30138391813134
              ],
              [
                4.699532147378872,
                51.30161965945078
              ],
              [
                4.699985754125926,
                51.30182853374302
              ],
              [
                4.700469840161171,
                51.30200852906764
              ],
              [
                4.700979742871871,
                51.30215791163398
              ],
              [
                4.701510550813984,
                51.30227524251138
              ],
              [
                4.70205715104289,
                51.30235939149826
              ],
              [
                4.702614278391271,
                51.30240954801584
              ],
              [
                4.703176566218161,
                51.30242522892125
              ],
              [
                4.703738598138748,
                51.30240628316466
              ],
              [
                4.7042949602350115,
                51.30235289324529
              ],
              [
                4.704840293242508,
                51.302265573452246
              ],
              [
                4.705369344208882,
                51.30214516490719
              ],
              [
                4.70587701712485,
                51.30199282745683
              ],
              [
                4.706358422038428,
                51.301810028493506
              ],
              [
                4.706808922177985,
                51.3015985288118
              ],
              [
                4.707224178629142,
                51.3013603656381
              ],
              [
                4.707600192134406,
                51.301097832996824
              ],
              [
                4.707933341612456,
                51.30081345960298
              ],
              [
                4.708220419025967,
                51.30050998449454
              ],
              [
                4.708458660262366,
                51.30019033063995
              ],
              [
                4.708645771730688,
                51.29985757677539
              ],
              [
                4.708779952419264,
                51.299514927743516
              ],
              [
                4.708859911202996,
                51.2991656836198
              ],
              [
                4.708884879235008,
                51.29881320792418
              ],
              [
                4.708854617304942,
                51.29846089522438
              ],
              [
                4.708769418094819,
                51.29811213844301
              ],
              [
                4.708630103312586,
                51.297770296183536
              ],
              [
                4.708438015732777,
                51.29743866038945
              ],
              [
                4.708195006222708,
                51.29712042464815
              ],
              [
                4.707903415880772,
                51.29681865344442
              ],
              [
                4.707566053460279,
                51.29653625265934
              ],
              [
                4.707186168297372,
                51.29627594159805
              ],
              [
                4.706767419004657,
                51.29604022681556
              ],
              [
                4.706313838232505,
                51.295831377992016
              ],
              [
                4.7058297938376015,
                51.295651406089064
              ],
              [
                4.705319946832464,
                51.29550204399731
              ],
              [
                4.7047892065204024,
                51.295384729860544
              ],
              [
                4.704242683247052,
                51.29530059323703
              ],
              [
                4.7036856392223685,
                51.29525044423046
              ],
              [
                4.703123437885241,
                51.29523476569504
              ],
              [
                4.7025614922967245,
                51.2952537085895
              ],
              [
                4.702005213057145,
                51.295307090524645
              ],
              [
                4.701459956246813,
                51.29539439751818
              ],
              [
                4.7009309718898695,
                51.29551478894033
              ],
              [
                4.700423353435834,
                51.29566710560238
              ],
              [
                4.69994198874375,
                51.29584988091094
              ],
              [
                4.699491513039556,
                51.2960613549804
              ],
              [
                4.699256966791552,
                51.29619586289728
              ],
              [
                4.699229320141114,
                51.296082590471414
              ],
              [
                4.699090081489035,
                51.29574073670498
              ],
              [
                4.6988980702478855,
                51.29540908516175
              ],
              [
                4.69865513654992,
                51.29509082958092
              ],
              [
                4.698363620763605,
                51.29478903463841
              ],
              [
                4.698026330924466,
                51.29450660644393
              ],
              [
                4.697646515669934,
                51.294246264566624
              ],
              [
                4.697227832939662,
                51.294010515858325
              ],
              [
                4.696774314743325,
                51.29380163032588
              ],
              [
                4.696290328335305,
                51.29362161928444
              ],
              [
                4.6957805341700105,
                51.29347221600146
              ],
              [
                4.695249841042188,
                51.293354859017434
              ],
              [
                4.694703358843351,
                51.29327067830314
              ],
              [
                4.694581879099939,
                51.29325973160484
              ],
              [
                4.694559888581458,
                51.293254868428264
              ],
              [
                4.694013408803986,
                51.293170684526714
              ],
              [
                4.693456401289083,
                51.29312048736321
              ]
            ]
          ],
          [
            [
              [
                4.728636296445473,
                51.30144981324896
              ],
              [
                4.728449321494276,
                51.30178259846056
              ],
              [
                4.728315279070893,
                51.30212526943943
              ],
              [
                4.728235461185757,
                51.30247452625449
              ],
              [
                4.728210637728942,
                51.30282700547962
              ],
              [
                4.72824104900958,
                51.303179312581015
              ],
              [
                4.728326403393693,
                51.30352805460724
              ],
              [
                4.728465880064995,
                51.30386987286668
              ],
              [
                4.7286581368839595,
                51.3042014752781
              ],
              [
                4.728901323271181,
                51.3045196680822
              ],
              [
                4.7291040797906385,
                51.30472933512399
              ],
              [
                4.729275161852671,
                51.30502440234563
              ],
              [
                4.729518356758112,
                51.30534259377356
              ],
              [
                4.729810140638562,
                51.305644310676556
              ],
              [
                4.7301477040343505,
                51.30592664701507
              ],
              [
                4.730527796376599,
                51.30618688336697
              ],
              [
                4.730946757278466,
                51.306422513130975
              ],
              [
                4.731400551782434,
                51.30663126668157
              ],
              [
                4.731884809224328,
                51.30681113324123
              ],
              [
                4.732394865339623,
                51.30696038025951
              ],
              [
                4.73292580720593,
                51.30707757011135
              ],
              [
                4.733472520588,
                51.3071615739536
              ],
              [
                4.734029739228071,
                51.30721158260553
              ],
              [
                4.734592095605439,
                51.30722711434864
              ],
              [
                4.735154172674767,
                51.307208019569934
              ],
              [
                4.7357105560830846,
                51.30715448220411
              ],
              [
                4.736021413254032,
                51.30710462490026
              ],
              [
                4.736251255554703,
                51.30709681426189
              ],
              [
                4.736807636371472,
                51.30704327174095
              ],
              [
                4.737352963284225,
                51.30695580244309
              ],
              [
                4.73788198339961,
                51.30683524893009
              ],
              [
                4.738389601005964,
                51.30668277244511
              ],
              [
                4.738870926684661,
                51.306499841719564
              ],
              [
                4.7393213244279995,
                51.30628821881724
              ],
              [
                4.739736456308713,
                51.3060499421513
              ],
              [
                4.740112324270057,
                51.30578730683916
              ],
              [
                4.740445308633496,
                51.305502842584616
              ],
              [
                4.740732202952967,
                51.30519928930056
              ],
              [
                4.740956270641165,
                51.3048983399075
              ],
              [
                4.741413085424656,
                51.30482504747429
              ],
              [
                4.741942070803967,
                51.304704475722765
              ],
              [
                4.74244965186937,
                51.30455198170447
              ],
              [
                4.742930939554326,
                51.3043690343198
              ],
              [
                4.743381298217209,
                51.30415739579286
              ],
              [
                4.743796390307282,
                51.30391910468739
              ],
              [
                4.74417221815115,
                51.30365645625985
              ],
              [
                4.744505162456758,
                51.30337198034031
              ],
              [
                4.744792017163916,
                51.303068416953984
              ],
              [
                4.745030020305985,
                51.30274868991938
              ],
              [
                4.745216880586009,
                51.302415878677145
              ],
              [
                4.745217162577844,
                51.30241515708287
              ],
              [
                4.745217880371851,
                51.3024138786316
              ],
              [
                4.745351799185005,
                51.302071188575276
              ],
              [
                4.745431487944065,
                51.30172192017693
              ],
              [
                4.745456180403116,
                51.30136943718993
              ],
              [
                4.745425640005967,
                51.30101713425185
              ],
              [
                4.745340162116432,
                51.300668404190894
              ],
              [
                4.745200571126054,
                51.30032660535287
              ],
              [
                4.745008212468931,
                51.29999502926272
              ],
              [
                4.745008104739961,
                51.299994888372275
              ],
              [
                4.745008012440841,
                51.299994729271475
              ],
              [
                4.74476473959716,
                51.29967656894088
              ],
              [
                4.744472896197827,
                51.29937488812853
              ],
              [
                4.7441352934321985,
                51.29909259184477
              ],
              [
                4.743755182949935,
                51.29883239838822
              ],
              [
                4.7433362255323726,
                51.2985968131813
              ],
              [
                4.742882455833002,
                51.29838810465627
              ],
              [
                4.742398243526763,
                51.29820828242374
              ],
              [
                4.741888251242105,
                51.298059077933054
              ],
              [
                4.741357389680428,
                51.297941927810506
              ],
              [
                4.740810770354187,
                51.29785796003507
              ],
              [
                4.740253656397691,
                51.297807983084674
              ],
              [
                4.73969141192283,
                51.29779247815692
              ],
              [
                4.739129450405854,
                51.297811594538935
              ],
              [
                4.7385731826004855,
                51.29786514817114
              ],
              [
                4.738027964477156,
                51.297952623418084
              ],
              [
                4.737499045687898,
                51.298073178029924
              ],
              [
                4.736991519051464,
                51.298225651246646
              ],
              [
                4.736671728040738,
                51.298347205214924
              ],
              [
                4.73626217023163,
                51.29825680486998
              ],
              [
                4.73625154441994,
                51.29825517216197
              ],
              [
                4.736156984937966,
                51.29823430009738
              ],
              [
                4.7356103715606315,
                51.298150308331515
              ],
              [
                4.735053259690064,
                51.298100306925676
              ],
              [
                4.734491013418098,
                51.29808477731289
              ],
              [
                4.733929046238291,
                51.29810386901802
              ],
              [
                4.733372768958867,
                51.298157398219026
              ],
              [
                4.732827537641429,
                51.298244849515726
              ],
              [
                4.73229860206498,
                51.29836538088888
              ],
              [
                4.731791055209816,
                51.29851783180223
              ],
              [
                4.731309784246172,
                51.29870073436968
              ],
              [
                4.730859423498198,
                51.298912327480245
              ],
              [
                4.730444309835114,
                51.29915057374544
              ],
              [
                4.730068440918283,
                51.2994131791063
              ],
              [
                4.729735436705778,
                51.29969761491176
              ],
              [
                4.72944850458504,
                51.3000011422561
              ],
              [
                4.72921040846959,
                51.3003208383422
              ],
              [
                4.729023442157967,
                51.300653624616615
              ],
              [
                4.7288894072123515,
                51.300996296406424
              ],
              [
                4.728851932256962,
                51.301160288239664
              ],
              [
                4.728636296445473,
                51.30144981324896
              ]
            ]
          ]
        ]
      },
      "properties": {
        "type": "buffer_union_400m",
        "buffer_m": 400
      }
    },
    {
      "type": "Feature",
      "geometry": {
        "type": "Polygon",
        "coordinates": [
          [
            [
              4.6343333,
              51.2937021
            ],
            [
              4.6339265,
              51.2942285
            ],
            [
              4.633685,
              51.294795
            ],
            [
              4.633688,
              51.295413
            ],
            [
              4.6351422,
              51.2986735
            ],
            [
              4.6363258,
              51.3019778
            ],
            [
              4.642119,
              51.3078164
            ],
            [
              4.650254,
              51.312847
            ],
            [
              4.655805,
              51.314549
            ],
            [
              4.6628808,
              51.3162228
            ],
            [
              4.669416,
              51.318136
            ],
            [
              4.6878296,
              51.3222235
            ],
            [
              4.7059707,
              51.3254008
            ],
            [
              4.7181252,
              51.3268411
            ],
            [
              4.7758671,
              51.3126382
            ],
            [
              4.7732768,
              51.3024777
            ],
            [
              4.7731581,
              51.3019187
            ],
            [
              4.7732365,
              51.3015071
            ],
            [
              4.7728985,
              51.3003569
            ],
            [
              4.7724704,
              51.2997981
            ],
            [
              4.7719847,
              51.2993974
            ],
            [
              4.7716363,
              51.2992228
            ],
            [
              4.7718052,
              51.2990334
            ],
            [
              4.7715275,
              51.298388
            ],
            [
              4.7709209,
              51.2979051
            ],
            [
              4.7709093,
              51.2975475
            ],
            [
              4.7707569,
              51.2972588
            ],
            [
              4.7709147,
              51.296823
            ],
            [
              4.7711149,
              51.2965795
            ],
            [
              4.7710159,
              51.2961791
            ],
            [
              4.7704319,
              51.2957261
            ],
            [
              4.7695662,
              51.2952173
            ],
            [
              4.7693589,
              51.2943236
            ],
            [
              4.7694857,
              51.2940848
            ],
            [
              4.7693045,
              51.2939682
            ],
            [
              4.7690904,
              51.2934484
            ],
            [
              4.7692259,
              51.2930875
            ],
            [
              4.7691642,
              51.2926649
            ],
            [
              4.7684427,
              51.2917365
            ],
            [
              4.7686814,
              51.2915384
            ],
            [
              4.7678808,
              51.2909879
            ],
            [
              4.7673502,
              51.2904515
            ],
            [
              4.767665,
              51.2902658
            ],
            [
              4.768027,
              51.2902562
            ],
            [
              4.7679564,
              51.2899192
            ],
            [
              4.7672789,
              51.2899294
            ],
            [
              4.7654982,
              51.2893259
            ],
            [
              4.765939,
              51.2890837
            ],
            [
              4.7687417,
              51.2890473
            ],
            [
              4.7686301,
              51.2878494
            ],
            [
              4.768888,
              51.2877332
            ],
            [
              4.7690393,
              51.2869876
            ],
            [
              4.769803,
              51.2871973
            ],
            [
              4.7703742,
              51.2870881
            ],
            [
              4.7726024,
              51.2855355
            ],
            [
              4.7713731,
              51.2850898
            ],
            [
              4.7708268,
              51.2844854
            ],
            [
              4.7704599,
              51.284202
            ],
            [
              4.771003,
              51.2836473
            ],
            [
              4.7711535,
              51.283753
            ],
            [
              4.7715327,
              51.2837756
            ],
            [
              4.7716951,
              51.2835885
            ],
            [
              4.7725577,
              51.2833095
            ],
            [
              4.7728618,
              51.2828911
            ],
            [
              4.77292,
              51.2826292
            ],
            [
              4.773369,
              51.2819201
            ],
            [
              4.7731418,
              51.2813051
            ],
            [
              4.7731432,
              51.2809244
            ],
            [
              4.7732652,
              51.2808307
            ],
            [
              4.7730625,
              51.2804815
            ],
            [
              4.7730511,
              51.2801154
            ],
            [
              4.7725901,
              51.279635
            ],
            [
              4.7727425,
              51.2795552
            ],
            [
              4.7731562,
              51.2795436
            ],
            [
              4.7731526,
              51.2794676
            ],
            [
              4.7733477,
              51.2793458
            ],
            [
              4.7737909,
              51.279158
            ],
            [
              4.7723055,
              51.2782314
            ],
            [
              4.7718948,
              51.2782193
            ],
            [
              4.7719388,
              51.2778867
            ],
            [
              4.7720788,
              51.2777469
            ],
            [
              4.7720126,
              51.2775196
            ],
            [
              4.7722258,
              51.2769086
            ],
            [
              4.7721542,
              51.2766962
            ],
            [
              4.7729367,
              51.2761569
            ],
            [
              4.772859,
              51.2760666
            ],
            [
              4.7728989,
              51.2759508
            ],
            [
              4.7730712,
              51.2760426
            ],
            [
              4.7733793,
              51.2759902
            ],
            [
              4.7737038,
              51.2760969
            ],
            [
              4.7737965,
              51.275955
            ],
            [
              4.7740957,
              51.2759643
            ],
            [
              4.7742013,
              51.2759305
            ],
            [
              4.7742209,
              51.2758011
            ],
            [
              4.7744954,
              51.2757908
            ],
            [
              4.7745113,
              51.2755828
            ],
            [
              4.7747394,
              51.2756689
            ],
            [
              4.7750462,
              51.2756062
            ],
            [
              4.775078,
              51.2754906
            ],
            [
              4.7756349,
              51.275435
            ],
            [
              4.7754299,
              51.2752886
            ],
            [
              4.7753637,
              51.2750905
            ],
            [
              4.775412,
              51.2749083
            ],
            [
              4.7756097,
              51.2747627
            ],
            [
              4.7755745,
              51.2745011
            ],
            [
              4.775774,
              51.2732699
            ],
            [
              4.7759673,
              51.2732866
            ],
            [
              4.7765211,
              51.2730728
            ],
            [
              4.7764627,
              51.2729071
            ],
            [
              4.7766149,
              51.2728949
            ],
            [
              4.7764713,
              51.2726601
            ],
            [
              4.7765966,
              51.2725296
            ],
            [
              4.776479,
              51.2723824
            ],
            [
              4.7766514,
              51.2722086
            ],
            [
              4.7763776,
              51.2721299
            ],
            [
              4.7763857,
              51.2718469
            ],
            [
              4.7760104,
              51.2716832
            ],
            [
              4.7756768,
              51.2718896
            ],
            [
              4.7754162,
              51.2715627
            ],
            [
              4.7752113,
              51.2715652
            ],
            [
              4.7750216,
              51.2714262
            ],
            [
              4.7749597,
              51.271329
            ],
            [
              4.7750207,
              51.2711381
            ],
            [
              4.7752444,
              51.2709012
            ],
            [
              4.7751297,
              51.2705333
            ],
            [
              4.7751641,
              51.2702336
            ],
            [
              4.7745835,
              51.2701833
            ],
            [
              4.774642,
              51.2700398
            ],
            [
              4.7744269,
              51.2696898
            ],
            [
              4.7741286,
              51.2696988
            ],
            [
              4.7741257,
              51.2696342
            ],
            [
              4.7742835,
              51.2695696
            ],
            [
              4.7743094,
              51.2692902
            ],
            [
              4.7746241,
              51.2687182
            ],
            [
              4.7748234,
              51.2687083
            ],
            [
              4.7747589,
              51.2685881
            ],
            [
              4.7751248,
              51.2678278
            ],
            [
              4.7745075,
              51.2669815
            ],
            [
              4.7743208,
              51.2669619
            ],
            [
              4.7743265,
              51.2668435
            ],
            [
              4.7741659,
              51.2666676
            ],
            [
              4.773661,
              51.2663086
            ],
            [
              4.7740803,
              51.2662354
            ],
            [
              4.773619,
              51.2657313
            ],
            [
              4.7737653,
              51.2656505
            ],
            [
              4.7735918,
              51.2655087
            ],
            [
              4.7733087,
              51.2654381
            ],
            [
              4.7713837,
              51.2635711
            ],
            [
              4.7704345,
              51.2623758
            ],
            [
              4.769826,
              51.2613139
            ],
            [
              4.7697077,
              51.2609863
            ],
            [
              4.7697519,
              51.2606885
            ],
            [
              4.7692771,
              51.2600274
            ],
            [
              4.7679382,
              51.2588202
            ],
            [
              4.7670819,
              51.2577255
            ],
            [
              4.7662489,
              51.2573097
            ],
            [
              4.7658114,
              51.2564995
            ],
            [
              4.7653669,
              51.2552224
            ],
            [
              4.7644261,
              51.2549548
            ],
            [
              4.763717,
              51.2544744
            ],
            [
              4.7634643,
              51.2541638
            ],
            [
              4.763768,
              51.2533889
            ],
            [
              4.7633484,
              51.2529995
            ],
            [
              4.763176,
              51.25246
            ],
            [
              4.7613106,
              51.251216
            ],
            [
              4.7583931,
              51.2497716
            ],
            [
              4.7543747,
              51.2475411
            ],
            [
              4.751339,
              51.2450789
            ],
            [
              4.750434,
              51.2441747
            ],
            [
              4.749283,
              51.2434192
            ],
            [
              4.7483169,
              51.2431101
            ],
            [
              4.7481542,
              51.2429904
            ],
            [
              4.7480763,
              51.2426994
            ],
            [
              4.7479046,
              51.2424772
            ],
            [
              4.7474079,
              51.2429517
            ],
            [
              4.7453505,
              51.2426063
            ],
            [
              4.7445972,
              51.2439874
            ],
            [
              4.7443976,
              51.2446621
            ],
            [
              4.7441422,
              51.2451272
            ],
            [
              4.7430607,
              51.2454455
            ],
            [
              4.7426153,
              51.2452861
            ],
            [
              4.7425394,
              51.2455071
            ],
            [
              4.742374,
              51.2456662
            ],
            [
              4.7424186,
              51.2457689
            ],
            [
              4.7423589,
              51.2458601
            ],
            [
              4.7419664,
              51.2458562
            ],
            [
              4.7417681,
              51.2460282
            ],
            [
              4.7416478,
              51.2460202
            ],
            [
              4.7416295,
              51.2461085
            ],
            [
              4.7414226,
              51.2461101
            ],
            [
              4.7415496,
              51.2464248
            ],
            [
              4.7419401,
              51.2464463
            ],
            [
              4.7417594,
              51.246739
            ],
            [
              4.7415989,
              51.246797
            ],
            [
              4.7418278,
              51.2470042
            ],
            [
              4.7419237,
              51.2470188
            ],
            [
              4.7419372,
              51.2468849
            ],
            [
              4.7420205,
              51.2468775
            ],
            [
              4.7427632,
              51.2472215
            ],
            [
              4.743012,
              51.2472541
            ],
            [
              4.7432046,
              51.2474901
            ],
            [
              4.7431845,
              51.2481794
            ],
            [
              4.7430865,
              51.2483027
            ],
            [
              4.7433408,
              51.2484065
            ],
            [
              4.7426707,
              51.2485399
            ],
            [
              4.7419643,
              51.2488963
            ],
            [
              4.7418236,
              51.2490618
            ],
            [
              4.7419258,
              51.2492331
            ],
            [
              4.7419056,
              51.2495303
            ],
            [
              4.7420061,
              51.2497954
            ],
            [
              4.7421931,
              51.2499848
            ],
            [
              4.7421635,
              51.2502171
            ],
            [
              4.7416912,
              51.2503304
            ],
            [
              4.7413637,
              51.2501927
            ],
            [
              4.7410325,
              51.250349
            ],
            [
              4.7407871,
              51.2502723
            ],
            [
              4.7407073,
              51.2504548
            ],
            [
              4.7404666,
              51.2505901
            ],
            [
              4.740618,
              51.2507978
            ],
            [
              4.740371,
              51.2507797
            ],
            [
              4.739994,
              51.2508861
            ],
            [
              4.7399528,
              51.2511541
            ],
            [
              4.7397012,
              51.2512975
            ],
            [
              4.7397671,
              51.25144
            ],
            [
              4.7391688,
              51.2516049
            ],
            [
              4.7380495,
              51.2522117
            ],
            [
              4.7376255,
              51.2527157
            ],
            [
              4.7368796,
              51.2531431
            ],
            [
              4.736257,
              51.2533206
            ],
            [
              4.7358696,
              51.2533141
            ],
            [
              4.7344092,
              51.2545405
            ],
            [
              4.7345252,
              51.2552105
            ],
            [
              4.7343792,
              51.255282
            ],
            [
              4.7344842,
              51.2554876
            ],
            [
              4.7350126,
              51.2558612
            ],
            [
              4.7351384,
              51.2560678
            ],
            [
              4.735425,
              51.2561897
            ],
            [
              4.7358063,
              51.2567517
            ],
            [
              4.7356249,
              51.2568881
            ],
            [
              4.7354195,
              51.257462
            ],
            [
              4.7351041,
              51.2579475
            ],
            [
              4.7351019,
              51.2581931
            ],
            [
              4.7352922,
              51.2583406
            ],
            [
              4.7343978,
              51.258717
            ],
            [
              4.7341247,
              51.2585835
            ],
            [
              4.7337617,
              51.258638
            ],
            [
              4.733723,
              51.2585001
            ],
            [
              4.7334625,
              51.2584988
            ],
            [
              4.7333115,
              51.2586041
            ],
            [
              4.7330094,
              51.2586458
            ],
            [
              4.7330297,
              51.2589005
            ],
            [
              4.7326613,
              51.2594215
            ],
            [
              4.732761,
              51.2596029
            ],
            [
              4.7324252,
              51.2597959
            ],
            [
              4.7325352,
              51.2599711
            ],
            [
              4.7323212,
              51.2601656
            ],
            [
              4.7321877,
              51.2600646
            ],
            [
              4.73201,
              51.2601303
            ],
            [
              4.7321735,
              51.2604873
            ],
            [
              4.7319915,
              51.2607395
            ],
            [
              4.7322407,
              51.2607104
            ],
            [
              4.7322856,
              51.2607879
            ],
            [
              4.7317707,
              51.2613034
            ],
            [
              4.7314965,
              51.2614596
            ],
            [
              4.7315771,
              51.2615741
            ],
            [
              4.7315767,
              51.2617783
            ],
            [
              4.7314853,
              51.2619899
            ],
            [
              4.7316581,
              51.262154
            ],
            [
              4.7320219,
              51.2622375
            ],
            [
              4.7324496,
              51.2625687
            ],
            [
              4.7326245,
              51.2624957
            ],
            [
              4.7329008,
              51.2625595
            ],
            [
              4.7328766,
              51.2626773
            ],
            [
              4.7326513,
              51.2628035
            ],
            [
              4.7328283,
              51.2629112
            ],
            [
              4.7325878,
              51.2632482
            ],
            [
              4.7321397,
              51.2633404
            ],
            [
              4.732114,
              51.2634923
            ],
            [
              4.7319231,
              51.2635218
            ],
            [
              4.7320576,
              51.2636788
            ],
            [
              4.7324696,
              51.263886
            ],
            [
              4.7323361,
              51.2639745
            ],
            [
              4.7321629,
              51.2638584
            ],
            [
              4.7320244,
              51.2638671
            ],
            [
              4.7320571,
              51.2640015
            ],
            [
              4.731486,
              51.2641372
            ],
            [
              4.7313601,
              51.264376
            ],
            [
              4.7307755,
              51.2645109
            ],
            [
              4.7307357,
              51.2647405
            ],
            [
              4.7303821,
              51.2646924
            ],
            [
              4.7301906,
              51.2645759
            ],
            [
              4.7297948,
              51.2646923
            ],
            [
              4.7296599,
              51.2645021
            ],
            [
              4.7290823,
              51.2647007
            ],
            [
              4.7290133,
              51.2648678
            ],
            [
              4.7287792,
              51.2648183
            ],
            [
              4.7286737,
              51.264952
            ],
            [
              4.728774,
              51.265097
            ],
            [
              4.7285512,
              51.2652611
            ],
            [
              4.7287062,
              51.2653161
            ],
            [
              4.7287523,
              51.2654527
            ],
            [
              4.7288632,
              51.2653101
            ],
            [
              4.7289898,
              51.2653298
            ],
            [
              4.7289611,
              51.2654748
            ],
            [
              4.7291986,
              51.2656018
            ],
            [
              4.7289319,
              51.2657086
            ],
            [
              4.7289353,
              51.2660215
            ],
            [
              4.7286619,
              51.2660452
            ],
            [
              4.7286753,
              51.2663398
            ],
            [
              4.7283296,
              51.2664953
            ],
            [
              4.7284657,
              51.2667605
            ],
            [
              4.7282326,
              51.266686
            ],
            [
              4.7281186,
              51.2667446
            ],
            [
              4.7281783,
              51.2668457
            ],
            [
              4.7279521,
              51.2668749
            ],
            [
              4.7275983,
              51.2666672
            ],
            [
              4.7274779,
              51.2667879
            ],
            [
              4.7275254,
              51.2669352
            ],
            [
              4.7272059,
              51.267263
            ],
            [
              4.7270561,
              51.2676822
            ],
            [
              4.7269453,
              51.2676925
            ],
            [
              4.7268282,
              51.2675014
            ],
            [
              4.7266879,
              51.267536
            ],
            [
              4.726772,
              51.2677787
            ],
            [
              4.7271176,
              51.2681199
            ],
            [
              4.7273238,
              51.2681145
            ],
            [
              4.7274607,
              51.2682401
            ],
            [
              4.727263,
              51.2684141
            ],
            [
              4.7268545,
              51.2684191
            ],
            [
              4.7271012,
              51.2685599
            ],
            [
              4.7269252,
              51.2687947
            ],
            [
              4.727159,
              51.2688563
            ],
            [
              4.727088,
              51.2689394
            ],
            [
              4.727252,
              51.2689899
            ],
            [
              4.727325,
              51.2691341
            ],
            [
              4.7276071,
              51.2690432
            ],
            [
              4.7276493,
              51.2692551
            ],
            [
              4.7278192,
              51.269416
            ],
            [
              4.7281017,
              51.2694095
            ],
            [
              4.7281625,
              51.2694738
            ],
            [
              4.7277189,
              51.2696089
            ],
            [
              4.7274293,
              51.2695282
            ],
            [
              4.7273345,
              51.269752
            ],
            [
              4.7275853,
              51.2697752
            ],
            [
              4.7272982,
              51.2698788
            ],
            [
              4.7273163,
              51.2699999
            ],
            [
              4.7270708,
              51.2700455
            ],
            [
              4.7270749,
              51.2701597
            ],
            [
              4.7273054,
              51.2701847
            ],
            [
              4.7269772,
              51.2703637
            ],
            [
              4.7272766,
              51.2703499
            ],
            [
              4.7273191,
              51.2704066
            ],
            [
              4.7253345,
              51.2722976
            ],
            [
              4.7251279,
              51.272332
            ],
            [
              4.7249871,
              51.2725499
            ],
            [
              4.7246441,
              51.272554
            ],
            [
              4.7244291,
              51.2730273
            ],
            [
              4.7245447,
              51.2731677
            ],
            [
              4.7244133,
              51.2732166
            ],
            [
              4.7243776,
              51.2734656
            ],
            [
              4.7242393,
              51.2735321
            ],
            [
              4.7242793,
              51.27375
            ],
            [
              4.7243853,
              51.2738376
            ],
            [
              4.724653,
              51.2739261
            ],
            [
              4.7250918,
              51.2738958
            ],
            [
              4.7259448,
              51.2745528
            ],
            [
              4.7259336,
              51.2746513
            ],
            [
              4.725739,
              51.2748068
            ],
            [
              4.7258631,
              51.2748618
            ],
            [
              4.7258947,
              51.2749877
            ],
            [
              4.7261418,
              51.2748929
            ],
            [
              4.7260125,
              51.2750594
            ],
            [
              4.7260558,
              51.275289
            ],
            [
              4.7263756,
              51.2751995
            ],
            [
              4.7266495,
              51.2752973
            ],
            [
              4.7262953,
              51.2754264
            ],
            [
              4.7264111,
              51.2755113
            ],
            [
              4.7263107,
              51.2756982
            ],
            [
              4.726633,
              51.2756519
            ],
            [
              4.7266915,
              51.2758906
            ],
            [
              4.7269025,
              51.2759055
            ],
            [
              4.7269639,
              51.2760106
            ],
            [
              4.7271681,
              51.2760509
            ],
            [
              4.7266886,
              51.2762646
            ],
            [
              4.7266754,
              51.2763281
            ],
            [
              4.7269379,
              51.2763111
            ],
            [
              4.7270421,
              51.2763831
            ],
            [
              4.7269746,
              51.2766134
            ],
            [
              4.7268813,
              51.2767446
            ],
            [
              4.7266987,
              51.2767425
            ],
            [
              4.7267253,
              51.2768557
            ],
            [
              4.7265003,
              51.2770243
            ],
            [
              4.7264787,
              51.2771547
            ],
            [
              4.7263215,
              51.2771659
            ],
            [
              4.726358,
              51.2776765
            ],
            [
              4.7265023,
              51.2780561
            ],
            [
              4.7256315,
              51.2783162
            ],
            [
              4.7257629,
              51.2783953
            ],
            [
              4.7257598,
              51.2785205
            ],
            [
              4.7254553,
              51.2785575
            ],
            [
              4.7254678,
              51.2787112
            ],
            [
              4.7252953,
              51.2786807
            ],
            [
              4.7251803,
              51.2787361
            ],
            [
              4.7252297,
              51.2788505
            ],
            [
              4.7250343,
              51.278841
            ],
            [
              4.7251479,
              51.2789565
            ],
            [
              4.7249981,
              51.2790102
            ],
            [
              4.7249197,
              51.2792102
            ],
            [
              4.7249546,
              51.2795028
            ],
            [
              4.7250461,
              51.2795906
            ],
            [
              4.7248781,
              51.2795963
            ],
            [
              4.7245848,
              51.279949
            ],
            [
              4.7240088,
              51.2800986
            ],
            [
              4.7236952,
              51.2803032
            ],
            [
              4.7226365,
              51.2807042
            ],
            [
              4.7225203,
              51.2809995
            ],
            [
              4.7223564,
              51.2810209
            ],
            [
              4.7222926,
              51.280925
            ],
            [
              4.7212997,
              51.2812056
            ],
            [
              4.7212374,
              51.2815326
            ],
            [
              4.7210359,
              51.281643
            ],
            [
              4.7196777,
              51.2831447
            ],
            [
              4.7188872,
              51.283576
            ],
            [
              4.7184438,
              51.2840792
            ],
            [
              4.7153228,
              51.2857621
            ],
            [
              4.708879,
              51.283202
            ],
            [
              4.695208,
              51.280809
            ],
            [
              4.6782987,
              51.2770654
            ],
            [
              4.6748158,
              51.2770024
            ],
            [
              4.6606072,
              51.2762944
            ],
            [
              4.6564558,
              51.2760199
            ],
            [
              4.6446849,
              51.2725033
            ],
            [
              4.6416674,
              51.2771525
            ],
            [
              4.6396517,
              51.281493
            ],
            [
              4.6343333,
              51.2937021
            ]
          ]
        ]
      },
      "properties": {
        "type": "boundary",
        "gemeente": "Malle"
      }
    }
  ]
}