{
  "type": "FeatureCollection",
  "metadata": {
    "gemeente": "Meix-devant-Virton",
    "slug": "meix-devant-virton",
    "generated_at": "2026-09-25T22:11:41.564604Z",
    "total_points": 10,
    "providers": [
      "bpost",
      "DHL",
      "GLS",
      "VintedGo",
      "PostNL",
      "DPD",
      "Amazon"
    ],
    "bounds": [
      5.4747811,
      49.604,
      5.47987,
      49.6057745
    ]
  },
  "features": [
    {
      "type": "Feature",
      "geometry": {
        "type": "Point",
        "coordinates": [
          5.47986,
          49.6041
        ]
      },
      "properties": {
        "type": "pakketpunt",
        "locatieNaam": "Meix-Devant-Virton",
        "straatNaam": "Rue De Virton",
        "straatNr": "12",
        "vervoerder": "bpost",
        "puntType": "postkantoor",
        "bezettingsgraad": 50,
        "latitude": 49.6041,
        "longitude": 5.47986,
        "canPickup": true,
        "canDropoff": true,
        "openingstijden": null
      }
    },
    {
      "type": "Feature",
      "geometry": {
        "type": "Point",
        "coordinates": [
          5.47987,
          49.604
        ]
      },
      "properties": {
        "type": "pakketpunt",
        "locatieNaam": "Bbox 24/7 Meix-Devant-Virton Bpost",
        "straatNaam": "Rue De Virton",
        "straatNr": "12",
        "vervoerder": "bpost",
        "puntType": "automaat",
        "bezettingsgraad": 50,
        "latitude": 49.604,
        "longitude": 5.47987,
        "canPickup": true,
        "canDropoff": true,
        "openingstijden": null
      }
    },
    {
      "type": "Feature",
      "geometry": {
        "type": "Point",
        "coordinates": [
          5.479868,
          49.604004
        ]
      },
      "properties": {
        "type": "pakketpunt",
        "locatieNaam": "BBOX 24/7 MEIX-DEVANT-VIRTON BPOST",
        "straatNaam": "RUE DE VIRTON",
        "straatNr": "12",
        "vervoerder": "DHL",
        "puntType": "packStation",
        "bezettingsgraad": 50,
        "latitude": 49.604004,
        "longitude": 5.479868,
        "canPickup": true,
        "canDropoff": true,
        "openingstijden": {
          "ma": "00:00 - 23:59",
          "di": "00:00 - 23:59",
          "wo": "00:00 - 23:59",
          "do": "00:00 - 23:59",
          "vr": "00:00 - 23:59",
          "za": "00:00 - 23:59",
          "zo": "00:00 - 23:59"
        }
      }
    },
    {
      "type": "Feature",
      "geometry": {
        "type": "Point",
        "coordinates": [
          5.479859,
          49.604103
        ]
      },
      "properties": {
        "type": "pakketpunt",
        "locatieNaam": "MEIX-DEVANT-VIRTON",
        "straatNaam": "RUE DE VIRTON",
        "straatNr": "12",
        "vervoerder": "DHL",
        "puntType": "postOffice",
        "bezettingsgraad": 50,
        "latitude": 49.604103,
        "longitude": 5.479859,
        "canPickup": true,
        "canDropoff": true,
        "openingstijden": {
          "ma": "14:00 - 17:00",
          "di": "09:30 - 12:30, 14:00 - 18:00",
          "wo": "14:00 - 17:00",
          "do": "09:30 - 12:30, 14:00 - 18:00",
          "vr": "14:00 - 17:00",
          "za": "gesloten",
          "zo": "gesloten"
        }
      }
    },
    {
      "type": "Feature",
      "geometry": {
        "type": "Point",
        "coordinates": [
          5.4747811,
          49.6057745
        ]
      },
      "properties": {
        "type": "pakketpunt",
        "locatieNaam": "Au Grimoire",
        "straatNaam": "Rue Firmin Lepage",
        "straatNr": "37",
        "vervoerder": "GLS",
        "puntType": "parcel_shop",
        "bezettingsgraad": 50,
        "latitude": 49.6057745,
        "longitude": 5.4747811,
        "canPickup": true,
        "canDropoff": true,
        "openingstijden": "vr: 08:00 - 18:00; za: 08:00 - 16:00"
      }
    },
    {
      "type": "Feature",
      "geometry": {
        "type": "Point",
        "coordinates": [
          5.4748558,
          49.6055763
        ]
      },
      "properties": {
        "type": "pakketpunt",
        "locatieNaam": "Au Grimoire",
        "straatNaam": "Rue Firmin Lepage",
        "straatNr": "37",
        "vervoerder": "VintedGo",
        "puntType": "parcel_shop",
        "bezettingsgraad": 50,
        "latitude": 49.6055763,
        "longitude": 5.4748558,
        "canPickup": true,
        "canDropoff": true,
        "openingstijden": null
      }
    },
    {
      "type": "Feature",
      "geometry": {
        "type": "Point",
        "coordinates": [
          5.47487512552618,
          49.6056336242167
        ]
      },
      "properties": {
        "type": "pakketpunt",
        "locatieNaam": "Au Grimoire",
        "straatNaam": "Rue Firmin lepage",
        "straatNr": "37",
        "vervoerder": "PostNL",
        "puntType": "servicepunt",
        "bezettingsgraad": 50,
        "latitude": 49.6056336242167,
        "longitude": 5.47487512552618,
        "canPickup": true,
        "canDropoff": true,
        "openingstijden": "06:00 - 18:00"
      }
    },
    {
      "type": "Feature",
      "geometry": {
        "type": "Point",
        "coordinates": [
          5.47487,
          49.60565
        ]
      },
      "properties": {
        "type": "pakketpunt",
        "locatieNaam": "Au Grimoire",
        "straatNaam": "RUE FIRMIN LEPAGE",
        "straatNr": "37",
        "vervoerder": "DPD",
        "puntType": "pickup_point",
        "bezettingsgraad": 50,
        "latitude": 49.60565,
        "longitude": 5.47487,
        "canPickup": true,
        "canDropoff": false,
        "openingstijden": {
          "ma": "gesloten",
          "di": "06:00 - 18:00",
          "wo": "06:00 - 18:00",
          "do": "06:00 - 18:00",
          "vr": "06:00 - 18:00",
          "za": "08:00 - 14:00",
          "zo": "gesloten"
        }
      }
    },
    {
      "type": "Feature",
      "geometry": {
        "type": "Point",
        "coordinates": [
          5.4798589,
          49.6041031
        ]
      },
      "properties": {
        "type": "pakketpunt",
        "locatieNaam": "bpost - MEIX-DEVANT-VIRTON",
        "straatNaam": "RUE DE VIRTON,12",
        "straatNr": "",
        "vervoerder": "Amazon",
        "puntType": "3p",
        "bezettingsgraad": 50,
        "latitude": 49.6041031,
        "longitude": 5.4798589,
        "canPickup": true,
        "canDropoff": false,
        "openingstijden": null
      }
    },
    {
      "type": "Feature",
      "geometry": {
        "type": "Point",
        "coordinates": [
          5.479868,
          49.604004
        ]
      },
      "properties": {
        "type": "pakketpunt",
        "locatieNaam": "bpost - BBOX 24/7 MEIX-DEVANT-VIRTON BPOST",
        "straatNaam": "RUE DE VIRTON,12",
        "straatNr": "",
        "vervoerder": "Amazon",
        "puntType": "3p",
        "bezettingsgraad": 50,
        "latitude": 49.604004,
        "longitude": 5.479868,
        "canPickup": true,
        "canDropoff": false,
        "openingstijden": null
      }
    },
    {
      "type": "Feature",
      "geometry": {
        "type": "Polygon",
        "coordinates": [
          [
            [
              5.483822728555708,
              49.60317811875946
            ],
            [
              5.483679733004983,
              49.60293028207396
            ],
            [
              5.483500050074955,
              49.602692747742985
            ],
            [
              5.48328541061029,
              49.602467803182684
            ],
            [
              5.483037881997365,
              49.6022576145407
            ],
            [
              5.48275984824302,
              49.6020642058422
            ],
            [
              5.482453987008705,
              49.60188943950543
            ],
            [
              5.482123243821436,
              49.60173499841377
            ],
            [
              5.481770803709986,
              49.601602369716765
            ],
            [
              5.4814000605393405,
              49.60149283051592
            ],
            [
              5.481014584338459,
              49.60140743557257
            ],
            [
              5.4806180869354675,
              49.601347007156114
            ],
            [
              5.480214386230668,
              49.60131212713026
            ],
            [
              5.479807369450585,
              49.60130313135287
            ],
            [
              5.4794009557361365,
              49.60132010644366
            ],
            [
              5.478999058424266,
              49.601362888950604
            ],
            [
              5.478605547385306,
              49.601431066922956
            ],
            [
              5.478224211777863,
              49.60152398387597
            ],
            [
              5.477858723578955,
              49.60164074510911
            ],
            [
              5.477512602239831,
              49.60178022631712
            ],
            [
              5.477189180807095,
              49.601941084411166
            ],
            [
              5.476891573834832,
              49.60212177044618
            ],
            [
              5.476622647396331,
              49.602320544530166
            ],
            [
              5.476384991483938,
              49.60253549257198
            ],
            [
              5.476180895062808,
              49.60276454470707
            ],
            [
              5.47602391273065,
              49.602988930743
            ],
            [
              5.476000691105449,
              49.602983785416605
            ],
            [
              5.475604187030111,
              49.60292333958983
            ],
            [
              5.475200476763388,
              49.60288844184133
            ],
            [
              5.474793447623872,
              49.60287942819958
            ],
            [
              5.474387018871476,
              49.60289638545637
            ],
            [
              5.47398510398791,
              49.602939150331345
            ],
            [
              5.473591573012664,
              49.60300731104358
            ],
            [
              5.473210215296262,
              49.60310021127448
            ],
            [
              5.47284470302855,
              49.6032169564846
            ],
            [
              5.47249855589248,
              49.60335642252294
            ],
            [
              5.472175107182995,
              49.60351726644673
            ],
            [
              5.471877471716773,
              49.603697939447414
            ],
            [
              5.471608515841425,
              49.60389670175846
            ],
            [
              5.471370829832707,
              49.60411163940215
            ],
            [
              5.47116670294555,
              49.604340682614094
            ],
            [
              5.470998101359263,
              49.60458162576835
            ],
            [
              5.470866649229629,
              49.60483214861174
            ],
            [
              5.470802058856243,
              49.60501105016654
            ],
            [
              5.470791933996967,
              49.60503034598915
            ],
            [
              5.470698897017094,
              49.6052880359244
            ],
            [
              5.470645172698212,
              49.60555041143281
            ],
            [
              5.470631279066901,
              49.60581494575073
            ],
            [
              5.470657350579726,
              49.60607909128262
            ],
            [
              5.470723136803236,
              49.60634030413529
            ],
            [
              5.470828004800818,
              49.60659606861801
            ],
            [
              5.470970945204373,
              49.60684392147267
            ],
            [
              5.471150581913237,
              49.607081475600246
            ],
            [
              5.471365185327825,
              49.60730644305539
            ],
            [
              5.471612688991228,
              49.60751665708708
            ],
            [
              5.4718907094791325,
              49.60771009301293
            ],
            [
              5.472196569346914,
              49.60788488772596
            ],
            [
              5.472527322913163,
              49.608039357645495
            ],
            [
              5.47287978463143,
              49.60817201493915
            ],
            [
              5.473250559776799,
              49.60828158185925
            ],
            [
              5.473636077151466,
              49.60836700305535
            ],
            [
              5.474032623493876,
              49.608427455744
            ],
            [
              5.474436379259379,
              49.60846235763775
            ],
            [
              5.474843455427094,
              49.60847137255636
            ],
            [
              5.475249930977586,
              49.60845441366668
            ],
            [
              5.475651890679553,
              49.60841164431944
            ],
            [
              5.476045462820615,
              49.60834347647501
            ],
            [
              5.476426856517856,
              49.6082505667334
            ],
            [
              5.476792398247961,
              49.608133810006734
            ],
            [
              5.477138567244198,
              49.60799433089536
            ],
            [
              5.4774620294187155,
              49.607833472850885
            ],
            [
              5.477759669482812,
              49.60765278523053
            ],
            [
              5.478028620955445,
              49.607454008368165
            ],
            [
              5.478266293770729,
              49.60723905680561
            ],
            [
              5.478470399218446,
              49.60701000084658
            ],
            [
              5.478550962551372,
              49.606894845700985
            ],
            [
              5.4785592919757,
              49.60688549796141
            ],
            [
              5.478695070591574,
              49.606691418053
            ],
            [
              5.478714189627643,
              49.60669565352233
            ],
            [
              5.479110728595875,
              49.60675608857751
            ],
            [
              5.4795144740483925,
              49.60679097252155
            ],
            [
              5.479921537063652,
              49.606799969347115
            ],
            [
              5.480327996748927,
              49.60678299239537
            ],
            [
              5.480729938025761,
              49.606740205190945
            ],
            [
              5.481123489359286,
              49.60667201986627
            ],
            [
              5.481504860067062,
              49.606579093189694
            ],
            [
              5.481870376847268,
              49.60646232023648
            ],
            [
              5.482216519173552,
              49.60632282576326
            ],
            [
              5.482539953215006,
              49.60616195336954
            ],
            [
              5.482837563953966,
              49.605981252550826
            ],
            [
              5.483106485191899,
              49.60578246376802
            ],
            [
              5.48334412715418,
              49.60556750167778
            ],
            [
              5.483344170985002,
              49.60556745247976
            ],
            [
              5.483344227149992,
              49.60556740167471
            ],
            [
              5.483548301422704,
              49.60533833668193
            ],
            [
              5.48371684298603,
              49.605097374993285
            ],
            [
              5.483848229123145,
              49.604846837362615
            ],
            [
              5.483941195032272,
              49.604589136734845
            ],
            [
              5.48394130298861,
              49.60458860877375
            ],
            [
              5.483942194788559,
              49.604586136698956
            ],
            [
              5.483995845734979,
              49.60432375496661
            ],
            [
              5.483999434007417,
              49.60425506992842
            ],
            [
              5.484005837210708,
              49.60422375460263
            ],
            [
              5.4840196570662645,
              49.60395921870311
            ],
            [
              5.4839935135569755,
              49.603695076278456
            ],
            [
              5.483927659108506,
              49.60343387113721
            ],
            [
              5.483822728555708,
              49.60317811875946
            ]
          ]
        ]
      },
      "properties": {
        "type": "buffer_union_300m",
        "buffer_m": 300
      }
    },
    {
      "type": "Feature",
      "geometry": {
        "type": "Polygon",
        "coordinates": [
          [
            [
              5.4851402748196865,
              49.60290412797122
            ],
            [
              5.484949606472298,
              49.60257368122635
            ],
            [
              5.484710023061667,
              49.60225697139734
            ],
            [
              5.484423832617754,
              49.60195704827207
            ],
            [
              5.484093791828252,
              49.601676799933784
            ],
            [
              5.483723079470306,
              49.601418924960385
            ],
            [
              5.483315265785475,
              49.601185906449714
            ],
            [
              5.482874278093342,
              49.60097998812057
            ],
            [
              5.4824043629750125,
              49.600803152718875
            ],
            [
              5.481910045390491,
              49.60065710293668
            ],
            [
              5.4813960851231185,
              49.60054324502696
            ],
            [
              5.480867430969649,
              49.60046267527148
            ],
            [
              5.480329173116058,
              49.60041616943219
            ],
            [
              5.479786494156306,
              49.60040417528643
            ],
            [
              5.479244619224301,
              49.600426808318566
            ],
            [
              5.478708765717604,
              49.600483850608775
            ],
            [
              5.478184093095393,
              49.600574752929845
            ],
            [
              5.477675653232426,
              49.600698640031865
            ],
            [
              5.477188341805502,
              49.60085431906412
            ],
            [
              5.476726851179131,
              49.601040291053295
            ],
            [
              5.476295625242798,
              49.6012547653278
            ],
            [
              5.4758988166337845,
              49.60149567674995
            ],
            [
              5.475540246756685,
              49.601760705590145
            ],
            [
              5.475284721951365,
              49.60199181062573
            ],
            [
              5.4747726650471655,
              49.60198047108134
            ],
            [
              5.474230770065391,
              49.602003080335244
            ],
            [
              5.473694893130828,
              49.60206009911659
            ],
            [
              5.473170193928155,
              49.60215097842453
            ],
            [
              5.472661724587969,
              49.60227484323075
            ],
            [
              5.472174381070792,
              49.60243050089922
            ],
            [
              5.471712856050008,
              49.602616452662296
            ],
            [
              5.471281593746166,
              49.60283090804324
            ],
            [
              5.470884747146615,
              49.603071802086255
            ],
            [
              5.470526138021654,
              49.60333681522911
            ],
            [
              5.470209220121864,
              49.60362339562727
            ],
            [
              5.469937045910894,
              49.60392878371501
            ],
            [
              5.469712237154316,
              49.60425003876769
            ],
            [
              5.46953695964835,
              49.60458406720996
            ],
            [
              5.469472364677366,
              49.60476296800875
            ],
            [
              5.469462239338446,
              49.604782263713076
            ],
            [
              5.469338180981205,
              49.605125848826034
            ],
            [
              5.469266538802159,
              49.6054756819745
            ],
            [
              5.469248003878231,
              49.60582839417337
            ],
            [
              5.469282755872283,
              49.6061805886373
            ],
            [
              5.469370461258242,
              49.60652887349251
            ],
            [
              5.469510276488758,
              49.606869894444294
            ],
            [
              5.469700856076619,
              49.60720036708537
            ],
            [
              5.4699403655137155,
              49.60751710853376
            ],
            [
              5.470226498904615,
              49.60781706809532
            ],
            [
              5.470556501146254,
              49.60809735665511
            ],
            [
              5.47092719444117,
              49.608355274514246
            ],
            [
              5.471335008889717,
              49.60858833740357
            ],
            [
              5.471776016867092,
              49.608794300423114
            ],
            [
              5.4722459708542095,
              49.60897117967619
            ],
            [
              5.472740344357906,
              49.60911727138925
            ],
            [
              5.473254375525796,
              49.609231168332784
            ],
            [
              5.473783113034937,
              49.609311773384796
            ],
            [
              5.474321463811199,
              49.60935831010555
            ],
            [
              5.47486424211844,
              49.60937033022161
            ],
            [
              5.475406219543182,
              49.60934771794683
            ],
            [
              5.475942175391744,
              49.60929069109838
            ],
            [
              5.47646694701276,
              49.60919979899719
            ],
            [
              5.47697547955876,
              49.60907591717305
            ],
            [
              5.477462874705929,
              49.60892023892548
            ],
            [
              5.477924437861362,
              49.60873426382202
            ],
            [
              5.478355723401902,
              49.60851978324501
            ],
            [
              5.478752577507803,
              49.608278863126515
            ],
            [
              5.479111178177983,
              49.60801382403814
            ],
            [
              5.479428072041008,
              49.60772721882811
            ],
            [
              5.479462729318827,
              49.607688324099314
            ],
            [
              5.479942417640793,
              49.60769892594337
            ],
            [
              5.4804843739110405,
              49.60767628958534
            ],
            [
              5.481020305191651,
              49.60761923892692
            ],
            [
              5.481545049067992,
              49.60752832351836
            ],
            [
              5.482053550959936,
              49.607404419113955
            ],
            [
              5.48254091283905,
              49.60724871923074
            ],
            [
              5.483002440432994,
              49.607062723644624
            ],
            [
              5.483433688461266,
              49.60684822393525
            ],
            [
              5.48383050346556,
              49.60660728621891
            ],
            [
              5.484189063821526,
              49.60634223123673
            ],
            [
              5.484505916546126,
              49.606055611989966
            ],
            [
              5.4845059603762065,
              49.6060555627915
            ],
            [
              5.484506016540542,
              49.60605551198587
            ],
            [
              5.484778110539224,
              49.605750089134524
            ],
            [
              5.485002825978988,
              49.605428804397455
            ],
            [
              5.485177999492816,
              49.60509475220866
            ],
            [
              5.4853019449859115,
              49.60475114990541
            ],
            [
              5.485302052927724,
              49.60475062194303
            ],
            [
              5.485302944660958,
              49.60474814985757
            ],
            [
              5.485374469501618,
              49.60439830668627
            ],
            [
              5.485378055817337,
              49.604329621604286
            ],
            [
              5.485384458135874,
              49.60429830620101
            ],
            [
              5.485402874528147,
              49.603945591444656
            ],
            [
              5.485368006494135,
              49.60359340196783
            ],
            [
              5.485280190986494,
              49.60324512949902
            ],
            [
              5.4851402748196865,
              49.60290412797122
            ]
          ]
        ]
      },
      "properties": {
        "type": "buffer_union_400m",
        "buffer_m": 400
      }
    },
    {
      "type": "Feature",
      "geometry": {
        "type": "Polygon",
        "coordinates": [
          [
            [
              5.3752213,
              49.623328
            ],
            [
              5.3765733,
              49.6240146
            ],
            [
              5.3769917,
              49.6238825
            ],
            [
              5.3773376,
              49.6236242
            ],
            [
              5.3776765,
              49.6227618
            ],
            [
              5.3808966,
              49.621064
            ],
            [
              5.3821253,
              49.6201747
            ],
            [
              5.384159,
              49.6200669
            ],
            [
              5.3859809,
              49.6197973
            ],
            [
              5.3890046,
              49.6186681
            ],
            [
              5.3920126,
              49.6186173
            ],
            [
              5.392946,
              49.6184956
            ],
            [
              5.3933816,
              49.6183456
            ],
            [
              5.393638,
              49.6192463
            ],
            [
              5.3938925,
              49.6196069
            ],
            [
              5.3945553,
              49.6200144
            ],
            [
              5.3959501,
              49.6206086
            ],
            [
              5.3983664,
              49.6219071
            ],
            [
              5.4017651,
              49.6241725
            ],
            [
              5.4026787,
              49.6246714
            ],
            [
              5.4032671,
              49.6253835
            ],
            [
              5.4049087,
              49.6278507
            ],
            [
              5.405547,
              49.6285908
            ],
            [
              5.405801,
              49.6292295
            ],
            [
              5.4062766,
              49.6294421
            ],
            [
              5.4074514,
              49.6294456
            ],
            [
              5.4084247,
              49.6291932
            ],
            [
              5.409626,
              49.6285368
            ],
            [
              5.4127866,
              49.6277466
            ],
            [
              5.4131808,
              49.6274639
            ],
            [
              5.4148974,
              49.6279978
            ],
            [
              5.4160345,
              49.6285943
            ],
            [
              5.4162759,
              49.6293274
            ],
            [
              5.4165382,
              49.6295876
            ],
            [
              5.4188025,
              49.6300849
            ],
            [
              5.4218495,
              49.6315408
            ],
            [
              5.4218405,
              49.6316794
            ],
            [
              5.4225769,
              49.6314963
            ],
            [
              5.4230243,
              49.6312142
            ],
            [
              5.4236331,
              49.6310068
            ],
            [
              5.4265219,
              49.6311516
            ],
            [
              5.4271388,
              49.631367
            ],
            [
              5.4277144,
              49.6319246
            ],
            [
              5.4286026,
              49.6329975
            ],
            [
              5.4293758,
              49.6333093
            ],
            [
              5.4305457,
              49.6336484
            ],
            [
              5.4322055,
              49.6343829
            ],
            [
              5.4322591,
              49.6343412
            ],
            [
              5.432758,
              49.6346504
            ],
            [
              5.4338014,
              49.6349978
            ],
            [
              5.434537,
              49.635
            ],
            [
              5.4353893,
              49.6351368
            ],
            [
              5.4358623,
              49.6353832
            ],
            [
              5.4369879,
              49.6356423
            ],
            [
              5.4381117,
              49.6354842
            ],
            [
              5.438844,
              49.6357309
            ],
            [
              5.4392141,
              49.6357344
            ],
            [
              5.4409471,
              49.6366082
            ],
            [
              5.4411292,
              49.6370459
            ],
            [
              5.4416683,
              49.6377911
            ],
            [
              5.4421279,
              49.637915
            ],
            [
              5.4426339,
              49.6383209
            ],
            [
              5.4435417,
              49.6387711
            ],
            [
              5.4450793,
              49.6392095
            ],
            [
              5.4460984,
              49.6398909
            ],
            [
              5.4468101,
              49.6398911
            ],
            [
              5.447022,
              49.6397521
            ],
            [
              5.4474941,
              49.6397139
            ],
            [
              5.448398,
              49.63941
            ],
            [
              5.4488567,
              49.6391469
            ],
            [
              5.4492711,
              49.6386721
            ],
            [
              5.4496613,
              49.6384008
            ],
            [
              5.4497981,
              49.6381558
            ],
            [
              5.4497927,
              49.6379387
            ],
            [
              5.4496697,
              49.6374965
            ],
            [
              5.4497418,
              49.6373307
            ],
            [
              5.4495513,
              49.6371779
            ],
            [
              5.4495701,
              49.6370823
            ],
            [
              5.450069,
              49.6366116
            ],
            [
              5.4501736,
              49.6364083
            ],
            [
              5.4504016,
              49.6363319
            ],
            [
              5.4504418,
              49.6361478
            ],
            [
              5.4503319,
              49.6356927
            ],
            [
              5.4500717,
              49.635413
            ],
            [
              5.4500824,
              49.6349909
            ],
            [
              5.4503185,
              49.6347859
            ],
            [
              5.4500671,
              49.6348097
            ],
            [
              5.4500771,
              49.6343672
            ],
            [
              5.4510561,
              49.6334222
            ],
            [
              5.4513243,
              49.6334187
            ],
            [
              5.4516032,
              49.6331182
            ],
            [
              5.4515817,
              49.6330138
            ],
            [
              5.4517695,
              49.6329462
            ],
            [
              5.4520136,
              49.6326126
            ],
            [
              5.4524884,
              49.632432
            ],
            [
              5.4527374,
              49.632232
            ],
            [
              5.452939,
              49.6324702
            ],
            [
              5.4567164,
              49.6314211
            ],
            [
              5.4571873,
              49.6313916
            ],
            [
              5.4577589,
              49.6314956
            ],
            [
              5.4588832,
              49.6325996
            ],
            [
              5.4595337,
              49.6328138
            ],
            [
              5.4607328,
              49.6335542
            ],
            [
              5.4616857,
              49.6330105
            ],
            [
              5.4655158,
              49.6321419
            ],
            [
              5.4681618,
              49.6312327
            ],
            [
              5.4694211,
              49.6310578
            ],
            [
              5.4715562,
              49.6310265
            ],
            [
              5.4747866,
              49.6314394
            ],
            [
              5.4768627,
              49.6319513
            ],
            [
              5.4813962,
              49.6336762
            ],
            [
              5.4824554,
              49.6338918
            ],
            [
              5.482922,
              49.6334659
            ],
            [
              5.4829287,
              49.6331529
            ],
            [
              5.4828322,
              49.6330209
            ],
            [
              5.4829639,
              49.6326251
            ],
            [
              5.483557,
              49.6326251
            ],
            [
              5.4837119,
              49.6319508
            ],
            [
              5.4841801,
              49.6315743
            ],
            [
              5.4840993,
              49.6311108
            ],
            [
              5.4842349,
              49.6306309
            ],
            [
              5.4842773,
              49.6300919
            ],
            [
              5.4836841,
              49.6297684
            ],
            [
              5.4841078,
              49.6282593
            ],
            [
              5.4850823,
              49.6277203
            ],
            [
              5.4865228,
              49.6273431
            ],
            [
              5.4872008,
              49.6274778
            ],
            [
              5.4875821,
              49.6283402
            ],
            [
              5.4893616,
              49.6287444
            ],
            [
              5.4899971,
              49.6293643
            ],
            [
              5.4922426,
              49.6308195
            ],
            [
              5.4922851,
              49.6321131
            ],
            [
              5.494234,
              49.6331371
            ],
            [
              5.4959712,
              49.6338109
            ],
            [
              5.4971575,
              49.633191
            ],
            [
              5.4983438,
              49.6328407
            ],
            [
              5.5004623,
              49.6325443
            ],
            [
              5.5016062,
              49.632733
            ],
            [
              5.5049751,
              49.6337816
            ],
            [
              5.5111394,
              49.6347272
            ],
            [
              5.5138509,
              49.6347002
            ],
            [
              5.5147565,
              49.6348169
            ],
            [
              5.5161226,
              49.6346645
            ],
            [
              5.5176122,
              49.6347859
            ],
            [
              5.5199248,
              49.6341519
            ],
            [
              5.5210766,
              49.6336429
            ],
            [
              5.5224052,
              49.6321758
            ],
            [
              5.5232534,
              49.6315658
            ],
            [
              5.5236241,
              49.630815
            ],
            [
              5.5250935,
              49.6311192
            ],
            [
              5.5255362,
              49.6306531
            ],
            [
              5.5260603,
              49.6297037
            ],
            [
              5.5265315,
              49.6285672
            ],
            [
              5.5279037,
              49.6280821
            ],
            [
              5.5281503,
              49.6276745
            ],
            [
              5.5286245,
              49.6271407
            ],
            [
              5.5288875,
              49.6265804
            ],
            [
              5.5290508,
              49.6258872
            ],
            [
              5.5297204,
              49.624373
            ],
            [
              5.530032,
              49.6233263
            ],
            [
              5.5301872,
              49.6224891
            ],
            [
              5.5301589,
              49.6222624
            ],
            [
              5.5299764,
              49.6219794
            ],
            [
              5.5288832,
              49.6211516
            ],
            [
              5.5282795,
              49.6205574
            ],
            [
              5.5282014,
              49.6199655
            ],
            [
              5.5283223,
              49.6195201
            ],
            [
              5.5289168,
              49.6194061
            ],
            [
              5.5300601,
              49.6194606
            ],
            [
              5.5305457,
              49.6193574
            ],
            [
              5.5296406,
              49.6192306
            ],
            [
              5.5283919,
              49.6188563
            ],
            [
              5.525318,
              49.6170069
            ],
            [
              5.5225511,
              49.6160544
            ],
            [
              5.5222133,
              49.6156801
            ],
            [
              5.5219959,
              49.6148095
            ],
            [
              5.5221951,
              49.6141249
            ],
            [
              5.5217715,
              49.6133703
            ],
            [
              5.5217185,
              49.6127804
            ],
            [
              5.5220294,
              49.6123908
            ],
            [
              5.522758,
              49.6117643
            ],
            [
              5.5229676,
              49.6114427
            ],
            [
              5.5229578,
              49.610864
            ],
            [
              5.5224493,
              49.6099747
            ],
            [
              5.5229078,
              49.6100743
            ],
            [
              5.5233708,
              49.6104362
            ],
            [
              5.524079,
              49.6107186
            ],
            [
              5.5246548,
              49.6107681
            ],
            [
              5.5281995,
              49.6102847
            ],
            [
              5.529803,
              49.6098556
            ],
            [
              5.5309184,
              49.609336
            ],
            [
              5.5319224,
              49.6090514
            ],
            [
              5.5325428,
              49.6086584
            ],
            [
              5.5327451,
              49.6084274
            ],
            [
              5.5331264,
              49.6047199
            ],
            [
              5.5304147,
              49.6044773
            ],
            [
              5.5290166,
              49.603588
            ],
            [
              5.5286353,
              49.6030759
            ],
            [
              5.5276608,
              49.599815
            ],
            [
              5.5275336,
              49.5979016
            ],
            [
              5.527576,
              49.597174
            ],
            [
              5.5269405,
              49.5965811
            ],
            [
              5.5241442,
              49.5958804
            ],
            [
              5.5242289,
              49.5955031
            ],
            [
              5.5256271,
              49.594506
            ],
            [
              5.5282539,
              49.5930238
            ],
            [
              5.5238643,
              49.5896054
            ],
            [
              5.5244869,
              49.5880524
            ],
            [
              5.5233186,
              49.586868
            ],
            [
              5.5231127,
              49.586535
            ],
            [
              5.5230205,
              49.5861683
            ],
            [
              5.5226819,
              49.5860948
            ],
            [
              5.522876,
              49.5851674
            ],
            [
              5.5195817,
              49.5842788
            ],
            [
              5.5195429,
              49.5843307
            ],
            [
              5.5185319,
              49.5835963
            ],
            [
              5.5179529,
              49.5834431
            ],
            [
              5.5177021,
              49.5830422
            ],
            [
              5.5170255,
              49.5826078
            ],
            [
              5.5145537,
              49.5804764
            ],
            [
              5.5136975,
              49.5794325
            ],
            [
              5.513952,
              49.5793357
            ],
            [
              5.513456,
              49.5786401
            ],
            [
              5.5133975,
              49.5782225
            ],
            [
              5.5140695,
              49.5774155
            ],
            [
              5.5145245,
              49.5766376
            ],
            [
              5.5152678,
              49.5758145
            ],
            [
              5.5154063,
              49.5758262
            ],
            [
              5.5154904,
              49.5752662
            ],
            [
              5.5150897,
              49.5726887
            ],
            [
              5.514722,
              49.5727298
            ],
            [
              5.5143561,
              49.5722457
            ],
            [
              5.5133902,
              49.5717522
            ],
            [
              5.5138061,
              49.5706294
            ],
            [
              5.511826,
              49.5703002
            ],
            [
              5.5122486,
              49.569963
            ],
            [
              5.5123953,
              49.5697173
            ],
            [
              5.5117882,
              49.5687716
            ],
            [
              5.5106358,
              49.5690945
            ],
            [
              5.5107031,
              49.5693913
            ],
            [
              5.508735,
              49.5700117
            ],
            [
              5.5082878,
              49.5691185
            ],
            [
              5.5077713,
              49.5691969
            ],
            [
              5.5077204,
              49.5690717
            ],
            [
              5.5046755,
              49.5700595
            ],
            [
              5.504608,
              49.5699269
            ],
            [
              5.5036824,
              49.5702242
            ],
            [
              5.5030408,
              49.5692976
            ],
            [
              5.5024366,
              49.5679508
            ],
            [
              5.4991583,
              49.5680377
            ],
            [
              5.4991396,
              49.5678671
            ],
            [
              5.4971886,
              49.567783
            ],
            [
              5.4971168,
              49.5688942
            ],
            [
              5.4957491,
              49.5688795
            ],
            [
              5.4952052,
              49.5694564
            ],
            [
              5.4951489,
              49.5695922
            ],
            [
              5.495224,
              49.5698496
            ],
            [
              5.494937,
              49.5700944
            ],
            [
              5.4951891,
              49.5702388
            ],
            [
              5.4954305,
              49.5705753
            ],
            [
              5.4953085,
              49.5709645
            ],
            [
              5.4950296,
              49.5710759
            ],
            [
              5.4950054,
              49.571442
            ],
            [
              5.4946192,
              49.5716116
            ],
            [
              5.4946326,
              49.5717186
            ],
            [
              5.4949156,
              49.5718647
            ],
            [
              5.4948109,
              49.572003
            ],
            [
              5.4948659,
              49.5723265
            ],
            [
              5.4947687,
              49.5725022
            ],
            [
              5.4944388,
              49.5726913
            ],
            [
              5.4944187,
              49.5728055
            ],
            [
              5.4945498,
              49.5728681
            ],
            [
              5.4945488,
              49.5729655
            ],
            [
              5.4940985,
              49.5730943
            ],
            [
              5.4939875,
              49.5732198
            ],
            [
              5.4942524,
              49.5733549
            ],
            [
              5.4941437,
              49.5736532
            ],
            [
              5.4936368,
              49.5738597
            ],
            [
              5.493445,
              49.5738628
            ],
            [
              5.4934967,
              49.5743189
            ],
            [
              5.4932888,
              49.5743911
            ],
            [
              5.4927067,
              49.5749216
            ],
            [
              5.4918015,
              49.574672
            ],
            [
              5.4908721,
              49.574872
            ],
            [
              5.4897282,
              49.5749007
            ],
            [
              5.4891273,
              49.5747624
            ],
            [
              5.4883267,
              49.574725
            ],
            [
              5.4882194,
              49.5746276
            ],
            [
              5.4873101,
              49.5746033
            ],
            [
              5.4859811,
              49.5744215
            ],
            [
              5.4852217,
              49.5740877
            ],
            [
              5.4845066,
              49.5736489
            ],
            [
              5.4843422,
              49.5733962
            ],
            [
              5.4836315,
              49.5729266
            ],
            [
              5.4834652,
              49.572697
            ],
            [
              5.4836256,
              49.5723103
            ],
            [
              5.484243,
              49.5722448
            ],
            [
              5.48433,
              49.5721273
            ],
            [
              5.4843476,
              49.5718169
            ],
            [
              5.4841277,
              49.5711663
            ],
            [
              5.4840955,
              49.5707576
            ],
            [
              5.4837978,
              49.5700722
            ],
            [
              5.4835389,
              49.5696958
            ],
            [
              5.4832667,
              49.569613
            ],
            [
              5.4835671,
              49.5690703
            ],
            [
              5.4840499,
              49.568698
            ],
            [
              5.4853105,
              49.568055
            ],
            [
              5.4841897,
              49.5674534
            ],
            [
              5.4837146,
              49.5671064
            ],
            [
              5.4838768,
              49.5668552
            ],
            [
              5.4838353,
              49.5664505
            ],
            [
              5.4835648,
              49.5661367
            ],
            [
              5.483205,
              49.5659774
            ],
            [
              5.4776287,
              49.5648083
            ],
            [
              5.4773176,
              49.5651667
            ],
            [
              5.476985,
              49.5653615
            ],
            [
              5.4750001,
              49.5657234
            ],
            [
              5.4746246,
              49.5657234
            ],
            [
              5.473542,
              49.5665058
            ],
            [
              5.472908,
              49.5667323
            ],
            [
              5.4719731,
              49.5669258
            ],
            [
              5.471671,
              49.5673737
            ],
            [
              5.4709945,
              49.5670682
            ],
            [
              5.4706603,
              49.5672299
            ],
            [
              5.4690984,
              49.5645383
            ],
            [
              5.4674405,
              49.5649853
            ],
            [
              5.4662883,
              49.5638185
            ],
            [
              5.4657948,
              49.5640533
            ],
            [
              5.4656567,
              49.5639559
            ],
            [
              5.4654515,
              49.5640568
            ],
            [
              5.4652959,
              49.5639211
            ],
            [
              5.4646468,
              49.5637089
            ],
            [
              5.4642547,
              49.5637007
            ],
            [
              5.4641265,
              49.5637958
            ],
            [
              5.4637908,
              49.5637071
            ],
            [
              5.4626351,
              49.5642291
            ],
            [
              5.4603875,
              49.5657303
            ],
            [
              5.4595989,
              49.56612
            ],
            [
              5.4570672,
              49.5670029
            ],
            [
              5.4537678,
              49.5670851
            ],
            [
              5.4482547,
              49.5670593
            ],
            [
              5.4436976,
              49.5676113
            ],
            [
              5.4376642,
              49.5699384
            ],
            [
              5.4360859,
              49.5748218
            ],
            [
              5.434693,
              49.5776021
            ],
            [
              5.432995,
              49.5818766
            ],
            [
              5.4293402,
              49.5878327
            ],
            [
              5.4287915,
              49.5901707
            ],
            [
              5.4311393,
              49.5925129
            ],
            [
              5.4303691,
              49.5937166
            ],
            [
              5.4292838,
              49.5949677
            ],
            [
              5.4286499,
              49.5958319
            ],
            [
              5.4282273,
              49.5962524
            ],
            [
              5.4270624,
              49.5971572
            ],
            [
              5.4257187,
              49.5978657
            ],
            [
              5.4249862,
              49.5983782
            ],
            [
              5.4240098,
              49.5986404
            ],
            [
              5.4234046,
              49.598947
            ],
            [
              5.4229343,
              49.5990838
            ],
            [
              5.4179738,
              49.5998376
            ],
            [
              5.4179689,
              49.6004564
            ],
            [
              5.4178863,
              49.6004661
            ],
            [
              5.4173743,
              49.6013248
            ],
            [
              5.4165943,
              49.601951
            ],
            [
              5.4134764,
              49.6060211
            ],
            [
              5.4112037,
              49.6082796
            ],
            [
              5.4083732,
              49.6093036
            ],
            [
              5.4048039,
              49.6099206
            ],
            [
              5.4022801,
              49.6098861
            ],
            [
              5.4007573,
              49.6109379
            ],
            [
              5.4006181,
              49.6111069
            ],
            [
              5.4000432,
              49.6123853
            ],
            [
              5.3994537,
              49.6130775
            ],
            [
              5.3980636,
              49.615202
            ],
            [
              5.3980845,
              49.6158458
            ],
            [
              5.3974642,
              49.6159743
            ],
            [
              5.3971495,
              49.6159412
            ],
            [
              5.3965992,
              49.6161828
            ],
            [
              5.3962794,
              49.6161258
            ],
            [
              5.396156,
              49.6162303
            ],
            [
              5.395859,
              49.61622
            ],
            [
              5.3958054,
              49.6163468
            ],
            [
              5.3959487,
              49.6163882
            ],
            [
              5.3959624,
              49.6164722
            ],
            [
              5.395749,
              49.6165857
            ],
            [
              5.3953616,
              49.6165292
            ],
            [
              5.3951128,
              49.6168423
            ],
            [
              5.3947549,
              49.6167679
            ],
            [
              5.3942275,
              49.6167946
            ],
            [
              5.3939125,
              49.617115
            ],
            [
              5.3940298,
              49.6171976
            ],
            [
              5.3935575,
              49.6173005
            ],
            [
              5.3935718,
              49.6174387
            ],
            [
              5.3933455,
              49.6176708
            ],
            [
              5.3926651,
              49.617855
            ],
            [
              5.3910034,
              49.6180006
            ],
            [
              5.3905818,
              49.6183367
            ],
            [
              5.3901465,
              49.6182889
            ],
            [
              5.3897968,
              49.6185103
            ],
            [
              5.3895591,
              49.6185127
            ],
            [
              5.3890496,
              49.6183538
            ],
            [
              5.3890797,
              49.6185078
            ],
            [
              5.3887665,
              49.6185787
            ],
            [
              5.3886264,
              49.6185216
            ],
            [
              5.3886004,
              49.6184247
            ],
            [
              5.3884199,
              49.6183851
            ],
            [
              5.3882619,
              49.6184514
            ],
            [
              5.3883249,
              49.6186154
            ],
            [
              5.3880155,
              49.618657
            ],
            [
              5.3880079,
              49.6187817
            ],
            [
              5.3878909,
              49.6188513
            ],
            [
              5.3869286,
              49.6187925
            ],
            [
              5.3865084,
              49.6192735
            ],
            [
              5.385748,
              49.6193064
            ],
            [
              5.3857065,
              49.6194837
            ],
            [
              5.385502,
              49.6195396
            ],
            [
              5.3852453,
              49.6195225
            ],
            [
              5.3845538,
              49.6191995
            ],
            [
              5.3841282,
              49.6193963
            ],
            [
              5.3838112,
              49.6197401
            ],
            [
              5.3831925,
              49.6196926
            ],
            [
              5.3829947,
              49.6198004
            ],
            [
              5.382782,
              49.6195751
            ],
            [
              5.3819156,
              49.6196267
            ],
            [
              5.3819156,
              49.6198602
            ],
            [
              5.3814354,
              49.619986
            ],
            [
              5.3812094,
              49.6201477
            ],
            [
              5.3807575,
              49.6202016
            ],
            [
              5.3805881,
              49.6205789
            ],
            [
              5.3798819,
              49.6207586
            ],
            [
              5.3793734,
              49.6211178
            ],
            [
              5.3790627,
              49.6215131
            ],
            [
              5.3774527,
              49.6217107
            ],
            [
              5.3760686,
              49.6226273
            ],
            [
              5.3752213,
              49.623328
            ]
          ]
        ]
      },
      "properties": {
        "type": "boundary",
        "gemeente": "Meix-devant-Virton"
      }
    }
  ]
}