{
  "type": "FeatureCollection",
  "metadata": {
    "gemeente": "Merksplas",
    "slug": "merksplas",
    "generated_at": "2026-09-25T22:11:41.680959Z",
    "total_points": 10,
    "providers": [
      "bpost",
      "DHL",
      "GLS",
      "VintedGo",
      "PostNL",
      "DPD",
      "Amazon"
    ],
    "bounds": [
      4.8406374,
      51.3514453,
      4.871028,
      51.3652625
    ]
  },
  "features": [
    {
      "type": "Feature",
      "geometry": {
        "type": "Point",
        "coordinates": [
          4.86384,
          51.35231
        ]
      },
      "properties": {
        "type": "pakketpunt",
        "locatieNaam": "Aveve Merksplas",
        "straatNaam": "Steenweg Op Beerse",
        "straatNr": "32",
        "vervoerder": "bpost",
        "puntType": "servicepunt",
        "bezettingsgraad": 50,
        "latitude": 51.35231,
        "longitude": 4.86384,
        "canPickup": true,
        "canDropoff": true,
        "openingstijden": null
      }
    },
    {
      "type": "Feature",
      "geometry": {
        "type": "Point",
        "coordinates": [
          4.86179,
          51.35829
        ]
      },
      "properties": {
        "type": "pakketpunt",
        "locatieNaam": "Merksplas",
        "straatNaam": "Schuttershofstraat",
        "straatNr": "4",
        "vervoerder": "bpost",
        "puntType": "postkantoor",
        "bezettingsgraad": 50,
        "latitude": 51.35829,
        "longitude": 4.86179,
        "canPickup": true,
        "canDropoff": true,
        "openingstijden": null
      }
    },
    {
      "type": "Feature",
      "geometry": {
        "type": "Point",
        "coordinates": [
          4.863837,
          51.352308
        ]
      },
      "properties": {
        "type": "pakketpunt",
        "locatieNaam": "AVEVE MERKSPLAS",
        "straatNaam": "STEENWEG OP BEERSE",
        "straatNr": "32",
        "vervoerder": "DHL",
        "puntType": "parcelShop",
        "bezettingsgraad": 50,
        "latitude": 51.352308,
        "longitude": 4.863837,
        "canPickup": true,
        "canDropoff": true,
        "openingstijden": {
          "ma": "08:30 - 12:30, 13:30 - 18:00",
          "di": "08:30 - 12:30",
          "wo": "08:30 - 12:30, 13:30 - 18:00",
          "do": "08:30 - 12:30, 13:30 - 18:00",
          "vr": "08:30 - 12:30, 13:30 - 18:00",
          "za": "08:30 - 17:00",
          "zo": "gesloten"
        }
      }
    },
    {
      "type": "Feature",
      "geometry": {
        "type": "Point",
        "coordinates": [
          4.86179,
          51.358294
        ]
      },
      "properties": {
        "type": "pakketpunt",
        "locatieNaam": "MERKSPLAS",
        "straatNaam": "SCHUTTERSHOFSTRAAT",
        "straatNr": "4",
        "vervoerder": "DHL",
        "puntType": "postOffice",
        "bezettingsgraad": 50,
        "latitude": 51.358294,
        "longitude": 4.86179,
        "canPickup": true,
        "canDropoff": true,
        "openingstijden": {
          "ma": "15:00 - 19:00",
          "di": "09:30 - 12:30",
          "wo": "09:30 - 12:30",
          "do": "09:30 - 12:30",
          "vr": "09:30 - 12:30, 15:00 - 17:00",
          "za": "09:30 - 13:00",
          "zo": "gesloten"
        }
      }
    },
    {
      "type": "Feature",
      "geometry": {
        "type": "Point",
        "coordinates": [
          4.8406374,
          51.3652625
        ]
      },
      "properties": {
        "type": "pakketpunt",
        "locatieNaam": "Soria",
        "straatNaam": "Industrieweg",
        "straatNr": "12",
        "vervoerder": "GLS",
        "puntType": "parcel_shop",
        "bezettingsgraad": 50,
        "latitude": 51.3652625,
        "longitude": 4.8406374,
        "canPickup": true,
        "canDropoff": true,
        "openingstijden": "vr: 10:00 - 18:00; za: 10:00 - 17:00"
      }
    },
    {
      "type": "Feature",
      "geometry": {
        "type": "Point",
        "coordinates": [
          4.8407877,
          51.3644037
        ]
      },
      "properties": {
        "type": "pakketpunt",
        "locatieNaam": "2Ndtime Tweedehands & Outlet",
        "straatNaam": "Industrieweg 10d2",
        "straatNr": "",
        "vervoerder": "VintedGo",
        "puntType": "parcel_shop",
        "bezettingsgraad": 50,
        "latitude": 51.3644037,
        "longitude": 4.8407877,
        "canPickup": true,
        "canDropoff": true,
        "openingstijden": null
      }
    },
    {
      "type": "Feature",
      "geometry": {
        "type": "Point",
        "coordinates": [
          4.862957,
          51.359927
        ]
      },
      "properties": {
        "type": "pakketpunt",
        "locatieNaam": "GSM Herstel Merksplas",
        "straatNaam": "Kerkstraat",
        "straatNr": "25-1",
        "vervoerder": "PostNL",
        "puntType": "servicepunt",
        "bezettingsgraad": 50,
        "latitude": 51.359927,
        "longitude": 4.862957,
        "canPickup": true,
        "canDropoff": true,
        "openingstijden": "10:00 - 18:00"
      }
    },
    {
      "type": "Feature",
      "geometry": {
        "type": "Point",
        "coordinates": [
          4.871028,
          51.3514453
        ]
      },
      "properties": {
        "type": "pakketpunt",
        "locatieNaam": "CENTER PEERAER & CO",
        "straatNaam": "STEENWEG OP TURNHOUT",
        "straatNr": "74",
        "vervoerder": "DPD",
        "puntType": "pickup_point",
        "bezettingsgraad": 50,
        "latitude": 51.3514453,
        "longitude": 4.871028,
        "canPickup": true,
        "canDropoff": true,
        "openingstijden": {
          "ma": "13:00 - 18:00",
          "di": "09:00 - 12:00, 13:00 - 18:00",
          "wo": "09:00 - 12:00, 13:00 - 18:00",
          "do": "09:00 - 12:00, 13:00 - 18:00",
          "vr": "09:00 - 12:00, 13:00 - 18:00",
          "za": "09:00 - 16:00",
          "zo": "gesloten"
        }
      }
    },
    {
      "type": "Feature",
      "geometry": {
        "type": "Point",
        "coordinates": [
          4.86179,
          51.358294
        ]
      },
      "properties": {
        "type": "pakketpunt",
        "locatieNaam": "bpost - MERKSPLAS",
        "straatNaam": "SCHUTTERSHOFSTRAAT,4",
        "straatNr": "",
        "vervoerder": "Amazon",
        "puntType": "3p",
        "bezettingsgraad": 50,
        "latitude": 51.358294,
        "longitude": 4.86179,
        "canPickup": true,
        "canDropoff": false,
        "openingstijden": null
      }
    },
    {
      "type": "Feature",
      "geometry": {
        "type": "Point",
        "coordinates": [
          4.863837,
          51.352308
        ]
      },
      "properties": {
        "type": "pakketpunt",
        "locatieNaam": "bpost - AVEVE MERKSPLAS",
        "straatNaam": "STEENWEG OP BEERSE,32",
        "straatNr": "",
        "vervoerder": "Amazon",
        "puntType": "3p",
        "bezettingsgraad": 50,
        "latitude": 51.352308,
        "longitude": 4.863837,
        "canPickup": true,
        "canDropoff": false,
        "openingstijden": null
      }
    },
    {
      "type": "Feature",
      "geometry": {
        "type": "MultiPolygon",
        "coordinates": [
          [
            [
              [
                4.875139871613109,
                51.35064474014893
              ],
              [
                4.874994751502294,
                51.35039622206944
              ],
              [
                4.874811431983664,
                51.350157807569076
              ],
              [
                4.874591678963924,
                51.3499317925407
              ],
              [
                4.87433760910837,
                51.3497203534405
              ],
              [
                4.874051669443802,
                51.3495255263348
              ],
              [
                4.873736613784832,
                51.349349187299644
              ],
              [
                4.87339547621086,
                51.34919303436144
              ],
              [
                4.873031541849272,
                51.3490585711523
              ],
              [
                4.8726483152460816,
                51.348947092437136
              ],
              [
                4.872249486628341,
                51.34885967165168
              ],
              [
                4.871838896382698,
                51.34879715057101
              ],
              [
                4.871420498091559,
                51.348760131208024
              ],
              [
                4.870998320481967,
                51.34874897001949
              ],
              [
                4.870576428652796,
                51.348763774475565
              ],
              [
                4.8701588849526,
                51.348804402025365
              ],
              [
                4.8697497098838864,
                51.34887046146902
              ],
              [
                4.869352843409291,
                51.348961316722516
              ],
              [
                4.8689721070312775,
                51.34907609293958
              ],
              [
                4.868611167009685,
                51.349213684931534
              ],
              [
                4.868273499070535,
                51.34937276780434
              ],
              [
                4.867962354945324,
                51.349551809710796
              ],
              [
                4.867680731062585,
                51.34974908659493
              ],
              [
                4.867431339692926,
                51.34996269878741
              ],
              [
                4.867216582825372,
                51.350190589292104
              ],
              [
                4.867038529026678,
                51.35043056358819
              ],
              [
                4.867006639282775,
                51.35048760071338
              ],
              [
                4.866864022450913,
                51.350390410349824
              ],
              [
                4.866863656551458,
                51.35039020551838
              ],
              [
                4.866861022444694,
                51.350388410424664
              ],
              [
                4.866545988211144,
                51.35021205235009
              ],
              [
                4.866204868456943,
                51.350055878783145
              ],
              [
                4.865840948137976,
                51.349921393554574
              ],
              [
                4.86545773166513,
                51.34980989164135
              ],
              [
                4.865058909167984,
                51.34972244670257
              ],
              [
                4.864648320974304,
                51.34965990074589
              ],
              [
                4.864229920646774,
                51.34962285602374
              ],
              [
                4.8638077369320625,
                51.349611669237085
              ],
              [
                4.863385834987826,
                51.34962644810255
              ],
              [
                4.862968277259987,
                51.34966705031567
              ],
              [
                4.862559084386085,
                51.34973308492053
              ],
              [
                4.862162196500137,
                51.349823916072296
              ],
              [
                4.861781435310704,
                51.34993866915677
              ],
              [
                4.861420467316448,
                51.350076239208036
              ],
              [
                4.8610827685126505,
                51.35023530154336
              ],
              [
                4.860771590927912,
                51.35041432451327
              ],
              [
                4.860489931312862,
                51.35061158424419
              ],
              [
                4.860240502282096,
                51.350825181232004
              ],
              [
                4.860025706187215,
                51.35105305862698
              ],
              [
                4.859847611972648,
                51.35129302203462
              ],
              [
                4.859707935237504,
                51.351542760641394
              ],
              [
                4.859608021695959,
                51.35179986946294
              ],
              [
                4.859548834196124,
                51.352061872500094
              ],
              [
                4.859530943423231,
                51.35232624658039
              ],
              [
                4.8595545223776115,
                51.35259044565518
              ],
              [
                4.859619344681597,
                51.352851925318866
              ],
              [
                4.859724786732755,
                51.353108167313756
              ],
              [
                4.859869833683692,
                51.35335670378487
              ],
              [
                4.860053089191867,
                51.353595141050654
              ],
              [
                4.860272788846425,
                51.353821182660894
              ],
              [
                4.860526817143525,
                51.35403265151922
              ],
              [
                4.860812727847344,
                51.3542275108571
              ],
              [
                4.860813093750338,
                51.35422771570687
              ],
              [
                4.860815727841103,
                51.35422951093195
              ],
              [
                4.861130767559845,
                51.35440588392384
              ],
              [
                4.8614719021853645,
                51.35456207179386
              ],
              [
                4.861835846190985,
                51.354696570161366
              ],
              [
                4.86221909425626,
                51.35480808354418
              ],
              [
                4.862617955038215,
                51.354895537842154
              ],
              [
                4.863028586738473,
                51.354958090687674
              ],
              [
                4.863447034123043,
                51.354995139563286
              ],
              [
                4.863869266637466,
                51.35500632760809
              ],
              [
                4.8642912172492885,
                51.35499154705683
              ],
              [
                4.86470882164281,
                51.35495094027841
              ],
              [
                4.865118057387601,
                51.35488489840389
              ],
              [
                4.865514982702521,
                51.35479405755719
              ],
              [
                4.865895774440961,
                51.35467929272479
              ],
              [
                4.866256764930533,
                51.354541709323804
              ],
              [
                4.866594477311666,
                51.35438263254973
              ],
              [
                4.866905659034114,
                51.35420359460663
              ],
              [
                4.867187313188289,
                51.3540063199433
              ],
              [
                4.867436727369436,
                51.353792708637556
              ],
              [
                4.86765149979653,
                51.35356481808908
              ],
              [
                4.867829562434524,
                51.35332484319776
              ],
              [
                4.867861453114941,
                51.353267805921234
              ],
              [
                4.868004080858163,
                51.353364994964195
              ],
              [
                4.868319141986615,
                51.35354134892439
              ],
              [
                4.8686602944156325,
                51.35369751617345
              ],
              [
                4.8690242524469625,
                51.35383199252936
              ],
              [
                4.869407510624974,
                51.35394348272195
              ],
              [
                4.869806377509215,
                51.35403091287444
              ],
              [
                4.870217011242476,
                51.354093440851784
              ],
              [
                4.8706354565711445,
                51.35413046437604
              ],
              [
                4.871057682960553,
                51.3541416268305
              ],
              [
                4.871479623437248,
                51.3541268206964
              ],
              [
                4.871897213783177,
                51.354086188589086
              ],
              [
                4.872306431703262,
                51.35402012188357
              ],
              [
                4.872703335588114,
                51.35392925694295
              ],
              [
                4.873084102497614,
                51.353814468985746
              ],
              [
                4.873445064998615,
                51.35367686365184
              ],
              [
                4.873782746501226,
                51.35351776634794
              ],
              [
                4.874093894752712,
                51.35333870947587
              ],
              [
                4.874375513165971,
                51.35314141766672
              ],
              [
                4.874624889680582,
                51.35292779116338
              ],
              [
                4.874839622878395,
                51.35269988751191
              ],
              [
                4.8750176451022655,
                51.352459901738385
              ],
              [
                4.875157242355629,
                51.35221014520225
              ],
              [
                4.875257070791729,
                51.35195302333036
              ],
              [
                4.875316169634424,
                51.35169101244619
              ],
              [
                4.8753339704069125,
                51.35142663591766
              ],
              [
                4.875310302380438,
                51.351162439853496
              ],
              [
                4.875245394191515,
                51.35090096858203
              ],
              [
                4.875139871613109,
                51.35064474014893
              ]
            ]
          ],
          [
            [
              [
                4.8657575439800596,
                51.357241234212445
              ],
              [
                4.865574244842841,
                51.357002806139626
              ],
              [
                4.865354504376635,
                51.35677677466358
              ],
              [
                4.86510043912609,
                51.3565653163989
              ],
              [
                4.8648144960738895,
                51.35637046759649
              ],
              [
                4.864499429067455,
                51.356194104541295
              ],
              [
                4.864158272295624,
                51.35603792549109
              ],
              [
                4.863794311070773,
                51.35590343432937
              ],
              [
                4.863411050197675,
                51.3557919260903
              ],
              [
                4.8630121802334205,
                51.35570447449379
              ],
              [
                4.862601541962795,
                51.35564192161169
              ],
              [
                4.862183089430606,
                51.35560486976306
              ],
              [
                4.861760851886119,
                51.3555936757175
              ],
              [
                4.86133889500522,
                51.3556084472615
              ],
              [
                4.860921281762722,
                51.35564904216115
              ],
              [
                4.860512033330611,
                51.3557150695309
              ],
              [
                4.860115090377787,
                51.35580589359563
              ],
              [
                4.859734275142968,
                51.35592063980937
              ],
              [
                4.8593732546451625,
                51.35605820327238
              ],
              [
                4.859035505385169,
                51.35621725936538
              ],
              [
                4.858724279877421,
                51.35639627649901
              ],
              [
                4.858442575334021,
                51.35659353085591
              ],
              [
                4.858193104802229,
                51.35680712298374
              ],
              [
                4.857978271033342,
                51.35703499607958
              ],
              [
                4.857800143334663,
                51.35727495579033
              ],
              [
                4.857660437627861,
                51.35752469133811
              ],
              [
                4.85756049990624,
                51.357781797768006
              ],
              [
                4.857501293250921,
                51.35804379910392
              ],
              [
                4.857483388531781,
                51.35830817218975
              ],
              [
                4.857483542318454,
                51.358309895986096
              ],
              [
                4.857483388161225,
                51.35831217218972
              ],
              [
                4.857506958515105,
                51.35857637098599
              ],
              [
                4.857571777648894,
                51.35883785109026
              ],
              [
                4.857677221990874,
                51.35909409424056
              ],
              [
                4.857822276671766,
                51.359342632570815
              ],
              [
                4.858005545274752,
                51.35958107238157
              ],
              [
                4.85822526326301,
                51.359807117198095
              ],
              [
                4.85847931495625,
                51.36001858989313
              ],
              [
                4.858668277876011,
                51.360147365994436
              ],
              [
                4.8586738151449875,
                51.360209412928434
              ],
              [
                4.858738643119319,
                51.360470892209264
              ],
              [
                4.858844097597637,
                51.36072713414013
              ],
              [
                4.85898916361308,
                51.36097567086666
              ],
              [
                4.859172444639693,
                51.36121410870484
              ],
              [
                4.8593921760210215,
                51.361440151198934
              ],
              [
                4.859646241947799,
                51.36165162124404
              ],
              [
                4.859932195821888,
                51.36184648206022
              ],
              [
                4.8602472838108435,
                51.362022856815784
              ],
              [
                4.860588471366513,
                51.362179046710445
              ],
              [
                4.860952472452422,
                51.36231354734406
              ],
              [
                4.861335781198313,
                51.36242506321261
              ],
              [
                4.861734705676684,
                51.36251252019201
              ],
              [
                4.862145403475561,
                51.362575075888806
              ],
              [
                4.862563918724186,
                51.36261212775807
              ],
              [
                4.86298622021432,
                51.36262331891005
              ],
              [
                4.863408240249001,
                51.36260854154956
              ],
              [
                4.863825913843719,
                51.36256793801481
              ],
              [
                4.864235217901374,
                51.3625018994056
              ],
              [
                4.864632209982726,
                51.362411061814385
              ],
              [
                4.86501306629798,
                51.36229630019631
              ],
              [
                4.86537411855268,
                51.36215871993754
              ],
              [
                4.865711889292305,
                51.36199964620331
              ],
              [
                4.8660231254045,
                51.36182061116843
              ],
              [
                4.866304829455843,
                51.361623339253725
              ],
              [
                4.866554288561048,
                51.36140973051047
              ],
              [
                4.8667691005065015,
                51.361181842313755
              ],
              [
                4.866947196876669,
                51.36094186954081
              ],
              [
                4.8670868629609645,
                51.360692123425956
              ],
              [
                4.8671867542498575,
                51.360435009295685
              ],
              [
                4.86724590936206,
                51.36017300339901
              ],
              [
                4.867263759279066,
                51.35990862905585
              ],
              [
                4.8672401327990755,
                51.35964443235393
              ],
              [
                4.86717525815876,
                51.35938295762777
              ],
              [
                4.867069760808286,
                51.359126722956326
              ],
              [
                4.866924657362068,
                51.35887819591501
              ],
              [
                4.866741345784504,
                51.35863976981562
              ],
              [
                4.866521591906106,
                51.358413740662776
              ],
              [
                4.8662675124006896,
                51.35820228504869
              ],
              [
                4.866078916736431,
                51.3580737801431
              ],
              [
                4.866072989071773,
                51.35800747430074
              ],
              [
                4.866008123280395,
                51.357745998750225
              ],
              [
                4.865902636077605,
                51.35748976285838
              ],
              [
                4.8657575439800596,
                51.357241234212445
              ]
            ]
          ],
          [
            [
              [
                4.844756239542863,
                51.3633556396506
              ],
              [
                4.844573024024209,
                51.36311717976163
              ],
              [
                4.84435335678315,
                51.36289110998257
              ],
              [
                4.844099353659572,
                51.36267960729691
              ],
              [
                4.843813461038275,
                51.36248470838336
              ],
              [
                4.843498432281421,
                51.36230829000955
              ],
              [
                4.843157301209857,
                51.36215205096588
              ],
              [
                4.842793352888774,
                51.36201749571365
              ],
              [
                4.842410091998936,
                51.36190591990409
              ],
              [
                4.842011209097779,
                51.361818397907896
              ],
              [
                4.841600545094784,
                51.36175577247468
              ],
              [
                4.841182054282592,
                51.361718646622165
              ],
              [
                4.84075976627906,
                51.36170737783251
              ],
              [
                4.840337747245868,
                51.36172207461191
              ],
              [
                4.839920060756165,
                51.36176259544636
              ],
              [
                4.839510728687047,
                51.36182855016347
              ],
              [
                4.83911369251253,
                51.361919303687735
              ],
              [
                4.83873277536871,
                51.362033982152404
              ],
              [
                4.838371645255607,
                51.36217148131016
              ],
              [
                4.8380337797292325,
                51.36233047716093
              ],
              [
                4.837722432423299,
                51.362509438695554
              ],
              [
                4.837440601722475,
                51.36270664263206
              ],
              [
                4.8371910018886135,
                51.36292019000373
              ],
              [
                4.836976036917933,
                51.36314802443873
              ],
              [
                4.836797777381024,
                51.36338795195633
              ],
              [
                4.836657940469043,
                51.36363766208878
              ],
              [
                4.836557873438769,
                51.36389475012602
              ],
              [
                4.836498540616617,
                51.36415674026924
              ],
              [
                4.836480514087585,
                51.36442110947022
              ],
              [
                4.836490984701803,
                51.36453905780344
              ],
              [
                4.836407496933967,
                51.36475354495549
              ],
              [
                4.836348162167987,
                51.36501553492532
              ],
              [
                4.83633013445059,
                51.365279904004375
              ],
              [
                4.8363535881013116,
                51.36554410619233
              ],
              [
                4.836418297949668,
                51.36580559705374
              ],
              [
                4.836523641476742,
                51.36606185822319
              ],
              [
                4.836668604784537,
                51.366310421661154
              ],
              [
                4.8368517923366285,
                51.36654889342645
              ],
              [
                4.837071440377204,
                51.366774976736686
              ],
              [
                4.837325433900064,
                51.36698649409395
              ],
              [
                4.837611327004815,
                51.36718140826266
              ],
              [
                4.837926366444687,
                51.367357841897324
              ],
              [
                4.83826751813949,
                51.36751409563064
              ],
              [
                4.8386314963984605,
                51.367648664447536
              ],
              [
                4.83901479557147,
                51.36776025218733
              ],
              [
                4.839413723823429,
                51.3678477840337
              ],
              [
                4.83982443870616,
                51.36791041687203
              ],
              [
                4.840242984184432,
                51.36794754741439
              ],
              [
                4.840665328758835,
                51.36795881801324
              ],
              [
                4.84108740431736,
                51.36794412010813
              ],
              [
                4.841505145340564,
                51.36790359527195
              ],
              [
                4.84191452808169,
                51.367837633846456
              ],
              [
                4.842311609343387,
                51.367746871180685
              ],
              [
                4.842692564476606,
                51.367632181508135
              ],
              [
                4.843053724234789,
                51.36749466952199
              ],
              [
                4.843391610127647,
                51.367335659729925
              ],
              [
                4.843702967933384,
                51.36715668369095
              ],
              [
                4.843984799046163,
                51.3669594652577
              ],
              [
                4.844234389356629,
                51.36674590396643
              ],
              [
                4.844449335387231,
                51.36651805673528
              ],
              [
                4.84462756743083,
                51.36627811804706
              ],
              [
                4.84476736947001,
                51.366028398807885
              ],
              [
                4.844867395685785,
                51.36577130408556
              ],
              [
                4.844926683397392,
                51.36550930994227
              ],
              [
                4.844944662309363,
                51.365244939584905
              ],
              [
                4.84493417008461,
                51.36512699203503
              ],
              [
                4.845017619176624,
                51.364912498917704
              ],
              [
                4.845076904946086,
                51.364650504601116
              ],
              [
                4.845094882671479,
                51.36438613412189
              ],
              [
                4.845071379920235,
                51.36412193353066
              ],
              [
                4.845006623737634,
                51.363860447199535
              ],
              [
                4.844901238433286,
                51.36360419331935
              ],
              [
                4.844756239542863,
                51.3633556396506
              ]
            ]
          ]
        ]
      },
      "properties": {
        "type": "buffer_union_300m",
        "buffer_m": 300
      }
    },
    {
      "type": "Feature",
      "geometry": {
        "type": "MultiPolygon",
        "coordinates": [
          [
            [
              [
                4.8765104640172385,
                51.350377855118296
              ],
              [
                4.876316962224039,
                51.350046499832004
              ],
              [
                4.876072529415856,
                51.349728616440636
              ],
              [
                4.875779520395579,
                51.34942726603449
              ],
              [
                4.875440757575443,
                51.349145350441205
              ],
              [
                4.875059503773564,
                51.348885584292596
              ],
              [
                4.874639430777892,
                51.34865046889564
              ],
              [
                4.874184583980852,
                51.34844226815811
              ],
              [
                4.873699343425386,
                51.34826298680059
              ],
              [
                4.873188381637373,
                51.348114351064076
              ],
              [
                4.872656618649937,
                51.3479977920982
              ],
              [
                4.872109174651887,
                51.34791443218978
              ],
              [
                4.8715513207151435,
                51.34786507396377
              ],
              [
                4.870988428074191,
                51.34785019266035
              ],
              [
                4.870425916444409,
                51.34786993156225
              ],
              [
                4.8698692018752165,
                51.34792410061596
              ],
              [
                4.869323644638392,
                51.348012178260554
              ],
              [
                4.868794497651591,
                51.348133316446024
              ],
              [
                4.86828685593202,
                51.34828634879335
              ],
              [
                4.867805607565425,
                51.34846980181789
              ],
              [
                4.867355386661183,
                51.34868190910821
              ],
              [
                4.866940528745419,
                51.34892062832453
              ],
              [
                4.8665996664920375,
                51.34915939794426
              ],
              [
                4.866508885135868,
                51.34912585000044
              ],
              [
                4.865997936853631,
                51.3489771833336
              ],
              [
                4.865466182025988,
                51.348860592163824
              ],
              [
                4.8649187407632795,
                51.348777199087955
              ],
              [
                4.864360884111153,
                51.34872780705037
              ],
              [
                4.863797983330266,
                51.34871289161677
              ],
              [
                4.8632354582143655,
                51.34873259639848
              ],
              [
                4.862678724942675,
                51.348786731670565
              ],
              [
                4.86213314396697,
                51.34887477619732
              ],
              [
                4.861603968433367,
                51.34899588224763
              ],
              [
                4.861096293633801,
                51.349148883751894
              ],
              [
                4.860615007972378,
                51.34933230752248
              ],
              [
                4.860164745917409,
                51.34954438742963
              ],
              [
                4.859749843391074,
                51.34978308139727
              ],
              [
                4.859374296025479,
                51.350046091055084
              ],
              [
                4.859041720686615,
                51.35033088385834
              ],
              [
                4.858755320636615,
                51.350634717462995
              ],
              [
                4.85851785467,
                51.350954666121964
              ],
              [
                4.85833161052172,
                51.35128764884859
              ],
              [
                4.858198382803985,
                51.3516304590771
              ],
              [
                4.858119455685548,
                51.3519797955342
              ],
              [
                4.858095590481696,
                51.35233229402551
              ],
              [
                4.858127018276092,
                51.35268455983038
              ],
              [
                4.858213437647344,
                51.3530332003937
              ],
              [
                4.8583540175239825,
                51.35337485799971
              ],
              [
                4.85854740514223,
                51.353706242113084
              ],
              [
                4.85879173903169,
                51.354024161075785
              ],
              [
                4.8590846669054875,
                51.354325552853894
              ],
              [
                4.859423368284008,
                51.354607514538344
              ],
              [
                4.8598045816355215,
                51.35486733031453
              ],
              [
                4.859804947539111,
                51.354867535167365
              ],
              [
                4.859807581627196,
                51.35486933041434
              ],
              [
                4.859872435051374,
                51.35490563885453
              ],
              [
                4.859556826945,
                51.35497785227623
              ],
              [
                4.859049080087137,
                51.35513084461954
              ],
              [
                4.858567724422798,
                51.35531425960573
              ],
              [
                4.858117395094254,
                51.3555263311897
              ],
              [
                4.857702428671408,
                51.35576501737551
              ],
              [
                4.857326821401631,
                51.356028019867814
              ],
              [
                4.8569941907277885,
                51.3563128061909
              ],
              [
                4.8567077404449535,
                51.35661663406315
              ],
              [
                4.85647022983151,
                51.35693657779272
              ],
              [
                4.856283947052537,
                51.35726955644046
              ],
              [
                4.85615068709249,
                51.35761236347985
              ],
              [
                4.856071734430887,
                51.357961697668415
              ],
              [
                4.856047850629297,
                51.358314194833596
              ],
              [
                4.85604800436276,
                51.358315918631796
              ],
              [
                4.856047850135223,
                51.35831819483356
              ],
              [
                4.856079266459434,
                51.35867046026691
              ],
              [
                4.856165681600905,
                51.359019101417516
              ],
              [
                4.856306264529229,
                51.35936076056399
              ],
              [
                4.856499662451555,
                51.35969214715616
              ],
              [
                4.856744013798546,
                51.360010069512136
              ],
              [
                4.857036966115455,
                51.36031146556534
              ],
              [
                4.857302928199138,
                51.36053285733642
              ],
              [
                4.857332502224994,
                51.360652156241905
              ],
              [
                4.857473098667931,
                51.360993813762555
              ],
              [
                4.857666511702628,
                51.36132519821654
              ],
              [
                4.857910879614246,
                51.36164311794251
              ],
              [
                4.858203849788534,
                51.361944510899214
              ],
              [
                4.858542601338722,
                51.362226474166185
              ],
              [
                4.858923872250037,
                51.36248629191361
              ],
              [
                4.8593439907813245,
                51.36272146157138
              ],
              [
                4.859798910821822,
                51.362929717945015
              ],
              [
                4.860284250862784,
                51.363109055045356
              ],
              [
                4.860795336208403,
                51.36325774542143
              ],
              [
                4.861327244018977,
                51.363374356809715
              ],
              [
                4.861874850751608,
                51.36345776593889
              ],
              [
                4.8624328815403945,
                51.36350716935679
              ],
              [
                4.862995961039077,
                51.36352209117485
              ],
              [
                4.863558665234871,
                51.363502387655316
              ],
              [
                4.864115573732698,
                51.363448248596725
              ],
              [
                4.8646613220044514,
                51.36336019550443
              ],
              [
                4.865190653098269,
                51.36323907656372
              ],
              [
                4.865698468308035,
                51.36308605846418
              ],
              [
                4.866179876313548,
                51.36290261515426
              ],
              [
                4.866630240316666,
                51.362690513634924
              ],
              [
                4.867045222718336,
                51.3624517969292
              ],
              [
                4.867420826905397,
                51.36218876439261
              ],
              [
                4.867753435744204,
                51.36190394955442
              ],
              [
                4.868039846410214,
                51.36160009570359
              ],
              [
                4.868277301218306,
                51.361280129455416
              ],
              [
                4.868463514157492,
                51.36094713255367
              ],
              [
                4.868596692875365,
                51.360604312180385
              ],
              [
                4.868675555901758,
                51.36025497005975
              ],
              [
                4.8686993449471965,
                51.35990247065394
              ],
              [
                4.868667832159352,
                51.359550208757355
              ],
              [
                4.868581322269368,
                51.35920157680172
              ],
              [
                4.868440649609264,
                51.35885993218671
              ],
              [
                4.868247170030968,
                51.35852856495086
              ],
              [
                4.868002747806549,
                51.35821066609383
              ],
              [
                4.86770973763747,
                51.357909296854906
              ],
              [
                4.867444991053747,
                51.357688968496504
              ],
              [
                4.867414142434695,
                51.35756463163261
              ],
              [
                4.867273483305344,
                51.3572229853903
              ],
              [
                4.867080018858976,
                51.356891616014856
              ],
              [
                4.866835613221894,
                51.35657371452651
              ],
              [
                4.866542620935785,
                51.35627234218991
              ],
              [
                4.866203864252174,
                51.3559904010439
              ],
              [
                4.865822605930482,
                51.35573060596642
              ],
              [
                4.865757746708743,
                51.355694300793374
              ],
              [
                4.866073350045881,
                51.35562207089124
              ],
              [
                4.8665810791508015,
                51.35546904850601
              ],
              [
                4.867062404800942,
                51.355285601006585
              ],
              [
                4.867512690991502,
                51.355073495434276
              ],
              [
                4.867927600872949,
                51.354834774851085
              ],
              [
                4.868269330985844,
                51.35459541849264
              ],
              [
                4.86835629087903,
                51.35462754863345
              ],
              [
                4.868867308800059,
                51.3547762047743
              ],
              [
                4.86939913981683,
                51.35489278039269
              ],
              [
                4.869946661126199,
                51.35497615256185
              ],
              [
                4.870504598685219,
                51.35502551818565
              ],
              [
                4.871067578045847,
                51.35504040173962
              ],
              [
                4.871630176160115,
                51.35502065985455
              ],
              [
                4.872186973655053,
                51.35496648269859
              ],
              [
                4.872732607072093,
                51.35487839214404
              ],
              [
                4.873261820566016,
                51.35475723673701
              ],
              [
                4.873769516563787,
                51.35460418351832
              ],
              [
                4.874250804893775,
                51.35442070677473
              ],
              [
                4.8747010499108345,
                51.35420857382917
              ],
              [
                4.8751159151622,
                51.35396982800731
              ],
              [
                4.875491405163241,
                51.35370676894509
              ],
              [
                4.87582390388021,
                51.35342193042716
              ],
              [
                4.876110209549214,
                51.35311805597053
              ],
              [
                4.876347565496331,
                51.35279807238886
              ],
              [
                4.876533686662569,
                51.35246506159278
              ],
              [
                4.876666781579158,
                51.35212223089804
              ],
              [
                4.876745569582702,
                51.35177288212817
              ],
              [
                4.876769293105873,
                51.35142037980928
              ],
              [
                4.876737724926928,
                51.35106811876375
              ],
              [
                4.876651170309966,
                51.350719491415
              ],
              [
                4.8765104640172385,
                51.350377855118296
              ]
            ]
          ],
          [
            [
              [
                4.846079046287491,
                51.3630062565879
              ],
              [
                4.845834752135233,
                51.36268831267696
              ],
              [
                4.84554185747587,
                51.36238688926892
              ],
              [
                4.845203183621505,
                51.36210488889454
              ],
              [
                4.844821992534644,
                51.36184502700222
              ],
              [
                4.844401955400331,
                51.36160980582097
              ],
              [
                4.84394711726656,
                51.361401490277245
              ],
              [
                4.843461858093607,
                51.361222086197195
              ],
              [
                4.842950850587201,
                51.36107332100348
              ],
              [
                4.842419015221088,
                51.36095662709224
              ],
              [
                4.841871472881216,
                51.36087312804965
              ],
              [
                4.841313495586437,
                51.3608236278403
              ],
              [
                4.840750455758856,
                51.36080860307145
              ],
              [
                4.84018777453073,
                51.360828198407134
              ],
              [
                4.839630869583992,
                51.36088222517618
              ],
              [
                4.839085103022887,
                51.36097016318765
              ],
              [
                4.838555729779874,
                51.361091165736006
              ],
              [
                4.838047847049937,
                51.361244067748295
              ],
              [
                4.837566345238651,
                51.36142739699488
              ],
              [
                4.8371158608949765,
                51.36163938825628
              ],
              [
                4.836700732080927,
                51.36187800031009
              ],
              [
                4.836324956607051,
                51.36214093557484
              ],
              [
                4.8359921535354475,
                51.36242566222235
              ],
              [
                4.835705528320897,
                51.3627294385458
              ],
              [
                4.835467841926009,
                51.36304933934983
              ],
              [
                4.835281384208407,
                51.363382284108894
              ],
              [
                4.835147951837109,
                51.36372506662303
              ],
              [
                4.835068830952021,
                51.36407438588614
              ],
              [
                4.835044784734914,
                51.36442687786962
              ],
              [
                4.835047360424806,
                51.3644559024274
              ],
              [
                4.8349975498316775,
                51.36458385972839
              ],
              [
                4.834918426354442,
                51.364933178760296
              ],
              [
                4.834894378552453,
                51.36528567058119
              ],
              [
                4.834925639268522,
                51.36563794053491
              ],
              [
                4.835011908691095,
                51.36598659602662
              ],
              [
                4.835152357193692,
                51.36632827919705
              ],
              [
                4.835345633278731,
                51.36665969926481
              ],
              [
                4.835589876550982,
                51.366977664225786
              ],
              [
                4.835882735597306,
                51.3672791116032
              ],
              [
                4.836221390601958,
                51.36756113795261
              ],
              [
                4.836602580480754,
                51.36782102683668
              ],
              [
                4.837022634273707,
                51.36805627500029
              ],
              [
                4.837477506494234,
                51.368264616492816
              ],
              [
                4.837962816094751,
                51.36844404450529
              ],
              [
                4.838473888673136,
                51.368592830711094
              ],
              [
                4.839005801513029,
                51.36870954192363
              ],
              [
                4.839553431023344,
                51.368793053910025
              ],
              [
                4.840111502118909,
                51.36884256222736
              ],
              [
                4.840674639065221,
                51.36885758997658
              ],
              [
                4.841237417296019,
                51.36883799239953
              ],
              [
                4.841794415702857,
                51.368783958274236
              ],
              [
                4.842340268891255,
                51.368696008095284
              ],
              [
                4.842869718898328,
                51.36857498905664
              ],
              [
                4.8433776658720555,
                51.36842206688558
              ],
              [
                4.843859217222506,
                51.36823871460665
              ],
              [
                4.844309734770249,
                51.36802669834397
              ],
              [
                4.844724879436706,
                51.367788060299496
              ],
              [
                4.845100653045241,
                51.36752509907118
              ],
              [
                4.845433436829874,
                51.36724034750158
              ],
              [
                4.845720026280604,
                51.366936548270445
              ],
              [
                4.845957661989997,
                51.36661662746717
              ],
              [
                4.846144056204493,
                51.36628366639802
              ],
              [
                4.8462774148256615,
                51.36594087190013
              ],
              [
                4.846356454650676,
                51.36559154544873
              ],
              [
                4.846380415687465,
                51.36523905135529
              ],
              [
                4.8463778328774305,
                51.36521002705386
              ],
              [
                4.8464276128124775,
                51.365082065010256
              ],
              [
                4.8465066500483385,
                51.36473273832781
              ],
              [
                4.84653060950342,
                51.364380244071896
              ],
              [
                4.846499261684431,
                51.36402797698759
              ],
              [
                4.846412909734097,
                51.363679329556795
              ],
              [
                4.846272386463853,
                51.36333765932844
              ],
              [
                4.846079046287491,
                51.3630062565879
              ]
            ]
          ]
        ]
      },
      "properties": {
        "type": "buffer_union_400m",
        "buffer_m": 400
      }
    },
    {
      "type": "Feature",
      "geometry": {
        "type": "Polygon",
        "coordinates": [
          [
            [
              4.8084546,
              51.3445237
            ],
            [
              4.8128103,
              51.347132
            ],
            [
              4.8125504,
              51.3488493
            ],
            [
              4.8126168,
              51.3491716
            ],
            [
              4.8129063,
              51.3494521
            ],
            [
              4.8133632,
              51.3497244
            ],
            [
              4.8168987,
              51.3504239
            ],
            [
              4.8159476,
              51.3616263
            ],
            [
              4.8211293,
              51.3660984
            ],
            [
              4.8233203,
              51.3663755
            ],
            [
              4.8236645,
              51.3674906
            ],
            [
              4.8237287,
              51.3675088
            ],
            [
              4.8254184,
              51.3731945
            ],
            [
              4.8263349,
              51.3768914
            ],
            [
              4.8269154,
              51.3806502
            ],
            [
              4.8273633,
              51.3806318
            ],
            [
              4.8276333,
              51.3809285
            ],
            [
              4.8278135,
              51.381275
            ],
            [
              4.8279852,
              51.3813066
            ],
            [
              4.827634,
              51.382306
            ],
            [
              4.829564,
              51.38544
            ],
            [
              4.836416,
              51.39422
            ],
            [
              4.840415,
              51.398822
            ],
            [
              4.8414395,
              51.3997892
            ],
            [
              4.8456379,
              51.4053735
            ],
            [
              4.8509047,
              51.4117277
            ],
            [
              4.8515279,
              51.4123307
            ],
            [
              4.8537831,
              51.411373
            ],
            [
              4.8539145,
              51.4116875
            ],
            [
              4.854289,
              51.4119077
            ],
            [
              4.8544989,
              51.4119418
            ],
            [
              4.8564465,
              51.4119213
            ],
            [
              4.8572519,
              51.4118339
            ],
            [
              4.8597432,
              51.4113157
            ],
            [
              4.8597017,
              51.4111912
            ],
            [
              4.8597645,
              51.411091
            ],
            [
              4.8602549,
              51.4105755
            ],
            [
              4.8605137,
              51.4104483
            ],
            [
              4.8660389,
              51.4100188
            ],
            [
              4.8673116,
              51.4091161
            ],
            [
              4.8690234,
              51.407331
            ],
            [
              4.8708782,
              51.4069763
            ],
            [
              4.8708111,
              51.4068575
            ],
            [
              4.8708621,
              51.4068123
            ],
            [
              4.871192,
              51.4068625
            ],
            [
              4.8714173,
              51.406727
            ],
            [
              4.8716024,
              51.4069378
            ],
            [
              4.8717767,
              51.4069629
            ],
            [
              4.8719604,
              51.406937
            ],
            [
              4.8720007,
              51.4068809
            ],
            [
              4.8719242,
              51.4067596
            ],
            [
              4.872108,
              51.4066797
            ],
            [
              4.8725532,
              51.4067918
            ],
            [
              4.8727,
              51.4066387
            ],
            [
              4.8726149,
              51.4064664
            ],
            [
              4.8728375,
              51.4063773
            ],
            [
              4.872914,
              51.4061782
            ],
            [
              4.8733807,
              51.406174
            ],
            [
              4.8732747,
              51.4059992
            ],
            [
              4.8735577,
              51.406041
            ],
            [
              4.8735362,
              51.4058553
            ],
            [
              4.8738004,
              51.4055918
            ],
            [
              4.8739895,
              51.4055457
            ],
            [
              4.8738876,
              51.4053625
            ],
            [
              4.8742457,
              51.4052488
            ],
            [
              4.873838,
              51.4049836
            ],
            [
              4.8741451,
              51.4046556
            ],
            [
              4.8740928,
              51.4044373
            ],
            [
              4.8742416,
              51.4041804
            ],
            [
              4.8741558,
              51.4040365
            ],
            [
              4.8748465,
              51.403732
            ],
            [
              4.8749886,
              51.4035496
            ],
            [
              4.8755868,
              51.4034467
            ],
            [
              4.876032,
              51.403553
            ],
            [
              4.8762868,
              51.4034994
            ],
            [
              4.8765872,
              51.403686
            ],
            [
              4.8783213,
              51.4035345
            ],
            [
              4.8785841,
              51.4037358
            ],
            [
              4.8788168,
              51.4037291
            ],
            [
              4.8792521,
              51.4032284
            ],
            [
              4.8795404,
              51.4031045
            ],
            [
              4.8794197,
              51.4029523
            ],
            [
              4.8796369,
              51.4028544
            ],
            [
              4.87983,
              51.402923
            ],
            [
              4.880113,
              51.4028728
            ],
            [
              4.8800285,
              51.4025164
            ],
            [
              4.8805113,
              51.4025138
            ],
            [
              4.8804228,
              51.4023449
            ],
            [
              4.8807943,
              51.4019583
            ],
            [
              4.8812529,
              51.4020646
            ],
            [
              4.8818296,
              51.4018378
            ],
            [
              4.8818269,
              51.4015551
            ],
            [
              4.8823379,
              51.4015584
            ],
            [
              4.8821676,
              51.4012597
            ],
            [
              4.8824385,
              51.4011727
            ],
            [
              4.8823097,
              51.4009242
            ],
            [
              4.8827952,
              51.4009317
            ],
            [
              4.8829347,
              51.4007493
            ],
            [
              4.883447,
              51.400797
            ],
            [
              4.8834416,
              51.4005678
            ],
            [
              4.8837836,
              51.400541
            ],
            [
              4.8836415,
              51.4003887
            ],
            [
              4.8839338,
              51.4002448
            ],
            [
              4.8841055,
              51.4003946
            ],
            [
              4.884257,
              51.4003737
            ],
            [
              4.8843053,
              51.400331
            ],
            [
              4.8842449,
              51.4002348
            ],
            [
              4.8844582,
              51.3999838
            ],
            [
              4.8846141,
              51.4000168
            ],
            [
              4.8847579,
              51.4002247
            ],
            [
              4.8849028,
              51.4001699
            ],
            [
              4.8849041,
              51.4000545
            ],
            [
              4.8849946,
              51.3999846
            ],
            [
              4.8856759,
              51.4000976
            ],
            [
              4.8857604,
              51.4000725
            ],
            [
              4.8856974,
              51.3998901
            ],
            [
              4.8859511,
              51.3997297
            ],
            [
              4.8868406,
              51.3999983
            ],
            [
              4.8872252,
              51.3998084
            ],
            [
              4.887296,
              51.3999403
            ],
            [
              4.8875722,
              51.400011
            ],
            [
              4.8877422,
              51.4001999
            ],
            [
              4.8881552,
              51.400038
            ],
            [
              4.888572,
              51.4001946
            ],
            [
              4.8886632,
              51.4000658
            ],
            [
              4.8888111,
              51.4000301
            ],
            [
              4.8887705,
              51.3998164
            ],
            [
              4.8890424,
              51.3998008
            ],
            [
              4.8892798,
              51.3996845
            ],
            [
              4.8894639,
              51.3997144
            ],
            [
              4.889496,
              51.3999189
            ],
            [
              4.8897851,
              51.3999905
            ],
            [
              4.8898853,
              51.3998322
            ],
            [
              4.8901173,
              51.3998635
            ],
            [
              4.8904439,
              51.3996243
            ],
            [
              4.8911211,
              51.3996234
            ],
            [
              4.8913773,
              51.3997247
            ],
            [
              4.8916958,
              51.399649
            ],
            [
              4.8917729,
              51.399738
            ],
            [
              4.891681,
              51.4001125
            ],
            [
              4.8918044,
              51.4003121
            ],
            [
              4.8921373,
              51.4003134
            ],
            [
              4.8921038,
              51.4005205
            ],
            [
              4.8921675,
              51.4005577
            ],
            [
              4.893003,
              51.4007263
            ],
            [
              4.8930996,
              51.4009778
            ],
            [
              4.89346,
              51.4008409
            ],
            [
              4.8943411,
              51.4007743
            ],
            [
              4.8947716,
              51.4005521
            ],
            [
              4.8950851,
              51.4009062
            ],
            [
              4.895355,
              51.4008768
            ],
            [
              4.8955829,
              51.4009797
            ],
            [
              4.8959048,
              51.4009161
            ],
            [
              4.8963565,
              51.4009608
            ],
            [
              4.8966046,
              51.4010949
            ],
            [
              4.8967494,
              51.4010516
            ],
            [
              4.8968151,
              51.4009149
            ],
            [
              4.8974146,
              51.4006004
            ],
            [
              4.8974865,
              51.4002664
            ],
            [
              4.897966,
              51.4000943
            ],
            [
              4.8979018,
              51.3998774
            ],
            [
              4.8979979,
              51.3996436
            ],
            [
              4.8987262,
              51.3991684
            ],
            [
              4.8991111,
              51.3990341
            ],
            [
              4.8996385,
              51.3986225
            ],
            [
              4.899214,
              51.3978537
            ],
            [
              4.8988824,
              51.3974795
            ],
            [
              4.9048785,
              51.3936701
            ],
            [
              4.9051072,
              51.393309
            ],
            [
              4.9331854,
              51.3671451
            ],
            [
              4.926311,
              51.362398
            ],
            [
              4.9171337,
              51.3554354
            ],
            [
              4.9010368,
              51.343736
            ],
            [
              4.89695,
              51.3377946
            ],
            [
              4.8959597,
              51.336483
            ],
            [
              4.8676789,
              51.3386041
            ],
            [
              4.8583371,
              51.3394422
            ],
            [
              4.8480641,
              51.3410684
            ],
            [
              4.8278118,
              51.3445334
            ],
            [
              4.8084546,
              51.3445237
            ]
          ]
        ]
      },
      "properties": {
        "type": "boundary",
        "gemeente": "Merksplas"
      }
    }
  ]
}