{"type":"FeatureCollection","metadata":{"gemeente":"Moorslede","slug":"moorslede","generated_at":"2026-09-26T12:42:22.182517Z","total_points":23,"providers":["bpost","DHL","GLS","InPost","VintedGo","PostNL","DPD","Amazon","ViaTim","FedEx"],"bounds":[3.0609474,50.84111,3.113359,50.8927081]},"features":[{"type":"Feature","geometry":{"type":"Point","coordinates":[3.09794,50.85178]},"properties":{"type":"pakketpunt","locatieNaam":"Bbox 24/7 Spar Dadizele","straatNaam":"Ledegemstraat","straatNr":"18C","vervoerder":"bpost","puntType":"automaat","bezettingsgraad":50,"latitude":50.85178,"longitude":3.09794,"canPickup":true,"canDropoff":true,"openingstijden":null}},{"type":"Feature","geometry":{"type":"Point","coordinates":[3.06409,50.89154]},"properties":{"type":"pakketpunt","locatieNaam":"Moorslede","straatNaam":"Pater Lievensstraat","straatNr":"2A","vervoerder":"bpost","puntType":"postkantoor","bezettingsgraad":50,"latitude":50.89154,"longitude":3.06409,"canPickup":true,"canDropoff":true,"openingstijden":null}},{"type":"Feature","geometry":{"type":"Point","coordinates":[3.0614,50.89269]},"properties":{"type":"pakketpunt","locatieNaam":"Bbox 24/7 Carrefour Moorsle","straatNaam":"Roeselaarsestraat","straatNr":"23","vervoerder":"bpost","puntType":"automaat","bezettingsgraad":50,"latitude":50.89269,"longitude":3.0614,"canPickup":true,"canDropoff":true,"openingstijden":null}},{"type":"Feature","geometry":{"type":"Point","coordinates":[3.097937,50.851785]},"properties":{"type":"pakketpunt","locatieNaam":"BBOX 24/7 SPAR DADIZELE","straatNaam":"LEDEGEMSTRAAT","straatNr":"18C","vervoerder":"DHL","puntType":"packStation","bezettingsgraad":50,"latitude":50.851785,"longitude":3.097937,"canPickup":true,"canDropoff":true,"openingstijden":{"ma":"00:00 - 23:59","di":"00:00 - 23:59","wo":"00:00 - 23:59","do":"00:00 - 23:59","vr":"00:00 - 23:59","za":"00:00 - 23:59","zo":"00:00 - 23:59"}}},{"type":"Feature","geometry":{"type":"Point","coordinates":[3.061397,50.892685]},"properties":{"type":"pakketpunt","locatieNaam":"BBOX 24/7 CARREFOUR MOORSLEDE","straatNaam":"ROESELAARSESTRAAT","straatNr":"23","vervoerder":"DHL","puntType":"packStation","bezettingsgraad":50,"latitude":50.892685,"longitude":3.061397,"canPickup":true,"canDropoff":true,"openingstijden":{"ma":"00:00 - 23:59","di":"00:00 - 23:59","wo":"00:00 - 23:59","do":"00:00 - 23:59","vr":"00:00 - 23:59","za":"00:00 - 23:59","zo":"00:00 - 23:59"}}},{"type":"Feature","geometry":{"type":"Point","coordinates":[3.064092,50.891539]},"properties":{"type":"pakketpunt","locatieNaam":"MOORSLEDE","straatNaam":"PATER LIEVENSSTRAAT","straatNr":"2A","vervoerder":"DHL","puntType":"postOffice","bezettingsgraad":50,"latitude":50.891539,"longitude":3.064092,"canPickup":true,"canDropoff":true,"openingstijden":{"ma":"09:30 - 12:30","di":"09:30 - 12:30","wo":"09:30 - 12:30, 14:15 - 18:00","do":"14:15 - 17:00","vr":"14:15 - 18:00","za":"09:30 - 13:00","zo":"gesloten"}}},{"type":"Feature","geometry":{"type":"Point","coordinates":[3.0985417,50.8521093]},"properties":{"type":"pakketpunt","locatieNaam":"GLS Parcel Locker powered by bbox","straatNaam":"Ledegemstraat","straatNr":"18 C","vervoerder":"GLS","puntType":"locker","bezettingsgraad":50,"latitude":50.8521093,"longitude":3.0985417,"canPickup":true,"canDropoff":true,"openingstijden":"vr: 00:00 - 24:00; za: 00:00 - 24:00"}},{"type":"Feature","geometry":{"type":"Point","coordinates":[3.0609474,50.8892416]},"properties":{"type":"pakketpunt","locatieNaam":"ViaTim + Nadia","straatNaam":"Dadizeelsestraat","straatNr":"57","vervoerder":"GLS","puntType":"parcel_shop","bezettingsgraad":50,"latitude":50.8892416,"longitude":3.0609474,"canPickup":true,"canDropoff":true,"openingstijden":"vr: 16:00 - 21:00; ma: 16:00 - 21:00"}},{"type":"Feature","geometry":{"type":"Point","coordinates":[3.0614053,50.8925236]},"properties":{"type":"pakketpunt","locatieNaam":"GLS Parcel Locker powered by bbox","straatNaam":"Roeselaarsestraat","straatNr":"23","vervoerder":"GLS","puntType":"locker","bezettingsgraad":50,"latitude":50.8925236,"longitude":3.0614053,"canPickup":true,"canDropoff":true,"openingstijden":"vr: 00:00 - 24:00; ma: 00:00 - 24:00"}},{"type":"Feature","geometry":{"type":"Point","coordinates":[3.0620371,50.8927081]},"properties":{"type":"pakketpunt","locatieNaam":"Poets-Service","straatNaam":"Roeselaarsestraat","straatNr":"25 1","vervoerder":"GLS","puntType":"parcel_shop","bezettingsgraad":50,"latitude":50.8927081,"longitude":3.0620371,"canPickup":true,"canDropoff":true,"openingstijden":"vr: 08:00 - 12:00, 13:00 - 17:00; ma: 08:00 - 12:00, 13:00 - 18:00"}},{"type":"Feature","geometry":{"type":"Point","coordinates":[3.0629,50.8912]},"properties":{"type":"pakketpunt","locatieNaam":"DAGBLADHANDEL TI AMO","straatNaam":"MARKTPLAATS 7","straatNr":"","vervoerder":"InPost","puntType":"servicepunt","bezettingsgraad":50,"latitude":50.8912,"longitude":3.0629,"canPickup":true,"canDropoff":true,"openingstijden":null}},{"type":"Feature","geometry":{"type":"Point","coordinates":[3.06165,50.8927]},"properties":{"type":"pakketpunt","locatieNaam":"","straatNaam":"Roeselaarsestraat","straatNr":"25","vervoerder":"InPost","puntType":"automaat","bezettingsgraad":50,"latitude":50.8927,"longitude":3.06165,"canPickup":true,"canDropoff":true,"openingstijden":"24/7"}},{"type":"Feature","geometry":{"type":"Point","coordinates":[3.11222,50.84111]},"properties":{"type":"pakketpunt","locatieNaam":"CHATEAU VANHEE","straatNaam":"Meensesteenweg 244","straatNr":"","vervoerder":"InPost","puntType":"servicepunt","bezettingsgraad":50,"latitude":50.84111,"longitude":3.11222,"canPickup":true,"canDropoff":true,"openingstijden":null}},{"type":"Feature","geometry":{"type":"Point","coordinates":[3.113359,50.841165]},"properties":{"type":"pakketpunt","locatieNaam":"Vanhee-verfaillie B.v.","straatNaam":"Meensesteenweg","straatNr":"244","vervoerder":"VintedGo","puntType":"parcel_shop","bezettingsgraad":50,"latitude":50.841165,"longitude":3.113359,"canPickup":true,"canDropoff":true,"openingstijden":null}},{"type":"Feature","geometry":{"type":"Point","coordinates":[3.061905,50.892686]},"properties":{"type":"pakketpunt","locatieNaam":"BV Poets-Service","straatNaam":"Roeselaarsestraat","straatNr":"25-1","vervoerder":"PostNL","puntType":"servicepunt","bezettingsgraad":50,"latitude":50.892686,"longitude":3.061905,"canPickup":true,"canDropoff":true,"openingstijden":"08:00 - 12:00, 13:00 - 17:00"}},{"type":"Feature","geometry":{"type":"Point","coordinates":[3.062903,50.891201]},"properties":{"type":"pakketpunt","locatieNaam":"DAGBLADHANDEL TI AMO","straatNaam":"MARKTPLAATS","straatNr":"7","vervoerder":"DPD","puntType":"pickup_point","bezettingsgraad":50,"latitude":50.891201,"longitude":3.062903,"canPickup":true,"canDropoff":true,"openingstijden":{"ma":"07:00 - 12:15","di":"07:00 - 12:15, 14:00 - 18:00","wo":"07:00 - 12:15, 14:00 - 18:00","do":"07:00 - 12:15, 14:00 - 18:00","vr":"07:00 - 12:15, 14:00 - 18:00","za":"07:00 - 12:15","zo":"gesloten"}}},{"type":"Feature","geometry":{"type":"Point","coordinates":[3.0610043,50.8890796]},"properties":{"type":"pakketpunt","locatieNaam":"DPD BUURTPUNT VIATIM EN NADIA","straatNaam":"DADIZEELSESTRAAT","straatNr":"57","vervoerder":"DPD","puntType":"pickup_point","bezettingsgraad":50,"latitude":50.8890796,"longitude":3.0610043,"canPickup":true,"canDropoff":false,"openingstijden":{"ma":"16:00 - 21:00","di":"16:00 - 21:00","wo":"16:00 - 21:00","do":"16:00 - 21:00","vr":"16:00 - 21:00","za":"gesloten","zo":"gesloten"}}},{"type":"Feature","geometry":{"type":"Point","coordinates":[3.1121166,50.8411767]},"properties":{"type":"pakketpunt","locatieNaam":"CHATEAU VANHEE DADIZELE","straatNaam":"MEENSESTEENWEG","straatNr":"244","vervoerder":"DPD","puntType":"pickup_point","bezettingsgraad":50,"latitude":50.8411767,"longitude":3.1121166,"canPickup":true,"canDropoff":false,"openingstijden":{"ma":"09:00 - 18:00","di":"09:00 - 18:00","wo":"09:00 - 18:00","do":"09:00 - 18:00","vr":"09:00 - 18:00","za":"09:00 - 18:00","zo":"gesloten"}}},{"type":"Feature","geometry":{"type":"Point","coordinates":[3.097937,50.851785]},"properties":{"type":"pakketpunt","locatieNaam":"bpost - BBOX 24/7 SPAR DADIZELE","straatNaam":"LEDEGEMSTRAAT,18C","straatNr":"","vervoerder":"Amazon","puntType":"3p","bezettingsgraad":50,"latitude":50.851785,"longitude":3.097937,"canPickup":true,"canDropoff":false,"openingstijden":null}},{"type":"Feature","geometry":{"type":"Point","coordinates":[3.064092,50.891539]},"properties":{"type":"pakketpunt","locatieNaam":"bpost - MOORSLEDE","straatNaam":"PATER LIEVENSSTRAAT,2A","straatNr":"","vervoerder":"Amazon","puntType":"3p","bezettingsgraad":50,"latitude":50.891539,"longitude":3.064092,"canPickup":true,"canDropoff":false,"openingstijden":null}},{"type":"Feature","geometry":{"type":"Point","coordinates":[3.061397,50.892685]},"properties":{"type":"pakketpunt","locatieNaam":"bpost - BBOX 24/7 CARREFOUR MOORSLEDE","straatNaam":"ROESELAARSESTRAAT,23","straatNr":"","vervoerder":"Amazon","puntType":"3p","bezettingsgraad":50,"latitude":50.892685,"longitude":3.061397,"canPickup":true,"canDropoff":false,"openingstijden":null}},{"type":"Feature","geometry":{"type":"Point","coordinates":[3.0609796,50.88908259999999]},"properties":{"type":"pakketpunt","locatieNaam":"ViaTim en Nadia","straatNaam":"Dadizeelsestraat","straatNr":"57","vervoerder":"ViaTim","puntType":"servicepunt","bezettingsgraad":50,"latitude":50.88908259999999,"longitude":3.0609796,"canPickup":true,"canDropoff":true,"openingstijden":{"ma":"16:00 - 21:00","di":"16:00 - 21:00","wo":"16:00 - 21:00","do":"16:00 - 21:00","vr":"16:00 - 21:00","za":"gesloten","zo":"gesloten"}}},{"type":"Feature","geometry":{"type":"Point","coordinates":[3.0628716828207203,50.89117265962581]},"properties":{"type":"pakketpunt","locatieNaam":"FedEx OnSite","straatNaam":"MARKTPLAATS 7","straatNr":"","vervoerder":"FedEx","puntType":"servicepunt","bezettingsgraad":50,"latitude":50.89117265962581,"longitude":3.0628716828207203,"canPickup":true,"canDropoff":true,"openingstijden":{"ma":"06:00 - 12:15","di":"06:00 - 12:15, 14:00 - 18:00","wo":"06:00 - 12:15, 14:00 - 18:00","do":"06:00 - 12:15, 14:00 - 18:00","vr":"06:00 - 12:15, 14:00 - 18:00","za":"gesloten","zo":"gesloten"}}},{"type":"Feature","geometry":{"type":"Polygon","coordinates":[[[3.0315835,50.8808577],[3.0349849,50.8778997],[3.0353737,50.8774004],[3.0359451,50.8764301],[3.0361405,50.8763026],[3.0366806,50.8761634],[3.0368406,50.8760198],[3.0385518,50.8738449],[3.0389178,50.8731106],[3.0394497,50.8715979],[3.0415003,50.8722665],[3.0435853,50.8728146],[3.0447054,50.8716105],[3.0464235,50.8699693],[3.0491846,50.8668604],[3.0493743,50.8667275],[3.0496819,50.8662849],[3.0503292,50.8663741],[3.0514976,50.866248],[3.0521873,50.8662628],[3.0526641,50.8661408],[3.0538134,50.8660687],[3.0543149,50.8656685],[3.0548662,50.8650017],[3.0548846,50.8649293],[3.0546173,50.8648084],[3.054621,50.8646817],[3.0551628,50.8646723],[3.0555325,50.8648935],[3.0559799,50.8646611],[3.0569842,50.8645748],[3.0572353,50.8642089],[3.0572471,50.8638996],[3.0575508,50.8638565],[3.0575746,50.863666],[3.0582945,50.8634339],[3.0587482,50.8634584],[3.0588071,50.8633123],[3.0586245,50.8631842],[3.0586024,50.8629826],[3.0590365,50.8629825],[3.0591653,50.8629096],[3.0592696,50.8626984],[3.0592186,50.8625818],[3.0590238,50.8624768],[3.0592793,50.862142],[3.0589249,50.8621429],[3.0587684,50.8620339],[3.0588994,50.8618409],[3.0592193,50.8618423],[3.058741,50.8613578],[3.0589967,50.8611915],[3.0591571,50.8611906],[3.059314,50.8609676],[3.0591645,50.8608601],[3.059177,50.8607051],[3.0594793,50.8607123],[3.0596054,50.860586],[3.0597879,50.8606237],[3.0603157,50.8603498],[3.0604602,50.8600045],[3.0601269,50.8600464],[3.0601575,50.8598427],[3.0609002,50.8596965],[3.0610234,50.8595237],[3.0608698,50.8594904],[3.0608139,50.8593644],[3.061639,50.8593565],[3.0616538,50.8592269],[3.0615145,50.8591304],[3.0616289,50.8590063],[3.0622344,50.8589863],[3.0626439,50.8586736],[3.0630098,50.8585197],[3.0631846,50.8580569],[3.0634618,50.8578942],[3.0639173,50.8579849],[3.0641388,50.858172],[3.0647161,50.8581791],[3.0648977,50.8583431],[3.0651867,50.85821],[3.065723,50.8581574],[3.0661283,50.8577511],[3.0663657,50.8572053],[3.0670527,50.8573064],[3.0672455,50.8569343],[3.0668037,50.8567175],[3.06832,50.8551209],[3.0688043,50.8547745],[3.0696699,50.853921],[3.0701956,50.8533745],[3.0705607,50.8528628],[3.0712264,50.8523389],[3.0757199,50.8477546],[3.0785771,50.8451534],[3.0806443,50.8431159],[3.0811275,50.8428636],[3.0828579,50.8425075],[3.083738,50.8427237],[3.0867044,50.8432032],[3.0876097,50.8418648],[3.0882881,50.8402883],[3.0904829,50.8401136],[3.0918121,50.8397479],[3.094661,50.8394083],[3.096389,50.838985],[3.0984715,50.8386809],[3.1002286,50.8387049],[3.1037001,50.837716],[3.1065075,50.8375374],[3.1074702,50.8371928],[3.108414,50.8370474],[3.111473,50.8373252],[3.1125647,50.8377317],[3.1152828,50.8380728],[3.1159609,50.8387565],[3.1169979,50.8389013],[3.1180251,50.8391718],[3.1183641,50.839673],[3.1196415,50.8400326],[3.120317,50.8400552],[3.1217632,50.8404353],[3.1223848,50.8404802],[3.1224534,50.8403583],[3.1228419,50.8403616],[3.1233285,50.8404859],[3.1233132,50.8405971],[3.124677,50.8408804],[3.1260734,50.8416178],[3.1263848,50.8412485],[3.1286976,50.8422059],[3.1298965,50.8426183],[3.1301859,50.8427437],[3.1314359,50.8436428],[3.1320891,50.8442348],[3.1321906,50.8443547],[3.1321073,50.8447062],[3.1332265,50.8448607],[3.1332424,50.8449315],[3.1329198,50.8452941],[3.1329684,50.8454629],[3.1339641,50.8458409],[3.1346987,50.8459339],[3.1348318,50.8461428],[3.1348925,50.8465797],[3.1351545,50.8469576],[3.1351193,50.8472575],[3.1349605,50.8474849],[3.1345878,50.8475915],[3.1329944,50.8475694],[3.1323891,50.8476561],[3.1314002,50.8481973],[3.1297437,50.8486435],[3.128788,50.8490989],[3.1283297,50.8492269],[3.1273594,50.8490561],[3.1269515,50.8486478],[3.1267236,50.848251],[3.1263791,50.8480803],[3.1259899,50.8483995],[3.125731,50.8488591],[3.1254797,50.8488617],[3.1254006,50.8491572],[3.1248961,50.8495739],[3.1245481,50.8501592],[3.1245483,50.8507043],[3.1248838,50.8514834],[3.124949,50.852142],[3.1249,50.8523293],[3.1244118,50.8524327],[3.1218795,50.8533453],[3.1217706,50.8536558],[3.1214646,50.8539727],[3.1195726,50.8547713],[3.1184231,50.8545184],[3.116971,50.8543762],[3.1160089,50.8540908],[3.1145677,50.8542982],[3.1121894,50.854311],[3.1117943,50.8540908],[3.1111443,50.8538813],[3.110701,50.8537851],[3.1102605,50.8538035],[3.1099012,50.8534087],[3.1094198,50.8532013],[3.1087147,50.85308],[3.10835,50.852724],[3.1076162,50.8527051],[3.1072786,50.8526182],[3.1062484,50.8537362],[3.1044129,50.8537733],[3.1040305,50.8538712],[3.1039963,50.8540795],[3.104468,50.8550008],[3.1043407,50.8551597],[3.1036633,50.855316],[3.1020877,50.8552307],[3.101769,50.8553963],[3.1016502,50.8557421],[3.1017387,50.8568446],[3.1012147,50.8581966],[3.1008789,50.8584539],[3.10088,50.859051],[3.1010178,50.8593754],[3.1018379,50.860347],[3.1019881,50.8607432],[3.1019989,50.8609955],[3.1013122,50.8616303],[3.1006122,50.8625744],[3.1003962,50.8629737],[3.1003566,50.8634554],[3.1002236,50.8637537],[3.100234,50.8644148],[3.0999429,50.8648235],[3.0998933,50.8651859],[3.0997305,50.8654283],[3.0991963,50.8656291],[3.09885,50.866417],[3.0983055,50.8672524],[3.0976431,50.867694],[3.097062,50.8678886],[3.0946781,50.8680335],[3.0945307,50.8687955],[3.0947886,50.8693066],[3.0947745,50.869542],[3.0952135,50.8697433],[3.0952598,50.8700827],[3.0954,50.8703349],[3.0950224,50.8714049],[3.095205,50.8717215],[3.0951318,50.8718606],[3.0955002,50.8720652],[3.0946657,50.872873],[3.0953947,50.873491],[3.0956082,50.8740888],[3.0962601,50.8743369],[3.0966532,50.8746071],[3.0967232,50.8747968],[3.0973493,50.8753649],[3.097793,50.8755745],[3.0981915,50.8755384],[3.098392,50.8757893],[3.0986743,50.8759171],[3.0986501,50.8761202],[3.0988258,50.8765826],[3.0992161,50.8767015],[3.0991394,50.8768284],[3.0998801,50.8771904],[3.1011647,50.8773946],[3.1021454,50.877392],[3.1029711,50.8776496],[3.1035973,50.8782356],[3.1055174,50.8804049],[3.1077104,50.8806821],[3.1079212,50.8809748],[3.1078099,50.8810915],[3.1083876,50.881489],[3.1089769,50.8821196],[3.1096337,50.8826536],[3.1109865,50.883532],[3.1116977,50.8843282],[3.1125986,50.8851652],[3.1137003,50.8856417],[3.1159157,50.8867919],[3.1161513,50.8870763],[3.1158867,50.8874038],[3.1163681,50.8876172],[3.1167617,50.8885978],[3.1171498,50.8886353],[3.1170317,50.8892777],[3.1173462,50.8901909],[3.1176474,50.8903454],[3.1166269,50.8905172],[3.1146402,50.8905404],[3.1139242,50.8906258],[3.113913,50.890539],[3.1112141,50.8913085],[3.1119157,50.8932126],[3.1128645,50.8947235],[3.1126167,50.894806],[3.1128072,50.8950873],[3.1119644,50.8953413],[3.111594,50.8953185],[3.1106945,50.8960072],[3.1100684,50.8966577],[3.1072329,50.8982351],[3.1058166,50.8992602],[3.1052054,50.8995507],[3.1039884,50.9005029],[3.1048293,50.9014271],[3.1044389,50.9015538],[3.1044504,50.9021363],[3.1032554,50.9028905],[3.1035078,50.9031914],[3.1025239,50.9034141],[3.1024249,50.9032762],[3.1018935,50.9034661],[3.1001415,50.9038295],[3.1001945,50.9038754],[3.0997174,50.9042223],[3.0998607,50.9043151],[3.098816,50.9051013],[3.0986805,50.9055841],[3.0981857,50.9061801],[3.0980296,50.9072028],[3.099104,50.9083954],[3.0987961,50.9092082],[3.099274,50.9105722],[3.0986116,50.9117421],[3.0991659,50.9118537],[3.0987864,50.9126738],[3.09885,50.912801],[3.09766,50.9146943],[3.0973527,50.9163789],[3.0961463,50.9189285],[3.0941772,50.9210703],[3.0940092,50.921785],[3.0945306,50.9218591],[3.0946737,50.9220694],[3.0945496,50.9240083],[3.0936246,50.9236568],[3.0924635,50.9246382],[3.0895705,50.9279561],[3.0889771,50.9278117],[3.0877691,50.9272272],[3.0877195,50.9270644],[3.0874781,50.9270446],[3.0870945,50.9267327],[3.087184,50.9266032],[3.0860639,50.9259144],[3.0854798,50.9258523],[3.0853327,50.9259695],[3.0850733,50.9258981],[3.0848657,50.9257207],[3.0847324,50.9257423],[3.0840353,50.9253644],[3.0838224,50.9250444],[3.0783847,50.9225317],[3.0768203,50.9216918],[3.0755584,50.9211416],[3.0747128,50.9206185],[3.0691874,50.9179232],[3.0684034,50.9173092],[3.0675848,50.918018],[3.0661924,50.9176234],[3.0663933,50.9173986],[3.0656919,50.9171646],[3.0661806,50.9167267],[3.064631,50.9161385],[3.0650591,50.9156184],[3.0646064,50.9154679],[3.0646776,50.9153793],[3.0630989,50.9149039],[3.0638583,50.9138711],[3.0621724,50.9128572],[3.0555837,50.9096165],[3.0536243,50.9088224],[3.0540872,50.9081838],[3.0545521,50.9072832],[3.0508129,50.9053002],[3.0496939,50.9036916],[3.0480529,50.9026793],[3.0476924,50.9023056],[3.0477156,50.9022279],[3.0474778,50.901888],[3.047706,50.9016674],[3.0471933,50.9013882],[3.045701,50.9009076],[3.045901,50.9007625],[3.0452065,50.900735],[3.0449635,50.9006552],[3.0436846,50.8997806],[3.0426969,50.8993932],[3.0423416,50.8991307],[3.0420597,50.8987677],[3.0416366,50.8988974],[3.0415698,50.8982907],[3.0411951,50.8982524],[3.041176,50.897626],[3.0400502,50.8975641],[3.040273,50.8970113],[3.0385302,50.8964972],[3.0383125,50.8966822],[3.0362395,50.8959031],[3.0362861,50.8957909],[3.0356302,50.8954885],[3.0345481,50.8951962],[3.0344102,50.8952493],[3.0342788,50.8950443],[3.0336962,50.894866],[3.0335443,50.8949536],[3.0327972,50.8947861],[3.0316798,50.8947127],[3.0316786,50.8945721],[3.0304682,50.8946926],[3.0308239,50.8939208],[3.0307211,50.8939058],[3.0311209,50.8927903],[3.0310705,50.8905669],[3.0296174,50.8908582],[3.0292973,50.8903177],[3.0291299,50.8903486],[3.0289836,50.8887285],[3.0280013,50.8886794],[3.0283357,50.8874818],[3.0282837,50.8874725],[3.028686,50.8865539],[3.0287664,50.8864537],[3.0289159,50.8864877],[3.0295404,50.8850918],[3.0274779,50.8845902],[3.0280162,50.8838409],[3.0279328,50.8838031],[3.0288074,50.8827577],[3.0315835,50.8808577]]]},"properties":{"type":"boundary","gemeente":"Moorslede"}}]}