{
  "type": "FeatureCollection",
  "metadata": {
    "gemeente": "Nandrin",
    "slug": "nandrin",
    "generated_at": "2026-09-25T22:11:42.185024Z",
    "total_points": 13,
    "providers": [
      "bpost",
      "DHL",
      "GLS",
      "InPost",
      "VintedGo",
      "Amazon"
    ],
    "bounds": [
      5.39628,
      50.50628,
      5.4211213,
      50.5230844
    ]
  },
  "features": [
    {
      "type": "Feature",
      "geometry": {
        "type": "Point",
        "coordinates": [
          5.42108,
          50.5223
        ]
      },
      "properties": {
        "type": "pakketpunt",
        "locatieNaam": "Bbox 24/7 Intmarché Nandrin",
        "straatNaam": "Route Du Condroz",
        "straatNr": "318",
        "vervoerder": "bpost",
        "puntType": "automaat",
        "bezettingsgraad": 50,
        "latitude": 50.5223,
        "longitude": 5.42108,
        "canPickup": true,
        "canDropoff": true,
        "openingstijden": null
      }
    },
    {
      "type": "Feature",
      "geometry": {
        "type": "Point",
        "coordinates": [
          5.41989,
          50.50652
        ]
      },
      "properties": {
        "type": "pakketpunt",
        "locatieNaam": "Nandrin",
        "straatNaam": "Place Ovide Musin",
        "straatNr": "1",
        "vervoerder": "bpost",
        "puntType": "postkantoor",
        "bezettingsgraad": 50,
        "latitude": 50.50652,
        "longitude": 5.41989,
        "canPickup": true,
        "canDropoff": true,
        "openingstijden": null
      }
    },
    {
      "type": "Feature",
      "geometry": {
        "type": "Point",
        "coordinates": [
          5.39763,
          50.50851
        ]
      },
      "properties": {
        "type": "pakketpunt",
        "locatieNaam": "Bbox 24/7 Q8 Nandrin",
        "straatNaam": "Route Du Condroz",
        "straatNr": "123",
        "vervoerder": "bpost",
        "puntType": "automaat",
        "bezettingsgraad": 50,
        "latitude": 50.50851,
        "longitude": 5.39763,
        "canPickup": true,
        "canDropoff": true,
        "openingstijden": null
      }
    },
    {
      "type": "Feature",
      "geometry": {
        "type": "Point",
        "coordinates": [
          5.419887,
          50.506523
        ]
      },
      "properties": {
        "type": "pakketpunt",
        "locatieNaam": "NANDRIN",
        "straatNaam": "PLACE OVIDE MUSIN",
        "straatNr": "1",
        "vervoerder": "DHL",
        "puntType": "postOffice",
        "bezettingsgraad": 50,
        "latitude": 50.506523,
        "longitude": 5.419887,
        "canPickup": true,
        "canDropoff": true,
        "openingstijden": {
          "ma": "09:30 - 12:30, 13:45 - 17:00",
          "di": "09:30 - 12:30, 13:45 - 18:00",
          "wo": "09:30 - 12:30, 13:45 - 17:00",
          "do": "09:30 - 12:30, 13:45 - 18:00",
          "vr": "09:30 - 12:30, 13:45 - 17:00",
          "za": "09:30 - 13:00",
          "zo": "gesloten"
        }
      }
    },
    {
      "type": "Feature",
      "geometry": {
        "type": "Point",
        "coordinates": [
          5.39763,
          50.50851
        ]
      },
      "properties": {
        "type": "pakketpunt",
        "locatieNaam": "BBOX 24/7 Q8 NANDRIN",
        "straatNaam": "ROUTE DU CONDROZ",
        "straatNr": "123",
        "vervoerder": "DHL",
        "puntType": "packStation",
        "bezettingsgraad": 50,
        "latitude": 50.50851,
        "longitude": 5.39763,
        "canPickup": true,
        "canDropoff": true,
        "openingstijden": {
          "ma": "00:00 - 23:59",
          "di": "00:00 - 23:59",
          "wo": "00:00 - 23:59",
          "do": "00:00 - 23:59",
          "vr": "00:00 - 23:59",
          "za": "00:00 - 23:59",
          "zo": "00:00 - 23:59"
        }
      }
    },
    {
      "type": "Feature",
      "geometry": {
        "type": "Point",
        "coordinates": [
          5.421076,
          50.522304
        ]
      },
      "properties": {
        "type": "pakketpunt",
        "locatieNaam": "BBOX 24/7 INTERMARCHÉ NANDRIN",
        "straatNaam": "ROUTE DU CONDROZ",
        "straatNr": "318",
        "vervoerder": "DHL",
        "puntType": "packStation",
        "bezettingsgraad": 50,
        "latitude": 50.522304,
        "longitude": 5.421076,
        "canPickup": true,
        "canDropoff": true,
        "openingstijden": {
          "ma": "00:00 - 23:59",
          "di": "00:00 - 23:59",
          "wo": "00:00 - 23:59",
          "do": "00:00 - 23:59",
          "vr": "00:00 - 23:59",
          "za": "00:00 - 23:59",
          "zo": "00:00 - 23:59"
        }
      }
    },
    {
      "type": "Feature",
      "geometry": {
        "type": "Point",
        "coordinates": [
          5.4211213,
          50.5230844
        ]
      },
      "properties": {
        "type": "pakketpunt",
        "locatieNaam": "GLS Parcel Locker powered by bbox",
        "straatNaam": "Route Du Condroz",
        "straatNr": "318",
        "vervoerder": "GLS",
        "puntType": "locker",
        "bezettingsgraad": 50,
        "latitude": 50.5230844,
        "longitude": 5.4211213,
        "canPickup": true,
        "canDropoff": true,
        "openingstijden": "vr: 09:00 - 24:00; za: 09:00 - 24:00"
      }
    },
    {
      "type": "Feature",
      "geometry": {
        "type": "Point",
        "coordinates": [
          5.39628,
          50.50628
        ]
      },
      "properties": {
        "type": "pakketpunt",
        "locatieNaam": "LIBRAIRIE NOEL",
        "straatNaam": "RUE DE DINANT 6",
        "straatNr": "",
        "vervoerder": "InPost",
        "puntType": "servicepunt",
        "bezettingsgraad": 50,
        "latitude": 50.50628,
        "longitude": 5.39628,
        "canPickup": true,
        "canDropoff": true,
        "openingstijden": null
      }
    },
    {
      "type": "Feature",
      "geometry": {
        "type": "Point",
        "coordinates": [
          5.42101,
          50.52253
        ]
      },
      "properties": {
        "type": "pakketpunt",
        "locatieNaam": "",
        "straatNaam": "Route du Condroz",
        "straatNr": "318",
        "vervoerder": "InPost",
        "puntType": "automaat",
        "bezettingsgraad": 50,
        "latitude": 50.52253,
        "longitude": 5.42101,
        "canPickup": true,
        "canDropoff": true,
        "openingstijden": "24/7"
      }
    },
    {
      "type": "Feature",
      "geometry": {
        "type": "Point",
        "coordinates": [
          5.3983014,
          50.5092184
        ]
      },
      "properties": {
        "type": "pakketpunt",
        "locatieNaam": "Mes Trésors D'antan By Troc Nandrin",
        "straatNaam": "Route du Condroz",
        "straatNr": "123c",
        "vervoerder": "VintedGo",
        "puntType": "parcel_shop",
        "bezettingsgraad": 50,
        "latitude": 50.5092184,
        "longitude": 5.3983014,
        "canPickup": true,
        "canDropoff": true,
        "openingstijden": null
      }
    },
    {
      "type": "Feature",
      "geometry": {
        "type": "Point",
        "coordinates": [
          5.419887,
          50.506523
        ]
      },
      "properties": {
        "type": "pakketpunt",
        "locatieNaam": "bpost - NANDRIN",
        "straatNaam": "PLACE OVIDE MUSIN,1",
        "straatNr": "",
        "vervoerder": "Amazon",
        "puntType": "3p",
        "bezettingsgraad": 50,
        "latitude": 50.506523,
        "longitude": 5.419887,
        "canPickup": true,
        "canDropoff": false,
        "openingstijden": null
      }
    },
    {
      "type": "Feature",
      "geometry": {
        "type": "Point",
        "coordinates": [
          5.421076,
          50.522304
        ]
      },
      "properties": {
        "type": "pakketpunt",
        "locatieNaam": "bpost - BBOX 24/7 INTERMARCHÉ NANDRIN",
        "straatNaam": "ROUTE DU CONDROZ,318",
        "straatNr": "",
        "vervoerder": "Amazon",
        "puntType": "3p",
        "bezettingsgraad": 50,
        "latitude": 50.522304,
        "longitude": 5.421076,
        "canPickup": true,
        "canDropoff": false,
        "openingstijden": null
      }
    },
    {
      "type": "Feature",
      "geometry": {
        "type": "Point",
        "coordinates": [
          5.39763,
          50.50851
        ]
      },
      "properties": {
        "type": "pakketpunt",
        "locatieNaam": "bpost - BBOX 24/7 Q8 NANDRIN",
        "straatNaam": "ROUTE DU CONDROZ,123",
        "straatNr": "",
        "vervoerder": "Amazon",
        "puntType": "3p",
        "bezettingsgraad": 50,
        "latitude": 50.50851,
        "longitude": 5.39763,
        "canPickup": true,
        "canDropoff": false,
        "openingstijden": null
      }
    },
    {
      "type": "Feature",
      "geometry": {
        "type": "MultiPolygon",
        "coordinates": [
          [
            [
              [
                5.4003094903736315,
                50.50546103824547
              ],
              [
                5.400164207422388,
                50.50521310572408
              ],
              [
                5.399981519950698,
                50.50497544835849
              ],
              [
                5.399763187755201,
                50.50475035474907
              ],
              [
                5.399511313797851,
                50.50453999247792
              ],
              [
                5.399228323941587,
                50.50434638724129
              ],
              [
                5.39891694358106,
                50.504171403348984
              ],
              [
                5.398580171393784,
                50.50401672577817
              ],
              [
                5.398221250464506,
                50.50388384395455
              ],
              [
                5.397843637060823,
                50.50377403741596
              ],
              [
                5.397450967360386,
                50.50368836349709
              ],
              [
                5.397047022449651,
                50.503627647152896
              ],
              [
                5.39663569193061,
                50.503592473018976
              ],
              [
                5.396220936485163,
                50.50358317978479
              ],
              [
                5.395806749756787,
                50.503599856934194
              ],
              [
                5.395397119915625,
                50.503642343884174
              ],
              [
                5.394995991276139,
                50.5037102315303
              ],
              [
                5.3946072263359905,
                50.50380286618401
              ],
              [
                5.394234568600749,
                50.50391935586398
              ],
              [
                5.393881606551623,
                50.50405857888083
              ],
              [
                5.393551739102422,
                50.504219194633194
              ],
              [
                5.3932481428778365,
                50.504399656510984
              ],
              [
                5.392973741627683,
                50.50459822678214
              ],
              [
                5.392731178071441,
                50.50481299331974
              ],
              [
                5.392522788444139,
                50.50504188800856
              ],
              [
                5.392350579988864,
                50.505282706654334
              ],
              [
                5.3922162116129595,
                50.50553313020422
              ],
              [
                5.392120977894721,
                50.50579074707426
              ],
              [
                5.392065796595246,
                50.50605307636921
              ],
              [
                5.392051199796525,
                50.50631759177122
              ],
              [
                5.3920773287519905,
                50.506581745867514
              ],
              [
                5.3921439325001055,
                50.50684299468268
              ],
              [
                5.39225037025534,
                50.50709882217969
              ],
              [
                5.39239561755449,
                50.507346764493306
              ],
              [
                5.392578276100126,
                50.507584433662494
              ],
              [
                5.392796587207222,
                50.50780954063328
              ],
              [
                5.3930484487242385,
                50.5080199173101
              ],
              [
                5.393331435266312,
                50.5082135374431
              ],
              [
                5.39341978472613,
                50.508263189944444
              ],
              [
                5.393415591652974,
                50.50828312531666
              ],
              [
                5.3934010017072485,
                50.50854764078494
              ],
              [
                5.3934271394235545,
                50.508811794475456
              ],
              [
                5.393493753756041,
                50.5090730424167
              ],
              [
                5.393600203817299,
                50.509328868580056
              ],
              [
                5.3937454650256536,
                50.50957680911311
              ],
              [
                5.393928138949755,
                50.50981447607201
              ],
              [
                5.394146466756492,
                50.51003958042401
              ],
              [
                5.394394051572252,
                50.51024636723298
              ],
              [
                5.394416822033973,
                50.51028523137875
              ],
              [
                5.394599502061153,
                50.51052289725487
              ],
              [
                5.394817836326348,
                50.51074800032008
              ],
              [
                5.395069722454999,
                50.51095837251641
              ],
              [
                5.395352734825205,
                50.51115198763716
              ],
              [
                5.395664147920907,
                50.511326980848345
              ],
              [
                5.396000962578241,
                50.51148166665635
              ],
              [
                5.396359934872423,
                50.511614555148334
              ],
              [
                5.396737607366795,
                50.511724366348695
              ],
              [
                5.397130342422783,
                50.511810042553215
              ],
              [
                5.397534357249498,
                50.511870758521454
              ],
              [
                5.39794576035473,
                50.511905929429446
              ],
              [
                5.398360589045548,
                50.51191521650544
              ],
              [
                5.398774847616405,
                50.511898530294765
              ],
              [
                5.399184545856057,
                50.511856031521795
              ],
              [
                5.399585737501416,
                50.51178812954112
              ],
              [
                5.399974558266993,
                50.51169547839257
              ],
              [
                5.400347263082812,
                50.5115789704984
              ],
              [
                5.400700262181193,
                50.5114397280633
              ],
              [
                5.40103015568419,
                50.51127909226046
              ],
              [
                5.401333766357952,
                50.511098610307954
              ],
              [
                5.40160817021809,
                50.510900020560136
              ],
              [
                5.401850724691085,
                50.51068523575819
              ],
              [
                5.40205909406041,
                50.51045632460113
              ],
              [
                5.4022312719524646,
                50.51021549181526
              ],
              [
                5.402365600646092,
                50.50996505691429
              ],
              [
                5.402460787020181,
                50.50970743185492
              ],
              [
                5.402515914986472,
                50.509445097803315
              ],
              [
                5.402530454288594,
                50.509180581236414
              ],
              [
                5.402504265583509,
                50.50891642960842
              ],
              [
                5.402437601757397,
                50.50865518681684
              ],
              [
                5.402331105464284,
                50.50839936870438
              ],
              [
                5.402185802912169,
                50.50815143883267
              ],
              [
                5.402003093957378,
                50.50791378476089
              ],
              [
                5.401784738603464,
                50.507688695057674
              ],
              [
                5.401537134886367,
                50.50748192387174
              ],
              [
                5.401514359928721,
                50.50744306109947
              ],
              [
                5.4013316570772,
                50.5072054059447
              ],
              [
                5.401113308181611,
                50.50698031495452
              ],
              [
                5.400861416364749,
                50.506769955685776
              ],
              [
                5.400578407661538,
                50.50657635380583
              ],
              [
                5.4004900538430265,
                50.5065267067219
              ],
              [
                5.400494243782265,
                50.50650677108894
              ],
              [
                5.4005087934755025,
                50.506242254638835
              ],
              [
                5.400482617673105,
                50.50597810242078
              ],
              [
                5.400415969136911,
                50.50571685833793
              ],
              [
                5.4003094903736315,
                50.50546103824547
              ]
            ]
          ],
          [
            [
              [
                5.4163374286717625,
                50.50505671299323
              ],
              [
                5.416129152089215,
                50.50528564991255
              ],
              [
                5.415957062808387,
                50.50552650345186
              ],
              [
                5.415822818589239,
                50.50577695422217
              ],
              [
                5.415727712814639,
                50.506034590377254
              ],
              [
                5.415672662013718,
                50.50629693083603
              ],
              [
                5.415658197011811,
                50.506561449173006
              ],
              [
                5.415684457793116,
                50.50682559794697
              ],
              [
                5.41575119212649,
                50.507086833233664
              ],
              [
                5.415857757968669,
                50.50734263912622
              ],
              [
                5.416003129622692,
                50.507590551967326
              ],
              [
                5.416185907593244,
                50.507828184079706
              ],
              [
                5.416404332044836,
                50.50805324676618
              ],
              [
                5.416656299733974,
                50.508263572357556
              ],
              [
                5.416939384252887,
                50.50845713509595
              ],
              [
                5.417250859390279,
                50.50863207065187
              ],
              [
                5.417587725384414,
                50.50878669408695
              ],
              [
                5.417946737815753,
                50.508919516089065
              ],
              [
                5.418324438860789,
                50.509029257323036
              ],
              [
                5.418717190605744,
                50.50911486075852
              ],
              [
                5.419121210098824,
                50.509175501856014
              ],
              [
                5.419532605802772,
                50.50921059651269
              ],
              [
                5.419947415095904,
                50.50921980669129
              ],
              [
                5.420361642459536,
                50.50920304367778
              ],
              [
                5.420771297983093,
                50.50916046893636
              ],
              [
                5.421172435815061,
                50.50909249255332
              ],
              [
                5.421561192188473,
                50.50899976928517
              ],
              [
                5.4219338226537985,
                50.50888319224876
              ],
              [
                5.4222867381597535,
                50.508743884314775
              ],
              [
                5.422616539633824,
                50.50858318728723
              ],
              [
                5.422920050728849,
                50.50840264897383
              ],
              [
                5.423194348419835,
                50.50820400827178
              ],
              [
                5.423436791156114,
                50.50798917841291
              ],
              [
                5.423438394205595,
                50.50798741605809
              ],
              [
                5.423439791024097,
                50.5079861783222
              ],
              [
                5.423648044137877,
                50.50775722843393
              ],
              [
                5.423820102404442,
                50.50751636362186
              ],
              [
                5.423954309254937,
                50.50726590370805
              ],
              [
                5.424049372741851,
                50.50700826089
              ],
              [
                5.424104377960499,
                50.506745916504755
              ],
              [
                5.4241187958366694,
                50.50648139712869
              ],
              [
                5.424092488196672,
                50.5062172502429
              ],
              [
                5.424025709071965,
                50.505956019699106
              ],
              [
                5.423919102226769,
                50.50570022122198
              ],
              [
                5.423773694933492,
                50.50545231818389
              ],
              [
                5.423590888056858,
                50.50521469788554
              ],
              [
                5.423372442543102,
                50.504989648570216
              ],
              [
                5.423120462445112,
                50.50477933739343
              ],
              [
                5.422837374647605,
                50.50458578955928
              ],
              [
                5.422525905488026,
                50.50441086882473
              ],
              [
                5.422189054498645,
                50.50425625955877
              ],
              [
                5.421830065522704,
                50.504123450529306
              ],
              [
                5.421452395482746,
                50.50401372057322
              ],
              [
                5.4210596811015295,
                50.503928126287704
              ],
              [
                5.420655703895544,
                50.50386749186097
              ],
              [
                5.420244353777601,
                50.50383240113979
              ],
              [
                5.419829591618228,
                50.50382319201047
              ],
              [
                5.419415411125523,
                50.503839953147015
              ],
              [
                5.419005800409627,
                50.50388252315769
              ],
              [
                5.418604703600943,
                50.503950492138294
              ],
              [
                5.418215982890794,
                50.504043205617094
              ],
              [
                5.4178433813590665,
                50.50415977085371
              ],
              [
                5.417490486946039,
                50.50429906543124
              ],
              [
                5.417160697914532,
                50.50445974805918
              ],
              [
                5.416857190134444,
                50.504640271483424
              ],
              [
                5.416582886504256,
                50.50483889737922
              ],
              [
                5.416340428803741,
                50.50505371308392
              ],
              [
                5.416338825589416,
                50.505055475341905
              ],
              [
                5.4163374286717625,
                50.50505671299323
              ]
            ]
          ],
          [
            [
              [
                5.424964962728652,
                50.52123228144192
              ],
              [
                5.42478208893367,
                50.52099466367481
              ],
              [
                5.4245635649384845,
                50.52076961722004
              ],
              [
                5.424311495551986,
                50.52055930920551
              ],
              [
                5.424028308518883,
                50.52036576480488
              ],
              [
                5.423716731132329,
                50.52019084774199
              ],
              [
                5.423379763966794,
                50.52003624235049
              ],
              [
                5.423020651984198,
                50.51990343736091
              ],
              [
                5.422642853291462,
                50.51979371157121
              ],
              [
                5.422250005850026,
                50.51970812153849
              ],
              [
                5.42184589245745,
                50.519647491409955
              ],
              [
                5.421434404337684,
                50.51961240499098
              ],
              [
                5.421019503689841,
                50.51960320012646
              ],
              [
                5.4206051855552895,
                50.51961996544933
              ],
              [
                5.420195439369285,
                50.51966253952753
              ],
              [
                5.419794210566462,
                50.51973051241771
              ],
              [
                5.419405362608935,
                50.51982322961051
              ],
              [
                5.419032639801727,
                50.5199397983298
              ],
              [
                5.418679631252802,
                50.52007909612515
              ],
              [
                5.418349736323991,
                50.520239781675095
              ],
              [
                5.418046131904942,
                50.52042030769743
              ],
              [
                5.417771741824815,
                50.52061893584237
              ],
              [
                5.417529208696018,
                50.52083375342565
              ],
              [
                5.417527065439464,
                50.52083610859489
              ],
              [
                5.417525208519883,
                50.52083775330476
              ],
              [
                5.417316868248041,
                50.521066691712186
              ],
              [
                5.417144727640191,
                50.52130754633695
              ],
              [
                5.417010444950914,
                50.52155799777959
              ],
              [
                5.416915313933935,
                50.52181563418743
              ],
              [
                5.416892356880613,
                50.52192501120182
              ],
              [
                5.416849294750463,
                50.52204163184914
              ],
              [
                5.4167942315496616,
                50.52230397209688
              ],
              [
                5.416779767923736,
                50.52256848982535
              ],
              [
                5.416806043844094,
                50.522832637599215
              ],
              [
                5.416872806934249,
                50.523093871503846
              ],
              [
                5.416892936155511,
                50.52314217148625
              ],
              [
                5.416917295317806,
                50.52338704158553
              ],
              [
                5.416984059803896,
                50.52364827540043
              ],
              [
                5.417090669593936,
                50.52390407941497
              ],
              [
                5.417236098568128,
                50.52415198998991
              ],
              [
                5.417418946679477,
                50.5243896194698
              ],
              [
                5.417637453417272,
                50.524614679182754
              ],
              [
                5.417889514745751,
                50.52482500148823
              ],
              [
                5.418172703355445,
                50.52501856065996
              ],
              [
                5.418484292032623,
                50.52519349240275
              ],
              [
                5.418821279922011,
                50.525348111814935
              ],
              [
                5.419180421429984,
                50.52548092962316
              ],
              [
                5.419558257489698,
                50.52559066653256
              ],
              [
                5.419951148886781,
                50.525676265554466
              ],
              [
                5.420355311324124,
                50.525736902191845
              ],
              [
                5.4207668518873975,
                50.525771992384826
              ],
              [
                5.421181806559383,
                50.52578119813915
              ],
              [
                5.421596178420841,
                50.525764430783376
              ],
              [
                5.422005976169133,
                50.52572185182356
              ],
              [
                5.4224072525826,
                50.52565387138664
              ],
              [
                5.422796142559256,
                50.52556114426811
              ],
              [
                5.423168900362556,
                50.52544456362202
              ],
              [
                5.423521935714606,
                50.525305252353775
              ],
              [
                5.4238518483885185,
                50.525144552299544
              ],
              [
                5.424155460966111,
                50.52496401129623
              ],
              [
                5.424429849445051,
                50.52476536826691
              ],
              [
                5.424672371400415,
                50.52455053646592
              ],
              [
                5.424880691429357,
                50.52432158504483
              ],
              [
                5.425052803634018,
                50.524080719117705
              ],
              [
                5.42518705092642,
                50.52383025851734
              ],
              [
                5.425282140969961,
                50.523572615447826
              ],
              [
                5.425337158604644,
                50.52331027124868
              ],
              [
                5.425351574637143,
                50.52304575249446
              ],
              [
                5.425325250912001,
                50.52278160666027
              ],
              [
                5.425279595192018,
                50.522603089883305
              ],
              [
                5.425295788547062,
                50.52252587277657
              ],
              [
                5.425310204571856,
                50.52226135399029
              ],
              [
                5.425283881513769,
                50.521997208109646
              ],
              [
                5.425217073553192,
                50.52173597897667
              ],
              [
                5.425110424732473,
                50.52148018230242
              ],
              [
                5.424964962728652,
                50.52123228144192
              ]
            ]
          ]
        ]
      },
      "properties": {
        "type": "buffer_union_300m",
        "buffer_m": 300
      }
    },
    {
      "type": "Feature",
      "geometry": {
        "type": "MultiPolygon",
        "coordinates": [
          [
            [
              [
                5.401652622857317,
                50.505188019978576
              ],
              [
                5.401458904334194,
                50.50485744545976
              ],
              [
                5.401215314611959,
                50.50454057159554
              ],
              [
                5.400924200333038,
                50.50424044975231
              ],
              [
                5.4005883656266755,
                50.50395996992543
              ],
              [
                5.4002110450829175,
                50.50370183292022
              ],
              [
                5.399795872589512,
                50.50346852435584
              ],
              [
                5.399346846332351,
                50.50326229074209
              ],
              [
                5.398868290296605,
                50.5030851178589
              ],
              [
                5.3983648126391035,
                50.502938711646024
              ],
              [
                5.397841261332312,
                50.50282448178682
              ],
              [
                5.397302677506154,
                50.50274352814308
              ],
              [
                5.396754246935884,
                50.50269663017199
              ],
              [
                5.39620125014179,
                50.502684239425975
              ],
              [
                5.395649011579685,
                50.50270647520784
              ],
              [
                5.39510284840981,
                50.50276312342293
              ],
              [
                5.394568019335738,
                50.5028536386391
              ],
              [
                5.394049674004227,
                50.50297714933483
              ],
              [
                5.393552803451636,
                50.503132466285265
              ],
              [
                5.393082192072573,
                50.503318094005365
              ],
              [
                5.392642371572014,
                50.503532245140704
              ],
              [
                5.392237577343261,
                50.50377285766752
              ],
              [
                5.391871707691027,
                50.50403761473696
              ],
              [
                5.391548286291904,
                50.50432396697288
              ],
              [
                5.391270428253614,
                50.50462915700933
              ],
              [
                5.391040810100111,
                50.50495024603136
              ],
              [
                5.390861643972177,
                50.5052841420648
              ],
              [
                5.390734656292858,
                50.50562762974251
              ],
              [
                5.390661071104367,
                50.50597740126113
              ],
              [
                5.390641598238333,
                50.506330088230484
              ],
              [
                5.390676426434929,
                50.50668229410914
              ],
              [
                5.390765221478864,
                50.507030626913895
              ],
              [
                5.390907129371968,
                50.50737173188834
              ],
              [
                5.391100784513591,
                50.50770232381558
              ],
              [
                5.3913443228117295,
                50.50801921866398
              ],
              [
                5.391635399600159,
                50.50831936426077
              ],
              [
                5.391971212190373,
                50.508599869697726
              ],
              [
                5.39199700873819,
                50.50861752015308
              ],
              [
                5.392026173993994,
                50.50891235891826
              ],
              [
                5.392114983149608,
                50.50926069055794
              ],
              [
                5.392256907450075,
                50.5096017937543
              ],
              [
                5.392450581136807,
                50.50993238330761
              ],
              [
                5.392694139939262,
                50.51024927520904
              ],
              [
                5.392985238993781,
                50.510549417314195
              ],
              [
                5.393170802420624,
                50.510704406426704
              ],
              [
                5.393365490752588,
                50.51095770345265
              ],
              [
                5.3936565984184135,
                50.51125784384214
              ],
              [
                5.393992443824348,
                50.511538343305226
              ],
              [
                5.394369792914199,
                50.51179650010996
              ],
              [
                5.39478501169493,
                50.512029827683804
              ],
              [
                5.395234101230711,
                50.512236078575405
              ],
              [
                5.3957127361607,
                50.51241326611331
              ],
              [
                5.396216306369347,
                50.512559683552674
              ],
              [
                5.396739961407369,
                50.51267392052483
              ],
              [
                5.397278657234703,
                50.51275487663111
              ],
              [
                5.397827204834103,
                50.51280177204923
              ],
              [
                5.398380320225801,
                50.51281415504998
              ],
              [
                5.398932675399959,
                50.512791906351474
              ],
              [
                5.399478949674691,
                50.51273524026895
              ],
              [
                5.400013880983238,
                50.51264470264894
              ],
              [
                5.400532316594637,
                50.512521165607815
              ],
              [
                5.401029262777703,
                50.512365819125556
              ],
              [
                5.4014999329284645,
                50.512180159575934
              ],
              [
                5.401939793696248,
                50.511965975304
              ],
              [
                5.402344608663062,
                50.51172532939019
              ],
              [
                5.40271047915485,
                50.5114605397676
              ],
              [
                5.403033881791099,
                50.51117415688429
              ],
              [
                5.40331170241105,
                50.51086893912659
              ],
              [
                5.403541266050031,
                50.51054782624032
              ],
              [
                5.403720362677765,
                50.510213911006666
              ],
              [
                5.403847268451683,
                50.50987040944606
              ],
              [
                5.403920762281723,
                50.50952062983693
              ],
              [
                5.403940137548515,
                50.509167940848776
              ],
              [
                5.403905208863684,
                50.50881573909612
              ],
              [
                5.403816313808884,
                50.50846741642623
              ],
              [
                5.403674309638632,
                50.50812632725564
              ],
              [
                5.403480564980406,
                50.507795756269886
              ],
              [
                5.403236946613689,
                50.50747888679758
              ],
              [
                5.40294580145681,
                50.50717877016275
              ],
              [
                5.402760219852863,
                50.5070237965335
              ],
              [
                5.402565497441991,
                50.50677051504287
              ],
              [
                5.402274360896181,
                50.50647039669204
              ],
              [
                5.4019385023772415,
                50.50618992086846
              ],
              [
                5.4019127034465,
                50.50617227260834
              ],
              [
                5.401883478320797,
                50.50587743618115
              ],
              [
                5.40179460365361,
                50.505529111789386
              ],
              [
                5.401652622857317,
                50.505188019978576
              ]
            ]
          ],
          [
            [
              [
                5.415154287078928,
                50.504567926527564
              ],
              [
                5.414876579761131,
                50.5048731728724
              ],
              [
                5.414647120501784,
                50.50519430842052
              ],
              [
                5.414468119912022,
                50.50552824074952
              ],
              [
                5.414341302821145,
                50.50587175414249
              ],
              [
                5.414267891628864,
                50.50622154054824
              ],
              [
                5.414248594491341,
                50.50657423143297
              ],
              [
                5.414283598456454,
                50.5069264302173
              ],
              [
                5.414372567616083,
                50.50727474498612
              ],
              [
                5.414514646294995,
                50.507615821156456
              ],
              [
                5.41470846724741,
                50.507946373788606
              ],
              [
                5.41495216478398,
                50.50826321922923
              ],
              [
                5.415243392704328,
                50.50856330578118
              ],
              [
                5.4155793468637805,
                50.50884374310479
              ],
              [
                5.415956792158078,
                50.50910183006648
              ],
              [
                5.416372093666968,
                50.509335080766306
              ],
              [
                5.416821251657225,
                50.50954124849334
              ],
              [
                5.417299940108127,
                50.509718347377095
              ],
              [
                5.41780354838815,
                50.509864671526614
              ],
              [
                5.418327225680921,
                50.50997881147183
              ],
              [
                5.418865927731728,
                50.5100596677487
              ],
              [
                5.419414465463202,
                50.51010646149654
              ],
              [
                5.419967554990553,
                50.510118741965485
              ],
              [
                5.420519868553123,
                50.51009639086129
              ],
              [
                5.42106608586999,
                50.51003962348569
              ],
              [
                5.421600945423286,
                50.50994898666088
              ],
              [
                5.422119295173559,
                50.50982535345887
              ],
              [
                5.422616142217076,
                50.50966991478585
              ],
              [
                5.423086700905276,
                50.50948416790356
              ],
              [
                5.4235264389616225,
                50.509269901998216
              ],
              [
                5.4239311211506145,
                50.5090291809365
              ],
              [
                5.42429685007763,
                50.50876432337522
              ],
              [
                5.424620103726183,
                50.50847788041669
              ],
              [
                5.424621706748167,
                50.50847611804573
              ],
              [
                5.424623103550155,
                50.50847488029575
              ],
              [
                5.424900769158009,
                50.50816961089744
              ],
              [
                5.425130173292516,
                50.50784845531088
              ],
              [
                5.42530910745995,
                50.507514506728356
              ],
              [
                5.425435849382649,
                50.50717098149126
              ],
              [
                5.425509179548716,
                50.50682118810582
              ],
              [
                5.425528392915006,
                50.50646849537401
              ],
              [
                5.425493305652247,
                50.50611629994621
              ],
              [
                5.425404256869061,
                50.50576799360853
              ],
              [
                5.425262105300095,
                50.50542693061999
              ],
              [
                5.425068220991894,
                50.50509639541384
              ],
              [
                5.424824472068278,
                50.50477957097391
              ],
              [
                5.424533206704271,
                50.504479508190435
              ],
              [
                5.424197230483465,
                50.50419909648989
              ],
              [
                5.4238197793580305,
                50.503941036021466
              ],
              [
                5.4234044884725225,
                50.503707811667184
              ],
              [
                5.422955357152249,
                50.50350166912591
              ],
              [
                5.422476710393463,
                50.503324593300555
              ],
              [
                5.421973157226034,
                50.50317828919629
              ],
              [
                5.4214495463490415,
                50.50306416551323
              ],
              [
                5.420910919465621,
                50.502983321090895
              ],
              [
                5.42036246276534,
                50.50293653433477
              ],
              [
                5.419809457019917,
                50.502924255726455
              ],
              [
                5.419257226771306,
                50.502946603489086
              ],
              [
                5.418711089099768,
                50.50300336244977
              ],
              [
                5.4181763024635465,
                50.503093986110066
              ],
              [
                5.417658016101072,
                50.50321760190433
              ],
              [
                5.417161220481291,
                50.50337301959568
              ],
              [
                5.41669069927777,
                50.50355874272906
              ],
              [
                5.416250983327726,
                50.50377298303127
              ],
              [
                5.415846307018322,
                50.504013677619874
              ],
              [
                5.415480567519408,
                50.50427850885575
              ],
              [
                5.4151572872548925,
                50.50456492664848
              ],
              [
                5.415155684013086,
                50.504566688890314
              ],
              [
                5.415154287078928,
                50.504567926527564
              ]
            ]
          ],
          [
            [
              [
                5.426259911358308,
                50.520876346414184
              ],
              [
                5.426016073206214,
                50.5205595253496
              ],
              [
                5.425724703197482,
                50.52025946638056
              ],
              [
                5.425388607923818,
                50.519979058896745
              ],
              [
                5.425011024484108,
                50.51972100300669
              ],
              [
                5.424595589297183,
                50.51948778354831
              ],
              [
                5.424146303077913,
                50.51928164617325
              ],
              [
                5.423667492314021,
                50.519104575734644
              ],
              [
                5.423163767614399,
                50.518958277185796
              ],
              [
                5.422639979329519,
                50.51884415917324
              ],
              [
                5.422101170870391,
                50.518763320481895
              ],
              [
                5.421552530174516,
                50.518716539462034
              ],
              [
                5.420999339784804,
                50.51870426654003
              ],
              [
                5.420446926020626,
                50.51872661988426
              ],
              [
                5.419900607728805,
                50.518783384268126
              ],
              [
                5.419365645106305,
                50.51887401314092
              ],
              [
                5.418847189085721,
                50.518997633886876
              ],
              [
                5.418350231769313,
                50.519153056221434
              ],
              [
                5.417879558387416,
                50.51933878364488
              ],
              [
                5.417439701242483,
                50.519553027842754
              ],
              [
                5.417034896081284,
                50.51979372589512
              ],
              [
                5.416669041314566,
                50.52005856012951
              ],
              [
                5.416345660476469,
                50.520344980426735
              ],
              [
                5.416343517183161,
                50.520347335574385
              ],
              [
                5.41634166024163,
                50.52034898026551
              ],
              [
                5.416063868001012,
                50.52065422859427
              ],
              [
                5.4158343403007905,
                50.52097536558946
              ],
              [
                5.415655288411782,
                50.521309298814764
              ],
              [
                5.415528437657988,
                50.52165281254472
              ],
              [
                5.415505477479095,
                50.521762189288935
              ],
              [
                5.415462412080297,
                50.521878809426845
              ],
              [
                5.415388984347909,
                50.52222859555119
              ],
              [
                5.415369689037926,
                50.522581285624675
              ],
              [
                5.415404713181442,
                50.522933483075676
              ],
              [
                5.415493720676813,
                50.52328179600194
              ],
              [
                5.415495995862515,
                50.52328725569242
              ],
              [
                5.415515948479288,
                50.52348788839037
              ],
              [
                5.415604957835682,
                50.523836201197
              ],
              [
                5.415747095105541,
                50.5241772748636
              ],
              [
                5.415940992479533,
                50.52450782447454
              ],
              [
                5.416184783532944,
                50.52482466640552
              ],
              [
                5.416476121165265,
                50.52512474899317
              ],
              [
                5.416812200175578,
                50.525405181935966
              ],
              [
                5.417189784257421,
                50.525663264142445
              ],
              [
                5.417605237153965,
                50.525896509758475
              ],
              [
                5.418054557673891,
                50.52610267212198
              ],
              [
                5.41853341823092,
                50.52627976541411
              ],
              [
                5.419037206535596,
                50.52642608379774
              ],
              [
                5.4195610700372265,
                50.52654021785833
              ],
              [
                5.420099962687113,
                50.52662106818844
              ],
              [
                5.420648693571535,
                50.52666785598468
              ],
              [
                5.42120197694471,
                50.5266801305545
              ],
              [
                5.42175448317829,
                50.52665777366049
              ],
              [
                5.422300890134992,
                50.52660100066012
              ],
              [
                5.4228359344698225,
                50.526510358429846
              ],
              [
                5.423354462363068,
                50.526386720093704
              ],
              [
                5.423851479194769,
                50.52623127660739
              ],
              [
                5.424322197680727,
                50.52604552527905
              ],
              [
                5.4247620840051205,
                50.52583125533776
              ],
              [
                5.425166901504367,
                50.52559053068911
              ],
              [
                5.425532751480713,
                50.525325670024465
              ],
              [
                5.425856110752046,
                50.52503922447611
              ],
              [
                5.426133865576167,
                50.5247339530338
              ],
              [
                5.42636334162305,
                50.52441279596028
              ],
              [
                5.4265423297070035,
                50.524078846462196
              ],
              [
                5.4266691070318105,
                50.52373532088975
              ],
              [
                5.426742453745408,
                50.523385527752446
              ],
              [
                5.4267616646461185,
                50.523032835849875
              ],
              [
                5.426726555929259,
                50.52268064182436
              ],
              [
                5.426701965902282,
                50.52258450463786
              ],
              [
                5.4267202712258475,
                50.52224843784489
              ],
              [
                5.426685163398736,
                50.52189624375744
              ],
              [
                5.4265960761611955,
                50.52154793930105
              ],
              [
                5.426453868618961,
                50.52120687871661
              ],
              [
                5.426259911358308,
                50.520876346414184
              ]
            ]
          ]
        ]
      },
      "properties": {
        "type": "buffer_union_400m",
        "buffer_m": 400
      }
    },
    {
      "type": "Feature",
      "geometry": {
        "type": "Polygon",
        "coordinates": [
          [
            [
              5.3342648,
              50.4943971
            ],
            [
              5.3349721,
              50.494682
            ],
            [
              5.3382655,
              50.4968264
            ],
            [
              5.3424561,
              50.5009535
            ],
            [
              5.3444612,
              50.5018485
            ],
            [
              5.3475292,
              50.5029594
            ],
            [
              5.3508153,
              50.5048557
            ],
            [
              5.3540739,
              50.5052644
            ],
            [
              5.3539279,
              50.5063546
            ],
            [
              5.3539575,
              50.507493
            ],
            [
              5.354307,
              50.5075962
            ],
            [
              5.3542303,
              50.5078147
            ],
            [
              5.3543821,
              50.5078915
            ],
            [
              5.3545886,
              50.5078588
            ],
            [
              5.3547775,
              50.5080904
            ],
            [
              5.354583,
              50.5081505
            ],
            [
              5.3546101,
              50.5082779
            ],
            [
              5.3541517,
              50.5083301
            ],
            [
              5.3541654,
              50.5086567
            ],
            [
              5.3544803,
              50.508859
            ],
            [
              5.3543832,
              50.5091722
            ],
            [
              5.3526101,
              50.5097152
            ],
            [
              5.3511094,
              50.510074
            ],
            [
              5.3503775,
              50.5103538
            ],
            [
              5.3500159,
              50.5107319
            ],
            [
              5.3495542,
              50.5109411
            ],
            [
              5.3500138,
              50.5114799
            ],
            [
              5.349234,
              50.5123138
            ],
            [
              5.3486895,
              50.5130936
            ],
            [
              5.347217,
              50.5132737
            ],
            [
              5.3464133,
              50.5138692
            ],
            [
              5.345921,
              50.5147169
            ],
            [
              5.3451717,
              50.5156352
            ],
            [
              5.3439846,
              50.5155604
            ],
            [
              5.3438147,
              50.5144773
            ],
            [
              5.3438953,
              50.5138872
            ],
            [
              5.3430458,
              50.5136296
            ],
            [
              5.3423597,
              50.5138
            ],
            [
              5.3408829,
              50.5133692
            ],
            [
              5.3384979,
              50.5133443
            ],
            [
              5.3384194,
              50.513836
            ],
            [
              5.3386961,
              50.5145798
            ],
            [
              5.3368751,
              50.5156823
            ],
            [
              5.3358449,
              50.5156989
            ],
            [
              5.3349061,
              50.5165562
            ],
            [
              5.3352875,
              50.5169615
            ],
            [
              5.3367815,
              50.5176462
            ],
            [
              5.3367488,
              50.5181088
            ],
            [
              5.337265,
              50.5185201
            ],
            [
              5.3372718,
              50.5186947
            ],
            [
              5.3371278,
              50.518804
            ],
            [
              5.3371329,
              50.5190312
            ],
            [
              5.3374187,
              50.5193433
            ],
            [
              5.3380273,
              50.519565
            ],
            [
              5.339156,
              50.5202991
            ],
            [
              5.339883,
              50.5206438
            ],
            [
              5.3404355,
              50.5206057
            ],
            [
              5.340719,
              50.5208079
            ],
            [
              5.341012,
              50.5208273
            ],
            [
              5.3412081,
              50.5211292
            ],
            [
              5.3414912,
              50.5213258
            ],
            [
              5.3415276,
              50.5215576
            ],
            [
              5.3413518,
              50.5217302
            ],
            [
              5.3413562,
              50.5219795
            ],
            [
              5.3417178,
              50.5223063
            ],
            [
              5.341406,
              50.5226672
            ],
            [
              5.3408859,
              50.5236071
            ],
            [
              5.3402247,
              50.5241692
            ],
            [
              5.3394263,
              50.5255167
            ],
            [
              5.3391894,
              50.5257339
            ],
            [
              5.3387442,
              50.525901
            ],
            [
              5.3377089,
              50.5261022
            ],
            [
              5.3377598,
              50.5263939
            ],
            [
              5.3375396,
              50.5265835
            ],
            [
              5.3370193,
              50.5267676
            ],
            [
              5.3365368,
              50.5267638
            ],
            [
              5.3356862,
              50.5274411
            ],
            [
              5.3357268,
              50.5276471
            ],
            [
              5.3364345,
              50.5275673
            ],
            [
              5.3366628,
              50.5278346
            ],
            [
              5.3367808,
              50.5282336
            ],
            [
              5.3369522,
              50.5284079
            ],
            [
              5.33721,
              50.5284979
            ],
            [
              5.3381595,
              50.5296181
            ],
            [
              5.3382721,
              50.5298091
            ],
            [
              5.3383687,
              50.5304399
            ],
            [
              5.3386476,
              50.5306957
            ],
            [
              5.3391036,
              50.5314118
            ],
            [
              5.3388676,
              50.5318346
            ],
            [
              5.3393128,
              50.5323359
            ],
            [
              5.3394142,
              50.5327609
            ],
            [
              5.3393061,
              50.5330783
            ],
            [
              5.3397581,
              50.5331679
            ],
            [
              5.3399496,
              50.5333063
            ],
            [
              5.3402195,
              50.533739
            ],
            [
              5.3409594,
              50.5338553
            ],
            [
              5.3410292,
              50.5340531
            ],
            [
              5.3407666,
              50.5343135
            ],
            [
              5.3410053,
              50.5345983
            ],
            [
              5.3418743,
              50.5347755
            ],
            [
              5.3422415,
              50.5349447
            ],
            [
              5.3424241,
              50.5353177
            ],
            [
              5.3428651,
              50.5356156
            ],
            [
              5.3446075,
              50.5358122
            ],
            [
              5.3457954,
              50.5358431
            ],
            [
              5.3462461,
              50.5361705
            ],
            [
              5.3465022,
              50.536263
            ],
            [
              5.3470542,
              50.5361498
            ],
            [
              5.3478071,
              50.536358
            ],
            [
              5.3486367,
              50.5363646
            ],
            [
              5.3490261,
              50.5365003
            ],
            [
              5.3492783,
              50.5370738
            ],
            [
              5.3499552,
              50.5370809
            ],
            [
              5.3504273,
              50.5367536
            ],
            [
              5.3510592,
              50.5369237
            ],
            [
              5.35269,
              50.5366783
            ],
            [
              5.3531074,
              50.5364217
            ],
            [
              5.3535483,
              50.5365623
            ],
            [
              5.3541384,
              50.5364259
            ],
            [
              5.355163,
              50.5361054
            ],
            [
              5.3555193,
              50.5356765
            ],
            [
              5.3561072,
              50.5356997
            ],
            [
              5.356311,
              50.5356281
            ],
            [
              5.3565231,
              50.5353736
            ],
            [
              5.3567548,
              50.5353373
            ],
            [
              5.3574874,
              50.5354713
            ],
            [
              5.3579364,
              50.5353519
            ],
            [
              5.3585679,
              50.5356252
            ],
            [
              5.359079,
              50.5356656
            ],
            [
              5.3591595,
              50.5354586
            ],
            [
              5.3588991,
              50.5354922
            ],
            [
              5.3589933,
              50.5352964
            ],
            [
              5.3599339,
              50.534468
            ],
            [
              5.3606658,
              50.5341796
            ],
            [
              5.3612414,
              50.5341758
            ],
            [
              5.3615686,
              50.5342247
            ],
            [
              5.3621715,
              50.5348336
            ],
            [
              5.3631925,
              50.534934
            ],
            [
              5.3642076,
              50.5352247
            ],
            [
              5.3651628,
              50.5355473
            ],
            [
              5.3657671,
              50.5359197
            ],
            [
              5.3664031,
              50.5360277
            ],
            [
              5.3664816,
              50.5362409
            ],
            [
              5.3666819,
              50.5363378
            ],
            [
              5.366952,
              50.536335
            ],
            [
              5.3671481,
              50.5366147
            ],
            [
              5.3682067,
              50.5367226
            ],
            [
              5.3690082,
              50.5370383
            ],
            [
              5.3698011,
              50.5372183
            ],
            [
              5.37035,
              50.5375367
            ],
            [
              5.3705765,
              50.5375533
            ],
            [
              5.3708335,
              50.5378357
            ],
            [
              5.3710034,
              50.537844
            ],
            [
              5.3712387,
              50.5379963
            ],
            [
              5.3715349,
              50.5380018
            ],
            [
              5.3717614,
              50.5382399
            ],
            [
              5.3716307,
              50.5383534
            ],
            [
              5.3716046,
              50.5386608
            ],
            [
              5.372441,
              50.5390401
            ],
            [
              5.3728548,
              50.5391342
            ],
            [
              5.3728636,
              50.5392505
            ],
            [
              5.3726588,
              50.5393834
            ],
            [
              5.3733515,
              50.5397516
            ],
            [
              5.3736782,
              50.5397572
            ],
            [
              5.3745756,
              50.5394941
            ],
            [
              5.3752249,
              50.5390555
            ],
            [
              5.3769803,
              50.5381292
            ],
            [
              5.3771632,
              50.5378994
            ],
            [
              5.3771763,
              50.5375118
            ],
            [
              5.3773767,
              50.5373429
            ],
            [
              5.3776816,
              50.5372819
            ],
            [
              5.3781129,
              50.5373705
            ],
            [
              5.3784222,
              50.5373235
            ],
            [
              5.3786662,
              50.537113
            ],
            [
              5.3792891,
              50.5372819
            ],
            [
              5.3796071,
              50.53721
            ],
            [
              5.37996,
              50.5369497
            ],
            [
              5.3806518,
              50.5367012
            ],
            [
              5.3807997,
              50.5365524
            ],
            [
              5.3807997,
              50.5363508
            ],
            [
              5.3810707,
              50.5360375
            ],
            [
              5.381388,
              50.5358378
            ],
            [
              5.3816344,
              50.5361139
            ],
            [
              5.3820996,
              50.5359827
            ],
            [
              5.3820811,
              50.5358496
            ],
            [
              5.3818932,
              50.5357223
            ],
            [
              5.3820934,
              50.5356087
            ],
            [
              5.3823645,
              50.5356029
            ],
            [
              5.3827834,
              50.5357771
            ],
            [
              5.3829374,
              50.5359298
            ],
            [
              5.3830668,
              50.5357497
            ],
            [
              5.3832393,
              50.5357399
            ],
            [
              5.3834611,
              50.5359514
            ],
            [
              5.3841018,
              50.5359455
            ],
            [
              5.3844345,
              50.5362215
            ],
            [
              5.3853247,
              50.5362255
            ],
            [
              5.3853987,
              50.536433
            ],
            [
              5.3863531,
              50.5368132
            ],
            [
              5.3866996,
              50.5367396
            ],
            [
              5.3871162,
              50.5370118
            ],
            [
              5.3873595,
              50.5370162
            ],
            [
              5.3875216,
              50.5369043
            ],
            [
              5.3879294,
              50.5370011
            ],
            [
              5.3885964,
              50.5373967
            ],
            [
              5.3895117,
              50.5373983
            ],
            [
              5.3899516,
              50.5376445
            ],
            [
              5.3899768,
              50.5377542
            ],
            [
              5.3897086,
              50.5379315
            ],
            [
              5.3902564,
              50.5381617
            ],
            [
              5.3907219,
              50.5385052
            ],
            [
              5.3917046,
              50.5387213
            ],
            [
              5.3923342,
              50.5386562
            ],
            [
              5.3927658,
              50.5387523
            ],
            [
              5.3937765,
              50.5387578
            ],
            [
              5.3942804,
              50.5385376
            ],
            [
              5.3965732,
              50.53842
            ],
            [
              5.3987949,
              50.5389959
            ],
            [
              5.3990563,
              50.5392063
            ],
            [
              5.4017297,
              50.5399496
            ],
            [
              5.4028637,
              50.5386692
            ],
            [
              5.4026285,
              50.5386194
            ],
            [
              5.4038295,
              50.5376129
            ],
            [
              5.4075599,
              50.5376835
            ],
            [
              5.4191804,
              50.5438899
            ],
            [
              5.4202518,
              50.5432366
            ],
            [
              5.4198267,
              50.5430135
            ],
            [
              5.4208687,
              50.5422567
            ],
            [
              5.4185566,
              50.5403977
            ],
            [
              5.4233317,
              50.5373531
            ],
            [
              5.4246279,
              50.5391642
            ],
            [
              5.4262109,
              50.5384576
            ],
            [
              5.4249179,
              50.5368534
            ],
            [
              5.4257143,
              50.5364866
            ],
            [
              5.4274133,
              50.5378374
            ],
            [
              5.4284165,
              50.5376516
            ],
            [
              5.4276747,
              50.5356113
            ],
            [
              5.4280145,
              50.5353123
            ],
            [
              5.4276137,
              50.5350797
            ],
            [
              5.4281103,
              50.5349246
            ],
            [
              5.4277313,
              50.5347281
            ],
            [
              5.428057,
              50.5335426
            ],
            [
              5.4291485,
              50.5319146
            ],
            [
              5.4327352,
              50.5335105
            ],
            [
              5.4334226,
              50.5336869
            ],
            [
              5.4367081,
              50.5351013
            ],
            [
              5.4388044,
              50.5388267
            ],
            [
              5.4394121,
              50.5401155
            ],
            [
              5.4406947,
              50.5413664
            ],
            [
              5.4405382,
              50.5416643
            ],
            [
              5.4417263,
              50.5427364
            ],
            [
              5.442473,
              50.5425146
            ],
            [
              5.4419449,
              50.5418599
            ],
            [
              5.4418301,
              50.5409242
            ],
            [
              5.4414531,
              50.5404413
            ],
            [
              5.4419004,
              50.5398117
            ],
            [
              5.4420165,
              50.5397912
            ],
            [
              5.4421059,
              50.5399108
            ],
            [
              5.4422379,
              50.5399063
            ],
            [
              5.4422574,
              50.5392054
            ],
            [
              5.4421146,
              50.5389855
            ],
            [
              5.4422191,
              50.538798
            ],
            [
              5.4420806,
              50.5383387
            ],
            [
              5.4421023,
              50.5381829
            ],
            [
              5.4409008,
              50.5375732
            ],
            [
              5.4391795,
              50.5365307
            ],
            [
              5.4399934,
              50.5351175
            ],
            [
              5.440791,
              50.5339714
            ],
            [
              5.4421043,
              50.5324203
            ],
            [
              5.4437991,
              50.5319244
            ],
            [
              5.4444103,
              50.531208
            ],
            [
              5.4446208,
              50.5306644
            ],
            [
              5.4455241,
              50.5307099
            ],
            [
              5.445677,
              50.5295633
            ],
            [
              5.4459893,
              50.5292955
            ],
            [
              5.4460142,
              50.5288493
            ],
            [
              5.4458512,
              50.5277395
            ],
            [
              5.4456032,
              50.5267389
            ],
            [
              5.4457292,
              50.5256841
            ],
            [
              5.4460834,
              50.5254492
            ],
            [
              5.4472149,
              50.5243021
            ],
            [
              5.4472563,
              50.5240395
            ],
            [
              5.4475485,
              50.5234045
            ],
            [
              5.4479993,
              50.5226494
            ],
            [
              5.4487058,
              50.5217813
            ],
            [
              5.4499671,
              50.5224207
            ],
            [
              5.4501318,
              50.5222829
            ],
            [
              5.4509962,
              50.5229062
            ],
            [
              5.4543082,
              50.524944
            ],
            [
              5.4557309,
              50.5257706
            ],
            [
              5.4568379,
              50.5262204
            ],
            [
              5.4578033,
              50.5271632
            ],
            [
              5.4583627,
              50.5274022
            ],
            [
              5.4609216,
              50.5280714
            ],
            [
              5.4634931,
              50.5286365
            ],
            [
              5.4633515,
              50.5283142
            ],
            [
              5.4634543,
              50.5276644
            ],
            [
              5.4639375,
              50.5271089
            ],
            [
              5.4640325,
              50.5267913
            ],
            [
              5.4638938,
              50.5261227
            ],
            [
              5.4639375,
              50.5258093
            ],
            [
              5.4640785,
              50.5255989
            ],
            [
              5.4645811,
              50.5251721
            ],
            [
              5.4646455,
              50.5246714
            ],
            [
              5.4648232,
              50.5244863
            ],
            [
              5.4656629,
              50.5242857
            ],
            [
              5.4661588,
              50.5242614
            ],
            [
              5.4668614,
              50.5246344
            ],
            [
              5.4674101,
              50.5246324
            ],
            [
              5.4685104,
              50.5248448
            ],
            [
              5.4686759,
              50.5246499
            ],
            [
              5.4690467,
              50.524422
            ],
            [
              5.4694115,
              50.5243187
            ],
            [
              5.4699356,
              50.5244298
            ],
            [
              5.4703861,
              50.5244122
            ],
            [
              5.4711646,
              50.5240907
            ],
            [
              5.4719125,
              50.5239017
            ],
            [
              5.472881,
              50.5232918
            ],
            [
              5.4746376,
              50.5228468
            ],
            [
              5.4750017,
              50.5226594
            ],
            [
              5.476029,
              50.5216728
            ],
            [
              5.4765231,
              50.5216783
            ],
            [
              5.4768192,
              50.5215929
            ],
            [
              5.4769319,
              50.5214027
            ],
            [
              5.4769378,
              50.5210423
            ],
            [
              5.476352,
              50.5205776
            ],
            [
              5.4763547,
              50.5204299
            ],
            [
              5.4761419,
              50.5202366
            ],
            [
              5.4758683,
              50.5202027
            ],
            [
              5.4757543,
              50.520024
            ],
            [
              5.4754883,
              50.5198887
            ],
            [
              5.4749716,
              50.5197534
            ],
            [
              5.4749716,
              50.5195166
            ],
            [
              5.4746904,
              50.519391
            ],
            [
              5.474356,
              50.5193861
            ],
            [
              5.474128,
              50.519101
            ],
            [
              5.4738392,
              50.5189947
            ],
            [
              5.4731297,
              50.5182944
            ],
            [
              5.4724446,
              50.5177625
            ],
            [
              5.4724332,
              50.517632
            ],
            [
              5.4718654,
              50.517526
            ],
            [
              5.4713334,
              50.5170621
            ],
            [
              5.4703226,
              50.516574
            ],
            [
              5.4703606,
              50.5164194
            ],
            [
              5.4697752,
              50.5163546
            ],
            [
              5.469365,
              50.5165692
            ],
            [
              5.4684226,
              50.5165837
            ],
            [
              5.467959,
              50.5164436
            ],
            [
              5.4659223,
              50.516661
            ],
            [
              5.4651015,
              50.5164581
            ],
            [
              5.4647291,
              50.5164822
            ],
            [
              5.4641515,
              50.5161246
            ],
            [
              5.4635663,
              50.5161246
            ],
            [
              5.4634979,
              50.5163276
            ],
            [
              5.4624795,
              50.5158637
            ],
            [
              5.4621882,
              50.5155819
            ],
            [
              5.4620767,
              50.5151968
            ],
            [
              5.4634565,
              50.5127014
            ],
            [
              5.4631255,
              50.5125823
            ],
            [
              5.4635967,
              50.512157
            ],
            [
              5.4628828,
              50.5116732
            ],
            [
              5.463623,
              50.5095984
            ],
            [
              5.4632306,
              50.507526
            ],
            [
              5.4620055,
              50.5073462
            ],
            [
              5.4608769,
              50.5070317
            ],
            [
              5.4603825,
              50.5068198
            ],
            [
              5.4604309,
              50.5065362
            ],
            [
              5.459596,
              50.5061313
            ],
            [
              5.4592863,
              50.5063687
            ],
            [
              5.4579105,
              50.5061978
            ],
            [
              5.4576096,
              50.5063414
            ],
            [
              5.4566875,
              50.5064164
            ],
            [
              5.4559867,
              50.5055894
            ],
            [
              5.4546969,
              50.5047691
            ],
            [
              5.4536759,
              50.5043795
            ],
            [
              5.4520852,
              50.5039352
            ],
            [
              5.4519669,
              50.5036686
            ],
            [
              5.4511997,
              50.5029979
            ],
            [
              5.4514618,
              50.5026705
            ],
            [
              5.4494519,
              50.5009751
            ],
            [
              5.4500431,
              50.4994164
            ],
            [
              5.4493174,
              50.4990093
            ],
            [
              5.4494305,
              50.4984183
            ],
            [
              5.4501401,
              50.4968885
            ],
            [
              5.4485276,
              50.4960664
            ],
            [
              5.4455082,
              50.4943308
            ],
            [
              5.4438978,
              50.4956014
            ],
            [
              5.4414637,
              50.4951053
            ],
            [
              5.4404301,
              50.495144
            ],
            [
              5.439123,
              50.4954438
            ],
            [
              5.4334098,
              50.4973045
            ],
            [
              5.4331287,
              50.4973074
            ],
            [
              5.4317961,
              50.4979021
            ],
            [
              5.4309323,
              50.4973625
            ],
            [
              5.4271475,
              50.4960475
            ],
            [
              5.4261899,
              50.4955157
            ],
            [
              5.425126,
              50.4955254
            ],
            [
              5.4234236,
              50.4951676
            ],
            [
              5.4220252,
              50.4946745
            ],
            [
              5.4200816,
              50.494328
            ],
            [
              5.4192539,
              50.4952393
            ],
            [
              5.420543,
              50.4972384
            ],
            [
              5.4181546,
              50.4978014
            ],
            [
              5.4164426,
              50.4962933
            ],
            [
              5.4154968,
              50.4950626
            ],
            [
              5.4148089,
              50.4947139
            ],
            [
              5.41425,
              50.4940917
            ],
            [
              5.4140351,
              50.4936951
            ],
            [
              5.4094791,
              50.4896716
            ],
            [
              5.4080415,
              50.4889959
            ],
            [
              5.4070189,
              50.4896783
            ],
            [
              5.4058783,
              50.4917805
            ],
            [
              5.4047704,
              50.4930934
            ],
            [
              5.3998156,
              50.4967718
            ],
            [
              5.3971526,
              50.4984134
            ],
            [
              5.3975674,
              50.4987526
            ],
            [
              5.3978677,
              50.4993782
            ],
            [
              5.3971355,
              50.5004026
            ],
            [
              5.3974699,
              50.5005549
            ],
            [
              5.3964276,
              50.5021042
            ],
            [
              5.3963199,
              50.5020699
            ],
            [
              5.3953868,
              50.5034221
            ],
            [
              5.3950833,
              50.5033925
            ],
            [
              5.3939245,
              50.501935
            ],
            [
              5.3933688,
              50.5028113
            ],
            [
              5.3931336,
              50.5034013
            ],
            [
              5.3927143,
              50.5033073
            ],
            [
              5.3918981,
              50.5052443
            ],
            [
              5.3909866,
              50.5050546
            ],
            [
              5.3894326,
              50.5058371
            ],
            [
              5.3880532,
              50.5061999
            ],
            [
              5.3878075,
              50.5061298
            ],
            [
              5.3879613,
              50.5059003
            ],
            [
              5.3860018,
              50.5054351
            ],
            [
              5.3859535,
              50.5054948
            ],
            [
              5.3837246,
              50.5050069
            ],
            [
              5.3835261,
              50.505256
            ],
            [
              5.3824089,
              50.504935
            ],
            [
              5.3825958,
              50.504686
            ],
            [
              5.3783923,
              50.5037752
            ],
            [
              5.3755403,
              50.5032113
            ],
            [
              5.375307,
              50.5036386
            ],
            [
              5.3731021,
              50.5031728
            ],
            [
              5.3731567,
              50.5024557
            ],
            [
              5.3692701,
              50.5019088
            ],
            [
              5.3693094,
              50.5018637
            ],
            [
              5.3677366,
              50.5016579
            ],
            [
              5.3660047,
              50.5013206
            ],
            [
              5.358306,
              50.4993892
            ],
            [
              5.3582747,
              50.4987775
            ],
            [
              5.3575085,
              50.4953297
            ],
            [
              5.3437203,
              50.4884592
            ],
            [
              5.3428584,
              50.4899993
            ],
            [
              5.3421002,
              50.4915585
            ],
            [
              5.3342648,
              50.4943971
            ]
          ]
        ]
      },
      "properties": {
        "type": "boundary",
        "gemeente": "Nandrin"
      }
    }
  ]
}