{
  "type": "FeatureCollection",
  "metadata": {
    "gemeente": "Nassogne",
    "slug": "nassogne",
    "generated_at": "2026-09-25T22:11:42.200503Z",
    "total_points": 10,
    "providers": [
      "bpost",
      "DHL",
      "GLS",
      "Amazon"
    ],
    "bounds": [
      5.3408141,
      50.1287,
      5.40595,
      50.16251
    ]
  },
  "features": [
    {
      "type": "Feature",
      "geometry": {
        "type": "Point",
        "coordinates": [
          5.34223,
          50.1287
        ]
      },
      "properties": {
        "type": "pakketpunt",
        "locatieNaam": "Nassogne",
        "straatNaam": "Place Communale",
        "straatNr": "5",
        "vervoerder": "bpost",
        "puntType": "postkantoor",
        "bezettingsgraad": 50,
        "latitude": 50.1287,
        "longitude": 5.34223,
        "canPickup": true,
        "canDropoff": true,
        "openingstijden": null
      }
    },
    {
      "type": "Feature",
      "geometry": {
        "type": "Point",
        "coordinates": [
          5.34092,
          50.13099
        ]
      },
      "properties": {
        "type": "pakketpunt",
        "locatieNaam": "Bbox 24/7 Spar Nassogne",
        "straatNaam": "Rue De Marche",
        "straatNr": "21",
        "vervoerder": "bpost",
        "puntType": "automaat",
        "bezettingsgraad": 50,
        "latitude": 50.13099,
        "longitude": 5.34092,
        "canPickup": true,
        "canDropoff": true,
        "openingstijden": null
      }
    },
    {
      "type": "Feature",
      "geometry": {
        "type": "Point",
        "coordinates": [
          5.40595,
          50.16251
        ]
      },
      "properties": {
        "type": "pakketpunt",
        "locatieNaam": "Bbox 24/7 Station Total Bande",
        "straatNaam": "Route Nationale-4 Bande",
        "straatNr": "20",
        "vervoerder": "bpost",
        "puntType": "automaat",
        "bezettingsgraad": 50,
        "latitude": 50.16251,
        "longitude": 5.40595,
        "canPickup": true,
        "canDropoff": true,
        "openingstijden": null
      }
    },
    {
      "type": "Feature",
      "geometry": {
        "type": "Point",
        "coordinates": [
          5.34092,
          50.13099
        ]
      },
      "properties": {
        "type": "pakketpunt",
        "locatieNaam": "BBOX 24/7 SPAR NASSOGNE",
        "straatNaam": "RUE DE MARCHE",
        "straatNr": "21",
        "vervoerder": "DHL",
        "puntType": "packStation",
        "bezettingsgraad": 50,
        "latitude": 50.13099,
        "longitude": 5.34092,
        "canPickup": true,
        "canDropoff": true,
        "openingstijden": {
          "ma": "00:00 - 23:59",
          "di": "00:00 - 23:59",
          "wo": "00:00 - 23:59",
          "do": "00:00 - 23:59",
          "vr": "00:00 - 23:59",
          "za": "00:00 - 23:59",
          "zo": "00:00 - 23:59"
        }
      }
    },
    {
      "type": "Feature",
      "geometry": {
        "type": "Point",
        "coordinates": [
          5.342235,
          50.128704
        ]
      },
      "properties": {
        "type": "pakketpunt",
        "locatieNaam": "NASSOGNE",
        "straatNaam": "PLACE COMMUNALE",
        "straatNr": "5",
        "vervoerder": "DHL",
        "puntType": "postOffice",
        "bezettingsgraad": 50,
        "latitude": 50.128704,
        "longitude": 5.342235,
        "canPickup": true,
        "canDropoff": true,
        "openingstijden": {
          "ma": "14:00 - 17:00",
          "di": "09:30 - 12:30, 14:00 - 18:00",
          "wo": "09:30 - 12:30, 14:00 - 17:00",
          "do": "09:30 - 12:30, 14:00 - 18:00",
          "vr": "14:00 - 17:00",
          "za": "gesloten",
          "zo": "gesloten"
        }
      }
    },
    {
      "type": "Feature",
      "geometry": {
        "type": "Point",
        "coordinates": [
          5.40595,
          50.16251
        ]
      },
      "properties": {
        "type": "pakketpunt",
        "locatieNaam": "BBOX 24/7 STATION TOTAL BANDE",
        "straatNaam": "ROUTE NATIONALE-4 BANDE",
        "straatNr": "20",
        "vervoerder": "DHL",
        "puntType": "packStation",
        "bezettingsgraad": 50,
        "latitude": 50.16251,
        "longitude": 5.40595,
        "canPickup": true,
        "canDropoff": true,
        "openingstijden": {
          "ma": "00:00 - 23:59",
          "di": "00:00 - 23:59",
          "wo": "00:00 - 23:59",
          "do": "00:00 - 23:59",
          "vr": "00:00 - 23:59",
          "za": "00:00 - 23:59",
          "zo": "00:00 - 23:59"
        }
      }
    },
    {
      "type": "Feature",
      "geometry": {
        "type": "Point",
        "coordinates": [
          5.3408141,
          50.1315108
        ]
      },
      "properties": {
        "type": "pakketpunt",
        "locatieNaam": "GLS Parcel Locker powered by bbox",
        "straatNaam": "Rue De Marche",
        "straatNr": "21",
        "vervoerder": "GLS",
        "puntType": "locker",
        "bezettingsgraad": 50,
        "latitude": 50.1315108,
        "longitude": 5.3408141,
        "canPickup": true,
        "canDropoff": true,
        "openingstijden": "vr: 00:00 - 24:00; za: 00:00 - 24:00"
      }
    },
    {
      "type": "Feature",
      "geometry": {
        "type": "Point",
        "coordinates": [
          5.40595,
          50.16251
        ]
      },
      "properties": {
        "type": "pakketpunt",
        "locatieNaam": "bpost - BBOX 24/7 STATION TOTAL BANDE",
        "straatNaam": "ROUTE NATIONALE-4 BANDE,20",
        "straatNr": "",
        "vervoerder": "Amazon",
        "puntType": "3p",
        "bezettingsgraad": 50,
        "latitude": 50.16251,
        "longitude": 5.40595,
        "canPickup": true,
        "canDropoff": false,
        "openingstijden": null
      }
    },
    {
      "type": "Feature",
      "geometry": {
        "type": "Point",
        "coordinates": [
          5.34092,
          50.13099
        ]
      },
      "properties": {
        "type": "pakketpunt",
        "locatieNaam": "bpost - BBOX 24/7 SPAR NASSOGNE",
        "straatNaam": "RUE DE MARCHE,21",
        "straatNr": "",
        "vervoerder": "Amazon",
        "puntType": "3p",
        "bezettingsgraad": 50,
        "latitude": 50.13099,
        "longitude": 5.34092,
        "canPickup": true,
        "canDropoff": false,
        "openingstijden": null
      }
    },
    {
      "type": "Feature",
      "geometry": {
        "type": "Point",
        "coordinates": [
          5.342235,
          50.128704
        ]
      },
      "properties": {
        "type": "pakketpunt",
        "locatieNaam": "bpost - NASSOGNE",
        "straatNaam": "PLACE COMMUNALE,5",
        "straatNr": "",
        "vervoerder": "Amazon",
        "puntType": "3p",
        "bezettingsgraad": 50,
        "latitude": 50.128704,
        "longitude": 5.342235,
        "canPickup": true,
        "canDropoff": false,
        "openingstijden": null
      }
    },
    {
      "type": "Feature",
      "geometry": {
        "type": "MultiPolygon",
        "coordinates": [
          [
            [
              [
                5.344848471853457,
                50.12659253529859
              ],
              [
                5.3445145388854,
                50.126437694565055
              ],
              [
                5.344158607677083,
                50.126304640256215
              ],
              [
                5.343784105709611,
                50.12619465357139
              ],
              [
                5.343394639203567,
                50.126108793580364
              ],
              [
                5.342993958405961,
                50.12604788703014
              ],
              [
                5.3425859214936136,
                50.12601252038806
              ],
              [
                5.3421744574397785,
                50.126003034197424
              ],
              [
                5.341763528200791,
                50.126019519800046
              ],
              [
                5.341357090585897,
                50.12606181845723
              ],
              [
                5.340959058176527,
                50.126129522877484
              ],
              [
                5.340573263660775,
                50.12622198113627
              ],
              [
                5.3402034219448495,
                50.12633830295041
              ],
              [
                5.339853094395948,
                50.12647736824658
              ],
              [
                5.339525654560117,
                50.12663783794172
              ],
              [
                5.339224255684687,
                50.126818166831775
              ],
              [
                5.338951800357585,
                50.12701661846488
              ],
              [
                5.338710912555673,
                50.1272312818561
              ],
              [
                5.338503912371231,
                50.12746008988321
              ],
              [
                5.338332793660096,
                50.127700839186225
              ],
              [
                5.338199204827021,
                50.12795121137991
              ],
              [
                5.33810443293381,
                50.12820879537482
              ],
              [
                5.338049391283913,
                50.128471110592365
              ],
              [
                5.338034610603822,
                50.1287356308504
              ],
              [
                5.338060233907094,
                50.12899980868964
              ],
              [
                5.338064814856135,
                50.12901800489493
              ],
              [
                5.337914163128062,
                50.12910813300088
              ],
              [
                5.337641689282749,
                50.129306581516225
              ],
              [
                5.337400784031991,
                50.12952124214549
              ],
              [
                5.337193767636109,
                50.129750047792996
              ],
              [
                5.337022634107076,
                50.12999079512173
              ],
              [
                5.336889031992371,
                50.13024116576544
              ],
              [
                5.3367942484817465,
                50.13049874864964
              ],
              [
                5.336739196990581,
                50.13076106320641
              ],
              [
                5.336731274384133,
                50.130902772803424
              ],
              [
                5.336731274384133,
                50.130902772803424
              ],
              [
                5.336688304553991,
                50.131019544882
              ],
              [
                5.336633251879881,
                50.13128185937995
              ],
              [
                5.336618462480974,
                50.131546379411596
              ],
              [
                5.336644079454868,
                50.13181055751982
              ],
              [
                5.336709856760261,
                50.132071849498374
              ],
              [
                5.336815161560943,
                50.132327738895
              ],
              [
                5.336958980295939,
                50.132575761248894
              ],
              [
                5.337139928418295,
                50.13281352782879
              ],
              [
                5.3373562637095695,
                50.1330387486432
              ],
              [
                5.33760590304255,
                50.13324925450079
              ],
              [
                5.337886442431381,
                50.13344301790823
              ],
              [
                5.338195180176448,
                50.13361817260402
              ],
              [
                5.338529142881351,
                50.13377303153986
              ],
              [
                5.338885114091547,
                50.13390610313596
              ],
              [
                5.339259665278673,
                50.134016105653686
              ],
              [
                5.339649188871868,
                50.13410197954647
              ],
              [
                5.340049933017495,
                50.13416289767012
              ],
              [
                5.340458037731847,
                50.13419827325371
              ],
              [
                5.340869572097922,
                50.13420776555424
              ],
              [
                5.341280572147089,
                50.13419128314025
              ],
              [
                5.3416870790599615,
                50.13414898477307
              ],
              [
                5.342085177317508,
                50.1340812778768
              ],
              [
                5.342471032434061,
                50.13398881461194
              ],
              [
                5.342840927907879,
                50.13387248559071
              ],
              [
                5.343191301032527,
                50.133733411294514
              ],
              [
                5.343518777223484,
                50.13357293127668
              ],
              [
                5.3438202025287564,
                50.133392591254356
              ],
              [
                5.344092674009967,
                50.13319412821447
              ],
              [
                5.344333567701081,
                50.13297945367746
              ],
              [
                5.344540563875425,
                50.132750635280026
              ],
              [
                5.3447116693778,
                50.13250987685482
              ],
              [
                5.344845236806929,
                50.132259497199236
              ],
              [
                5.344939980363986,
                50.13200190773791
              ],
              [
                5.344994988215221,
                50.13173958929417
              ],
              [
                5.345002886425253,
                50.131597879138496
              ],
              [
                5.3450458364337425,
                50.13148110397178
              ],
              [
                5.345100843102977,
                50.13121878546929
              ],
              [
                5.345115585390655,
                50.13095426434805
              ],
              [
                5.345089921988094,
                50.13069008810644
              ],
              [
                5.345086868831787,
                50.130677968218045
              ],
              [
                5.345240981771305,
                50.13058575460097
              ],
              [
                5.34551343132186,
                50.13038728817582
              ],
              [
                5.3457543044569045,
                50.13017261063919
              ],
              [
                5.34596128164773,
                50.129943789656686
              ],
              [
                5.346132369921941,
                50.129703029085846
              ],
              [
                5.3462659220441475,
                50.12945264774473
              ],
              [
                5.346360652362888,
                50.12919505707416
              ],
              [
                5.346415649171847,
                50.12893273790916
              ],
              [
                5.34643038346709,
                50.12866821658347
              ],
              [
                5.346404714016837,
                50.12840404059741
              ],
              [
                5.346338888695975,
                50.128142754083456
              ],
              [
                5.346233542073347,
                50.12788687330586
              ],
              [
                5.346089689276118,
                50.127638862430324
              ],
              [
                5.345908716191196,
                50.12740110979671
              ],
              [
                5.345692366098942,
                50.12717590492348
              ],
              [
                5.345442722868665,
                50.12696541646494
              ],
              [
                5.345441306624298,
                50.12696443836308
              ],
              [
                5.3454377227819805,
                50.12696141660339
              ],
              [
                5.345157190835415,
                50.12676767145941
              ],
              [
                5.344848471853457,
                50.12659253529859
              ]
            ]
          ],
          [
            [
              [
                5.409950282924368,
                50.16169066969778
              ],
              [
                5.409805996940691,
                50.16144273881443
              ],
              [
                5.40962457808334,
                50.16120508662296
              ],
              [
                5.409407773925387,
                50.160980001674275
              ],
              [
                5.409157672708433,
                50.160769651467476
              ],
              [
                5.408876683220217,
                50.16057606158308
              ],
              [
                5.408567511589898,
                50.160401096183506
              ],
              [
                5.408233135224762,
                50.16024644006836
              ],
              [
                5.407876774139414,
                50.16011358245716
              ],
              [
                5.4075018599534435,
                50.16000380265505
              ],
              [
                5.407112002855829,
                50.15991815773959
              ],
              [
                5.40671095685374,
                50.15985747238681
              ],
              [
                5.40630258363975,
                50.159822330934084
              ],
              [
                5.405890815424666,
                50.15981307175634
              ],
              [
                5.405479617093033,
                50.15982978400952
              ],
              [
                5.405072948044809,
                50.15987230677255
              ],
              [
                5.404674724089717,
                50.15994023059595
              ],
              [
                5.404288779760285,
                50.160032901442655
              ],
              [
                5.403918831405547,
                50.160149426982414
              ],
              [
                5.403568441420016,
                50.16028868518018
              ],
              [
                5.403240983951641,
                50.160449335095365
              ],
              [
                5.402939612418422,
                50.16062982978843
              ],
              [
                5.402667229146042,
                50.16082843121078
              ],
              [
                5.402426457418697,
                50.161043226935
              ],
              [
                5.402219616212198,
                50.16127214856429
              ],
              [
                5.402048697852804,
                50.1615129916445
              ],
              [
                5.401915348817259,
                50.161763436887064
              ],
              [
                5.401820853859444,
                50.16202107249876
              ],
              [
                5.401766123617132,
                50.162283417403614
              ],
              [
                5.401751685819009,
                50.16254794513322
              ],
              [
                5.401777680177518,
                50.16281210815598
              ],
              [
                5.401843857017651,
                50.16307336241056
              ],
              [
                5.401949579655917,
                50.16332919180765
              ],
              [
                5.4020938305075115,
                50.16357713246387
              ],
              [
                5.402275220863848,
                50.16381479643447
              ],
              [
                5.402492004247135,
                50.16403989471586
              ],
              [
                5.402742093214128,
                50.16425025929659
              ],
              [
                5.403023079447847,
                50.16444386404373
              ],
              [
                5.403332256944203,
                50.164618844223725
              ],
              [
                5.40366664807048,
                50.164773514468926
              ],
              [
                5.404023032244811,
                50.164906385016856
              ],
              [
                5.404397976960312,
                50.1650161760652
              ],
              [
                5.404787870854768,
                50.16510183010416
              ],
              [
                5.4051889585069315,
                50.16516252210717
              ],
              [
                5.4055973766236365,
                50.165197667481266
              ],
              [
                5.406009191268491,
                50.16520692770082
              ],
              [
                5.406420435772681,
                50.16519021356984
              ],
              [
                5.406827148961862,
                50.16514768608161
              ],
              [
                5.40722541333,
                50.165079754867115
              ],
              [
                5.407611392791515,
                50.16498707424755
              ],
              [
                5.407981369647266,
                50.16487053692866
              ],
              [
                5.408331780407464,
                50.16473126539817
              ],
              [
                5.408659250125799,
                50.16457060110906
              ],
              [
                5.408960624913516,
                50.16439009155326
              ],
              [
                5.409233002319859,
                50.16419147535049
              ],
              [
                5.409473759286062,
                50.16397666549621
              ],
              [
                5.409680577403578,
                50.1637477309302
              ],
              [
                5.409851465233442,
                50.163506876603755
              ],
              [
                5.409984777472143,
                50.163256422237666
              ],
              [
                5.4100792307798855,
                50.16299877997573
              ],
              [
                5.410133916119482,
                50.162736431149526
              ],
              [
                5.410148307487835,
                50.162471902378115
              ],
              [
                5.41012226695677,
                50.162207741233125
              ],
              [
                5.410056045975679,
                50.16194649170377
              ],
              [
                5.409950282924368,
                50.16169066969778
              ]
            ]
          ]
        ]
      },
      "properties": {
        "type": "buffer_union_300m",
        "buffer_m": 300
      }
    },
    {
      "type": "Feature",
      "geometry": {
        "type": "MultiPolygon",
        "coordinates": [
          [
            [
              [
                5.345721244424694,
                50.12589003381485
              ],
              [
                5.345276003726483,
                50.12568358264446
              ],
              [
                5.344801433890293,
                50.12550617977619
              ],
              [
                5.344302104694623,
                50.12535953336525
              ],
              [
                5.343782824173782,
                50.12524505540854
              ],
              [
                5.343248592343804,
                50.12516384815738
              ],
              [
                5.342704553085658,
                50.12511669351124
              ],
              [
                5.342155944647723,
                50.125104045494155
              ],
              [
                5.341608049242662,
                50.12512602588613
              ],
              [
                5.341066142222417,
                50.12518242305139
              ],
              [
                5.340535441319027,
                50.125272693974686
              ],
              [
                5.340021056438393,
                50.12539596948623
              ],
              [
                5.339527940488808,
                50.12555106262508
              ],
              [
                5.339060841716305,
                50.12573648006052
              ],
              [
                5.338624258004496,
                50.12595043646216
              ],
              [
                5.338222393577989,
                50.12619087168061
              ],
              [
                5.33785911852551,
                50.126455470573546
              ],
              [
                5.337537931532131,
                50.12674168528733
              ],
              [
                5.337261926179349,
                50.12704675977965
              ],
              [
                5.337033761137799,
                50.12736775634777
              ],
              [
                5.336855634540208,
                50.12770158390756
              ],
              [
                5.336729262782258,
                50.12804502775114
              ],
              [
                5.33665586395669,
                50.12839478049741
              ],
              [
                5.336639965928181,
                50.12867914878543
              ],
              [
                5.336548970431069,
                50.12874542130785
              ],
              [
                5.336227760172596,
                50.129031632338936
              ],
              [
                5.335951733204388,
                50.12933670365836
              ],
              [
                5.335723548405266,
                50.12965769759398
              ],
              [
                5.335545404098276,
                50.129991523087
              ],
              [
                5.33541901684972,
                50.13033496544951
              ],
              [
                5.335345604901601,
                50.13068471731465
              ],
              [
                5.335340156159494,
                50.13078212685418
              ],
              [
                5.33531305827993,
                50.13085576042563
              ],
              [
                5.335239644754345,
                50.131205512212325
              ],
              [
                5.335219915252903,
                50.13155820535017
              ],
              [
                5.335254060968329,
                50.131910443238795
              ],
              [
                5.335341754239461,
                50.132258833587436
              ],
              [
                5.335482151661427,
                50.13260002108636
              ],
              [
                5.335673902164694,
                50.13293071972485
              ],
              [
                5.335915159986853,
                50.13324774444464
              ],
              [
                5.336203602413723,
                50.13354804182334
              ],
              [
                5.336536452120279,
                50.13382871949209
              ],
              [
                5.336910503897304,
                50.134087074003766
              ],
              [
                5.337322155507183,
                50.134320616882846
              ],
              [
                5.3377674423721135,
                50.13452709860531
              ],
              [
                5.33824207576084,
                50.13470453027742
              ],
              [
                5.338741484105898,
                50.134851202803645
              ],
              [
                5.339260857052919,
                50.134965703359136
              ],
              [
                5.339795191816912,
                50.135046929006855
              ],
              [
                5.34033934139794,
                50.135094097328555
              ],
              [
                5.340888064190435,
                50.13510675396652
              ],
              [
                5.34143607450684,
                50.13508477700306
              ],
              [
                5.341978093527305,
                50.13502837813576
              ],
              [
                5.342508900182996,
                50.134938100636845
              ],
              [
                5.343023381481253,
                50.13481481411663
              ],
              [
                5.3435165817862735,
                50.13465970614131
              ],
              [
                5.343983750579157,
                50.134474270786626
              ],
              [
                5.344420388236084,
                50.134260294237365
              ],
              [
                5.344822289382621,
                50.13401983757243
              ],
              [
                5.345185583405888,
                50.13375521690134
              ],
              [
                5.345506771733942,
                50.1334689810442
              ],
              [
                5.345782761523228,
                50.133163886970635
              ],
              [
                5.346010895429917,
                50.13284287323481
              ],
              [
                5.346188977178937,
                50.132509031662735
              ],
              [
                5.346315292685357,
                50.13216557756527
              ],
              [
                5.346388626525835,
                50.131815818763876
              ],
              [
                5.346394052837212,
                50.13171840871041
              ],
              [
                5.346421134111148,
                50.13164477254413
              ],
              [
                5.346494466375835,
                50.131295013664385
              ],
              [
                5.34650986284774,
                50.13101860988322
              ],
              [
                5.34660629314859,
                50.13094836351759
              ],
              [
                5.3469274540685605,
                50.13066212366105
              ],
              [
                5.347203418546745,
                50.130357026140835
              ],
              [
                5.347431529483045,
                50.13003600954431
              ],
              [
                5.347609590823551,
                50.129702165724986
              ],
              [
                5.347735888679794,
                50.12935871001535
              ],
              [
                5.347809207798305,
                50.129008950252405
              ],
              [
                5.347828843223283,
                50.1286562549148
              ],
              [
                5.347794607041609,
                50.1283040206787
              ],
              [
                5.347706830146936,
                50.12795563970492
              ],
              [
                5.347566359007643,
                50.127614466972325
              ],
              [
                5.347374547471508,
                50.127283787972196
              ],
              [
                5.34713324368768,
                50.126966787074444
              ],
              [
                5.346844772273452,
                50.12666651686991
              ],
              [
                5.3465119118988875,
                50.1263858687839
              ],
              [
                5.346510495649807,
                50.12638489069511
              ],
              [
                5.346506911783319,
                50.126381868968494
              ],
              [
                5.346132868449076,
                50.12612354541153
              ],
              [
                5.345721244424694,
                50.12589003381485
              ]
            ]
          ],
          [
            [
              [
                5.411283680025318,
                50.16141752882172
              ],
              [
                5.411091290907818,
                50.16108695648264
              ],
              [
                5.410849392765793,
                50.160770089511814
              ],
              [
                5.410560315939952,
                50.16046997920985
              ],
              [
                5.410226844929727,
                50.16018951546172
              ],
              [
                5.409852191556609,
                50.15993139891866
              ],
              [
                5.409439964020511,
                50.15969811500367
              ],
              [
                5.408994132147655,
                50.159491909990045
              ],
              [
                5.408518989164754,
                50.1593147693831
              ],
              [
                5.408019110367412,
                50.15916839881259
              ],
              [
                5.407499309080253,
                50.15905420761931
              ],
              [
                5.4069645903319925,
                50.15897329529332
              ],
              [
                5.406420102690465,
                50.15892644089435
              ],
              [
                5.40587108872006,
                50.15891409555551
              ],
              [
                5.405322834537114,
                50.1589363781425
              ],
              [
                5.4047806189473775,
                50.158993074109894
              ],
              [
                5.40424966265363,
                50.159083637565445
              ],
              [
                5.4037350780208655,
                50.15920719652278
              ],
              [
                5.403241819881165,
                50.15936256129171
              ],
              [
                5.4027746378505075,
                50.159548235926074
              ],
              [
                5.402338030615401,
                50.1597624326189
              ],
              [
                5.401936202628519,
                50.16000308890688
              ],
              [
                5.401573023629576,
                50.16026788751883
              ],
              [
                5.401251991380828,
                50.16055427867769
              ],
              [
                5.400976197975973,
                50.160859504641756
              ],
              [
                5.400748300047081,
                50.16118062624931
              ],
              [
                5.400570493157085,
                50.161514551211646
              ],
              [
                5.400444490625297,
                50.16185806388237
              ],
              [
                5.400371506991028,
                50.162207856217
              ],
              [
                5.400352246275947,
                50.16256055962454
              ],
              [
                5.400386895159799,
                50.16291277740508
              ],
              [
                5.4004751211369095,
                50.16326111746082
              ],
              [
                5.400616075672966,
                50.1636022249657
              ],
              [
                5.400808402333431,
                50.163932814678795
              ],
              [
                5.401050249806986,
                50.16424970259029
              ],
              [
                5.401339289700086,
                50.164549836594844
              ],
              [
                5.401672738932602,
                50.164830325896624
              ],
              [
                5.402047386519948,
                50.165088468862336
              ],
              [
                5.402459624484555,
                50.16532177905361
              ],
              [
                5.40290548259944,
                50.165528009187376
              ],
              [
                5.403380666629424,
                50.165705172792926
              ],
              [
                5.403880599701485,
                50.16585156335669
              ],
              [
                5.404400466405253,
                50.1659657707696
              ],
              [
                5.404935259198089,
                50.16604669491823
              ],
              [
                5.4054798266666655,
                50.16609355628851
              ],
              [
                5.406028923178886,
                50.16610590347945
              ],
              [
                5.406577259446379,
                50.16608361755415
              ],
              [
                5.407119553508927,
                50.16602691318638
              ],
              [
                5.407650581648089,
                50.16593633659112
              ],
              [
                5.408165228737889,
                50.16581276025978
              ],
              [
                5.408658537546059,
                50.16565737455017
              ],
              [
                5.409125756509458,
                50.16547167621322
              ],
              [
                5.409562385522272,
                50.16525745396675
              ],
              [
                5.409964219294925,
                50.16501677125611
              ],
              [
                5.410327387865358,
                50.16475194636789
              ],
              [
                5.4106483938720755,
                50.16446553008889
              ],
              [
                5.410924146229848,
                50.16416028112622
              ],
              [
                5.411151989884022,
                50.16383913952538
              ],
              [
                5.411329731357409,
                50.16350519834345
              ],
              [
                5.411455659844623,
                50.163161673850084
              ],
              [
                5.411528563651842,
                50.16281187454414
              ],
              [
                5.411547741825108,
                50.16245916928451
              ],
              [
                5.411513010856711,
                50.16210695484227
              ],
              [
                5.4114247064067875,
                50.16175862318691
              ],
              [
                5.411283680025318,
                50.16141752882172
              ]
            ]
          ]
        ]
      },
      "properties": {
        "type": "buffer_union_400m",
        "buffer_m": 400
      }
    },
    {
      "type": "Feature",
      "geometry": {
        "type": "Polygon",
        "coordinates": [
          [
            [
              5.2423093,
              50.1341946
            ],
            [
              5.2422541,
              50.1335279
            ],
            [
              5.2429745,
              50.1322036
            ],
            [
              5.2455784,
              50.1287911
            ],
            [
              5.2460753,
              50.1288981
            ],
            [
              5.2473013,
              50.1271638
            ],
            [
              5.2484144,
              50.1273549
            ],
            [
              5.2487402,
              50.1267911
            ],
            [
              5.2491099,
              50.1268359
            ],
            [
              5.2516441,
              50.1275074
            ],
            [
              5.2515271,
              50.1276505
            ],
            [
              5.2537238,
              50.128201
            ],
            [
              5.2538338,
              50.1281682
            ],
            [
              5.2540696,
              50.1278287
            ],
            [
              5.2556696,
              50.1272461
            ],
            [
              5.2582696,
              50.1237475
            ],
            [
              5.2584708,
              50.1236764
            ],
            [
              5.2625131,
              50.1205161
            ],
            [
              5.2646608,
              50.1219775
            ],
            [
              5.2660849,
              50.1212862
            ],
            [
              5.2661499,
              50.1210876
            ],
            [
              5.2663967,
              50.1208137
            ],
            [
              5.267027,
              50.1205317
            ],
            [
              5.2675152,
              50.1200398
            ],
            [
              5.2684392,
              50.1195058
            ],
            [
              5.2696449,
              50.1182099
            ],
            [
              5.2697495,
              50.1179571
            ],
            [
              5.2701035,
              50.1176174
            ],
            [
              5.2697935,
              50.1172084
            ],
            [
              5.2690118,
              50.1154942
            ],
            [
              5.2692184,
              50.1143986
            ],
            [
              5.2689402,
              50.1136951
            ],
            [
              5.2701583,
              50.1132871
            ],
            [
              5.2695521,
              50.1120931
            ],
            [
              5.2689931,
              50.1115433
            ],
            [
              5.2684187,
              50.1112638
            ],
            [
              5.267188,
              50.1111512
            ],
            [
              5.2665603,
              50.110943
            ],
            [
              5.2660882,
              50.1103375
            ],
            [
              5.2656108,
              50.1099591
            ],
            [
              5.2650744,
              50.109732
            ],
            [
              5.2640431,
              50.108952
            ],
            [
              5.2633692,
              50.1085843
            ],
            [
              5.2625671,
              50.1085297
            ],
            [
              5.2633966,
              50.1085425
            ],
            [
              5.2781968,
              50.103616
            ],
            [
              5.2841844,
              50.1026398
            ],
            [
              5.2892936,
              50.1005018
            ],
            [
              5.2896493,
              50.1006472
            ],
            [
              5.2915243,
              50.0998778
            ],
            [
              5.2915021,
              50.0996689
            ],
            [
              5.2909414,
              50.0991845
            ],
            [
              5.2903172,
              50.098928
            ],
            [
              5.2897079,
              50.0985539
            ],
            [
              5.2897,
              50.098422
            ],
            [
              5.2897752,
              50.0983798
            ],
            [
              5.2896977,
              50.0983201
            ],
            [
              5.2897874,
              50.0983441
            ],
            [
              5.2899794,
              50.0978642
            ],
            [
              5.290235,
              50.0975597
            ],
            [
              5.2909564,
              50.0970049
            ],
            [
              5.2916143,
              50.0962424
            ],
            [
              5.2919133,
              50.0959619
            ],
            [
              5.2934122,
              50.0954415
            ],
            [
              5.2938196,
              50.095065
            ],
            [
              5.2942592,
              50.0942888
            ],
            [
              5.2959838,
              50.0948044
            ],
            [
              5.296481,
              50.0943624
            ],
            [
              5.296734,
              50.0938806
            ],
            [
              5.2983412,
              50.0933809
            ],
            [
              5.2986341,
              50.0930531
            ],
            [
              5.2987724,
              50.0923985
            ],
            [
              5.2991063,
              50.0917487
            ],
            [
              5.3002383,
              50.0920293
            ],
            [
              5.3016041,
              50.0902542
            ],
            [
              5.303419,
              50.091054
            ],
            [
              5.303844,
              50.0911617
            ],
            [
              5.3037319,
              50.0910101
            ],
            [
              5.3037572,
              50.0906586
            ],
            [
              5.3040281,
              50.0904126
            ],
            [
              5.3048249,
              50.0899927
            ],
            [
              5.3060179,
              50.0896038
            ],
            [
              5.3069115,
              50.0891856
            ],
            [
              5.3081802,
              50.0884628
            ],
            [
              5.3088197,
              50.0883442
            ],
            [
              5.3111445,
              50.0883064
            ],
            [
              5.3115946,
              50.089695
            ],
            [
              5.3121959,
              50.0905339
            ],
            [
              5.3143149,
              50.0897724
            ],
            [
              5.3161151,
              50.0884121
            ],
            [
              5.3164333,
              50.0869621
            ],
            [
              5.3166202,
              50.0855747
            ],
            [
              5.3213288,
              50.0850576
            ],
            [
              5.3235315,
              50.0853705
            ],
            [
              5.3231272,
              50.0871597
            ],
            [
              5.3222547,
              50.0884902
            ],
            [
              5.3226046,
              50.0885815
            ],
            [
              5.3220968,
              50.0889696
            ],
            [
              5.323378,
              50.0893703
            ],
            [
              5.3235273,
              50.0892147
            ],
            [
              5.3243519,
              50.0897267
            ],
            [
              5.3262502,
              50.0897535
            ],
            [
              5.3276732,
              50.0895586
            ],
            [
              5.3282087,
              50.090155
            ],
            [
              5.3292811,
              50.0904487
            ],
            [
              5.3304291,
              50.0913022
            ],
            [
              5.3302789,
              50.0914365
            ],
            [
              5.3306168,
              50.0916189
            ],
            [
              5.3308753,
              50.0916287
            ],
            [
              5.3306877,
              50.0920126
            ],
            [
              5.3309923,
              50.0924586
            ],
            [
              5.3314859,
              50.0928544
            ],
            [
              5.3316373,
              50.0931427
            ],
            [
              5.331046,
              50.0934016
            ],
            [
              5.3313249,
              50.0937629
            ],
            [
              5.331341,
              50.0939488
            ],
            [
              5.3309285,
              50.0942287
            ],
            [
              5.3310567,
              50.0944581
            ],
            [
              5.3313181,
              50.0946675
            ],
            [
              5.3314,
              50.0945407
            ],
            [
              5.3317219,
              50.0944891
            ],
            [
              5.3324515,
              50.0941243
            ],
            [
              5.3323817,
              50.0939625
            ],
            [
              5.3325105,
              50.0937388
            ],
            [
              5.3332025,
              50.093319
            ],
            [
              5.334152,
              50.093085
            ],
            [
              5.3347474,
              50.0930333
            ],
            [
              5.3364587,
              50.0930574
            ],
            [
              5.3371174,
              50.092813
            ],
            [
              5.3391319,
              50.0923944
            ],
            [
              5.3428316,
              50.0917669
            ],
            [
              5.3442246,
              50.0920667
            ],
            [
              5.3468227,
              50.0921523
            ],
            [
              5.3492582,
              50.0925033
            ],
            [
              5.3516185,
              50.0935289
            ],
            [
              5.3537965,
              50.0942447
            ],
            [
              5.3562856,
              50.0944719
            ],
            [
              5.3590751,
              50.0955525
            ],
            [
              5.36141,
              50.0959197
            ],
            [
              5.3671923,
              50.0940771
            ],
            [
              5.3741795,
              50.0905369
            ],
            [
              5.3754258,
              50.0901149
            ],
            [
              5.3761768,
              50.0900529
            ],
            [
              5.3784299,
              50.0893577
            ],
            [
              5.3806829,
              50.0876505
            ],
            [
              5.3812945,
              50.0865904
            ],
            [
              5.3825834,
              50.0857051
            ],
            [
              5.3830325,
              50.0849727
            ],
            [
              5.3845131,
              50.0834581
            ],
            [
              5.3859186,
              50.0829969
            ],
            [
              5.3876138,
              50.080663
            ],
            [
              5.388,
              50.0798299
            ],
            [
              5.3897971,
              50.0787866
            ],
            [
              5.3901237,
              50.0786803
            ],
            [
              5.3902404,
              50.0785148
            ],
            [
              5.3904757,
              50.079014
            ],
            [
              5.3909987,
              50.0795123
            ],
            [
              5.3916907,
              50.0798609
            ],
            [
              5.3926349,
              50.080126
            ],
            [
              5.3937989,
              50.0809762
            ],
            [
              5.3944051,
              50.0816681
            ],
            [
              5.3951079,
              50.0822051
            ],
            [
              5.3956175,
              50.0824943
            ],
            [
              5.3969586,
              50.0827284
            ],
            [
              5.3978169,
              50.084002
            ],
            [
              5.3978276,
              50.0849176
            ],
            [
              5.3967494,
              50.0869277
            ],
            [
              5.3954244,
              50.0938111
            ],
            [
              5.3958246,
              50.0947218
            ],
            [
              5.3971678,
              50.0960239
            ],
            [
              5.3987932,
              50.0972662
            ],
            [
              5.3996622,
              50.099441
            ],
            [
              5.4012716,
              50.101478
            ],
            [
              5.4022908,
              50.1033361
            ],
            [
              5.4033744,
              50.1063226
            ],
            [
              5.4048496,
              50.1074614
            ],
            [
              5.405606,
              50.1085176
            ],
            [
              5.4064321,
              50.1100038
            ],
            [
              5.4074593,
              50.1112701
            ],
            [
              5.4085135,
              50.1128454
            ],
            [
              5.409683,
              50.1135403
            ],
            [
              5.4153711,
              50.1156005
            ],
            [
              5.4169425,
              50.116281
            ],
            [
              5.4169456,
              50.1163554
            ],
            [
              5.419414,
              50.1154805
            ],
            [
              5.4215705,
              50.1154461
            ],
            [
              5.4258361,
              50.1141444
            ],
            [
              5.4265165,
              50.1140013
            ],
            [
              5.4271066,
              50.1140254
            ],
            [
              5.4274714,
              50.1138912
            ],
            [
              5.427804,
              50.1140254
            ],
            [
              5.4289252,
              50.1139187
            ],
            [
              5.429247,
              50.1137054
            ],
            [
              5.4305217,
              50.1139592
            ],
            [
              5.4335815,
              50.1133511
            ],
            [
              5.4335493,
              50.1130312
            ],
            [
              5.4345846,
              50.1126906
            ],
            [
              5.435062,
              50.1122056
            ],
            [
              5.4354376,
              50.1122812
            ],
            [
              5.4362899,
              50.1120199
            ],
            [
              5.4363656,
              50.1118048
            ],
            [
              5.4366794,
              50.1115915
            ],
            [
              5.4367813,
              50.1116861
            ],
            [
              5.4369932,
              50.1116121
            ],
            [
              5.4371542,
              50.1116741
            ],
            [
              5.4371354,
              50.111982
            ],
            [
              5.4373848,
              50.1122761
            ],
            [
              5.4377148,
              50.1125152
            ],
            [
              5.4379508,
              50.1125083
            ],
            [
              5.4380286,
              50.1128385
            ],
            [
              5.4379213,
              50.1130002
            ],
            [
              5.4383062,
              50.113026
            ],
            [
              5.4383384,
              50.1130983
            ],
            [
              5.4382351,
              50.1131636
            ],
            [
              5.4382941,
              50.1134079
            ],
            [
              5.4380983,
              50.1133804
            ],
            [
              5.4380715,
              50.1135988
            ],
            [
              5.4378891,
              50.1137553
            ],
            [
              5.437991,
              50.1140838
            ],
            [
              5.4382136,
              50.1142885
            ],
            [
              5.438447,
              50.1147297
            ],
            [
              5.4392061,
              50.1150857
            ],
            [
              5.4391886,
              50.1153566
            ],
            [
              5.4394488,
              50.1154641
            ],
            [
              5.439662,
              50.1160497
            ],
            [
              5.4401609,
              50.1163972
            ],
            [
              5.4400443,
              50.1167764
            ],
            [
              5.4400966,
              50.1168495
            ],
            [
              5.4403178,
              50.1170181
            ],
            [
              5.4409723,
              50.117049
            ],
            [
              5.4410487,
              50.1171213
            ],
            [
              5.4410192,
              50.1174515
            ],
            [
              5.4416871,
              50.1177077
            ],
            [
              5.4426929,
              50.11789
            ],
            [
              5.443393,
              50.1178316
            ],
            [
              5.4440179,
              50.1175766
            ],
            [
              5.4442084,
              50.1173732
            ],
            [
              5.4446791,
              50.1171341
            ],
            [
              5.4447073,
              50.1170249
            ],
            [
              5.445469,
              50.1164539
            ],
            [
              5.4464668,
              50.1161203
            ],
            [
              5.4470569,
              50.1163817
            ],
            [
              5.4478133,
              50.1161891
            ],
            [
              5.449377,
              50.1162424
            ],
            [
              5.4494843,
              50.1163697
            ],
            [
              5.4497901,
              50.1164763
            ],
            [
              5.4516582,
              50.1170095
            ],
            [
              5.4525125,
              50.1170576
            ],
            [
              5.4531401,
              50.1172984
            ],
            [
              5.4542398,
              50.1179846
            ],
            [
              5.454146,
              50.1183716
            ],
            [
              5.4542881,
              50.1185075
            ],
            [
              5.4551649,
              50.1188242
            ],
            [
              5.455302,
              50.1191644
            ],
            [
              5.4558948,
              50.1195617
            ],
            [
              5.456171,
              50.1198506
            ],
            [
              5.4563856,
              50.1197217
            ],
            [
              5.4567209,
              50.1198558
            ],
            [
              5.4572573,
              50.1203889
            ],
            [
              5.4573566,
              50.1207079
            ],
            [
              5.4579104,
              50.120965
            ],
            [
              5.4591805,
              50.121763
            ],
            [
              5.4594125,
              50.1223511
            ],
            [
              5.4596874,
              50.1224045
            ],
            [
              5.4598272,
              50.122628
            ],
            [
              5.4598457,
              50.1228619
            ],
            [
              5.4600079,
              50.1229754
            ],
            [
              5.460197,
              50.1232995
            ],
            [
              5.4604431,
              50.1232505
            ],
            [
              5.460482,
              50.1233369
            ],
            [
              5.4603848,
              50.1235102
            ],
            [
              5.4603982,
              50.1238266
            ],
            [
              5.4601984,
              50.1240123
            ],
            [
              5.4602721,
              50.1243924
            ],
            [
              5.4590624,
              50.1265134
            ],
            [
              5.4569006,
              50.1274223
            ],
            [
              5.4566216,
              50.1277816
            ],
            [
              5.4542586,
              50.128576
            ],
            [
              5.4541728,
              50.1286861
            ],
            [
              5.4543002,
              50.1291564
            ],
            [
              5.4535608,
              50.1300127
            ],
            [
              5.4535675,
              50.1304535
            ],
            [
              5.4538673,
              50.1309093
            ],
            [
              5.453871,
              50.1311741
            ],
            [
              5.4533158,
              50.1317157
            ],
            [
              5.4531227,
              50.1316788
            ],
            [
              5.4526064,
              50.1330534
            ],
            [
              5.4525501,
              50.1334247
            ],
            [
              5.4523636,
              50.1337394
            ],
            [
              5.4524133,
              50.1340334
            ],
            [
              5.4522094,
              50.1343832
            ],
            [
              5.4522201,
              50.1346352
            ],
            [
              5.4525259,
              50.1350649
            ],
            [
              5.4525179,
              50.1352635
            ],
            [
              5.4522761,
              50.1355779
            ],
            [
              5.4522738,
              50.1359623
            ],
            [
              5.4528205,
              50.1366847
            ],
            [
              5.4531884,
              50.1368787
            ],
            [
              5.4533523,
              50.1370567
            ],
            [
              5.453859,
              50.1381526
            ],
            [
              5.4538482,
              50.1385892
            ],
            [
              5.4534996,
              50.1386322
            ],
            [
              5.4531884,
              50.1385755
            ],
            [
              5.4530811,
              50.1387938
            ],
            [
              5.4531616,
              50.1392029
            ],
            [
              5.4528236,
              50.1395021
            ],
            [
              5.4526225,
              50.1394677
            ],
            [
              5.4522522,
              50.1403676
            ],
            [
              5.4522067,
              50.140769
            ],
            [
              5.4523507,
              50.1409488
            ],
            [
              5.4523074,
              50.1411306
            ],
            [
              5.4518379,
              50.1414398
            ],
            [
              5.4515067,
              50.1421649
            ],
            [
              5.4515925,
              50.142213
            ],
            [
              5.4512306,
              50.143333
            ],
            [
              5.4506429,
              50.1437162
            ],
            [
              5.4505692,
              50.1440617
            ],
            [
              5.4502004,
              50.1448387
            ],
            [
              5.4498196,
              50.1453126
            ],
            [
              5.4494414,
              50.1453659
            ],
            [
              5.4463689,
              50.1474943
            ],
            [
              5.446486,
              50.1476325
            ],
            [
              5.4464856,
              50.1479094
            ],
            [
              5.4462672,
              50.1483844
            ],
            [
              5.4467256,
              50.1484542
            ],
            [
              5.4471467,
              50.1488323
            ],
            [
              5.4475182,
              50.1489273
            ],
            [
              5.4475987,
              50.1491391
            ],
            [
              5.4478937,
              50.1494081
            ],
            [
              5.4483953,
              50.1496178
            ],
            [
              5.4487306,
              50.1495714
            ],
            [
              5.449326,
              50.1498292
            ],
            [
              5.4497015,
              50.1502039
            ],
            [
              5.4506242,
              50.1504995
            ],
            [
              5.4527334,
              50.1504458
            ],
            [
              5.453348,
              50.150735
            ],
            [
              5.4537825,
              50.1508132
            ],
            [
              5.4539381,
              50.15068
            ],
            [
              5.4541621,
              50.1507178
            ],
            [
              5.4548447,
              50.151156
            ],
            [
              5.4553905,
              50.1509549
            ],
            [
              5.4562005,
              50.1512317
            ],
            [
              5.4567172,
              50.1512652
            ],
            [
              5.4569972,
              50.1510795
            ],
            [
              5.4573123,
              50.1511191
            ],
            [
              5.4572587,
              50.151187
            ],
            [
              5.4574974,
              50.151187
            ],
            [
              5.4575068,
              50.1510443
            ],
            [
              5.4582511,
              50.1511754
            ],
            [
              5.4588653,
              50.1510108
            ],
            [
              5.4592263,
              50.1512338
            ],
            [
              5.4599744,
              50.1513829
            ],
            [
              5.4601447,
              50.1517593
            ],
            [
              5.4608367,
              50.1520703
            ],
            [
              5.4624742,
              50.1523393
            ],
            [
              5.4628511,
              50.1523187
            ],
            [
              5.4635498,
              50.1526762
            ],
            [
              5.4644752,
              50.1525877
            ],
            [
              5.464797,
              50.1526581
            ],
            [
              5.4651967,
              50.1528833
            ],
            [
              5.4653066,
              50.1532957
            ],
            [
              5.4655266,
              50.1536652
            ],
            [
              5.4665635,
              50.154126
            ],
            [
              5.4633245,
              50.1571005
            ],
            [
              5.4618023,
              50.1581657
            ],
            [
              5.4593994,
              50.157566
            ],
            [
              5.4572198,
              50.1576169
            ],
            [
              5.4547707,
              50.1573272
            ],
            [
              5.4481721,
              50.1574994
            ],
            [
              5.4415012,
              50.1673115
            ],
            [
              5.4427198,
              50.1681818
            ],
            [
              5.4371408,
              50.1722462
            ],
            [
              5.4353002,
              50.1711326
            ],
            [
              5.4328465,
              50.1736962
            ],
            [
              5.4311621,
              50.1759224
            ],
            [
              5.4296422,
              50.1769305
            ],
            [
              5.4281795,
              50.1774409
            ],
            [
              5.4269457,
              50.1784784
            ],
            [
              5.4257885,
              50.1788724
            ],
            [
              5.4257387,
              50.1789903
            ],
            [
              5.4248996,
              50.1791482
            ],
            [
              5.423609,
              50.1788013
            ],
            [
              5.4216981,
              50.1787188
            ],
            [
              5.4199558,
              50.1771798
            ],
            [
              5.4182579,
              50.1760046
            ],
            [
              5.4136902,
              50.1751357
            ],
            [
              5.4124778,
              50.1749708
            ],
            [
              5.4084921,
              50.1735003
            ],
            [
              5.4050419,
              50.1719327
            ],
            [
              5.4057055,
              50.1708683
            ],
            [
              5.399158,
              50.1670969
            ],
            [
              5.3981585,
              50.1675225
            ],
            [
              5.3973825,
              50.1671066
            ],
            [
              5.3958661,
              50.1670593
            ],
            [
              5.3962107,
              50.1664371
            ],
            [
              5.3962741,
              50.1653213
            ],
            [
              5.3967491,
              50.1651691
            ],
            [
              5.3953356,
              50.1647611
            ],
            [
              5.3914814,
              50.1648799
            ],
            [
              5.3857971,
              50.1658981
            ],
            [
              5.3864877,
              50.1664472
            ],
            [
              5.3872478,
              50.1667008
            ],
            [
              5.3875645,
              50.167208
            ],
            [
              5.3887191,
              50.1679665
            ],
            [
              5.3903516,
              50.1722389
            ],
            [
              5.3912542,
              50.1739428
            ],
            [
              5.3920776,
              50.1752917
            ],
            [
              5.3908173,
              50.1760136
            ],
            [
              5.3894718,
              50.1770376
            ],
            [
              5.3907633,
              50.179409
            ],
            [
              5.390019,
              50.1799972
            ],
            [
              5.3894844,
              50.1822396
            ],
            [
              5.39146,
              50.1832421
            ],
            [
              5.3914442,
              50.1836072
            ],
            [
              5.3931038,
              50.1838387
            ],
            [
              5.3924418,
              50.1860002
            ],
            [
              5.3908407,
              50.1864321
            ],
            [
              5.3871369,
              50.1877796
            ],
            [
              5.3858339,
              50.1888169
            ],
            [
              5.3858167,
              50.1889637
            ],
            [
              5.3859508,
              50.189223
            ],
            [
              5.3857496,
              50.1898876
            ],
            [
              5.3858701,
              50.190071
            ],
            [
              5.3855136,
              50.1904097
            ],
            [
              5.3852525,
              50.1903751
            ],
            [
              5.3851461,
              50.1904904
            ],
            [
              5.385071,
              50.1908853
            ],
            [
              5.3852293,
              50.1912614
            ],
            [
              5.384784,
              50.1914211
            ],
            [
              5.3845909,
              50.1919431
            ],
            [
              5.3841608,
              50.192328
            ],
            [
              5.3842035,
              50.1925571
            ],
            [
              5.3845996,
              50.1926961
            ],
            [
              5.3854586,
              50.1927768
            ],
            [
              5.3858583,
              50.1929649
            ],
            [
              5.3868735,
              50.1931475
            ],
            [
              5.3873147,
              50.1936068
            ],
            [
              5.3871706,
              50.1938177
            ],
            [
              5.3864894,
              50.1940652
            ],
            [
              5.3859636,
              50.193796
            ],
            [
              5.3840598,
              50.193668
            ],
            [
              5.3832082,
              50.1939574
            ],
            [
              5.382897,
              50.1941745
            ],
            [
              5.3819382,
              50.1943437
            ],
            [
              5.3817629,
              50.1943312
            ],
            [
              5.3818706,
              50.1940428
            ],
            [
              5.381618,
              50.1937014
            ],
            [
              5.3814192,
              50.1935822
            ],
            [
              5.3803584,
              50.1937062
            ],
            [
              5.379066,
              50.1945146
            ],
            [
              5.3786728,
              50.1953732
            ],
            [
              5.3787464,
              50.1965759
            ],
            [
              5.3786278,
              50.1967698
            ],
            [
              5.378269,
              50.1968129
            ],
            [
              5.3765362,
              50.1965931
            ],
            [
              5.3758979,
              50.1964214
            ],
            [
              5.374999,
              50.1963464
            ],
            [
              5.3738934,
              50.1967194
            ],
            [
              5.3744289,
              50.197872
            ],
            [
              5.372301,
              50.1978345
            ],
            [
              5.3708659,
              50.1979126
            ],
            [
              5.3707721,
              50.1974302
            ],
            [
              5.3690646,
              50.1974282
            ],
            [
              5.3696228,
              50.1994838
            ],
            [
              5.3685932,
              50.1998369
            ],
            [
              5.3686318,
              50.1995669
            ],
            [
              5.366706,
              50.1986209
            ],
            [
              5.3656445,
              50.1986001
            ],
            [
              5.3646594,
              50.1981487
            ],
            [
              5.3647131,
              50.1979873
            ],
            [
              5.3628033,
              50.1968575
            ],
            [
              5.3626907,
              50.1968506
            ],
            [
              5.3624493,
              50.1971357
            ],
            [
              5.3621713,
              50.1971023
            ],
            [
              5.3621006,
              50.1968197
            ],
            [
              5.3617841,
              50.1966446
            ],
            [
              5.3612746,
              50.1958741
            ],
            [
              5.3615695,
              50.1956625
            ],
            [
              5.3615051,
              50.1955285
            ],
            [
              5.3612691,
              50.1954221
            ],
            [
              5.360384,
              50.1954427
            ],
            [
              5.3601265,
              50.1950889
            ],
            [
              5.359692,
              50.1951267
            ],
            [
              5.3593165,
              50.1947902
            ],
            [
              5.3584635,
              50.1943609
            ],
            [
              5.3579861,
              50.194512
            ],
            [
              5.3578091,
              50.1944674
            ],
            [
              5.3581363,
              50.194069
            ],
            [
              5.357455,
              50.1937256
            ],
            [
              5.356307,
              50.1935229
            ],
            [
              5.3561622,
              50.1932791
            ],
            [
              5.3555185,
              50.1931898
            ],
            [
              5.355202,
              50.1926644
            ],
            [
              5.3546494,
              50.1924858
            ],
            [
              5.353936,
              50.1921011
            ],
            [
              5.3535229,
              50.1920943
            ],
            [
              5.3531742,
              50.1918229
            ],
            [
              5.3532171,
              50.1915482
            ],
            [
              5.3516722,
              50.1910571
            ],
            [
              5.3509265,
              50.1911876
            ],
            [
              5.3506744,
              50.1910983
            ],
            [
              5.3509372,
              50.1908132
            ],
            [
              5.3498268,
              50.1903496
            ],
            [
              5.3485897,
              50.1902071
            ],
            [
              5.3479493,
              50.1899202
            ],
            [
              5.3459859,
              50.1899546
            ],
            [
              5.3443444,
              50.1896352
            ],
            [
              5.3440279,
              50.1892917
            ],
            [
              5.3439581,
              50.1888933
            ],
            [
              5.3435665,
              50.1889586
            ],
            [
              5.3431992,
              50.1888933
            ],
            [
              5.3431642,
              50.1887456
            ],
            [
              5.343529,
              50.1885189
            ],
            [
              5.3429818,
              50.1882321
            ],
            [
              5.3425956,
              50.1882373
            ],
            [
              5.3417507,
              50.1880415
            ],
            [
              5.3400717,
              50.1879849
            ],
            [
              5.3395455,
              50.1878551
            ],
            [
              5.3396371,
              50.1876006
            ],
            [
              5.3394439,
              50.1869955
            ],
            [
              5.3395265,
              50.1867981
            ],
            [
              5.3391623,
              50.1866024
            ],
            [
              5.3390068,
              50.1852387
            ],
            [
              5.338701,
              50.1839403
            ],
            [
              5.3376893,
              50.1827522
            ],
            [
              5.3378856,
              50.1822915
            ],
            [
              5.337553,
              50.1815908
            ],
            [
              5.3378749,
              50.1812885
            ],
            [
              5.3381416,
              50.1795105
            ],
            [
              5.3378534,
              50.1786021
            ],
            [
              5.3379871,
              50.1781615
            ],
            [
              5.3376281,
              50.1777845
            ],
            [
              5.3369737,
              50.1776745
            ],
            [
              5.3363621,
              50.1773928
            ],
            [
              5.3361454,
              50.1769329
            ],
            [
              5.3353643,
              50.1769531
            ],
            [
              5.3345597,
              50.1766508
            ],
            [
              5.3335994,
              50.1765065
            ],
            [
              5.3330544,
              50.1767044
            ],
            [
              5.3330845,
              50.17685
            ],
            [
              5.3338194,
              50.1771867
            ],
            [
              5.3341845,
              50.1772634
            ],
            [
              5.334152,
              50.1774581
            ],
            [
              5.3334117,
              50.1775234
            ],
            [
              5.3324622,
              50.1774684
            ],
            [
              5.3319633,
              50.1775783
            ],
            [
              5.3314376,
              50.1775028
            ],
            [
              5.3309365,
              50.1778473
            ],
            [
              5.3306544,
              50.1778188
            ],
            [
              5.3305632,
              50.1775577
            ],
            [
              5.3301139,
              50.177511
            ],
            [
              5.3292328,
              50.1775921
            ],
            [
              5.3289056,
              50.1776883
            ],
            [
              5.3283785,
              50.1781375
            ],
            [
              5.3275965,
              50.1784228
            ],
            [
              5.325584,
              50.1760219
            ],
            [
              5.3259766,
              50.1758194
            ],
            [
              5.3261225,
              50.175459
            ],
            [
              5.3251835,
              50.1740876
            ],
            [
              5.3218125,
              50.1727187
            ],
            [
              5.3206765,
              50.1716207
            ],
            [
              5.32058,
              50.1708342
            ],
            [
              5.3208059,
              50.1704743
            ],
            [
              5.3187431,
              50.1687904
            ],
            [
              5.3150357,
              50.1684358
            ],
            [
              5.3124364,
              50.1670417
            ],
            [
              5.3137028,
              50.1652367
            ],
            [
              5.3144628,
              50.1646174
            ],
            [
              5.3178924,
              50.1645305
            ],
            [
              5.3184141,
              50.1643157
            ],
            [
              5.3185918,
              50.1644195
            ],
            [
              5.3195373,
              50.1645043
            ],
            [
              5.3203528,
              50.1644131
            ],
            [
              5.3198759,
              50.1630821
            ],
            [
              5.318895,
              50.161382
            ],
            [
              5.3105685,
              50.160173
            ],
            [
              5.3036453,
              50.157408
            ],
            [
              5.3029244,
              50.158123
            ],
            [
              5.2979368,
              50.158843
            ],
            [
              5.2968478,
              50.1589186
            ],
            [
              5.2952278,
              50.1589341
            ],
            [
              5.2924262,
              50.1584743
            ],
            [
              5.2895978,
              50.157647
            ],
            [
              5.2885759,
              50.1575215
            ],
            [
              5.2872482,
              50.1575662
            ],
            [
              5.2855396,
              50.1579374
            ],
            [
              5.2833523,
              50.1579761
            ],
            [
              5.2815673,
              50.1583807
            ],
            [
              5.2811009,
              50.1587048
            ],
            [
              5.2784904,
              50.1584078
            ],
            [
              5.2741829,
              50.1560722
            ],
            [
              5.2777136,
              50.1554434
            ],
            [
              5.2793378,
              50.1564315
            ],
            [
              5.2811737,
              50.1561171
            ],
            [
              5.2827979,
              50.1548595
            ],
            [
              5.2829894,
              50.1537721
            ],
            [
              5.281364,
              50.1529139
            ],
            [
              5.2818358,
              50.1523799
            ],
            [
              5.2814107,
              50.1519549
            ],
            [
              5.2818552,
              50.1515655
            ],
            [
              5.2817209,
              50.1514149
            ],
            [
              5.2829388,
              50.1508996
            ],
            [
              5.2840037,
              50.1499386
            ],
            [
              5.2837069,
              50.1498037
            ],
            [
              5.2834693,
              50.1492862
            ],
            [
              5.2838177,
              50.1486216
            ],
            [
              5.2835807,
              50.1483332
            ],
            [
              5.2828755,
              50.1477539
            ],
            [
              5.2824902,
              50.1479103
            ],
            [
              5.2816231,
              50.1479934
            ],
            [
              5.2803482,
              50.1477353
            ],
            [
              5.2777355,
              50.1468761
            ],
            [
              5.2778595,
              50.1465892
            ],
            [
              5.2774089,
              50.1463558
            ],
            [
              5.2760739,
              50.1459633
            ],
            [
              5.2756632,
              50.1462371
            ],
            [
              5.2737889,
              50.145496
            ],
            [
              5.273495,
              50.1443342
            ],
            [
              5.2735338,
              50.1430237
            ],
            [
              5.2737011,
              50.1425907
            ],
            [
              5.2714995,
              50.1405762
            ],
            [
              5.2691158,
              50.1398809
            ],
            [
              5.2661892,
              50.1427482
            ],
            [
              5.2526094,
              50.1379194
            ],
            [
              5.2501767,
              50.1370073
            ],
            [
              5.2479847,
              50.1359499
            ],
            [
              5.2423093,
              50.1341946
            ]
          ]
        ]
      },
      "properties": {
        "type": "boundary",
        "gemeente": "Nassogne"
      }
    }
  ]
}