{
  "type": "FeatureCollection",
  "metadata": {
    "gemeente": "Ohey",
    "slug": "ohey",
    "generated_at": "2026-09-25T22:11:42.402919Z",
    "total_points": 19,
    "providers": [
      "bpost",
      "DHL",
      "GLS",
      "InPost",
      "VintedGo",
      "PostNL",
      "DPD",
      "Amazon"
    ],
    "bounds": [
      5.11998,
      50.42907,
      5.14762,
      50.444052
    ]
  },
  "features": [
    {
      "type": "Feature",
      "geometry": {
        "type": "Point",
        "coordinates": [
          5.11998,
          50.44228
        ]
      },
      "properties": {
        "type": "pakketpunt",
        "locatieNaam": "Bbox Ohey Bpost",
        "straatNaam": "Rue De Ciney",
        "straatNr": "177",
        "vervoerder": "bpost",
        "puntType": "automaat",
        "bezettingsgraad": 50,
        "latitude": 50.44228,
        "longitude": 5.11998,
        "canPickup": true,
        "canDropoff": true,
        "openingstijden": null
      }
    },
    {
      "type": "Feature",
      "geometry": {
        "type": "Point",
        "coordinates": [
          5.12023,
          50.4422
        ]
      },
      "properties": {
        "type": "pakketpunt",
        "locatieNaam": "Ohey",
        "straatNaam": "Rue De Ciney",
        "straatNr": "177",
        "vervoerder": "bpost",
        "puntType": "postkantoor",
        "bezettingsgraad": 50,
        "latitude": 50.4422,
        "longitude": 5.12023,
        "canPickup": true,
        "canDropoff": true,
        "openingstijden": null
      }
    },
    {
      "type": "Feature",
      "geometry": {
        "type": "Point",
        "coordinates": [
          5.1255,
          50.43311
        ]
      },
      "properties": {
        "type": "pakketpunt",
        "locatieNaam": "Bbox 24/7 Intermarché Ohey",
        "straatNaam": "Rue De Ciney",
        "straatNr": "44",
        "vervoerder": "bpost",
        "puntType": "automaat",
        "bezettingsgraad": 50,
        "latitude": 50.43311,
        "longitude": 5.1255,
        "canPickup": true,
        "canDropoff": true,
        "openingstijden": null
      }
    },
    {
      "type": "Feature",
      "geometry": {
        "type": "Point",
        "coordinates": [
          5.14762,
          50.44405
        ]
      },
      "properties": {
        "type": "pakketpunt",
        "locatieNaam": "Bbox Tennis Club Haillot",
        "straatNaam": "Rue De La Centrale",
        "straatNr": "DISTRIB",
        "vervoerder": "bpost",
        "puntType": "automaat",
        "bezettingsgraad": 50,
        "latitude": 50.44405,
        "longitude": 5.14762,
        "canPickup": true,
        "canDropoff": true,
        "openingstijden": null
      }
    },
    {
      "type": "Feature",
      "geometry": {
        "type": "Point",
        "coordinates": [
          5.1255,
          50.43311
        ]
      },
      "properties": {
        "type": "pakketpunt",
        "locatieNaam": "BBOX 24/7 INTERMARCHÉ OHEY",
        "straatNaam": "RUE DE CINEY",
        "straatNr": "44",
        "vervoerder": "DHL",
        "puntType": "packStation",
        "bezettingsgraad": 50,
        "latitude": 50.43311,
        "longitude": 5.1255,
        "canPickup": true,
        "canDropoff": true,
        "openingstijden": {
          "ma": "00:00 - 23:59",
          "di": "00:00 - 23:59",
          "wo": "00:00 - 23:59",
          "do": "00:00 - 23:59",
          "vr": "00:00 - 23:59",
          "za": "00:00 - 23:59",
          "zo": "00:00 - 23:59"
        }
      }
    },
    {
      "type": "Feature",
      "geometry": {
        "type": "Point",
        "coordinates": [
          5.11998,
          50.44228
        ]
      },
      "properties": {
        "type": "pakketpunt",
        "locatieNaam": "BBOX OHEY BPOST",
        "straatNaam": "RUE DE CINEY",
        "straatNr": "177",
        "vervoerder": "DHL",
        "puntType": "packStation",
        "bezettingsgraad": 50,
        "latitude": 50.44228,
        "longitude": 5.11998,
        "canPickup": true,
        "canDropoff": true,
        "openingstijden": {
          "ma": "06:00 - 23:00",
          "di": "06:00 - 23:00",
          "wo": "06:00 - 23:00",
          "do": "06:00 - 23:00",
          "vr": "06:00 - 23:00",
          "za": "06:00 - 23:00",
          "zo": "06:00 - 23:00"
        }
      }
    },
    {
      "type": "Feature",
      "geometry": {
        "type": "Point",
        "coordinates": [
          5.120231,
          50.4422
        ]
      },
      "properties": {
        "type": "pakketpunt",
        "locatieNaam": "OHEY",
        "straatNaam": "RUE DE CINEY",
        "straatNr": "177",
        "vervoerder": "DHL",
        "puntType": "postOffice",
        "bezettingsgraad": 50,
        "latitude": 50.4422,
        "longitude": 5.120231,
        "canPickup": true,
        "canDropoff": true,
        "openingstijden": {
          "ma": "14:15 - 17:00",
          "di": "14:15 - 18:00",
          "wo": "14:15 - 17:00",
          "do": "14:15 - 18:00",
          "vr": "14:15 - 17:00",
          "za": "gesloten",
          "zo": "gesloten"
        }
      }
    },
    {
      "type": "Feature",
      "geometry": {
        "type": "Point",
        "coordinates": [
          5.147618,
          50.444052
        ]
      },
      "properties": {
        "type": "pakketpunt",
        "locatieNaam": "BBOX TENNIS CLUB HAILLOT",
        "straatNaam": "RUE DE LA CENTRALE",
        "straatNr": "DISTRIB",
        "vervoerder": "DHL",
        "puntType": "packStation",
        "bezettingsgraad": 50,
        "latitude": 50.444052,
        "longitude": 5.147618,
        "canPickup": true,
        "canDropoff": true,
        "openingstijden": {
          "ma": "00:00 - 23:59",
          "di": "00:00 - 23:59",
          "wo": "00:00 - 23:59",
          "do": "00:00 - 23:59",
          "vr": "00:00 - 23:59",
          "za": "00:00 - 23:59",
          "zo": "00:00 - 23:59"
        }
      }
    },
    {
      "type": "Feature",
      "geometry": {
        "type": "Point",
        "coordinates": [
          5.120023,
          50.4424271
        ]
      },
      "properties": {
        "type": "pakketpunt",
        "locatieNaam": "GLS Parcel Locker powered by bbox",
        "straatNaam": "Rue De Ciney",
        "straatNr": "177",
        "vervoerder": "GLS",
        "puntType": "locker",
        "bezettingsgraad": 50,
        "latitude": 50.4424271,
        "longitude": 5.120023,
        "canPickup": true,
        "canDropoff": true,
        "openingstijden": "vr: 06:00 - 12:30, 13:00 - 23:00; za: 06:00 - 12:30, 13:00 - 23:00"
      }
    },
    {
      "type": "Feature",
      "geometry": {
        "type": "Point",
        "coordinates": [
          5.1217,
          50.435
        ]
      },
      "properties": {
        "type": "pakketpunt",
        "locatieNaam": "SUN7 OHEY",
        "straatNaam": "RUE DE CINEY 121",
        "straatNr": "",
        "vervoerder": "InPost",
        "puntType": "servicepunt",
        "bezettingsgraad": 50,
        "latitude": 50.435,
        "longitude": 5.1217,
        "canPickup": true,
        "canDropoff": true,
        "openingstijden": null
      }
    },
    {
      "type": "Feature",
      "geometry": {
        "type": "Point",
        "coordinates": [
          5.12783,
          50.43084
        ]
      },
      "properties": {
        "type": "pakketpunt",
        "locatieNaam": "",
        "straatNaam": "Rue de Huy",
        "straatNr": "168",
        "vervoerder": "InPost",
        "puntType": "automaat",
        "bezettingsgraad": 50,
        "latitude": 50.43084,
        "longitude": 5.12783,
        "canPickup": true,
        "canDropoff": true,
        "openingstijden": "24/7"
      }
    },
    {
      "type": "Feature",
      "geometry": {
        "type": "Point",
        "coordinates": [
          5.125958,
          50.429165
        ]
      },
      "properties": {
        "type": "pakketpunt",
        "locatieNaam": "O’smoz",
        "straatNaam": "Rue de Ciney",
        "straatNr": "14",
        "vervoerder": "VintedGo",
        "puntType": "parcel_shop",
        "bezettingsgraad": 50,
        "latitude": 50.429165,
        "longitude": 5.125958,
        "canPickup": true,
        "canDropoff": true,
        "openingstijden": null
      }
    },
    {
      "type": "Feature",
      "geometry": {
        "type": "Point",
        "coordinates": [
          5.1226886,
          50.4374089
        ]
      },
      "properties": {
        "type": "pakketpunt",
        "locatieNaam": "Sun7 Ohey",
        "straatNaam": "Rue De Ciney",
        "straatNr": "121",
        "vervoerder": "VintedGo",
        "puntType": "parcel_shop",
        "bezettingsgraad": 50,
        "latitude": 50.4374089,
        "longitude": 5.1226886,
        "canPickup": true,
        "canDropoff": true,
        "openingstijden": null
      }
    },
    {
      "type": "Feature",
      "geometry": {
        "type": "Point",
        "coordinates": [
          5.12548546839813,
          50.4329333692844
        ]
      },
      "properties": {
        "type": "pakketpunt",
        "locatieNaam": "O’smoz LCJ Sport",
        "straatNaam": "De Ciney",
        "straatNr": "14",
        "vervoerder": "PostNL",
        "puntType": "servicepunt",
        "bezettingsgraad": 50,
        "latitude": 50.4329333692844,
        "longitude": 5.12548546839813,
        "canPickup": true,
        "canDropoff": true,
        "openingstijden": "09:00 - 22:00"
      }
    },
    {
      "type": "Feature",
      "geometry": {
        "type": "Point",
        "coordinates": [
          5.12585,
          50.42907
        ]
      },
      "properties": {
        "type": "pakketpunt",
        "locatieNaam": "O'smoz",
        "straatNaam": "RUE DE CINEY",
        "straatNr": "14",
        "vervoerder": "DPD",
        "puntType": "pickup_point",
        "bezettingsgraad": 50,
        "latitude": 50.42907,
        "longitude": 5.12585,
        "canPickup": true,
        "canDropoff": false,
        "openingstijden": {
          "ma": "09:00 - 22:00",
          "di": "09:00 - 22:00",
          "wo": "09:00 - 22:00",
          "do": "09:00 - 22:00",
          "vr": "09:00 - 22:00",
          "za": "09:00 - 13:30",
          "zo": "09:00 - 13:30"
        }
      }
    },
    {
      "type": "Feature",
      "geometry": {
        "type": "Point",
        "coordinates": [
          5.11998,
          50.44228
        ]
      },
      "properties": {
        "type": "pakketpunt",
        "locatieNaam": "bpost - BBOX OHEY BPOST",
        "straatNaam": "RUE DE CINEY,177",
        "straatNr": "",
        "vervoerder": "Amazon",
        "puntType": "3p",
        "bezettingsgraad": 50,
        "latitude": 50.44228,
        "longitude": 5.11998,
        "canPickup": true,
        "canDropoff": false,
        "openingstijden": null
      }
    },
    {
      "type": "Feature",
      "geometry": {
        "type": "Point",
        "coordinates": [
          5.1202312,
          50.4421997
        ]
      },
      "properties": {
        "type": "pakketpunt",
        "locatieNaam": "bpost - OHEY",
        "straatNaam": "RUE DE CINEY,177",
        "straatNr": "",
        "vervoerder": "Amazon",
        "puntType": "3p",
        "bezettingsgraad": 50,
        "latitude": 50.4421997,
        "longitude": 5.1202312,
        "canPickup": true,
        "canDropoff": false,
        "openingstijden": null
      }
    },
    {
      "type": "Feature",
      "geometry": {
        "type": "Point",
        "coordinates": [
          5.147618,
          50.444052
        ]
      },
      "properties": {
        "type": "pakketpunt",
        "locatieNaam": "bpost - BBOX TENNIS CLUB HAILLOT",
        "straatNaam": "RUE DE LA CENTRALE,DISTRIB",
        "straatNr": "",
        "vervoerder": "Amazon",
        "puntType": "3p",
        "bezettingsgraad": 50,
        "latitude": 50.444052,
        "longitude": 5.147618,
        "canPickup": true,
        "canDropoff": false,
        "openingstijden": null
      }
    },
    {
      "type": "Feature",
      "geometry": {
        "type": "Point",
        "coordinates": [
          5.1255,
          50.43311
        ]
      },
      "properties": {
        "type": "pakketpunt",
        "locatieNaam": "bpost - BBOX 24/7 INTERMARCHÉ OHEY",
        "straatNaam": "RUE DE CINEY,44",
        "straatNr": "",
        "vervoerder": "Amazon",
        "puntType": "3p",
        "bezettingsgraad": 50,
        "latitude": 50.43311,
        "longitude": 5.1255,
        "canPickup": true,
        "canDropoff": false,
        "openingstijden": null
      }
    },
    {
      "type": "Feature",
      "geometry": {
        "type": "MultiPolygon",
        "coordinates": [
          [
            [
              [
                5.122469056417895,
                50.43104596441428
              ],
              [
                5.122193947690024,
                50.43124389754095
              ],
              [
                5.121950534729235,
                50.43145810106807
              ],
              [
                5.121741161945429,
                50.43168651230293
              ],
              [
                5.121567846044681,
                50.43192693170791
              ],
              [
                5.121432256594519,
                50.43217704407599
              ],
              [
                5.121381073230693,
                50.432313486917685
              ],
              [
                5.121242981212033,
                50.43231872805568
              ],
              [
                5.12083372386808,
                50.43236024917541
              ],
              [
                5.120432807848301,
                50.43242719116262
              ],
              [
                5.120044093602017,
                50.43251890943453
              ],
              [
                5.119671324144854,
                50.43263452083374
              ],
              [
                5.119318089031269,
                50.432772912128186
              ],
              [
                5.118987789801266,
                50.43293275072561
              ],
              [
                5.118683607233525,
                50.433112497499856
              ],
              [
                5.118408470719816,
                50.43331042160547
              ],
              [
                5.118165030055373,
                50.43352461713855
              ],
              [
                5.11795562991685,
                50.43375302148333
              ],
              [
                5.117782287273732,
                50.43399343516856
              ],
              [
                5.117646671951077,
                50.434243543042335
              ],
              [
                5.117550090531258,
                50.43450093656203
              ],
              [
                5.117493473750392,
                50.43476313698474
              ],
              [
                5.117477367511628,
                50.43502761923527
              ],
              [
                5.117501927602725,
                50.43529183622162
              ],
              [
                5.117566918169751,
                50.43555324336438
              ],
              [
                5.117671713962624,
                50.43580932310322
              ],
              [
                5.11781530633183,
                50.43605760914516
              ],
              [
                5.117996312919553,
                50.436295710220115
              ],
              [
                5.118212990952722,
                50.43652133311569
              ],
              [
                5.118463254010758,
                50.436732304768476
              ],
              [
                5.118575914319334,
                50.43681007914171
              ],
              [
                5.118538469324148,
                50.43690987203161
              ],
              [
                5.118481855132108,
                50.43717207283913
              ],
              [
                5.1184657535876115,
                50.43743655512913
              ],
              [
                5.118490320433281,
                50.43770077180927
              ],
              [
                5.1185553197502,
                50.43796217830305
              ],
              [
                5.11866012620408,
                50.438218257056455
              ],
              [
                5.11880373104279,
                50.43846654178589
              ],
              [
                5.118984751788459,
                50.43870464123397
              ],
              [
                5.119201445531703,
                50.43893026220394
              ],
              [
                5.1194517257006575,
                50.439141231650936
              ],
              [
                5.119733182144003,
                50.43933551761693
              ],
              [
                5.120038104050876,
                50.439508413577755
              ],
              [
                5.119774194874229,
                50.43951842524076
              ],
              [
                5.11936487410698,
                50.43955994114379
              ],
              [
                5.118963895142834,
                50.43962687799145
              ],
              [
                5.118575119037109,
                50.439718591250525
              ],
              [
                5.118574891014313,
                50.43971866195609
              ],
              [
                5.118573919089419,
                50.43971889123353
              ],
              [
                5.118201089448027,
                50.43983449779102
              ],
              [
                5.11817071176466,
                50.43984639695766
              ],
              [
                5.117951098496412,
                50.43991449345784
              ],
              [
                5.117597804132478,
                50.44005287937098
              ],
              [
                5.1172674483949265,
                50.44021271290241
              ],
              [
                5.116963212606549,
                50.44039245497474
              ],
              [
                5.116688026671613,
                50.44059037478784
              ],
              [
                5.116444540861298,
                50.44080456647916
              ],
              [
                5.1162351002870725,
                50.44103296746993
              ],
              [
                5.116061722307915,
                50.441273378321235
              ],
              [
                5.1159260770892985,
                50.44152348390845
              ],
              [
                5.115829471501654,
                50.44178087571102
              ],
              [
                5.115772836514022,
                50.44204307500255
              ],
              [
                5.115756718205081,
                50.44230755671878
              ],
              [
                5.115781272479041,
                50.442571773772855
              ],
              [
                5.115846263538201,
                50.4428331815847
              ],
              [
                5.115862607551153,
                50.44287311772596
              ],
              [
                5.115889251215634,
                50.44298028310061
              ],
              [
                5.115994054362681,
                50.44323636405892
              ],
              [
                5.116137660438863,
                50.44348465188893
              ],
              [
                5.116318686954535,
                50.44372275530335
              ],
              [
                5.116535390944868,
                50.44394838106724
              ],
              [
                5.1167856857394245,
                50.44415935608955
              ],
              [
                5.117067161046116,
                50.444353648358586
              ],
              [
                5.117377106156579,
                50.444529386519264
              ],
              [
                5.117712536049737,
                50.4446848779036
              ],
              [
                5.11807022014228,
                50.444818624840146
              ],
              [
                5.118446713409004,
                50.4449293390854
              ],
              [
                5.118838389573053,
                50.44501595423724
              ],
              [
                5.1192414760458895,
                50.445077636011526
              ],
              [
                5.119652090279856,
                50.44511379028159
              ],
              [
                5.120066277182489,
                50.445124068803885
              ],
              [
                5.120480047231302,
                50.44510837257395
              ],
              [
                5.120889414921061,
                50.4450668527805
              ],
              [
                5.121290437172275,
                50.44499990934844
              ],
              [
                5.121679251329977,
                50.44490818708483
              ],
              [
                5.1220521123859495,
                50.444792569464944
              ],
              [
                5.122405429065,
                50.4446541701186
              ],
              [
                5.122735798427024,
                50.44449432209876
              ],
              [
                5.123040038650989,
                50.44431456503618
              ],
              [
                5.123315219684659,
                50.444116630303945
              ],
              [
                5.123558691464623,
                50.44390242433518
              ],
              [
                5.12376810943475,
                50.4436740102548
              ],
              [
                5.123768954115522,
                50.443672838742664
              ],
              [
                5.123976096966935,
                50.44344690359942
              ],
              [
                5.124149442764777,
                50.443206481028795
              ],
              [
                5.124149492263479,
                50.44320638973309
              ],
              [
                5.1241496427442295,
                50.443206181022106
              ],
              [
                5.124285249399024,
                50.442956065907744
              ],
              [
                5.124381811479663,
                50.44269866712813
              ],
              [
                5.1244383996450775,
                50.44243646367163
              ],
              [
                5.124454469573174,
                50.44217198075902
              ],
              [
                5.124429867177858,
                50.441907765521954
              ],
              [
                5.124364830066992,
                50.441646362472156
              ],
              [
                5.124259985228221,
                50.4413902889973
              ],
              [
                5.1241163429659675,
                50.44114201111971
              ],
              [
                5.123935287148926,
                50.44090391975132
              ],
              [
                5.1237185618628605,
                50.440678307673274
              ],
              [
                5.123468254597989,
                50.4404673474616
              ],
              [
                5.1231867761335215,
                50.44027307057155
              ],
              [
                5.122881837829414,
                50.44010018288898
              ],
              [
                5.12314574958744,
                50.44009016417295
              ],
              [
                5.123555071620781,
                50.44004863496267
              ],
              [
                5.123956047669594,
                50.43998168228551
              ],
              [
                5.124344815524015,
                50.43988995103754
              ],
              [
                5.124717630621895,
                50.439774324780636
              ],
              [
                5.125070902130767,
                50.439635917227726
              ],
              [
                5.125401227545652,
                50.43947606151085
              ],
              [
                5.125705425468835,
                50.4392962973349
              ],
              [
                5.125980566255524,
                50.439098356141436
              ],
              [
                5.126224000229933,
                50.438884144425764
              ],
              [
                5.126433383200027,
                50.4386557253682
              ],
              [
                5.126606699025274,
                50.43841529895655
              ],
              [
                5.126742279020436,
                50.4381651807919
              ],
              [
                5.12683881800896,
                50.437907779781746
              ],
              [
                5.126895386872064,
                50.437645574935985
              ],
              [
                5.126911441473429,
                50.4373810914887
              ],
              [
                5.126886827874429,
                50.43711687657674
              ],
              [
                5.126821783790685,
                50.43685547470864
              ],
              [
                5.12671693627685,
                50.43659940326067
              ],
              [
                5.1265732956629675,
                50.43635112823568
              ],
              [
                5.126392245801723,
                50.436113040518094
              ],
              [
                5.126175530721402,
                50.43588743285389
              ],
              [
                5.126050224040654,
                50.43578182057349
              ],
              [
                5.126366549566211,
                50.435749715745274
              ],
              [
                5.126767485297138,
                50.435682753328024
              ],
              [
                5.127156212471443,
                50.43559101261901
              ],
              [
                5.127528986918877,
                50.43547537727113
              ],
              [
                5.127882218198575,
                50.43533696108498
              ],
              [
                5.128212504193087,
                50.435177097275684
              ],
              [
                5.1285166638844215,
                50.43499732562606
              ],
              [
                5.12879176799604,
                50.434799377649654
              ],
              [
                5.129035167205396,
                50.434585159907115
              ],
              [
                5.129244517655268,
                50.434356735636754
              ],
              [
                5.129417803518299,
                50.43411630487656
              ],
              [
                5.1295533563977616,
                50.4338661832695
              ],
              [
                5.129649871378178,
                50.433608779756234
              ],
              [
                5.12970641957189,
                50.4333465733707
              ],
              [
                5.129712222375392,
                50.433250876026804
              ],
              [
                5.129859006010551,
                50.43320533742041
              ],
              [
                5.130212213582417,
                50.43306691410699
              ],
              [
                5.130542475913782,
                50.43290704362297
              ],
              [
                5.130846612214605,
                50.43272726581541
              ],
              [
                5.131121693433653,
                50.43252931225718
              ],
              [
                5.1313650704688865,
                50.432315089562685
              ],
              [
                5.131574399676653,
                50.4320866610179
              ],
              [
                5.131747665434172,
                50.43184622670197
              ],
              [
                5.131883199538334,
                50.43159610229212
              ],
              [
                5.131979697254452,
                50.43133869675597
              ],
              [
                5.132036229861096,
                50.43107648914692
              ],
              [
                5.132052253570957,
                50.43081200472567
              ],
              [
                5.132027614742737,
                50.4305477906384
              ],
              [
                5.1319625513348255,
                50.4302863913857
              ],
              [
                5.131857690587774,
                50.43003032431861
              ],
              [
                5.131714042958856,
                50.42978205539774
              ],
              [
                5.131532992368115,
                50.42954397544876
              ],
              [
                5.13131628285067,
                50.4293183771428
              ],
              [
                5.131066001744613,
                50.429107432923246
              ],
              [
                5.1307845595770045,
                50.42891317409138
              ],
              [
                5.130474666842147,
                50.428737471251644
              ],
              [
                5.130139307896039,
                50.42858201630505
              ],
              [
                5.13006735683303,
                50.428555112922076
              ],
              [
                5.12998558030944,
                50.42835538897811
              ],
              [
                5.129841947552392,
                50.428107117681165
              ],
              [
                5.12966091275204,
                50.42786903475635
              ],
              [
                5.12944421979143,
                50.427643432903395
              ],
              [
                5.129356196731157,
                50.4275692382513
              ],
              [
                5.12933621627361,
                50.427548436120816
              ],
              [
                5.129085953312955,
                50.42733748758182
              ],
              [
                5.128804529756888,
                50.427143223904196
              ],
              [
                5.1284946559205,
                50.42696751573906
              ],
              [
                5.128159315977832,
                50.42681205503872
              ],
              [
                5.127801739225721,
                50.42667833877039
              ],
              [
                5.127425368991992,
                50.42656765450742
              ],
              [
                5.1270338294870825,
                50.426481068036544
              ],
              [
                5.12663089091783,
                50.42641941309991
              ],
              [
                5.12622043319881,
                50.42638328337092
              ],
              [
                5.1258064086098285,
                50.42637302674046
              ],
              [
                5.125392803758388,
                50.42638874196886
              ],
              [
                5.124983601212428,
                50.42643027773537
              ],
              [
                5.124582741171876,
                50.42649723409445
              ],
              [
                5.124194083547128,
                50.42658896632495
              ],
              [
                5.123821370808693,
                50.42670459113508
              ],
              [
                5.123468191964956,
                50.426842995163604
              ],
              [
                5.123137948014158,
                50.42700284569565
              ],
              [
                5.12283381920273,
                50.42718260349008
              ],
              [
                5.1225587344048265,
                50.42738053759535
              ],
              [
                5.122315342917686,
                50.427594742011216
              ],
              [
                5.1221059889443765,
                50.42782315403638
              ],
              [
                5.121932689009773,
                50.428063574125574
              ],
              [
                5.121797112527571,
                50.42831368706523
              ],
              [
                5.1217005657060035,
                50.42857108426387
              ],
              [
                5.121643978947873,
                50.42883328694319
              ],
              [
                5.121627897867046,
                50.42909777000618
              ],
              [
                5.121652478008837,
                50.42936198635303
              ],
              [
                5.121717483326036,
                50.42962339141041
              ],
              [
                5.121822288426326,
                50.42987946763814
              ],
              [
                5.121965884570373,
                50.43012774877697
              ],
              [
                5.122146889363825,
                50.430365843604044
              ],
              [
                5.122363560050729,
                50.430591458967136
              ],
              [
                5.122451577780686,
                50.43066565888042
              ],
              [
                5.122471556531759,
                50.43068646218447
              ],
              [
                5.122721223868527,
                50.43089693265103
              ],
              [
                5.122469056417895,
                50.43104596441428
              ]
            ]
          ],
          [
            [
              [
                5.151504683324031,
                50.44299139632547
              ],
              [
                5.151323482932789,
                50.44275334769032
              ],
              [
                5.151106618893054,
                50.442527786743234
              ],
              [
                5.150856180030897,
                50.44231688556775
              ],
              [
                5.1505745783924155,
                50.44212267505053
              ],
              [
                5.150264526007368,
                50.44194702533075
              ],
              [
                5.14992900876887,
                50.441791627797805
              ],
              [
                5.149571257680705,
                50.44165797881061
              ],
              [
                5.1491947177490935,
                50.4415473652946
              ],
              [
                5.148803014818173,
                50.441460852355235
              ],
              [
                5.148399920668084,
                50.441399273026605
              ],
              [
                5.147989316711167,
                50.44136322025408
              ],
              [
                5.147575156635059,
                50.44135304118752
              ],
              [
                5.1471614283516205,
                50.4413688338404
              ],
              [
                5.146752115617132,
                50.441410446146435
              ],
              [
                5.1463511596924105,
                50.44147747742312
              ],
              [
                5.145962421411091,
                50.44156928222793
              ],
              [
                5.145589644020383,
                50.44168497657025
              ],
              [
                5.145236417151356,
                50.4418234464193
              ],
              [
                5.144906142264922,
                50.44198335842636
              ],
              [
                5.144601999905704,
                50.44216317275839
              ],
              [
                5.1443269190786935,
                50.442361157919336
              ],
              [
                5.144083549043333,
                50.442575407417266
              ],
              [
                5.144082415931046,
                50.44257664412484
              ],
              [
                5.144081548956367,
                50.44257740735689
              ],
              [
                5.143872233691178,
                50.44280585805266
              ],
              [
                5.1436989893681115,
                50.443046310032805
              ],
              [
                5.143563484865877,
                50.44329644777653
              ],
              [
                5.143467025700081,
                50.44355386245344
              ],
              [
                5.143410541429916,
                50.44381607511675
              ],
              [
                5.143394576682754,
                50.44408056057324
              ],
              [
                5.143419285884009,
                50.444344771699875
              ],
              [
                5.143484431743937,
                50.44460616397352
              ],
              [
                5.143589387517001,
                50.44486221997693
              ],
              [
                5.143733143012986,
                50.44511047364554
              ],
              [
                5.143914314302958,
                50.44534853402095
              ],
              [
                5.144131157027468,
                50.44557410828258
              ],
              [
                5.1443815831795625,
                50.44578502383534
              ],
              [
                5.1446631812016355,
                50.44597924924018
              ],
              [
                5.144973239203009,
                50.446154913785946
              ],
              [
                5.145308771074899,
                50.44631032551364
              ],
              [
                5.145666545251388,
                50.446443987519
              ],
              [
                5.146043115839258,
                50.446554612376495
              ],
              [
                5.146434855816589,
                50.446641134545004
              ],
              [
                5.14683799197994,
                50.44670272063596
              ],
              [
                5.147248641302839,
                50.44673877744435
              ],
              [
                5.147662848354714,
                50.446748957665356
              ],
              [
                5.1480766234189455,
                50.4467331632414
              ],
              [
                5.148485980942013,
                50.44669154630698
              ],
              [
                5.148886977942446,
                50.446624507722724
              ],
              [
                5.1492757520086645,
                50.446532693212156
              ],
              [
                5.149648558518847,
                50.44641698713909
              ],
              [
                5.1500018067234725,
                50.44627850398527
              ],
              [
                5.150332094342312,
                50.44611857761087
              ],
              [
                5.15063624034204,
                50.4459387484013
              ],
              [
                5.150911315578346,
                50.44574074842444
              ],
              [
                5.151154671007214,
                50.44552648474175
              ],
              [
                5.151155804005525,
                50.44552524796582
              ],
              [
                5.1511566709202254,
                50.44552448468137
              ],
              [
                5.151365963088078,
                50.44529602096987
              ],
              [
                5.1515391767486545,
                50.445055557651635
              ],
              [
                5.151674644201086,
                50.444805410683045
              ],
              [
                5.1517710613531005,
                50.444547989248996
              ],
              [
                5.151827500259642,
                50.44428577255584
              ],
              [
                5.151843418036249,
                50.44402128595168
              ],
              [
                5.15181866206222,
                50.443757076603575
              ],
              [
                5.151753471424457,
                50.4434956889664
              ],
              [
                5.15164847458905,
                50.4432396402792
              ],
              [
                5.151504683324031,
                50.44299139632547
              ]
            ]
          ]
        ]
      },
      "properties": {
        "type": "buffer_union_300m",
        "buffer_m": 300
      }
    },
    {
      "type": "Feature",
      "geometry": {
        "type": "MultiPolygon",
        "coordinates": [
          [
            [
              [
                5.120772272376158,
                50.43096632103619
              ],
              [
                5.120493103545005,
                50.43127086645687
              ],
              [
                5.12031433290818,
                50.431518843706485
              ],
              [
                5.120010441016187,
                50.43156958492387
              ],
              [
                5.119492163303208,
                50.431691873796794
              ],
              [
                5.1189951438297205,
                50.43184601972256
              ],
              [
                5.118524168419724,
                50.43203053849191
              ],
              [
                5.118083772277676,
                50.43224365342875
              ],
              [
                5.117678196332988,
                50.43248331248757
              ],
              [
                5.117311346410094,
                50.432747208001494
              ],
              [
                5.1169867556168285,
                50.433032798891865
              ],
              [
                5.116707550313205,
                50.43333733512556
              ],
              [
                5.11647641998852,
                50.43365788418538
              ],
              [
                5.116295591337462,
                50.43399135929898
              ],
              [
                5.116166806785724,
                50.43433454915501
              ],
              [
                5.116091307673124,
                50.43468414882077
              ],
              [
                5.1160698222575425,
                50.435036791563775
              ],
              [
                5.116102558656817,
                50.43538908127131
              ],
              [
                5.116189202798298,
                50.43573762515571
              ],
              [
                5.116328921397524,
                50.43607906643049
              ],
              [
                5.1165203699391775,
                50.436410116642534
              ],
              [
                5.1167617055850965,
                50.436727587348926
              ],
              [
                5.117050604886601,
                50.43702842083297
              ],
              [
                5.117086963764136,
                50.43705907216863
              ],
              [
                5.117079616181628,
                50.437093096624814
              ],
              [
                5.117058137023989,
                50.43744573942053
              ],
              [
                5.117090882428339,
                50.43779802871989
              ],
              [
                5.117177538235418,
                50.438146571739125
              ],
              [
                5.11731727104853,
                50.43848801170004
              ],
              [
                5.117508736215559,
                50.438819060162196
              ],
              [
                5.1176514171136995,
                50.439006737751846
              ],
              [
                5.117524830913136,
                50.43904598899563
              ],
              [
                5.1174944535651985,
                50.43905788798702
              ],
              [
                5.117274842977608,
                50.43912598321811
              ],
              [
                5.116803788569035,
                50.43931049481228
              ],
              [
                5.116363317084925,
                50.43952360299435
              ],
              [
                5.115957670180123,
                50.439763255783795
              ],
              [
                5.115590754362361,
                50.4400271455742
              ],
              [
                5.115266103374066,
                50.44031273134203
              ],
              [
                5.114986844155022,
                50.44061726310349
              ],
              [
                5.114755666713897,
                50.440937808384525
              ],
              [
                5.114574798199333,
                50.44127128044916
              ],
              [
                5.114445981421185,
                50.441614468015466
              ],
              [
                5.114370458029934,
                50.4419640661728
              ],
              [
                5.1143489565176194,
                50.442316708203236
              ],
              [
                5.114381685157464,
                50.44266899800095
              ],
              [
                5.114468329951918,
                50.44301754277739
              ],
              [
                5.1144846728678495,
                50.44305747911118
              ],
              [
                5.114511313521637,
                50.4431646447985
              ],
              [
                5.11465104192334,
                50.443506087699184
              ],
              [
                5.11484250873816,
                50.443837140295294
              ],
              [
                5.11508387095228,
                50.444154614121004
              ],
              [
                5.11537280486143,
                50.44445545142957
              ],
              [
                5.115706528420756,
                50.444736754652574
              ],
              [
                5.1160818280164255,
                50.444995814318375
              ],
              [
                5.116495089401921,
                50.44523013515977
              ],
              [
                5.116942332501598,
                50.445437460159525
              ],
              [
                5.117419249746465,
                50.44561579230118
              ],
              [
                5.1179212475727764,
                50.44576341381547
              ],
              [
                5.118443490683228,
                50.44587890273609
              ],
              [
                5.118980948643648,
                50.44596114660532
              ],
              [
                5.119528444365234,
                50.44600935319646
              ],
              [
                5.120080704004078,
                50.4460230581503
              ],
              [
                5.1206324077957746,
                50.44600212945098
              ],
              [
                5.121178241333879,
                50.44594676869856
              ],
              [
                5.121712946796562,
                50.445857509165734
              ],
              [
                5.122231373626384,
                50.44573521065767
              ],
              [
                5.122728528173397,
                50.44558105122428
              ],
              [
                5.123199621821933,
                50.44539651580549
              ],
              [
                5.123640117136248,
                50.44518338191895
              ],
              [
                5.1240457715795085,
                50.44494370252837
              ],
              [
                5.124412678384262,
                50.44467978625831
              ],
              [
                5.124737304180337,
                50.444394175146186
              ],
              [
                5.1250165230176155,
                50.44408962014642
              ],
              [
                5.125017367674945,
                50.44408844862529
              ],
              [
                5.1252245063932715,
                50.44386251127264
              ],
              [
                5.12545562731878,
                50.443541945324924
              ],
              [
                5.125455676815317,
                50.44354185402868
              ],
              [
                5.1254558272913835,
                50.44354164531601
              ],
              [
                5.125636627939015,
                50.44320815644584
              ],
              [
                5.125765368050115,
                50.44286495657003
              ],
              [
                5.125840808861837,
                50.44251535106415
              ],
              [
                5.125862224998608,
                50.442162706923696
              ],
              [
                5.125829411413289,
                50.44181042033411
              ],
              [
                5.12574268531569,
                50.44146188396255
              ],
              [
                5.1256028830716724,
                50.44112045428638
              ],
              [
                5.12541135210445,
                50.44078941927299
              ],
              [
                5.12526859076328,
                50.4406016929178
              ],
              [
                5.125394019147198,
                50.440562791646876
              ],
              [
                5.125865052567156,
                50.44037824528602
              ],
              [
                5.126305489283964,
                50.44016510113681
              ],
              [
                5.126711087325262,
                50.43992541226182
              ],
              [
                5.127077940466887,
                50.43966148737689
              ],
              [
                5.12740251585553,
                50.439375868602426
              ],
              [
                5.127681688026526,
                50.43907130696664
              ],
              [
                5.127912768989424,
                50.438750735897756
              ],
              [
                5.1280935340921125,
                50.43841724296077
              ],
              [
                5.128222243415298,
                50.438074040111175
              ],
              [
                5.128297658492456,
                50.43772443275317
              ],
              [
                5.1283190541956385,
                50.437371787900055
              ],
              [
                5.128286225674256,
                50.43701950174414
              ],
              [
                5.128199490281712,
                50.43667096694836
              ],
              [
                5.128059684473124,
                50.436329539974864
              ],
              [
                5.1280496175016825,
                50.43631214071856
              ],
              [
                5.1282053608705285,
                50.43626382830214
              ],
              [
                5.1286763406500215,
                50.43607927043024
              ],
              [
                5.129116724805057,
                50.435866115491145
              ],
              [
                5.129522271869619,
                50.435626416651324
              ],
              [
                5.12988907611059,
                50.435362482722645
              ],
              [
                5.130213605145662,
                50.43507685591248
              ],
              [
                5.130492733956601,
                50.4347722873265
              ],
              [
                5.130723774970509,
                50.43445171045981
              ],
              [
                5.1309045039199335,
                50.43411821293321
              ],
              [
                5.131023467983492,
                50.43380091395933
              ],
              [
                5.131446687094871,
                50.43359604395446
              ],
              [
                5.131852202971351,
                50.4333563369041
              ],
              [
                5.132218976688364,
                50.43309239553305
              ],
              [
                5.132543476157626,
                50.43280676212041
              ],
              [
                5.132822576645674,
                50.432502187835325
              ],
              [
                5.133053590852386,
                50.43218160622785
              ],
              [
                5.133234294768457,
                50.431848104964374
              ],
              [
                5.133362949063695,
                50.431504896080575
              ],
              [
                5.133438315801303,
                50.43115528503867
              ],
              [
                5.133459670318594,
                50.43080263888741
              ],
              [
                5.133426808161301,
                50.430450353831525
              ],
              [
                5.133340047006404,
                50.43010182252331
              ],
              [
                5.133200223556763,
                50.42976040139132
              ],
              [
                5.133008685439189,
                50.42942937832059
              ],
              [
                5.132767278185692,
                50.42911194099579
              ],
              [
                5.132478327424845,
                50.42881114621155
              ],
              [
                5.1321446164561,
                50.42852989044547
              ],
              [
                5.131769359424132,
                50.428270881976474
              ],
              [
                5.131356170352361,
                50.42803661481684
              ],
              [
                5.131279142723192,
                50.428000909354914
              ],
              [
                5.131136558235153,
                50.42775446136568
              ],
              [
                5.130895172035548,
                50.427437020072944
              ],
              [
                5.130606243350345,
                50.42713622055931
              ],
              [
                5.130518219413686,
                50.42706202678151
              ],
              [
                5.130498238660175,
                50.4270412248492
              ],
              [
                5.130164551884975,
                50.42675996332377
              ],
              [
                5.129789319667897,
                50.426500948393716
              ],
              [
                5.129376155793441,
                50.42626667413352
              ],
              [
                5.1289290391126015,
                50.42605939635302
              ],
              [
                5.128452275229865,
                50.4258811108873
              ],
              [
                5.127950455052232,
                50.42573353438978
              ],
              [
                5.127428410598954,
                50.42561808781254
              ],
              [
                5.1268911684966385,
                50.42553588273302
              ],
              [
                5.126343901606471,
                50.42548771065801
              ],
              [
                5.125791879247996,
                50.42547403540759
              ],
              [
                5.125240416497249,
                50.425494988652304
              ],
              [
                5.124694823045813,
                50.42555036864625
              ],
              [
                5.124160352111537,
                50.42563964216825
              ],
              [
                5.123642149891194,
                50.42576194965243
              ],
              [
                5.123145206040138,
                50.4259161134593
              ],
              [
                5.122674305654378,
                50.42610064920735
              ],
              [
                5.122233983216105,
                50.42631378005704
              ],
              [
                5.121828478945132,
                50.426553453809554
              ],
              [
                5.121461697975795,
                50.426817362656514
              ],
              [
                5.121137172751965,
                50.42710296539086
              ],
              [
                5.120858029002219,
                50.427407511865354
              ],
              [
                5.120626955623031,
                50.42772806946414
              ],
              [
                5.120446178760576,
                50.4280615513326
              ],
              [
                5.120317440341643,
                50.428404746094316
              ],
              [
                5.1202419812615565,
                50.428754348769246
              ],
              [
                5.120220529392409,
                50.42910699259591
              ],
              [
                5.120253292528679,
                50.429459281451116
              ],
              [
                5.120339956339906,
                50.42980782255539
              ],
              [
                5.120479687351875,
                50.4301492591489
              ],
              [
                5.120671140929396,
                50.43048030282367
              ],
              [
                5.1209124741854914,
                50.43079776519969
              ],
              [
                5.1209359902107305,
                50.43082225283435
              ],
              [
                5.120772272376158,
                50.43096632103619
              ]
            ]
          ],
          [
            [
              [
                5.15279953921827,
                50.4426384995551
              ],
              [
                5.152557932231555,
                50.442321103983396
              ],
              [
                5.152268775443321,
                50.442020359012055
              ],
              [
                5.151934854136908,
                50.44173916063882
              ],
              [
                5.151559384482217,
                50.4414802165898
              ],
              [
                5.151145982549758,
                50.44124602025683
              ],
              [
                5.150698629482363,
                50.44103882669921
              ],
              [
                5.150221633160139,
                50.44086063094102
              ],
              [
                5.1497195867276195,
                50.44071314877176
              ],
              [
                5.149197324381982,
                50.44059780023522
              ],
              [
                5.14865987484722,
                50.4405156959648
              ],
              [
                5.1481124129812095,
                50.44046762649662
              ],
              [
                5.147560209980296,
                50.440454054662816
              ],
              [
                5.147008582659386,
                50.44047511113819
              ],
              [
                5.146462842294288,
                50.44053059318291
              ],
              [
                5.145928243517212,
                50.440619966593175
              ],
              [
                5.145409933755805,
                50.44074237084142
              ],
              [
                5.144912903700982,
                50.44089662735641
              ],
              [
                5.144441939279027,
                50.44108125086398
              ],
              [
                5.144001575589118,
                50.44129446367954
              ],
              [
                5.143596053248821,
                50.441534212815
              ],
              [
                5.143229277567133,
                50.44179818973611
              ],
              [
                5.142904780937793,
                50.44208385258017
              ],
              [
                5.142903647806509,
                50.442085089276354
              ],
              [
                5.142902780821845,
                50.442085852499666
              ],
              [
                5.142623688674341,
                50.44239045053564
              ],
              [
                5.14239268943491,
                50.442711050656676
              ],
              [
                5.142212008536756,
                50.44304456559857
              ],
              [
                5.142083386983512,
                50.44338778366621
              ],
              [
                5.142008064546024,
                50.44373739965493
              ],
              [
                5.141986767781363,
                50.444090046674845
              ],
              [
                5.142019702991083,
                50.444442328571746
              ],
              [
                5.142106554188232,
                50.44479085263296
              ],
              [
                5.142246486094472,
                50.44513226226259
              ],
              [
                5.14243815214021,
                50.445463269312086
              ],
              [
                5.1426797073924035,
                50.44578068575401
              ],
              [
                5.142968826287065,
                50.44608145439403
              ],
              [
                5.143302724997072,
                50.446362678325
              ],
              [
                5.143678188220951,
                50.44662164883877
              ],
              [
                5.144091600135471,
                50.44685587152671
              ],
              [
                5.144538979214409,
                50.44706309031688
              ],
              [
                5.145016016578341,
                50.44724130921576
              ],
              [
                5.145518117505889,
                50.44738881154481
              ],
              [
                5.146040445706092,
                50.44750417648575
              ],
              [
                5.146577969924693,
                50.447586292775014
              ],
              [
                5.147125512434317,
                50.447634369414885
              ],
              [
                5.147677798940133,
                50.44764794329788
              ],
              [
                5.148229509418844,
                50.447626883670736
              ],
              [
                5.1487753293996255,
                50.44757139339468
              ],
              [
                5.149310001191417,
                50.44748200699008
              ],
              [
                5.149828374561412,
                50.44735958548418
              ],
              [
                5.150325456375032,
                50.447205308111656
              ],
              [
                5.150796458717722,
                50.447020660948446
              ],
              [
                5.1512368450338295,
                50.44680742258845
              ],
              [
                5.1516423738370705,
                50.446567647001636
              ],
              [
                5.152009139570862,
                50.446303643739
              ],
              [
                5.152333610224524,
                50.4460179556757
              ],
              [
                5.152334743203826,
                50.44601671888837
              ],
              [
                5.1523356101085325,
                50.4460159555952
              ],
              [
                5.152614661202311,
                50.44571133442178
              ],
              [
                5.152845605938404,
                50.44539071414547
              ],
              [
                5.153026220977471,
                50.445057182804916
              ],
              [
                5.15315476784618,
                50.444713952725344
              ],
              [
                5.153230009643201,
                50.44436432957293
              ],
              [
                5.153251222909911,
                50.444011680512844
              ],
              [
                5.153218204553082,
                50.44365940177766
              ],
              [
                5.153131273754574,
                50.44331088595858
              ],
              [
                5.152991268851444,
                50.44296948933479
              ],
              [
                5.15279953921827,
                50.4426384995551
              ]
            ]
          ]
        ]
      },
      "properties": {
        "type": "buffer_union_400m",
        "buffer_m": 400
      }
    },
    {
      "type": "Feature",
      "geometry": {
        "type": "Polygon",
        "coordinates": [
          [
            [
              5.080901,
              50.429052
            ],
            [
              5.0928822,
              50.4330787
            ],
            [
              5.0993769,
              50.4357103
            ],
            [
              5.104666,
              50.4377367
            ],
            [
              5.1062773,
              50.4384983
            ],
            [
              5.1019685,
              50.4413113
            ],
            [
              5.1021804,
              50.443602
            ],
            [
              5.1004856,
              50.4473749
            ],
            [
              5.1171799,
              50.4521985
            ],
            [
              5.1187045,
              50.4527232
            ],
            [
              5.1189161,
              50.4545165
            ],
            [
              5.1223591,
              50.4562723
            ],
            [
              5.1247438,
              50.4570806
            ],
            [
              5.1256933,
              50.4576989
            ],
            [
              5.126757,
              50.4581851
            ],
            [
              5.127127,
              50.4587603
            ],
            [
              5.1275802,
              50.4590684
            ],
            [
              5.1285163,
              50.4591989
            ],
            [
              5.1291523,
              50.458919
            ],
            [
              5.1317506,
              50.4595163
            ],
            [
              5.1339284,
              50.4605849
            ],
            [
              5.1347468,
              50.4607607
            ],
            [
              5.1361928,
              50.4608002
            ],
            [
              5.138483,
              50.4606515
            ],
            [
              5.1443934,
              50.4607741
            ],
            [
              5.1473767,
              50.462074
            ],
            [
              5.1500695,
              50.4635446
            ],
            [
              5.1507828,
              50.4629959
            ],
            [
              5.1530741,
              50.4642666
            ],
            [
              5.157472,
              50.4661048
            ],
            [
              5.16409,
              50.467667
            ],
            [
              5.1694285,
              50.4683946
            ],
            [
              5.1725214,
              50.4692839
            ],
            [
              5.1740043,
              50.4703888
            ],
            [
              5.1788344,
              50.474566
            ],
            [
              5.1789191,
              50.4755632
            ],
            [
              5.1800631,
              50.4759943
            ],
            [
              5.1899485,
              50.4760146
            ],
            [
              5.1920537,
              50.4781772
            ],
            [
              5.1968355,
              50.4789272
            ],
            [
              5.1989287,
              50.4788093
            ],
            [
              5.1987165,
              50.4779024
            ],
            [
              5.198853,
              50.4765296
            ],
            [
              5.2038576,
              50.4737165
            ],
            [
              5.2062897,
              50.4672358
            ],
            [
              5.209764,
              50.4613342
            ],
            [
              5.2095945,
              50.4600406
            ],
            [
              5.2133658,
              50.4558152
            ],
            [
              5.217009,
              50.4524139
            ],
            [
              5.2213731,
              50.4459733
            ],
            [
              5.2225594,
              50.4445988
            ],
            [
              5.2248049,
              50.4424698
            ],
            [
              5.2285758,
              50.4443293
            ],
            [
              5.2292537,
              50.4437634
            ],
            [
              5.2300587,
              50.4441407
            ],
            [
              5.2311803,
              50.4431371
            ],
            [
              5.2347194,
              50.4403682
            ],
            [
              5.2341685,
              50.439964
            ],
            [
              5.2367954,
              50.4382122
            ],
            [
              5.2362871,
              50.4379427
            ],
            [
              5.2362023,
              50.4365414
            ],
            [
              5.2347194,
              50.4354634
            ],
            [
              5.2350584,
              50.4350592
            ],
            [
              5.2343804,
              50.434601
            ],
            [
              5.2347194,
              50.4342507
            ],
            [
              5.2330834,
              50.4338582
            ],
            [
              5.2342823,
              50.4320659
            ],
            [
              5.2336807,
              50.4319106
            ],
            [
              5.2338297,
              50.431421
            ],
            [
              5.2328975,
              50.4310976
            ],
            [
              5.2371974,
              50.4270251
            ],
            [
              5.2369554,
              50.4269096
            ],
            [
              5.2364934,
              50.4262036
            ],
            [
              5.2350159,
              50.4246028
            ],
            [
              5.2316755,
              50.4229666
            ],
            [
              5.2309406,
              50.4227598
            ],
            [
              5.2195586,
              50.4164109
            ],
            [
              5.2182718,
              50.4154847
            ],
            [
              5.2153766,
              50.4123855
            ],
            [
              5.2114927,
              50.4105888
            ],
            [
              5.2100805,
              50.4109482
            ],
            [
              5.2082444,
              50.4118016
            ],
            [
              5.2054198,
              50.4139126
            ],
            [
              5.2001943,
              50.4122956
            ],
            [
              5.1995587,
              50.411532
            ],
            [
              5.1996294,
              50.411532
            ],
            [
              5.2013241,
              50.4091066
            ],
            [
              5.202454,
              50.4070854
            ],
            [
              5.205208,
              50.4047947
            ],
            [
              5.2011123,
              50.4025489
            ],
            [
              5.2027365,
              50.4000337
            ],
            [
              5.203372,
              50.3992251
            ],
            [
              5.2045725,
              50.3987311
            ],
            [
              5.2022421,
              50.3976531
            ],
            [
              5.2013241,
              50.3981921
            ],
            [
              5.2006886,
              50.3979675
            ],
            [
              5.2005474,
              50.3985065
            ],
            [
              5.1980758,
              50.3986862
            ],
            [
              5.1960986,
              50.3990006
            ],
            [
              5.1927811,
              50.4015876
            ],
            [
              5.1923256,
              50.4015521
            ],
            [
              5.1916637,
              50.4011948
            ],
            [
              5.1908731,
              50.400393
            ],
            [
              5.1908047,
              50.3999592
            ],
            [
              5.1888253,
              50.4009319
            ],
            [
              5.1880485,
              50.4004378
            ],
            [
              5.1860007,
              50.3996743
            ],
            [
              5.1844471,
              50.4012014
            ],
            [
              5.1869892,
              50.4022345
            ],
            [
              5.184094,
              50.4051092
            ],
            [
              5.1821874,
              50.4045701
            ],
            [
              5.1816226,
              50.4052888
            ],
            [
              5.1802809,
              50.4048845
            ],
            [
              5.1783036,
              50.4040761
            ],
            [
              5.1772443,
              50.4032226
            ],
            [
              5.1765733,
              50.4036138
            ],
            [
              5.1727957,
              50.4015158
            ],
            [
              5.1712064,
              50.4002648
            ],
            [
              5.1687332,
              50.4016153
            ],
            [
              5.1684057,
              50.4017023
            ],
            [
              5.1674245,
              50.401575
            ],
            [
              5.1667042,
              50.4019157
            ],
            [
              5.1658047,
              50.4016057
            ],
            [
              5.1646748,
              50.4018752
            ],
            [
              5.1635067,
              50.402425
            ],
            [
              5.1633332,
              50.4027425
            ],
            [
              5.1634744,
              50.4032676
            ],
            [
              5.1629095,
              50.4038964
            ],
            [
              5.1615678,
              50.4033574
            ],
            [
              5.1602262,
              50.4043006
            ],
            [
              5.1594493,
              50.40466
            ],
            [
              5.1599437,
              50.4051989
            ],
            [
              5.1595878,
              50.405504
            ],
            [
              5.1586124,
              50.4056545
            ],
            [
              5.1575291,
              50.4059463
            ],
            [
              5.1512862,
              50.4078867
            ],
            [
              5.1498409,
              50.4071779
            ],
            [
              5.1464562,
              50.406232
            ],
            [
              5.1436014,
              50.4047232
            ],
            [
              5.1428548,
              50.4054684
            ],
            [
              5.1438434,
              50.4059176
            ],
            [
              5.1436316,
              50.4063218
            ],
            [
              5.1439846,
              50.4066812
            ],
            [
              5.1451145,
              50.4072651
            ],
            [
              5.1446201,
              50.408388
            ],
            [
              5.1450438,
              50.4085676
            ],
            [
              5.1440591,
              50.410126
            ],
            [
              5.1437566,
              50.4104081
            ],
            [
              5.1413012,
              50.4096007
            ],
            [
              5.1364288,
              50.4084329
            ],
            [
              5.1360756,
              50.4084328
            ],
            [
              5.1322624,
              50.4116668
            ],
            [
              5.1299321,
              50.4130142
            ],
            [
              5.12739,
              50.4122058
            ],
            [
              5.1207351,
              50.4069179
            ],
            [
              5.1100186,
              50.4154397
            ],
            [
              5.1038632,
              50.4210198
            ],
            [
              5.1011212,
              50.4201558
            ],
            [
              5.0966724,
              50.4205601
            ],
            [
              5.0905289,
              50.4220424
            ],
            [
              5.076215,
              50.4273918
            ],
            [
              5.080901,
              50.429052
            ]
          ]
        ]
      },
      "properties": {
        "type": "boundary",
        "gemeente": "Ohey"
      }
    }
  ]
}