{
  "type": "FeatureCollection",
  "metadata": {
    "gemeente": "Oreye",
    "slug": "oreye",
    "generated_at": "2026-09-25T22:11:42.584625Z",
    "total_points": 11,
    "providers": [
      "bpost",
      "DHL",
      "GLS",
      "InPost",
      "VintedGo",
      "PostNL",
      "DPD",
      "Amazon"
    ],
    "bounds": [
      5.3454142,
      50.727939,
      5.3518,
      50.73094
    ]
  },
  "features": [
    {
      "type": "Feature",
      "geometry": {
        "type": "Point",
        "coordinates": [
          5.35152,
          50.72794
        ]
      },
      "properties": {
        "type": "pakketpunt",
        "locatieNaam": "Bbox 24/7 Librairie Lemme-Feron",
        "straatNaam": "Grand'Route",
        "straatNr": "82",
        "vervoerder": "bpost",
        "puntType": "automaat",
        "bezettingsgraad": 50,
        "latitude": 50.72794,
        "longitude": 5.35152,
        "canPickup": true,
        "canDropoff": true,
        "openingstijden": null
      }
    },
    {
      "type": "Feature",
      "geometry": {
        "type": "Point",
        "coordinates": [
          5.35065,
          50.72845
        ]
      },
      "properties": {
        "type": "pakketpunt",
        "locatieNaam": "Oreye",
        "straatNaam": "Grand'Route",
        "straatNr": "59",
        "vervoerder": "bpost",
        "puntType": "postkantoor",
        "bezettingsgraad": 50,
        "latitude": 50.72845,
        "longitude": 5.35065,
        "canPickup": true,
        "canDropoff": true,
        "openingstijden": null
      }
    },
    {
      "type": "Feature",
      "geometry": {
        "type": "Point",
        "coordinates": [
          5.350652,
          50.728453
        ]
      },
      "properties": {
        "type": "pakketpunt",
        "locatieNaam": "OREYE",
        "straatNaam": "GRAND'ROUTE",
        "straatNr": "59",
        "vervoerder": "DHL",
        "puntType": "postOffice",
        "bezettingsgraad": 50,
        "latitude": 50.728453,
        "longitude": 5.350652,
        "canPickup": true,
        "canDropoff": true,
        "openingstijden": {
          "ma": "09:30 - 12:00",
          "di": "09:30 - 12:30, 13:45 - 18:00",
          "wo": "09:30 - 12:00",
          "do": "09:30 - 12:30, 13:45 - 18:00",
          "vr": "09:30 - 12:00",
          "za": "gesloten",
          "zo": "gesloten"
        }
      }
    },
    {
      "type": "Feature",
      "geometry": {
        "type": "Point",
        "coordinates": [
          5.351519,
          50.727939
        ]
      },
      "properties": {
        "type": "pakketpunt",
        "locatieNaam": "BBOX 24/7 LIBRAIRIE LEMME-FERON",
        "straatNaam": "GRAND'ROUTE",
        "straatNr": "82",
        "vervoerder": "DHL",
        "puntType": "packStation",
        "bezettingsgraad": 50,
        "latitude": 50.727939,
        "longitude": 5.351519,
        "canPickup": true,
        "canDropoff": true,
        "openingstijden": {
          "ma": "00:00 - 23:59",
          "di": "00:00 - 23:59",
          "wo": "00:00 - 23:59",
          "do": "00:00 - 23:59",
          "vr": "00:00 - 23:59",
          "za": "00:00 - 23:59",
          "zo": "00:00 - 23:59"
        }
      }
    },
    {
      "type": "Feature",
      "geometry": {
        "type": "Point",
        "coordinates": [
          5.351773,
          50.7283022
        ]
      },
      "properties": {
        "type": "pakketpunt",
        "locatieNaam": "Librairie Lemme - Feron",
        "straatNaam": "Grand'Route",
        "straatNr": "82",
        "vervoerder": "GLS",
        "puntType": "parcel_shop",
        "bezettingsgraad": 50,
        "latitude": 50.7283022,
        "longitude": 5.351773,
        "canPickup": true,
        "canDropoff": true,
        "openingstijden": "vr: 07:30 - 18:00; za: 07:30 - 18:00"
      }
    },
    {
      "type": "Feature",
      "geometry": {
        "type": "Point",
        "coordinates": [
          5.34594,
          50.73094
        ]
      },
      "properties": {
        "type": "pakketpunt",
        "locatieNaam": "",
        "straatNaam": "Grand'Route",
        "straatNr": "118",
        "vervoerder": "InPost",
        "puntType": "automaat",
        "bezettingsgraad": 50,
        "latitude": 50.73094,
        "longitude": 5.34594,
        "canPickup": true,
        "canDropoff": true,
        "openingstijden": "MON|06:00-19:00|-;TUE|06:00-19:00|-;WED|06:00-19:00|-;THU|06:00-19:00|-;FRI|06:00-19:00|-;SAT|06:00-19:00|-;SUN|06:00-19:00|-;"
      }
    },
    {
      "type": "Feature",
      "geometry": {
        "type": "Point",
        "coordinates": [
          5.3454142,
          50.7306409
        ]
      },
      "properties": {
        "type": "pakketpunt",
        "locatieNaam": "Carrefour Market - Oreye",
        "straatNaam": "Grand'route",
        "straatNr": "118",
        "vervoerder": "VintedGo",
        "puntType": "locker",
        "bezettingsgraad": 50,
        "latitude": 50.7306409,
        "longitude": 5.3454142,
        "canPickup": true,
        "canDropoff": true,
        "openingstijden": null
      }
    },
    {
      "type": "Feature",
      "geometry": {
        "type": "Point",
        "coordinates": [
          5.3518,
          50.72818
        ]
      },
      "properties": {
        "type": "pakketpunt",
        "locatieNaam": "Librairie Lemme-Feron",
        "straatNaam": "Grand'Route",
        "straatNr": "82",
        "vervoerder": "PostNL",
        "puntType": "servicepunt",
        "bezettingsgraad": 50,
        "latitude": 50.72818,
        "longitude": 5.3518,
        "canPickup": true,
        "canDropoff": true,
        "openingstijden": "06:30 - 18:00, 07:00 - 18:00, 07:00 - 18:00"
      }
    },
    {
      "type": "Feature",
      "geometry": {
        "type": "Point",
        "coordinates": [
          5.35176,
          50.72813
        ]
      },
      "properties": {
        "type": "pakketpunt",
        "locatieNaam": "LIBRAIRIE LEMME",
        "straatNaam": "GRAND'ROUTE",
        "straatNr": "82",
        "vervoerder": "DPD",
        "puntType": "pickup_point",
        "bezettingsgraad": 50,
        "latitude": 50.72813,
        "longitude": 5.35176,
        "canPickup": true,
        "canDropoff": true,
        "openingstijden": {
          "ma": "07:30 - 18:00",
          "di": "07:30 - 18:00",
          "wo": "07:30 - 18:00",
          "do": "07:30 - 18:00",
          "vr": "07:30 - 18:00",
          "za": "07:30 - 18:00",
          "zo": "gesloten"
        }
      }
    },
    {
      "type": "Feature",
      "geometry": {
        "type": "Point",
        "coordinates": [
          5.351519,
          50.727939
        ]
      },
      "properties": {
        "type": "pakketpunt",
        "locatieNaam": "bpost - BBOX 24/7 LIBRAIRIE LEMME-FERON",
        "straatNaam": "GRAND'ROUTE,82",
        "straatNr": "",
        "vervoerder": "Amazon",
        "puntType": "3p",
        "bezettingsgraad": 50,
        "latitude": 50.727939,
        "longitude": 5.351519,
        "canPickup": true,
        "canDropoff": false,
        "openingstijden": null
      }
    },
    {
      "type": "Feature",
      "geometry": {
        "type": "Point",
        "coordinates": [
          5.350652,
          50.728453
        ]
      },
      "properties": {
        "type": "pakketpunt",
        "locatieNaam": "bpost - OREYE",
        "straatNaam": "GRAND'ROUTE,59",
        "straatNr": "",
        "vervoerder": "Amazon",
        "puntType": "3p",
        "bezettingsgraad": 50,
        "latitude": 50.728453,
        "longitude": 5.350652,
        "canPickup": true,
        "canDropoff": false,
        "openingstijden": null
      }
    },
    {
      "type": "Feature",
      "geometry": {
        "type": "Polygon",
        "coordinates": [
          [
            [
              5.354483025660939,
              50.72600660972881
            ],
            [
              5.354170347060205,
              50.72583151423562
            ],
            [
              5.35383213795216,
              50.72567671436356
            ],
            [
              5.353471655258637,
              50.72554370071568
            ],
            [
              5.353092370285417,
              50.72543375409901
            ],
            [
              5.3526979353046995,
              50.72534793319683
            ],
            [
              5.352292148398997,
              50.72528706437924
            ],
            [
              5.3518789169043535,
              50.72525173374984
            ],
            [
              5.351462219804139,
              50.725242281504926
            ],
            [
              5.35104606943469,
              50.72525879865941
            ],
            [
              5.3506344728706265,
              50.72530112617089
            ],
            [
              5.350231393360686,
              50.7253688564703
            ],
            [
              5.349840712184501,
              50.72546133738434
            ],
            [
              5.349466191296662,
              50.725577678412286
            ],
            [
              5.349111437116973,
              50.72571675929646
            ],
            [
              5.348779865814839,
              50.72587724080445
            ],
            [
              5.348474670421496,
              50.72605757761931
            ],
            [
              5.348229209928237,
              50.72623415069621
            ],
            [
              5.347910874132399,
              50.726388220711165
            ],
            [
              5.347605672105085,
              50.72656855523663
            ],
            [
              5.347329785119684,
              50.726767008757136
            ],
            [
              5.347085870204083,
              50.726981670270476
            ],
            [
              5.346876276608878,
              50.72721047267322
            ],
            [
              5.346703023174476,
              50.72745121266033
            ],
            [
              5.346567778875516,
              50.72770157193688
            ],
            [
              5.346471846730472,
              50.7279591395383
            ],
            [
              5.346456928107744,
              50.72802939842793
            ],
            [
              5.346187736240723,
              50.727989006464156
            ],
            [
              5.345774485632722,
              50.72795365429368
            ],
            [
              5.3453577658687275,
              50.72794418030983
            ],
            [
              5.344941589503273,
              50.727960675736824
            ],
            [
              5.344529963861242,
              50.7280029817415
            ],
            [
              5.344126852471296,
              50.72807069096181
            ],
            [
              5.343736136919969,
              50.728163151427516
            ],
            [
              5.343361579492766,
              50.728279472834735
            ],
            [
              5.343006786961249,
              50.72841853511475
            ],
            [
              5.342675175864037,
              50.72857899921433
            ],
            [
              5.342369939615484,
              50.728759319984135
            ],
            [
              5.34209401775834,
              50.72895776105134
            ],
            [
              5.341850067656244,
              50.72917241153368
            ],
            [
              5.341640438898582,
              50.729401204434005
            ],
            [
              5.341467150664343,
              50.729641936538776
            ],
            [
              5.341331872263276,
              50.72989228962901
            ],
            [
              5.341235907042267,
              50.73014985279975
            ],
            [
              5.341180179812572,
              50.73041214567332
            ],
            [
              5.341165227919796,
              50.73067664228301
            ],
            [
              5.341191196043532,
              50.73094079539727
            ],
            [
              5.341257834777694,
              50.731202061050475
            ],
            [
              5.341364503006269,
              50.73145792304358
            ],
            [
              5.341510174052576,
              50.73170591717924
            ],
            [
              5.341693445543782,
              50.73194365499737
            ],
            [
              5.341912552896582,
              50.73216884678278
            ],
            [
              5.3421653862948935,
              50.732379323622915
            ],
            [
              5.342449510996726,
              50.732573058303075
            ],
            [
              5.342762190775081,
              50.732748184837575
            ],
            [
              5.342857389500253,
              50.73279176501679
            ],
            [
              5.342975313737909,
              50.732872171486925
            ],
            [
              5.343287997455033,
              50.733047296603445
            ],
            [
              5.343626224821839,
              50.733202126683025
            ],
            [
              5.343986738307264,
              50.73333517042298
            ],
            [
              5.344366065629795,
              50.7334451463522
            ],
            [
              5.344760553210484,
              50.733530995179535
            ],
            [
              5.3451664013761935,
              50.73359189000174
            ],
            [
              5.345579700973351,
              50.7336272442719
            ],
            [
              5.345996471038834,
              50.733636717452036
            ],
            [
              5.346412697164272,
              50.733620218294874
            ],
            [
              5.346824370183306,
              50.7335779057231
            ],
            [
              5.347227524808248,
              50.733510187297874
            ],
            [
              5.347618277842997,
              50.733417715291225
            ],
            [
              5.34799286560329,
              50.7333013804001
            ],
            [
              5.348347680182966,
              50.73316230316318
            ],
            [
              5.348679304216276,
              50.733001823162866
            ],
            [
              5.348984543800787,
              50.73282148611695
            ],
            [
              5.349260459263399,
              50.73262302898459
            ],
            [
              5.349504393472881,
              50.73240836323015
            ],
            [
              5.349713997426205,
              50.732179556406564
            ],
            [
              5.349887252862394,
              50.731938812235754
            ],
            [
              5.350022491686427,
              50.73168844937849
            ],
            [
              5.350118412016617,
              50.73143087909805
            ],
            [
              5.350174090701614,
              50.731168582033504
            ],
            [
              5.3501762438825065,
              50.73113036378368
            ],
            [
              5.350291988682785,
              50.73114026039753
            ],
            [
              5.35070873770005,
              50.731149716797454
            ],
            [
              5.3511249402087415,
              50.731133200866424
            ],
            [
              5.351536587270026,
              50.73109087168872
            ],
            [
              5.3519397138463,
              50.73102313698544
            ],
            [
              5.352084794182945,
              50.730988795318
            ],
            [
              5.35224600245071,
              50.73098239643205
            ],
            [
              5.352657647187672,
              50.73094006330825
            ],
            [
              5.353060770862495,
              50.730872324739636
            ],
            [
              5.353451490577268,
              50.730779833192194
            ],
            [
              5.353826042968742,
              50.73066347955112
            ],
            [
              5.354180820471512,
              50.73052438453566
            ],
            [
              5.354512406077027,
              50.73036388789946
            ],
            [
              5.354817606253065,
              50.730183535520524
            ],
            [
              5.3550934817061595,
              50.729985064505684
            ],
            [
              5.355337375690492,
              50.72977038645299
            ],
            [
              5.355546939590503,
              50.729541569033785
            ],
            [
              5.355720155531006,
              50.729300816072026
            ],
            [
              5.3558553557973765,
              50.72905044631311
            ],
            [
              5.355951238879265,
              50.72879287108679
            ],
            [
              5.355975749448607,
              50.72867732932784
            ],
            [
              5.355978228326371,
              50.72867067013714
            ],
            [
              5.356033871136632,
              50.72840837010945
            ],
            [
              5.356048738862687,
              50.72814387145973
            ],
            [
              5.35602268900485,
              50.727879721469904
            ],
            [
              5.355955973118516,
              50.727618464021965
            ],
            [
              5.355849234365363,
              50.72736261509993
            ],
            [
              5.355703501294332,
              50.727114638562185
            ],
            [
              5.35552017791323,
              50.72687692241734
            ],
            [
              5.355513219935803,
              50.72686977338096
            ],
            [
              5.355480175072479,
              50.72682692367369
            ],
            [
              5.355261027730281,
              50.726601757010435
            ],
            [
              5.355008166846595,
              50.72639130817983
            ],
            [
              5.354944471255642,
              50.726347885553686
            ],
            [
              5.354767162574073,
              50.72620031479145
            ],
            [
              5.354483025660939,
              50.72600660972881
            ]
          ]
        ]
      },
      "properties": {
        "type": "buffer_union_300m",
        "buffer_m": 300
      }
    },
    {
      "type": "Feature",
      "geometry": {
        "type": "Polygon",
        "coordinates": [
          [
            [
              5.355470980202473,
              50.72536246275003
            ],
            [
              5.355054076721911,
              50.725129005389896
            ],
            [
              5.354603134589638,
              50.724922608713726
            ],
            [
              5.354122496239532,
              50.72474526007114
            ],
            [
              5.353616789877877,
              50.724598667093844
            ],
            [
              5.353090884934413,
              50.72448424126305
            ],
            [
              5.352549845197767,
              50.72440308432725
            ],
            [
              5.351998880085415,
              50.7243559777007
            ],
            [
              5.35144329451607,
              50.7243433749447
            ],
            [
              5.350888437865602,
              50.72436539740336
            ],
            [
              5.350339652496386,
              50.72442183303603
            ],
            [
              5.349802222353938,
              50.72451213845762
            ],
            [
              5.349281322124102,
              50.72463544416693
            ],
            [
              5.348781967438736,
              50.72479056291321
            ],
            [
              5.3483089666078625,
              50.72497600112045
            ],
            [
              5.347866874341782,
              50.725189973259624
            ],
            [
              5.347459947907714,
              50.72543041903122
            ],
            [
              5.347260689632665,
              50.72557375446247
            ],
            [
              5.346997885432803,
              50.72570094646865
            ],
            [
              5.346590950153704,
              50.72594138918773
            ],
            [
              5.346223099521597,
              50.72620599058422
            ],
            [
              5.345897876290939,
              50.7264922027818
            ],
            [
              5.345618412924269,
              50.72679726976385
            ],
            [
              5.345438300021433,
              50.72704753209928
            ],
            [
              5.345338955926806,
              50.72704527334999
            ],
            [
              5.344784064616419,
              50.7270672668392
            ],
            [
              5.344235240478281,
              50.7271236737966
            ],
            [
              5.343697767831077,
              50.7272139511132
            ],
            [
              5.3431768217697755,
              50.7273372295584
            ],
            [
              5.342677418367377,
              50.72749232214402
            ],
            [
              5.342204366402836,
              50.727677735545925
            ],
            [
              5.3417622210786515,
              50.72789168447395
            ],
            [
              5.341355240172793,
              50.72813210885212
            ],
            [
              5.340987343046391,
              50.72839669364409
            ],
            [
              5.3406620729015115,
              50.72868289113352
            ],
            [
              5.340382562652377,
              50.72898794544539
            ],
            [
              5.340151504738898,
              50.72930891907265
            ],
            [
              5.339971125173833,
              50.729642721153226
            ],
            [
              5.33984316207438,
              50.72998613722557
            ],
            [
              5.3397688488861546,
              50.73033586017663
            ],
            [
              5.339748902462508,
              50.730688522084634
            ],
            [
              5.339783516115621,
              50.73104072665004
            ],
            [
              5.339872357708028,
              50.7313890819028
            ],
            [
              5.340014572804747,
              50.731730232870554
            ],
            [
              5.3402087928574336,
              50.73206089389368
            ],
            [
              5.340453148343497,
              50.73237788027514
            ],
            [
              5.340745286735134,
              50.73267813896051
            ],
            [
              5.341082395126672,
              50.73295877795217
            ],
            [
              5.3414612273033555,
              50.733217094174044
            ],
            [
              5.341878134991745,
              50.73345059951779
            ],
            [
              5.341916690737812,
              50.73346824980639
            ],
            [
              5.3419870309576005,
              50.73351621175256
            ],
            [
              5.342403943897848,
              50.73374971520568
            ],
            [
              5.342854917063448,
              50.733956158465546
            ],
            [
              5.343335606951197,
              50.734133553007354
            ],
            [
              5.343841383651017,
              50.73428019009196
            ],
            [
              5.344367375457733,
              50.73439465723464
            ],
            [
              5.344908515818963,
              50.734475851819234
            ],
            [
              5.345459592165825,
              50.73452299172609
            ],
            [
              5.346015296154782,
              50.73453562287072
            ],
            [
              5.346570274835138,
              50.73451362358093
            ],
            [
              5.3471191822476705,
              50.73445720576954
            ],
            [
              5.347656730955705,
              50.73436691289177
            ],
            [
              5.348177743010534,
              50.73424361470681
            ],
            [
              5.348677199858672,
              50.734088498894266
            ],
            [
              5.349150290708728,
              50.73390305960657
            ],
            [
              5.349592458890738,
              50.73368908306778
            ],
            [
              5.349999445760389,
              50.73344863035818
            ],
            [
              5.350367331724497,
              50.73318401755071
            ],
            [
              5.350692573992178,
              50.73289779339125
            ],
            [
              5.350972040688002,
              50.732592714738246
            ],
            [
              5.35120304099885,
              50.73227171999859
            ],
            [
              5.3513385483921585,
              50.73202084724649
            ],
            [
              5.3518314717005735,
              50.73197016039072
            ],
            [
              5.352368983008746,
              50.73187984580854
            ],
            [
              5.352382555864895,
              50.73187663301784
            ],
            [
              5.352403681890665,
              50.731875794431204
            ],
            [
              5.352952551592117,
              50.731819349216664
            ],
            [
              5.353490059031473,
              50.73172902948059
            ],
            [
              5.354011026657679,
              50.7316057052409
            ],
            [
              5.3545104363453495,
              50.73145056442813
            ],
            [
              5.35498347775751,
              50.73126510143554
            ],
            [
              5.355425594700544,
              50.73105110271549
            ],
            [
              5.355832529023817,
              50.730810629561894
            ],
            [
              5.356200361640398,
              50.73054599824458
            ],
            [
              5.356525550273341,
              50.73025975768766
            ],
            [
              5.3568049635638895,
              50.729954664907474
            ],
            [
              5.357035911213341,
              50.72963365844694
            ],
            [
              5.357216169868878,
              50.72929983006309
            ],
            [
              5.357344004504941,
              50.72895639494063
            ],
            [
              5.357368511744714,
              50.72884085289446
            ],
            [
              5.357370990434279,
              50.72883419367452
            ],
            [
              5.357445170632146,
              50.72848445942531
            ],
            [
              5.357464983700941,
              50.72813179432224
            ],
            [
              5.357430240047143,
              50.7277795947503
            ],
            [
              5.3573412754818195,
              50.727431252536206
            ],
            [
              5.357198947940071,
              50.72709012228495
            ],
            [
              5.357004629174153,
              50.726759489077885
            ],
            [
              5.35676019150202,
              50.72644253684279
            ],
            [
              5.35675323340063,
              50.726435387879405
            ],
            [
              5.356720187714481,
              50.726392538517935
            ],
            [
              5.356427986517726,
              50.72609231927223
            ],
            [
              5.356090835871262,
              50.725811724036454
            ],
            [
              5.3560271400661215,
              50.725768301993774
            ],
            [
              5.356027140066118,
              50.725768301993774
            ],
            [
              5.355849830175057,
              50.72562073285196
            ],
            [
              5.355470980202473,
              50.72536246275003
            ]
          ]
        ]
      },
      "properties": {
        "type": "buffer_union_400m",
        "buffer_m": 400
      }
    },
    {
      "type": "Feature",
      "geometry": {
        "type": "Polygon",
        "coordinates": [
          [
            [
              5.3039299,
              50.7037963
            ],
            [
              5.3136749,
              50.7031226
            ],
            [
              5.3470052,
              50.7011912
            ],
            [
              5.3470759,
              50.700787
            ],
            [
              5.3634147,
              50.6994122
            ],
            [
              5.3646387,
              50.7003274
            ],
            [
              5.3643037,
              50.7005201
            ],
            [
              5.3651981,
              50.7011099
            ],
            [
              5.364687,
              50.7014068
            ],
            [
              5.3651791,
              50.7017131
            ],
            [
              5.3651612,
              50.7017815
            ],
            [
              5.3658956,
              50.7023354
            ],
            [
              5.3654846,
              50.7027813
            ],
            [
              5.3650018,
              50.7044446
            ],
            [
              5.3646245,
              50.7050706
            ],
            [
              5.3630597,
              50.7062332
            ],
            [
              5.3663211,
              50.7095146
            ],
            [
              5.3703431,
              50.7133195
            ],
            [
              5.3711262,
              50.7138757
            ],
            [
              5.3703407,
              50.7143615
            ],
            [
              5.3723322,
              50.7154995
            ],
            [
              5.3702965,
              50.717344
            ],
            [
              5.3691172,
              50.7182468
            ],
            [
              5.3685181,
              50.7211503
            ],
            [
              5.3687795,
              50.7219198
            ],
            [
              5.3695277,
              50.725449
            ],
            [
              5.3685502,
              50.731163
            ],
            [
              5.3687638,
              50.7310856
            ],
            [
              5.36905,
              50.7308356
            ],
            [
              5.3694356,
              50.7307625
            ],
            [
              5.3703132,
              50.7309455
            ],
            [
              5.3720136,
              50.7316921
            ],
            [
              5.3724927,
              50.7320943
            ],
            [
              5.3736044,
              50.7326136
            ],
            [
              5.3737062,
              50.7328327
            ],
            [
              5.3742166,
              50.7330898
            ],
            [
              5.3747426,
              50.7332216
            ],
            [
              5.3754196,
              50.7330568
            ],
            [
              5.375529,
              50.7327931
            ],
            [
              5.3765539,
              50.7327698
            ],
            [
              5.3776622,
              50.7300813
            ],
            [
              5.3793303,
              50.7304165
            ],
            [
              5.3801076,
              50.7300982
            ],
            [
              5.3803162,
              50.730241
            ],
            [
              5.381054,
              50.7301272
            ],
            [
              5.3816887,
              50.7301492
            ],
            [
              5.3819652,
              50.7303164
            ],
            [
              5.3826273,
              50.7303242
            ],
            [
              5.382887,
              50.7305249
            ],
            [
              5.3831749,
              50.7309447
            ],
            [
              5.3837219,
              50.7309348
            ],
            [
              5.383766,
              50.7309766
            ],
            [
              5.3833728,
              50.7311331
            ],
            [
              5.3839548,
              50.7319279
            ],
            [
              5.3870793,
              50.7347497
            ],
            [
              5.3875721,
              50.7344301
            ],
            [
              5.3879733,
              50.7343472
            ],
            [
              5.3888503,
              50.7343261
            ],
            [
              5.3894929,
              50.7347309
            ],
            [
              5.3900092,
              50.7348063
            ],
            [
              5.3899119,
              50.7352929
            ],
            [
              5.3916144,
              50.7350947
            ],
            [
              5.3927132,
              50.7352093
            ],
            [
              5.3931747,
              50.7351001
            ],
            [
              5.3937092,
              50.7346802
            ],
            [
              5.3939492,
              50.734658
            ],
            [
              5.3943576,
              50.734782
            ],
            [
              5.3944694,
              50.7348454
            ],
            [
              5.3937661,
              50.7352168
            ],
            [
              5.3938118,
              50.7353455
            ],
            [
              5.3940303,
              50.7354599
            ],
            [
              5.3938046,
              50.736787
            ],
            [
              5.3928874,
              50.7384984
            ],
            [
              5.3933443,
              50.7393052
            ],
            [
              5.3933527,
              50.7396246
            ],
            [
              5.3928622,
              50.7427763
            ],
            [
              5.3927227,
              50.7434294
            ],
            [
              5.3925122,
              50.7439483
            ],
            [
              5.3906949,
              50.7468625
            ],
            [
              5.3895892,
              50.7479695
            ],
            [
              5.3824338,
              50.7451201
            ],
            [
              5.3760512,
              50.7420404
            ],
            [
              5.3752179,
              50.7427611
            ],
            [
              5.3746364,
              50.7438701
            ],
            [
              5.3718629,
              50.7461559
            ],
            [
              5.370037,
              50.7466731
            ],
            [
              5.3687556,
              50.7465658
            ],
            [
              5.3680261,
              50.7469655
            ],
            [
              5.350294,
              50.7463936
            ],
            [
              5.3374157,
              50.7378483
            ],
            [
              5.3336941,
              50.7354858
            ],
            [
              5.3249966,
              50.7322398
            ],
            [
              5.3162465,
              50.7282509
            ],
            [
              5.3138495,
              50.7292493
            ],
            [
              5.3112543,
              50.7264009
            ],
            [
              5.3098642,
              50.7252724
            ],
            [
              5.3094063,
              50.7244839
            ],
            [
              5.3080883,
              50.7238094
            ],
            [
              5.3087209,
              50.7230962
            ],
            [
              5.3084197,
              50.7229887
            ],
            [
              5.3100457,
              50.7210982
            ],
            [
              5.30954,
              50.7208458
            ],
            [
              5.3090402,
              50.7204792
            ],
            [
              5.3098914,
              50.7194988
            ],
            [
              5.3103141,
              50.7191681
            ],
            [
              5.3100114,
              50.7188526
            ],
            [
              5.3097955,
              50.7184658
            ],
            [
              5.3094636,
              50.7181494
            ],
            [
              5.3090982,
              50.7180195
            ],
            [
              5.3095266,
              50.7178804
            ],
            [
              5.3098972,
              50.7179172
            ],
            [
              5.3102669,
              50.7174134
            ],
            [
              5.3107072,
              50.7160855
            ],
            [
              5.3125101,
              50.7161538
            ],
            [
              5.3125414,
              50.7151266
            ],
            [
              5.3132778,
              50.7138388
            ],
            [
              5.3114151,
              50.7129592
            ],
            [
              5.308308,
              50.7109829
            ],
            [
              5.309133,
              50.7102102
            ],
            [
              5.3075927,
              50.7096773
            ],
            [
              5.3080667,
              50.7091481
            ],
            [
              5.3082472,
              50.7092017
            ],
            [
              5.3091884,
              50.707918
            ],
            [
              5.3082954,
              50.707678
            ],
            [
              5.3067169,
              50.7080931
            ],
            [
              5.3040004,
              50.7063565
            ],
            [
              5.3039299,
              50.7037963
            ]
          ]
        ]
      },
      "properties": {
        "type": "boundary",
        "gemeente": "Oreye"
      }
    }
  ]
}