{
  "type": "FeatureCollection",
  "metadata": {
    "gemeente": "Orp-Jauche",
    "slug": "orp-jauche",
    "generated_at": "2026-09-25T22:11:42.598281Z",
    "total_points": 10,
    "providers": [
      "bpost",
      "DHL",
      "GLS",
      "VintedGo",
      "DPD",
      "Amazon"
    ],
    "bounds": [
      4.95606,
      50.6808166,
      4.98817,
      50.6987276
    ]
  },
  "features": [
    {
      "type": "Feature",
      "geometry": {
        "type": "Point",
        "coordinates": [
          4.95606,
          50.68207
        ]
      },
      "properties": {
        "type": "pakketpunt",
        "locatieNaam": "Librairie L'As-Tu Lu Jauche",
        "straatNaam": "Avenue Albert Drossart",
        "straatNr": "3",
        "vervoerder": "bpost",
        "puntType": "servicepunt",
        "bezettingsgraad": 50,
        "latitude": 50.68207,
        "longitude": 4.95606,
        "canPickup": true,
        "canDropoff": true,
        "openingstijden": null
      }
    },
    {
      "type": "Feature",
      "geometry": {
        "type": "Point",
        "coordinates": [
          4.95921,
          50.68082
        ]
      },
      "properties": {
        "type": "pakketpunt",
        "locatieNaam": "Orp-Jauche",
        "straatNaam": "Place De La Roulette",
        "straatNr": "3",
        "vervoerder": "bpost",
        "puntType": "postkantoor",
        "bezettingsgraad": 50,
        "latitude": 50.68082,
        "longitude": 4.95921,
        "canPickup": true,
        "canDropoff": true,
        "openingstijden": null
      }
    },
    {
      "type": "Feature",
      "geometry": {
        "type": "Point",
        "coordinates": [
          4.956061,
          50.682075
        ]
      },
      "properties": {
        "type": "pakketpunt",
        "locatieNaam": "LIBRAIRIE L'AS-TU LU JAUCHE",
        "straatNaam": "AVENUE ALBERT DROSSART",
        "straatNr": "3",
        "vervoerder": "DHL",
        "puntType": "parcelShop",
        "bezettingsgraad": 50,
        "latitude": 50.682075,
        "longitude": 4.956061,
        "canPickup": true,
        "canDropoff": true,
        "openingstijden": {
          "ma": "06:00 - 20:00",
          "di": "06:00 - 20:00",
          "wo": "06:00 - 20:00",
          "do": "06:00 - 20:00",
          "vr": "06:00 - 21:00",
          "za": "06:30 - 20:00",
          "zo": "07:00 - 20:00"
        }
      }
    },
    {
      "type": "Feature",
      "geometry": {
        "type": "Point",
        "coordinates": [
          4.959206,
          50.680817
        ]
      },
      "properties": {
        "type": "pakketpunt",
        "locatieNaam": "ORP-JAUCHE",
        "straatNaam": "PLACE DE LA ROULETTE",
        "straatNr": "3",
        "vervoerder": "DHL",
        "puntType": "postOffice",
        "bezettingsgraad": 50,
        "latitude": 50.680817,
        "longitude": 4.959206,
        "canPickup": true,
        "canDropoff": true,
        "openingstijden": {
          "ma": "09:30 - 12:30",
          "di": "09:30 - 12:30, 13:45 - 18:00",
          "wo": "09:30 - 12:30",
          "do": "09:30 - 12:30, 13:45 - 18:00",
          "vr": "09:30 - 12:30",
          "za": "09:30 - 13:00",
          "zo": "gesloten"
        }
      }
    },
    {
      "type": "Feature",
      "geometry": {
        "type": "Point",
        "coordinates": [
          4.9881653,
          50.6987276
        ]
      },
      "properties": {
        "type": "pakketpunt",
        "locatieNaam": "DrifToys",
        "straatNaam": "Rue De La Station",
        "straatNr": "69",
        "vervoerder": "GLS",
        "puntType": "parcel_shop",
        "bezettingsgraad": 50,
        "latitude": 50.6987276,
        "longitude": 4.9881653,
        "canPickup": true,
        "canDropoff": true,
        "openingstijden": "vr: 10:00 - 22:00; za: 10:00 - 22:00"
      }
    },
    {
      "type": "Feature",
      "geometry": {
        "type": "Point",
        "coordinates": [
          4.9881653,
          50.6987276
        ]
      },
      "properties": {
        "type": "pakketpunt",
        "locatieNaam": "DrifToys",
        "straatNaam": "Rue De La Station",
        "straatNr": "69",
        "vervoerder": "GLS",
        "puntType": "parcel_shop",
        "bezettingsgraad": 50,
        "latitude": 50.6987276,
        "longitude": 4.9881653,
        "canPickup": true,
        "canDropoff": true,
        "openingstijden": "vr: 08:00 - 12:30, 13:00 - 16:30; ma: 08:00 - 12:30, 13:00 - 16:30"
      }
    },
    {
      "type": "Feature",
      "geometry": {
        "type": "Point",
        "coordinates": [
          4.9881653,
          50.6985509
        ]
      },
      "properties": {
        "type": "pakketpunt",
        "locatieNaam": "Driftoys",
        "straatNaam": "Rue De La Station",
        "straatNr": "69",
        "vervoerder": "VintedGo",
        "puntType": "parcel_shop",
        "bezettingsgraad": 50,
        "latitude": 50.6985509,
        "longitude": 4.9881653,
        "canPickup": true,
        "canDropoff": true,
        "openingstijden": null
      }
    },
    {
      "type": "Feature",
      "geometry": {
        "type": "Point",
        "coordinates": [
          4.98817,
          50.69855
        ]
      },
      "properties": {
        "type": "pakketpunt",
        "locatieNaam": "Driftoys",
        "straatNaam": "RUE DE LA STATION",
        "straatNr": "69",
        "vervoerder": "DPD",
        "puntType": "pickup_point",
        "bezettingsgraad": 50,
        "latitude": 50.69855,
        "longitude": 4.98817,
        "canPickup": true,
        "canDropoff": false,
        "openingstijden": {
          "ma": "gesloten",
          "di": "10:00 - 19:00",
          "wo": "10:00 - 19:00",
          "do": "10:00 - 19:00",
          "vr": "10:00 - 22:00",
          "za": "10:00 - 22:00",
          "zo": "11:00 - 19:00"
        }
      }
    },
    {
      "type": "Feature",
      "geometry": {
        "type": "Point",
        "coordinates": [
          4.9592061,
          50.6808166
        ]
      },
      "properties": {
        "type": "pakketpunt",
        "locatieNaam": "bpost - ORP-JAUCHE",
        "straatNaam": "PLACE DE LA ROULETTE,3",
        "straatNr": "",
        "vervoerder": "Amazon",
        "puntType": "3p",
        "bezettingsgraad": 50,
        "latitude": 50.6808166,
        "longitude": 4.9592061,
        "canPickup": true,
        "canDropoff": false,
        "openingstijden": null
      }
    },
    {
      "type": "Feature",
      "geometry": {
        "type": "Point",
        "coordinates": [
          4.956061,
          50.682075
        ]
      },
      "properties": {
        "type": "pakketpunt",
        "locatieNaam": "bpost - LIBRAIRIE L'AS-TU LU JAUCHE",
        "straatNaam": "AVENUE ALBERT DROSSART,3",
        "straatNr": "",
        "vervoerder": "Amazon",
        "puntType": "3p",
        "bezettingsgraad": 50,
        "latitude": 50.682075,
        "longitude": 4.956061,
        "canPickup": true,
        "canDropoff": false,
        "openingstijden": null
      }
    },
    {
      "type": "Feature",
      "geometry": {
        "type": "MultiPolygon",
        "coordinates": [
          [
            [
              [
                4.9624654316102665,
                50.67908881284637
              ],
              [
                4.962183193131042,
                50.67889415547681
              ],
              [
                4.961872287111145,
                50.678718011905936
              ],
              [
                4.961535707667299,
                50.67856207827875
              ],
              [
                4.961176696034091,
                50.678427856116414
              ],
              [
                4.96079870935717,
                50.6783166378635
              ],
              [
                4.960405387411827,
                50.67822949444844
              ],
              [
                4.960000517566986,
                50.6781672649761
              ],
              [
                4.9595879983313935,
                50.67813054865194
              ],
              [
                4.959171801832246,
                50.67811969901508
              ],
              [
                4.958755935586741,
                50.678134820535796
              ],
              [
                4.958344403933728,
                50.67817576761016
              ],
              [
                4.957941169495863,
                50.67824214596128
              ],
              [
                4.957550115042466,
                50.678333316433836
              ],
              [
                4.9571750061193125,
                50.6784484011456
              ],
              [
                4.956819454804463,
                50.67858629193644
              ],
              [
                4.956486884938328,
                50.678745661034135
              ],
              [
                4.956180499162254,
                50.67892497383413
              ],
              [
                4.9559032480825715,
                50.67912250367067
              ],
              [
                4.955657801856803,
                50.67933634843733
              ],
              [
                4.955609742229029,
                50.679388235068
              ],
              [
                4.955198457148849,
                50.679429145166125
              ],
              [
                4.954795207572239,
                50.67949551264299
              ],
              [
                4.954404136650484,
                50.679586672562095
              ],
              [
                4.954029010087895,
                50.679701747142815
              ],
              [
                4.953673440132339,
                50.67983962832262
              ],
              [
                4.95334085080368,
                50.67999898842179
              ],
              [
                4.953034444930633,
                50.68017829292245
              ],
              [
                4.952757173313013,
                50.68037581523877
              ],
              [
                4.95251170630608,
                50.680589653336746
              ],
              [
                4.9523004081005695,
                50.68081774804358
              ],
              [
                4.952125313946204,
                50.68105790287075
              ],
              [
                4.951988110538353,
                50.68130780516018
              ],
              [
                4.951890119757214,
                50.681565048350144
              ],
              [
                4.951832285916778,
                50.68182715514649
              ],
              [
                4.9518151666471635,
                50.682091601376705
              ],
              [
                4.951838927499022,
                50.68235584029669
              ],
              [
                4.951839793614685,
                50.682359356352606
              ],
              [
                4.951839927057691,
                50.682360840332485
              ],
              [
                4.951904339893994,
                50.68262232715162
              ],
              [
                4.952008785028116,
                50.68287854354362
              ],
              [
                4.9521522571952765,
                50.683127021900084
              ],
              [
                4.952333375202662,
                50.68336536909934
              ],
              [
                4.952550395210973,
                50.683591289559
              ],
              [
                4.952801227512173,
                50.68380260735009
              ],
              [
                4.95308345664247,
                50.683997287159734
              ],
              [
                4.953394364637322,
                50.684173453900364
              ],
              [
                4.953730957204742,
                50.68432941077612
              ],
              [
                4.954089992564964,
                50.68446365563197
              ],
              [
                4.954468012678604,
                50.684574895428405
              ],
              [
                4.954861376562248,
                50.68466205870111
              ],
              [
                4.9552662953701425,
                50.68472430588624
              ],
              [
                4.955678868903464,
                50.68476103741096
              ],
              [
                4.956095123194797,
                50.684771899471386
              ],
              [
                4.956511048804925,
                50.68475678744233
              ],
              [
                4.956922639462173,
                50.684715846885396
              ],
              [
                4.957325930671152,
                50.68464947214636
              ],
              [
                4.957717037918093,
                50.68455830255476
              ],
              [
                4.958092194103868,
                50.684443216262885
              ],
              [
                4.958447785843279,
                50.68430532178323
              ],
              [
                4.9587803882803225,
                50.684145947306455
              ],
              [
                4.959086798083456,
                50.683966627902976
              ],
              [
                4.959364064302656,
                50.683769090731204
              ],
              [
                4.95960951679085,
                50.683555238395975
              ],
              [
                4.959658993017544,
                50.683501820546056
              ],
              [
                4.959660215850432,
                50.683501776079844
              ],
              [
                4.960071792824163,
                50.683460824421175
              ],
              [
                4.960475068872468,
                50.68339443879683
              ],
              [
                4.960866159627644,
                50.68330325864116
              ],
              [
                4.961241298149449,
                50.68318816220822
              ],
              [
                4.961596871222871,
                50.683050258108146
              ],
              [
                4.961929454171739,
                50.68289087462433
              ],
              [
                4.9622358438522545,
                50.68271154691386
              ],
              [
                4.96251308950825,
                50.68251400221518
              ],
              [
                4.962758521190739,
                50.682300143205616
              ],
              [
                4.962969775467964,
                50.68207202966933
              ],
              [
                4.963144818178489,
                50.68183185865256
              ],
              [
                4.96328196400849,
                50.68158194329768
              ],
              [
                4.9633798927052135,
                50.68132469056001
              ],
              [
                4.96343766177111,
                50.68106257802245
              ],
              [
                4.963454715517178,
                50.680798130031164
              ],
              [
                4.963430890389242,
                50.680533893382446
              ],
              [
                4.963366416516828,
                50.68027241279516
              ],
              [
                4.963261915470741,
                50.680016206404396
              ],
              [
                4.963118394251935,
                50.67976774151327
              ],
              [
                4.962937235570543,
                50.679529410835194
              ],
              [
                4.962720184509549,
                50.67930350945634
              ],
              [
                4.96271686266027,
                50.679300711433626
              ],
              [
                4.962716284381945,
                50.67930010957231
              ],
              [
                4.9624654316102665,
                50.67908881284637
              ]
            ]
          ],
          [
            [
              [
                4.9922229448800675,
                50.69774520563569
              ],
              [
                4.992079217132842,
                50.69749677734111
              ],
              [
                4.991897844002023,
                50.697258492544364
              ],
              [
                4.991680572635758,
                50.69703264588958
              ],
              [
                4.991429495788842,
                50.696821412211904
              ],
              [
                4.9911470316563245,
                50.69662682560009
              ],
              [
                4.9908359005777525,
                50.69645075981497
              ],
              [
                4.990499098836694,
                50.69629491025246
              ],
              [
                4.990139869807919,
                50.696160777624115
              ],
              [
                4.989761672729993,
                50.69604965351233
              ],
              [
                4.989368149403745,
                50.695962607938995
              ],
              [
                4.98896308913677,
                50.69590047906682
              ],
              [
                4.988550392270983,
                50.695863865132544
              ],
              [
                4.988134032643612,
                50.695853118689406
              ],
              [
                4.9877180193423145,
                50.69586834321401
              ],
              [
                4.987306358121712,
                50.69590939211065
              ],
              [
                4.986903012851946,
                50.69597587012193
              ],
              [
                4.986901183329947,
                50.69597629701301
              ],
              [
                4.9868983130843025,
                50.695976770071546
              ],
              [
                4.986507167585312,
                50.69606803706685
              ],
              [
                4.986131988293968,
                50.69618321425071
              ],
              [
                4.98577638796611,
                50.6963211925726
              ],
              [
                4.985443790914414,
                50.69648064341739
              ],
              [
                4.985137400042409,
                50.69666003139336
              ],
              [
                4.984860166005995,
                50.69685762911079
              ],
              [
                4.984614758799145,
                50.697071533809535
              ],
              [
                4.984403542037399,
                50.697299685675326
              ],
              [
                4.9842285501868835,
                50.69753988766915
              ],
              [
                4.984091468958485,
                50.69778982667855
              ],
              [
                4.98399361905649,
                50.69804709578806
              ],
              [
                4.983935943438847,
                50.69830921745374
              ],
              [
                4.98391899821252,
                50.69857366735971
              ],
              [
                4.98392562198373,
                50.6986467481705
              ],
              [
                4.983918982301736,
                50.69875036735848
              ],
              [
                4.9839429314314225,
                50.699014598714186
              ],
              [
                4.9840075450185,
                50.699276066813425
              ],
              [
                4.984112201451402,
                50.69953225350948
              ],
              [
                4.984255893430561,
                50.699780691479724
              ],
              [
                4.984437237646237,
                50.70001898799135
              ],
              [
                4.984654488080459,
                50.70024484794993
              ],
              [
                4.984905552805755,
                50.700456096009056
              ],
              [
                4.98518801411953,
                50.700650697527315
              ],
              [
                4.985499151820634,
                50.700826778171134
              ],
              [
                4.985835969404237,
                50.700982641973766
              ],
              [
                4.986195222922835,
                50.70111678767659
              ],
              [
                4.986573452235306,
                50.70122792319502
              ],
              [
                4.986967014342769,
                50.70131497806915
              ],
              [
                4.987372118489722,
                50.70137711377918
              ],
              [
                4.987784862691723,
                50.70141373182598
              ],
              [
                4.988201271337096,
                50.70142447949874
              ],
              [
                4.9886173334995805,
                50.70140925327401
              ],
              [
                4.989029041592011,
                50.70136819981339
              ],
              [
                4.98943242998776,
                50.701301714550155
              ],
              [
                4.9898236132369576,
                50.70121043787844
              ],
              [
                4.990198823508547,
                50.70109524898189
              ],
              [
                4.9905544468966205,
                50.700957257361274
              ],
              [
                4.990887058240686,
                50.700797792142964
              ],
              [
                4.991193454123857,
                50.70061838927124
              ],
              [
                4.99147068373072,
                50.700420776708455
              ],
              [
                4.991716077267442,
                50.70020685778549
              ],
              [
                4.991927271670299,
                50.69997869286349
              ],
              [
                4.9921022333551965,
                50.69973847948351
              ],
              [
                4.992239277789377,
                50.699488531195804
              ],
              [
                4.992337085697322,
                50.699231255272736
              ],
              [
                4.992394715745453,
                50.698969129520364
              ],
              [
                4.992411613584234,
                50.69870467841196
              ],
              [
                4.992407701735361,
                50.69866160442786
              ],
              [
                4.992416297590152,
                50.6985270782406
              ],
              [
                4.992392301231564,
                50.69826284859239
              ],
              [
                4.992327642544538,
                50.698001385067194
              ],
              [
                4.9922229448800675,
                50.69774520563569
              ]
            ]
          ]
        ]
      },
      "properties": {
        "type": "buffer_union_300m",
        "buffer_m": 300
      }
    },
    {
      "type": "Feature",
      "geometry": {
        "type": "MultiPolygon",
        "coordinates": [
          [
            [
              [
                4.963551822428749,
                50.678512863444915
              ],
              [
                4.963175503591517,
                50.67825332359667
              ],
              [
                4.96276096343854,
                50.678018468802755
              ],
              [
                4.9623121940790265,
                50.67781056046303
              ],
              [
                4.961833517034862,
                50.67763160048411
              ],
              [
                4.961329541636299,
                50.6774833120139
              ],
              [
                4.960805120654319,
                50.67736712285957
              ],
              [
                4.960265303596057,
                50.67728415174826
              ],
              [
                4.959715288111928,
                50.67723519756222
              ],
              [
                4.95916036998102,
                50.677220731651886
              ],
              [
                4.958605892154823,
                50.677240893300514
              ],
              [
                4.958057193348311,
                50.67729548838407
              ],
              [
                4.957519556671664,
                50.67738399123904
              ],
              [
                4.956998158795578,
                50.67750554972038
              ],
              [
                4.956498020137984,
                50.67765899340094
              ],
              [
                4.956023956550366,
                50.6778428448339
              ],
              [
                4.955580532967567,
                50.67805533376981
              ],
              [
                4.955172019466375,
                50.678294414192
              ],
              [
                4.954802350155207,
                50.67855778400673
              ],
              [
                4.954789606418495,
                50.67856888682317
              ],
              [
                4.9543736407713705,
                50.67863734681484
              ],
              [
                4.953852220938482,
                50.678758891225094
              ],
              [
                4.9533520587626905,
                50.67891232139777
              ],
              [
                4.95287797032185,
                50.679096160016094
              ],
              [
                4.952434520790036,
                50.679308636954026
              ],
              [
                4.9520259804938185,
                50.67954770631043
              ],
              [
                4.95165628379956,
                50.67981106609815
              ],
              [
                4.951328991227158,
                50.68009618039863
              ],
              [
                4.951047255154984,
                50.68040030376971
              ],
              [
                4.950813789446469,
                50.680720507671666
              ],
              [
                4.95063084329141,
                50.6810537086578
              ],
              [
                4.950500179514795,
                50.6813966980585
              ],
              [
                4.950423057563208,
                50.681746172873346
              ],
              [
                4.95040022133406,
                50.68209876757406
              ],
              [
                4.950431891966443,
                50.68245108651238
              ],
              [
                4.950432757978984,
                50.682454602578645
              ],
              [
                4.950432891377997,
                50.68245608656008
              ],
              [
                4.950518765092863,
                50.68280473666728
              ],
              [
                4.950658016028269,
                50.683146360135986
              ],
              [
                4.950849304186443,
                50.68347766675967
              ],
              [
                4.951090788286947,
                50.68379546562693
              ],
              [
                4.951380143463492,
                50.68409669586124
              ],
              [
                4.951714583624552,
                50.68437845611037
              ],
              [
                4.952090888263527,
                50.68463803250112
              ],
              [
                4.952505433461101,
                50.68487292478946
              ],
              [
                4.952954226781713,
                50.685080870454
              ],
              [
                4.953432945728207,
                50.68525986649985
              ],
              [
                4.953936979384157,
                50.685408188762615
              ],
              [
                4.954461472842219,
                50.68552440852586
              ],
              [
                4.955001373989826,
                50.68560740629168
              ],
              [
                4.955551482200453,
                50.68565638257125
              ],
              [
                4.956106498460132,
                50.68567086559098
              ],
              [
                4.95666107644488,
                50.685650715840104
              ],
              [
                4.9572098740553745,
                50.68559612741536
              ],
              [
                4.95774760491082,
                50.68550762615011
              ],
              [
                4.958269089304253,
                50.68538606454578
              ],
              [
                4.958769304126898,
                50.68523261355464
              ],
              [
                4.959243431279141,
                50.68504875129335
              ],
              [
                4.959686904100586,
                50.68483624879647
              ],
              [
                4.9600954513708775,
                50.68459715294721
              ],
              [
                4.960465138456747,
                50.684333766750775
              ],
              [
                4.960479471089088,
                50.684321279166404
              ],
              [
                4.960896789181372,
                50.6842525816839
              ],
              [
                4.9614182515847745,
                50.684131005993926
              ],
              [
                4.961918442854409,
                50.683977541481205
              ],
              [
                4.962392545117612,
                50.68379366639263
              ],
              [
                4.962835991953804,
                50.68358115188629
              ],
              [
                4.963244512393,
                50.68334204496104
              ],
              [
                4.963614172060435,
                50.683078648728795
              ],
              [
                4.963941411070574,
                50.682793500219475
              ],
              [
                4.9642230783053884,
                50.68248934593355
              ],
              [
                4.964456461747024,
                50.68216911537759
              ],
              [
                4.964639314573269,
                50.68183589283882
              ],
              [
                4.964769876765389,
                50.68149288767038
              ],
              [
                4.964846892021397,
                50.681143403374456
              ],
              [
                4.964869619813296,
                50.680790805780994
              ],
              [
                4.96483784247376,
                50.68043849062887
              ],
              [
                4.964751867245742,
                50.680089850861904
              ],
              [
                4.964612523277068,
                50.67974824395456
              ],
              [
                4.964421153590744,
                50.67941695958227
              ],
              [
                4.964179602110011,
                50.67909918794702
              ],
              [
                4.963890195864679,
                50.67879798906365
              ],
              [
                4.963886873981603,
                50.678795191073895
              ],
              [
                4.963886295694549,
                50.67879458921828
              ],
              [
                4.963551822428749,
                50.678512863444915
              ]
            ]
          ],
          [
            [
              [
                4.993573895765151,
                50.697476909591416
              ],
              [
                4.993382250706882,
                50.69714567401677
              ],
              [
                4.993140413295101,
                50.69682796355854
              ],
              [
                4.992850713313118,
                50.696526837642146
              ],
              [
                4.992515941286086,
                50.69624519593421
              ],
              [
                4.992139321585371,
                50.69598575043023
              ],
              [
                4.991724481363265,
                50.69575099935077
              ],
              [
                4.99127541561776,
                50.69554320309685
              ],
              [
                4.990796448723912,
                50.69536436249568
              ],
              [
                4.99029219280211,
                50.695216199545584
              ],
              [
                4.989767503323612,
                50.69510014084511
              ],
              [
                4.989227432380012,
                50.69501730386522
              ],
              [
                4.988677180065532,
                50.69496848619666
              ],
              [
                4.9881220444389225,
                50.694954157875394
              ],
              [
                4.987567370545288,
                50.69497445685993
              ],
              [
                4.987018498987036,
                50.6950291877039
              ],
              [
                4.9864807145374614,
                50.695117823436654
              ],
              [
                4.986478885044925,
                50.69511825032122
              ],
              [
                4.986476014847266,
                50.69511872336947
              ],
              [
                4.985954495577782,
                50.69524041054556
              ],
              [
                4.985454263094414,
                50.69539397752034
              ],
              [
                4.984980134152414,
                50.69557794565982
              ],
              [
                4.984536674316452,
                50.695790543590775
              ],
              [
                4.984128154013114,
                50.696029724247005
              ],
              [
                4.983758507417201,
                50.69629318456949
              ],
              [
                4.983431294567276,
                50.69657838767151
              ],
              [
                4.983149667075206,
                50.69688258725562
              ],
              [
                4.982916337760069,
                50.697202854048015
              ],
              [
                4.982733554499473,
                50.697536103996136
              ],
              [
                4.982603078550965,
                50.697879127958615
              ],
              [
                4.982526167553482,
                50.6982286226019
              ],
              [
                4.982503563373937,
                50.69858122220646
              ],
              [
                4.982510184952713,
                50.6986543030973
              ],
              [
                4.982503542159553,
                50.698757922204685
              ],
              [
                4.982535463822662,
                50.699110231060196
              ],
              [
                4.982621605200915,
                50.69945885621038
              ],
              [
                4.982761137865942,
                50.69980044008717
              ],
              [
                4.982952719107,
                50.70013169286502
              ],
              [
                4.983194504821078,
                50.70044942415083
              ],
              [
                4.983484167236895,
                50.700750573718665
              ],
              [
                4.9838189173034975,
                50.70103224099301
              ],
              [
                4.984195531528947,
                50.701291712995854
              ],
              [
                4.984610383011463,
                50.701526490488476
              ],
              [
                4.985059476364646,
                50.70173431205499
              ],
              [
                4.985538486200599,
                50.70191317589572
              ],
              [
                4.9860427988001295,
                50.7020613591196
              ],
              [
                4.986567556568154,
                50.70217743434939
              ],
              [
                4.987107704845329,
                50.70226028347935
              ],
              [
                4.987658040623889,
                50.70230910845238
              ],
              [
                4.988213262697145,
                50.70232343895236
              ],
              [
                4.988768022758074,
                50.7023031369377
              ],
              [
                4.989316976953126,
                50.702248397971864
              ],
              [
                4.989854837393012,
                50.702159749338314
              ],
              [
                4.990376423122563,
                50.70203804495805
              ],
              [
                4.990876710057104,
                50.70188445715859
              ],
              [
                4.9913508794028365,
                50.701700465374444
              ],
              [
                4.991794364093563,
                50.701487841887655
              ],
              [
                4.9922028927953965,
                50.70124863474681
              ],
              [
                4.992572531054874,
                50.70098514802898
              ],
              [
                4.992899719193678,
                50.70069991963554
              ],
              [
                4.993181306584889,
                50.700395696836246
              ],
              [
                4.993414581980869,
                50.700075409797364
              ],
              [
                4.993597299601268,
                50.69974214334993
              ],
              [
                4.993727700730773,
                50.699399107269755
              ],
              [
                4.993804530619777,
                50.69904960535648
              ],
              [
                4.993827050526617,
                50.69869700360942
              ],
              [
                4.99382313738553,
                50.6986539296726
              ],
              [
                4.993831729201175,
                50.698519403381056
              ],
              [
                4.993799723547152,
                50.69816709756556
              ],
              [
                4.993713501894607,
                50.697818480550644
              ],
              [
                4.993573895765151,
                50.697476909591416
              ]
            ]
          ]
        ]
      },
      "properties": {
        "type": "buffer_union_400m",
        "buffer_m": 400
      }
    },
    {
      "type": "Feature",
      "geometry": {
        "type": "Polygon",
        "coordinates": [
          [
            [
              4.911511,
              50.685567
            ],
            [
              4.9112591,
              50.6863381
            ],
            [
              4.9113453,
              50.6865903
            ],
            [
              4.9116124,
              50.6868418
            ],
            [
              4.9128181,
              50.6875651
            ],
            [
              4.9132977,
              50.6880621
            ],
            [
              4.9133813,
              50.6883004
            ],
            [
              4.9130346,
              50.6911875
            ],
            [
              4.9128043,
              50.691545
            ],
            [
              4.9132956,
              50.6915485
            ],
            [
              4.913273,
              50.6920881
            ],
            [
              4.9139802,
              50.6921452
            ],
            [
              4.9139869,
              50.6932566
            ],
            [
              4.9160452,
              50.6933963
            ],
            [
              4.9162224,
              50.6958837
            ],
            [
              4.9184522,
              50.6962007
            ],
            [
              4.9177823,
              50.696712
            ],
            [
              4.9169354,
              50.6977991
            ],
            [
              4.916105,
              50.69832
            ],
            [
              4.9156482,
              50.6987855
            ],
            [
              4.9149208,
              50.700092
            ],
            [
              4.9136426,
              50.7007215
            ],
            [
              4.9116466,
              50.7018658
            ],
            [
              4.9127617,
              50.7030467
            ],
            [
              4.9164494,
              50.7008149
            ],
            [
              4.9170603,
              50.7010876
            ],
            [
              4.9167739,
              50.7012671
            ],
            [
              4.917987,
              50.7018573
            ],
            [
              4.9198714,
              50.7026284
            ],
            [
              4.9203209,
              50.7024819
            ],
            [
              4.9208818,
              50.7033098
            ],
            [
              4.921114,
              50.7035233
            ],
            [
              4.9208947,
              50.7053618
            ],
            [
              4.9209428,
              50.7064177
            ],
            [
              4.920456,
              50.7064978
            ],
            [
              4.9210725,
              50.7074735
            ],
            [
              4.9211841,
              50.7085377
            ],
            [
              4.9213555,
              50.708966
            ],
            [
              4.922459,
              50.7087175
            ],
            [
              4.9229444,
              50.7097062
            ],
            [
              4.9231156,
              50.710328
            ],
            [
              4.9238463,
              50.7101414
            ],
            [
              4.9257291,
              50.7092086
            ],
            [
              4.9263561,
              50.7097049
            ],
            [
              4.9273747,
              50.7107637
            ],
            [
              4.9284342,
              50.7102059
            ],
            [
              4.9297582,
              50.7097462
            ],
            [
              4.9305361,
              50.7105884
            ],
            [
              4.9317194,
              50.7109277
            ],
            [
              4.9328837,
              50.7116995
            ],
            [
              4.933467,
              50.7122476
            ],
            [
              4.9357609,
              50.7115248
            ],
            [
              4.9364115,
              50.7123739
            ],
            [
              4.9354781,
              50.7126692
            ],
            [
              4.9362688,
              50.7133448
            ],
            [
              4.9367554,
              50.7130797
            ],
            [
              4.937621,
              50.7135285
            ],
            [
              4.938083,
              50.7139287
            ],
            [
              4.9373709,
              50.7141064
            ],
            [
              4.9370306,
              50.7143193
            ],
            [
              4.9379248,
              50.7149537
            ],
            [
              4.9382077,
              50.7148051
            ],
            [
              4.93894,
              50.7153143
            ],
            [
              4.9391212,
              50.7152309
            ],
            [
              4.9404207,
              50.7164019
            ],
            [
              4.9402191,
              50.7164927
            ],
            [
              4.9409965,
              50.7173133
            ],
            [
              4.940862,
              50.7173709
            ],
            [
              4.9424673,
              50.7188411
            ],
            [
              4.9428146,
              50.7186999
            ],
            [
              4.9442425,
              50.7200462
            ],
            [
              4.942699,
              50.7207741
            ],
            [
              4.942954,
              50.7209682
            ],
            [
              4.9415374,
              50.7216956
            ],
            [
              4.9419506,
              50.7219833
            ],
            [
              4.9422924,
              50.7217834
            ],
            [
              4.9428309,
              50.7221523
            ],
            [
              4.9419608,
              50.7226216
            ],
            [
              4.942819,
              50.7231601
            ],
            [
              4.9411853,
              50.7240596
            ],
            [
              4.9413311,
              50.7243183
            ],
            [
              4.9416903,
              50.7245947
            ],
            [
              4.9418523,
              50.7246061
            ],
            [
              4.9418551,
              50.7247433
            ],
            [
              4.9420148,
              50.7249467
            ],
            [
              4.9421988,
              50.7250302
            ],
            [
              4.9430472,
              50.725805
            ],
            [
              4.9431014,
              50.7259504
            ],
            [
              4.942585,
              50.7262204
            ],
            [
              4.9428853,
              50.7263621
            ],
            [
              4.9433775,
              50.7268258
            ],
            [
              4.9435623,
              50.7269078
            ],
            [
              4.9433654,
              50.7269501
            ],
            [
              4.9433492,
              50.7270314
            ],
            [
              4.9436341,
              50.7273943
            ],
            [
              4.9437819,
              50.7274528
            ],
            [
              4.9437282,
              50.7275359
            ],
            [
              4.9438007,
              50.7275557
            ],
            [
              4.9437899,
              50.7276409
            ],
            [
              4.9442175,
              50.7280491
            ],
            [
              4.9449527,
              50.7283325
            ],
            [
              4.9456667,
              50.7283815
            ],
            [
              4.944521,
              50.7289899
            ],
            [
              4.9450244,
              50.7294227
            ],
            [
              4.9451238,
              50.7293811
            ],
            [
              4.9456397,
              50.7298037
            ],
            [
              4.9461731,
              50.729354
            ],
            [
              4.9461505,
              50.7294637
            ],
            [
              4.9462767,
              50.7294897
            ],
            [
              4.9463094,
              50.7296353
            ],
            [
              4.9467858,
              50.7298851
            ],
            [
              4.9466913,
              50.7299972
            ],
            [
              4.9468127,
              50.7301006
            ],
            [
              4.9468133,
              50.7302363
            ],
            [
              4.9469972,
              50.730348
            ],
            [
              4.9488657,
              50.7307721
            ],
            [
              4.9476085,
              50.7321686
            ],
            [
              4.9466431,
              50.7326322
            ],
            [
              4.9460828,
              50.7328
            ],
            [
              4.9450051,
              50.7337192
            ],
            [
              4.9445806,
              50.7339578
            ],
            [
              4.9443003,
              50.734327
            ],
            [
              4.9435474,
              50.7349494
            ],
            [
              4.9432369,
              50.7350037
            ],
            [
              4.9465376,
              50.7384459
            ],
            [
              4.9473749,
              50.7392252
            ],
            [
              4.9482913,
              50.7398125
            ],
            [
              4.9498172,
              50.738822
            ],
            [
              4.9510406,
              50.7396944
            ],
            [
              4.9532032,
              50.7409857
            ],
            [
              4.9534643,
              50.7408564
            ],
            [
              4.9548032,
              50.7417345
            ],
            [
              4.9553265,
              50.7405535
            ],
            [
              4.9555662,
              50.7394555
            ],
            [
              4.9559427,
              50.7386494
            ],
            [
              4.9569964,
              50.7380828
            ],
            [
              4.9577545,
              50.7374953
            ],
            [
              4.9581718,
              50.7373188
            ],
            [
              4.958901,
              50.7371626
            ],
            [
              4.9592704,
              50.7368926
            ],
            [
              4.9605919,
              50.7365246
            ],
            [
              4.9611568,
              50.7371821
            ],
            [
              4.9625516,
              50.7369589
            ],
            [
              4.9627102,
              50.7373503
            ],
            [
              4.9626005,
              50.7373713
            ],
            [
              4.9627897,
              50.737668
            ],
            [
              4.96495,
              50.7374167
            ],
            [
              4.9651811,
              50.7377564
            ],
            [
              4.9660707,
              50.7376101
            ],
            [
              4.966057,
              50.7357902
            ],
            [
              4.9673944,
              50.7358078
            ],
            [
              4.9674186,
              50.7359365
            ],
            [
              4.9677404,
              50.7360748
            ],
            [
              4.967664,
              50.7361134
            ],
            [
              4.9677061,
              50.7361861
            ],
            [
              4.9700958,
              50.7358134
            ],
            [
              4.97153,
              50.7352758
            ],
            [
              4.9717887,
              50.73548
            ],
            [
              4.972288,
              50.7356317
            ],
            [
              4.9737209,
              50.7359118
            ],
            [
              4.9751065,
              50.7362971
            ],
            [
              4.9776933,
              50.7372641
            ],
            [
              4.9796067,
              50.7380965
            ],
            [
              4.9812177,
              50.738487
            ],
            [
              4.9817515,
              50.7374757
            ],
            [
              4.9824372,
              50.736411
            ],
            [
              4.9835239,
              50.7367298
            ],
            [
              4.9838155,
              50.7365147
            ],
            [
              4.9842206,
              50.7367012
            ],
            [
              4.9841771,
              50.7364994
            ],
            [
              4.9844689,
              50.7364679
            ],
            [
              4.9846331,
              50.7365474
            ],
            [
              4.9848285,
              50.7368465
            ],
            [
              4.9852944,
              50.7369447
            ],
            [
              4.985361,
              50.7369137
            ],
            [
              4.9853105,
              50.7366998
            ],
            [
              4.9856297,
              50.7366245
            ],
            [
              4.9857694,
              50.7366383
            ],
            [
              4.9860152,
              50.7368265
            ],
            [
              4.9861801,
              50.736791
            ],
            [
              4.9862016,
              50.7366175
            ],
            [
              4.9863266,
              50.7365704
            ],
            [
              4.987148,
              50.7367635
            ],
            [
              4.9874079,
              50.7364399
            ],
            [
              4.9880727,
              50.7360927
            ],
            [
              4.9886073,
              50.7364897
            ],
            [
              4.9891268,
              50.736635
            ],
            [
              4.9892363,
              50.7366032
            ],
            [
              4.9892807,
              50.7364836
            ],
            [
              4.9891486,
              50.7362589
            ],
            [
              4.9893579,
              50.7361032
            ],
            [
              4.9892892,
              50.7360322
            ],
            [
              4.9898116,
              50.7356872
            ],
            [
              4.9898118,
              50.7354583
            ],
            [
              4.993506,
              50.7330052
            ],
            [
              4.9927709,
              50.7318212
            ],
            [
              4.9930975,
              50.7316943
            ],
            [
              4.9916822,
              50.7300642
            ],
            [
              4.9907793,
              50.7292278
            ],
            [
              4.991277,
              50.7289596
            ],
            [
              4.9899477,
              50.7277526
            ],
            [
              4.9904401,
              50.727562
            ],
            [
              4.9898427,
              50.7269545
            ],
            [
              4.9908741,
              50.7265993
            ],
            [
              4.9907825,
              50.7260131
            ],
            [
              4.9903878,
              50.7250107
            ],
            [
              4.9896901,
              50.7240241
            ],
            [
              4.992413,
              50.7234786
            ],
            [
              4.9925251,
              50.7236317
            ],
            [
              4.993638,
              50.7233263
            ],
            [
              4.9935132,
              50.7231673
            ],
            [
              4.9956374,
              50.7224989
            ],
            [
              4.9957743,
              50.722666
            ],
            [
              4.9966822,
              50.7223551
            ],
            [
              4.9964294,
              50.7219726
            ],
            [
              4.996811,
              50.7218514
            ],
            [
              4.9966783,
              50.7217094
            ],
            [
              4.9976024,
              50.7213904
            ],
            [
              4.9971545,
              50.7213186
            ],
            [
              4.997073,
              50.7212013
            ],
            [
              4.9970206,
              50.7210664
            ],
            [
              4.9971042,
              50.7208352
            ],
            [
              4.9971099,
              50.7204283
            ],
            [
              4.9969309,
              50.7204077
            ],
            [
              4.9964866,
              50.7205377
            ],
            [
              4.9964274,
              50.7203006
            ],
            [
              4.9961458,
              50.7201914
            ],
            [
              4.9961341,
              50.7200439
            ],
            [
              4.9962684,
              50.7198182
            ],
            [
              4.9965988,
              50.7199301
            ],
            [
              4.9969463,
              50.7197923
            ],
            [
              4.9974978,
              50.719821
            ],
            [
              4.9975475,
              50.7196585
            ],
            [
              4.9972922,
              50.7193746
            ],
            [
              4.997739,
              50.7192823
            ],
            [
              4.9977895,
              50.7191261
            ],
            [
              4.9973797,
              50.7191034
            ],
            [
              4.9971958,
              50.718889
            ],
            [
              4.9968519,
              50.7187192
            ],
            [
              4.9965965,
              50.7188445
            ],
            [
              4.9961817,
              50.7188998
            ],
            [
              4.9957001,
              50.7186414
            ],
            [
              4.9954447,
              50.718854
            ],
            [
              4.9949585,
              50.7187405
            ],
            [
              4.9949299,
              50.718233
            ],
            [
              4.9944929,
              50.7180191
            ],
            [
              4.9947023,
              50.7177592
            ],
            [
              4.9944443,
              50.7175423
            ],
            [
              4.9947901,
              50.7173512
            ],
            [
              4.9948165,
              50.7172666
            ],
            [
              4.9951447,
              50.7171477
            ],
            [
              4.9954876,
              50.7171514
            ],
            [
              4.995611,
              50.7170675
            ],
            [
              4.9962179,
              50.7172241
            ],
            [
              4.9963645,
              50.7171771
            ],
            [
              4.9965314,
              50.7169774
            ],
            [
              4.9969399,
              50.7168954
            ],
            [
              4.9978097,
              50.7159428
            ],
            [
              4.9975206,
              50.715553
            ],
            [
              4.9977365,
              50.715477
            ],
            [
              4.9978313,
              50.7152484
            ],
            [
              4.9979652,
              50.7151408
            ],
            [
              4.9997998,
              50.7146984
            ],
            [
              5.0008872,
              50.7141057
            ],
            [
              5.0010976,
              50.7141629
            ],
            [
              5.0012124,
              50.714062
            ],
            [
              5.0016665,
              50.7140124
            ],
            [
              5.0021071,
              50.7137866
            ],
            [
              5.0026851,
              50.7137243
            ],
            [
              5.0027669,
              50.7136336
            ],
            [
              5.0030258,
              50.7136328
            ],
            [
              5.0046697,
              50.7131621
            ],
            [
              5.0060693,
              50.7130043
            ],
            [
              5.0067961,
              50.712369
            ],
            [
              5.0076164,
              50.7120831
            ],
            [
              5.0085942,
              50.7120085
            ],
            [
              5.0093612,
              50.711769
            ],
            [
              5.0096207,
              50.7117817
            ],
            [
              5.0099757,
              50.7119343
            ],
            [
              5.0101551,
              50.7116823
            ],
            [
              5.010259,
              50.7106296
            ],
            [
              5.0100348,
              50.7090156
            ],
            [
              5.0094334,
              50.70742
            ],
            [
              5.0097172,
              50.7073723
            ],
            [
              5.0096258,
              50.7071018
            ],
            [
              5.0102338,
              50.707065
            ],
            [
              5.0108567,
              50.7069141
            ],
            [
              5.0125225,
              50.7061953
            ],
            [
              5.0128879,
              50.7059352
            ],
            [
              5.0139242,
              50.7049112
            ],
            [
              5.0147458,
              50.7044263
            ],
            [
              5.0160697,
              50.7032391
            ],
            [
              5.0167184,
              50.7028088
            ],
            [
              5.0173284,
              50.7025382
            ],
            [
              5.0172774,
              50.7020938
            ],
            [
              5.0170608,
              50.7016884
            ],
            [
              5.0149351,
              50.6990083
            ],
            [
              5.0126016,
              50.6988773
            ],
            [
              5.0111334,
              50.6983806
            ],
            [
              5.0082749,
              50.6978282
            ],
            [
              5.0071573,
              50.6974271
            ],
            [
              5.0051247,
              50.6965102
            ],
            [
              5.0025817,
              50.6959618
            ],
            [
              5.0011291,
              50.693778
            ],
            [
              5.0013157,
              50.6937344
            ],
            [
              5.0006532,
              50.6926001
            ],
            [
              5.0002649,
              50.6916489
            ],
            [
              5.0000407,
              50.6908336
            ],
            [
              5.0004964,
              50.686326
            ],
            [
              5.000122,
              50.686352
            ],
            [
              4.999195,
              50.6859196
            ],
            [
              4.9987992,
              50.6856289
            ],
            [
              4.9988208,
              50.6854117
            ],
            [
              4.9981922,
              50.6848068
            ],
            [
              4.9981222,
              50.6845677
            ],
            [
              4.9976793,
              50.6841626
            ],
            [
              4.9976564,
              50.6839845
            ],
            [
              4.9973833,
              50.6837047
            ],
            [
              4.9975294,
              50.6834345
            ],
            [
              4.9981578,
              50.6832505
            ],
            [
              4.9983412,
              50.683009
            ],
            [
              4.9978634,
              50.6823557
            ],
            [
              4.9974,
              50.6819681
            ],
            [
              4.9973383,
              50.6817478
            ],
            [
              4.9976863,
              50.6801204
            ],
            [
              4.9976467,
              50.6795555
            ],
            [
              4.998009,
              50.6790174
            ],
            [
              4.9988583,
              50.6782293
            ],
            [
              4.9990496,
              50.6778323
            ],
            [
              4.999054,
              50.6775561
            ],
            [
              4.9988101,
              50.6767466
            ],
            [
              4.9987539,
              50.6754655
            ],
            [
              4.9992832,
              50.6753427
            ],
            [
              4.9974041,
              50.6727741
            ],
            [
              4.9968426,
              50.6722689
            ],
            [
              4.996515,
              50.6716365
            ],
            [
              4.996971,
              50.6715493
            ],
            [
              4.9968053,
              50.6709702
            ],
            [
              4.9968235,
              50.6706795
            ],
            [
              4.9969776,
              50.670469
            ],
            [
              4.9971364,
              50.67039
            ],
            [
              4.9974689,
              50.6703933
            ],
            [
              4.9991353,
              50.6693691
            ],
            [
              4.9988649,
              50.6691532
            ],
            [
              4.9996565,
              50.6687008
            ],
            [
              5.0008513,
              50.6676817
            ],
            [
              5.0009737,
              50.6674136
            ],
            [
              5.0009349,
              50.6670977
            ],
            [
              5.0007894,
              50.6669902
            ],
            [
              5.0018966,
              50.6657379
            ],
            [
              5.002153,
              50.6653508
            ],
            [
              5.0026512,
              50.6649908
            ],
            [
              4.9937351,
              50.6593996
            ],
            [
              4.990587,
              50.6566789
            ],
            [
              4.9888208,
              50.6534194
            ],
            [
              4.9886797,
              50.6526533
            ],
            [
              4.9877597,
              50.6510845
            ],
            [
              4.9879919,
              50.6498292
            ],
            [
              4.9882805,
              50.6492881
            ],
            [
              4.9887402,
              50.6486704
            ],
            [
              4.9892241,
              50.6477026
            ],
            [
              4.9871404,
              50.6472147
            ],
            [
              4.9881154,
              50.6454251
            ],
            [
              4.985574,
              50.6443526
            ],
            [
              4.9844347,
              50.6435099
            ],
            [
              4.9828089,
              50.6417506
            ],
            [
              4.9802999,
              50.6402773
            ],
            [
              4.9788934,
              50.6395607
            ],
            [
              4.9742679,
              50.6426724
            ],
            [
              4.9727877,
              50.6439511
            ],
            [
              4.9687455,
              50.6464842
            ],
            [
              4.9667632,
              50.6479141
            ],
            [
              4.9652152,
              50.6484447
            ],
            [
              4.9620577,
              50.6468063
            ],
            [
              4.9568118,
              50.6448674
            ],
            [
              4.9554292,
              50.6462666
            ],
            [
              4.9536709,
              50.6477157
            ],
            [
              4.9505992,
              50.6469224
            ],
            [
              4.9425975,
              50.6423023
            ],
            [
              4.9416555,
              50.6430626
            ],
            [
              4.9406321,
              50.6436851
            ],
            [
              4.9402095,
              50.643853
            ],
            [
              4.935614,
              50.6446569
            ],
            [
              4.9341496,
              50.645032
            ],
            [
              4.9344344,
              50.6453105
            ],
            [
              4.9329803,
              50.6459401
            ],
            [
              4.9348993,
              50.6479885
            ],
            [
              4.9338884,
              50.6487527
            ],
            [
              4.9308749,
              50.6514021
            ],
            [
              4.9262656,
              50.6527185
            ],
            [
              4.9257547,
              50.6518508
            ],
            [
              4.9253095,
              50.6513025
            ],
            [
              4.9243379,
              50.6504386
            ],
            [
              4.9234766,
              50.6498853
            ],
            [
              4.921918,
              50.650465
            ],
            [
              4.9206432,
              50.6511633
            ],
            [
              4.91999,
              50.6513628
            ],
            [
              4.9194184,
              50.65144
            ],
            [
              4.920252,
              50.6523872
            ],
            [
              4.9211205,
              50.6531851
            ],
            [
              4.9214175,
              50.6536294
            ],
            [
              4.9218056,
              50.6538687
            ],
            [
              4.9218224,
              50.6540648
            ],
            [
              4.9225204,
              50.6544215
            ],
            [
              4.9233875,
              50.6546489
            ],
            [
              4.9233655,
              50.6548309
            ],
            [
              4.923549,
              50.6549197
            ],
            [
              4.923532,
              50.6550078
            ],
            [
              4.9231921,
              50.6552438
            ],
            [
              4.9244164,
              50.6564856
            ],
            [
              4.9249431,
              50.6565879
            ],
            [
              4.9260489,
              50.6572991
            ],
            [
              4.9265462,
              50.6577672
            ],
            [
              4.927009,
              50.6580617
            ],
            [
              4.9294009,
              50.6594004
            ],
            [
              4.9290353,
              50.6595397
            ],
            [
              4.9304361,
              50.6607905
            ],
            [
              4.9305603,
              50.6607533
            ],
            [
              4.932112,
              50.6623114
            ],
            [
              4.9313392,
              50.6630296
            ],
            [
              4.9294151,
              50.6656633
            ],
            [
              4.9312915,
              50.6664938
            ],
            [
              4.932732,
              50.6667528
            ],
            [
              4.9334721,
              50.6669833
            ],
            [
              4.9353013,
              50.667814
            ],
            [
              4.9315665,
              50.6707043
            ],
            [
              4.9314181,
              50.6708912
            ],
            [
              4.9315192,
              50.671063
            ],
            [
              4.930322,
              50.6719415
            ],
            [
              4.9302855,
              50.6720687
            ],
            [
              4.928396,
              50.6737623
            ],
            [
              4.92553,
              50.6755709
            ],
            [
              4.9251768,
              50.6762468
            ],
            [
              4.9243242,
              50.6766109
            ],
            [
              4.9226531,
              50.6780875
            ],
            [
              4.9223754,
              50.6779963
            ],
            [
              4.9219681,
              50.6786145
            ],
            [
              4.9218287,
              50.6786201
            ],
            [
              4.920941,
              50.6797239
            ],
            [
              4.9199482,
              50.68114
            ],
            [
              4.9197561,
              50.6815903
            ],
            [
              4.9198101,
              50.6816101
            ],
            [
              4.9190475,
              50.6832922
            ],
            [
              4.9198485,
              50.6836104
            ],
            [
              4.9182634,
              50.6847212
            ],
            [
              4.9178037,
              50.6844835
            ],
            [
              4.9173659,
              50.6849842
            ],
            [
              4.9165495,
              50.6853111
            ],
            [
              4.9159734,
              50.6854395
            ],
            [
              4.9150852,
              50.6845765
            ],
            [
              4.9134209,
              50.684978
            ],
            [
              4.912357,
              50.6857022
            ],
            [
              4.912002,
              50.6855171
            ],
            [
              4.9118023,
              50.685659
            ],
            [
              4.911511,
              50.685567
            ]
          ]
        ]
      },
      "properties": {
        "type": "boundary",
        "gemeente": "Orp-Jauche"
      }
    }
  ]
}