{
  "type": "FeatureCollection",
  "metadata": {
    "gemeente": "Oud-Turnhout",
    "slug": "oud-turnhout",
    "generated_at": "2026-09-25T22:11:42.658878Z",
    "total_points": 22,
    "providers": [
      "bpost",
      "DHL",
      "GLS",
      "InPost",
      "VintedGo",
      "PostNL",
      "DPD",
      "Amazon"
    ],
    "bounds": [
      4.96827,
      51.31292,
      4.99021,
      51.32641
    ]
  },
  "features": [
    {
      "type": "Feature",
      "geometry": {
        "type": "Point",
        "coordinates": [
          4.96827,
          51.32598
        ]
      },
      "properties": {
        "type": "pakketpunt",
        "locatieNaam": "Bbox 24/7 Janssens-Geerinck",
        "straatNaam": "Noord-Brabantlaan",
        "straatNr": "16",
        "vervoerder": "bpost",
        "puntType": "automaat",
        "bezettingsgraad": 50,
        "latitude": 51.32598,
        "longitude": 4.96827,
        "canPickup": true,
        "canDropoff": true,
        "openingstijden": null
      }
    },
    {
      "type": "Feature",
      "geometry": {
        "type": "Point",
        "coordinates": [
          4.98043,
          51.31856
        ]
      },
      "properties": {
        "type": "pakketpunt",
        "locatieNaam": "Oud-Turnhout",
        "straatNaam": "Steenweg Op Turnhout",
        "straatNr": "1",
        "vervoerder": "bpost",
        "puntType": "postkantoor",
        "bezettingsgraad": 50,
        "latitude": 51.31856,
        "longitude": 4.98043,
        "canPickup": true,
        "canDropoff": true,
        "openingstijden": null
      }
    },
    {
      "type": "Feature",
      "geometry": {
        "type": "Point",
        "coordinates": [
          4.98519,
          51.31662
        ]
      },
      "properties": {
        "type": "pakketpunt",
        "locatieNaam": "E-Way Elektronische Sigaretten Bv",
        "straatNaam": "Steenweg Op Mol",
        "straatNr": "54",
        "vervoerder": "bpost",
        "puntType": "servicepunt",
        "bezettingsgraad": 50,
        "latitude": 51.31662,
        "longitude": 4.98519,
        "canPickup": true,
        "canDropoff": true,
        "openingstijden": null
      }
    },
    {
      "type": "Feature",
      "geometry": {
        "type": "Point",
        "coordinates": [
          4.98989,
          51.31292
        ]
      },
      "properties": {
        "type": "pakketpunt",
        "locatieNaam": "Bbox Lidl Oud-Turnhout",
        "straatNaam": "Steenweg Op Mol",
        "straatNr": "89",
        "vervoerder": "bpost",
        "puntType": "automaat",
        "bezettingsgraad": 50,
        "latitude": 51.31292,
        "longitude": 4.98989,
        "canPickup": true,
        "canDropoff": true,
        "openingstijden": null
      }
    },
    {
      "type": "Feature",
      "geometry": {
        "type": "Point",
        "coordinates": [
          4.96827,
          51.32598
        ]
      },
      "properties": {
        "type": "pakketpunt",
        "locatieNaam": "BBOX 24/7 JANSSENS-GEERINCK",
        "straatNaam": "NOORD-BRABANTLAAN",
        "straatNr": "16",
        "vervoerder": "DHL",
        "puntType": "packStation",
        "bezettingsgraad": 50,
        "latitude": 51.32598,
        "longitude": 4.96827,
        "canPickup": true,
        "canDropoff": true,
        "openingstijden": {
          "ma": "00:00 - 23:59",
          "di": "00:00 - 23:59",
          "wo": "00:00 - 23:59",
          "do": "00:00 - 23:59",
          "vr": "00:00 - 23:59",
          "za": "00:00 - 23:59",
          "zo": "00:00 - 23:59"
        }
      }
    },
    {
      "type": "Feature",
      "geometry": {
        "type": "Point",
        "coordinates": [
          4.980428,
          51.318557
        ]
      },
      "properties": {
        "type": "pakketpunt",
        "locatieNaam": "OUD-TURNHOUT",
        "straatNaam": "STEENWEG OP TURNHOUT",
        "straatNr": "1",
        "vervoerder": "DHL",
        "puntType": "postOffice",
        "bezettingsgraad": 50,
        "latitude": 51.318557,
        "longitude": 4.980428,
        "canPickup": true,
        "canDropoff": true,
        "openingstijden": {
          "ma": "09:30 - 12:30, 13:30 - 17:00",
          "di": "09:30 - 12:30, 13:30 - 19:00",
          "wo": "09:30 - 12:30, 13:30 - 17:00",
          "do": "09:30 - 12:30, 13:30 - 17:00",
          "vr": "09:30 - 12:30, 13:30 - 17:00",
          "za": "09:30 - 13:00",
          "zo": "gesloten"
        }
      }
    },
    {
      "type": "Feature",
      "geometry": {
        "type": "Point",
        "coordinates": [
          4.985189,
          51.316624
        ]
      },
      "properties": {
        "type": "pakketpunt",
        "locatieNaam": "E-WAY ELEKTRONISCHE SIGARETTEN BV",
        "straatNaam": "STEENWEG OP MOL",
        "straatNr": "54",
        "vervoerder": "DHL",
        "puntType": "parcelShop",
        "bezettingsgraad": 50,
        "latitude": 51.316624,
        "longitude": 4.985189,
        "canPickup": true,
        "canDropoff": true,
        "openingstijden": {
          "ma": "11:00 - 17:30",
          "di": "10:00 - 17:30",
          "wo": "10:00 - 17:30",
          "do": "10:00 - 17:30",
          "vr": "10:00 - 17:30",
          "za": "10:00 - 17:00",
          "zo": "gesloten"
        }
      }
    },
    {
      "type": "Feature",
      "geometry": {
        "type": "Point",
        "coordinates": [
          4.989886,
          51.31292
        ]
      },
      "properties": {
        "type": "pakketpunt",
        "locatieNaam": "BBOX LIDL OUD-TURNHOUT",
        "straatNaam": "STEENWEG OP MOL",
        "straatNr": "89",
        "vervoerder": "DHL",
        "puntType": "packStation",
        "bezettingsgraad": 50,
        "latitude": 51.31292,
        "longitude": 4.989886,
        "canPickup": true,
        "canDropoff": true,
        "openingstijden": {
          "ma": "08:30 - 20:00",
          "di": "08:30 - 20:00",
          "wo": "08:30 - 20:00",
          "do": "08:30 - 20:00",
          "vr": "08:30 - 20:00",
          "za": "08:30 - 19:00",
          "zo": "gesloten"
        }
      }
    },
    {
      "type": "Feature",
      "geometry": {
        "type": "Point",
        "coordinates": [
          4.97301,
          51.32062
        ]
      },
      "properties": {
        "type": "pakketpunt",
        "locatieNaam": "PC Vision",
        "straatNaam": "Steenweg Op Turnhout",
        "straatNr": "98",
        "vervoerder": "GLS",
        "puntType": "parcel_shop",
        "bezettingsgraad": 50,
        "latitude": 51.32062,
        "longitude": 4.97301,
        "canPickup": true,
        "canDropoff": true,
        "openingstijden": "vr: 09:00 - 18:00; za: 09:00 - 17:00"
      }
    },
    {
      "type": "Feature",
      "geometry": {
        "type": "Point",
        "coordinates": [
          4.96872,
          51.32641
        ]
      },
      "properties": {
        "type": "pakketpunt",
        "locatieNaam": "Guns",
        "straatNaam": "Ambachtstraat",
        "straatNr": "8",
        "vervoerder": "GLS",
        "puntType": "parcel_shop",
        "bezettingsgraad": 50,
        "latitude": 51.32641,
        "longitude": 4.96872,
        "canPickup": true,
        "canDropoff": true,
        "openingstijden": "vr: 08:30 - 17:30; za: 09:00 - 13:00"
      }
    },
    {
      "type": "Feature",
      "geometry": {
        "type": "Point",
        "coordinates": [
          4.97297,
          51.32053
        ]
      },
      "properties": {
        "type": "pakketpunt",
        "locatieNaam": "PC VISION",
        "straatNaam": "98 STEENWEG OP TURNHOUT",
        "straatNr": "",
        "vervoerder": "InPost",
        "puntType": "servicepunt",
        "bezettingsgraad": 50,
        "latitude": 51.32053,
        "longitude": 4.97297,
        "canPickup": true,
        "canDropoff": true,
        "openingstijden": null
      }
    },
    {
      "type": "Feature",
      "geometry": {
        "type": "Point",
        "coordinates": [
          4.97942,
          51.31916
        ]
      },
      "properties": {
        "type": "pakketpunt",
        "locatieNaam": "E-WAY ELEKTRONISCHE SIGARETTEN",
        "straatNaam": "Steenweg op mol 54/1",
        "straatNr": "",
        "vervoerder": "InPost",
        "puntType": "servicepunt",
        "bezettingsgraad": 50,
        "latitude": 51.31916,
        "longitude": 4.97942,
        "canPickup": true,
        "canDropoff": true,
        "openingstijden": null
      }
    },
    {
      "type": "Feature",
      "geometry": {
        "type": "Point",
        "coordinates": [
          4.99021,
          51.31295
        ]
      },
      "properties": {
        "type": "pakketpunt",
        "locatieNaam": "",
        "straatNaam": "Steenweg op Mol",
        "straatNr": "89",
        "vervoerder": "InPost",
        "puntType": "automaat",
        "bezettingsgraad": 50,
        "latitude": 51.31295,
        "longitude": 4.99021,
        "canPickup": true,
        "canDropoff": true,
        "openingstijden": "MON|08:30-20:00|-;TUE|08:30-20:00|-;WED|08:30-20:00|-;THU|08:30-20:00|-;FRI|08:30-20:00|-;SAT|08:30-20:00|-;SUN|-|-;"
      }
    },
    {
      "type": "Feature",
      "geometry": {
        "type": "Point",
        "coordinates": [
          4.97301,
          51.32062
        ]
      },
      "properties": {
        "type": "pakketpunt",
        "locatieNaam": "PC VISION ",
        "straatNaam": "Steenweg op Turnhout",
        "straatNr": "98",
        "vervoerder": "VintedGo",
        "puntType": "parcel_shop",
        "bezettingsgraad": 50,
        "latitude": 51.32062,
        "longitude": 4.97301,
        "canPickup": true,
        "canDropoff": true,
        "openingstijden": null
      }
    },
    {
      "type": "Feature",
      "geometry": {
        "type": "Point",
        "coordinates": [
          4.9854,
          51.31676
        ]
      },
      "properties": {
        "type": "pakketpunt",
        "locatieNaam": "E-way Elektronische Sigaretten BV",
        "straatNaam": "Steenweg op Mol",
        "straatNr": "54",
        "vervoerder": "VintedGo",
        "puntType": "parcel_shop",
        "bezettingsgraad": 50,
        "latitude": 51.31676,
        "longitude": 4.9854,
        "canPickup": true,
        "canDropoff": true,
        "openingstijden": null
      }
    },
    {
      "type": "Feature",
      "geometry": {
        "type": "Point",
        "coordinates": [
          4.977992,
          51.31917
        ]
      },
      "properties": {
        "type": "pakketpunt",
        "locatieNaam": "Krantenwinkel Stop & Shop",
        "straatNaam": "Steenweg op Turnhout",
        "straatNr": "37A",
        "vervoerder": "PostNL",
        "puntType": "servicepunt",
        "bezettingsgraad": 50,
        "latitude": 51.31917,
        "longitude": 4.977992,
        "canPickup": true,
        "canDropoff": true,
        "openingstijden": "07:00 - 23:45"
      }
    },
    {
      "type": "Feature",
      "geometry": {
        "type": "Point",
        "coordinates": [
          4.985384,
          51.316765
        ]
      },
      "properties": {
        "type": "pakketpunt",
        "locatieNaam": "E-Way elektronische sigaretten",
        "straatNaam": "Steenweg op Mol",
        "straatNr": "54-1",
        "vervoerder": "PostNL",
        "puntType": "servicepunt",
        "bezettingsgraad": 50,
        "latitude": 51.316765,
        "longitude": 4.985384,
        "canPickup": true,
        "canDropoff": true,
        "openingstijden": "10:00 - 17:30"
      }
    },
    {
      "type": "Feature",
      "geometry": {
        "type": "Point",
        "coordinates": [
          4.9825,
          51.31742
        ]
      },
      "properties": {
        "type": "pakketpunt",
        "locatieNaam": "E-WAY ELEKTRONISCHE SIGARETTEN BV",
        "straatNaam": "STEENWEG OP MOL",
        "straatNr": "54/1",
        "vervoerder": "DPD",
        "puntType": "pickup_point",
        "bezettingsgraad": 50,
        "latitude": 51.31742,
        "longitude": 4.9825,
        "canPickup": true,
        "canDropoff": true,
        "openingstijden": {
          "ma": "11:00 - 17:30",
          "di": "10:00 - 17:30",
          "wo": "10:00 - 17:30",
          "do": "10:00 - 17:30",
          "vr": "10:00 - 17:30",
          "za": "10:00 - 17:30",
          "zo": "gesloten"
        }
      }
    },
    {
      "type": "Feature",
      "geometry": {
        "type": "Point",
        "coordinates": [
          4.989886,
          51.31292
        ]
      },
      "properties": {
        "type": "pakketpunt",
        "locatieNaam": "bpost - BBOX LIDL OUD-TURNHOUT",
        "straatNaam": "STEENWEG OP MOL,89",
        "straatNr": "",
        "vervoerder": "Amazon",
        "puntType": "3p",
        "bezettingsgraad": 50,
        "latitude": 51.31292,
        "longitude": 4.989886,
        "canPickup": true,
        "canDropoff": false,
        "openingstijden": null
      }
    },
    {
      "type": "Feature",
      "geometry": {
        "type": "Point",
        "coordinates": [
          4.985189,
          51.316624
        ]
      },
      "properties": {
        "type": "pakketpunt",
        "locatieNaam": "bpost - E-WAY ELEKTRONISCHE SIGARETTEN BV",
        "straatNaam": "STEENWEG OP MOL,54",
        "straatNr": "",
        "vervoerder": "Amazon",
        "puntType": "3p",
        "bezettingsgraad": 50,
        "latitude": 51.316624,
        "longitude": 4.985189,
        "canPickup": true,
        "canDropoff": false,
        "openingstijden": null
      }
    },
    {
      "type": "Feature",
      "geometry": {
        "type": "Point",
        "coordinates": [
          4.980428,
          51.318557
        ]
      },
      "properties": {
        "type": "pakketpunt",
        "locatieNaam": "bpost - OUD-TURNHOUT",
        "straatNaam": "STEENWEG OP TURNHOUT,1",
        "straatNr": "",
        "vervoerder": "Amazon",
        "puntType": "3p",
        "bezettingsgraad": 50,
        "latitude": 51.318557,
        "longitude": 4.980428,
        "canPickup": true,
        "canDropoff": false,
        "openingstijden": null
      }
    },
    {
      "type": "Feature",
      "geometry": {
        "type": "Point",
        "coordinates": [
          4.96827,
          51.32598
        ]
      },
      "properties": {
        "type": "pakketpunt",
        "locatieNaam": "bpost - BBOX 24/7 JANSSENS-GEERINCK",
        "straatNaam": "NOORD-BRABANTLAAN,16",
        "straatNr": "",
        "vervoerder": "Amazon",
        "puntType": "3p",
        "bezettingsgraad": 50,
        "latitude": 51.32598,
        "longitude": 4.96827,
        "canPickup": true,
        "canDropoff": false,
        "openingstijden": null
      }
    },
    {
      "type": "Feature",
      "geometry": {
        "type": "MultiPolygon",
        "coordinates": [
          [
            [
              [
                4.978748189016377,
                51.31607453007689
              ],
              [
                4.978367991988349,
                51.316189659054864
              ],
              [
                4.978007630945375,
                51.316327585839296
              ],
              [
                4.977677518999292,
                51.31648369894145
              ],
              [
                4.9775345780349705,
                51.31648884766126
              ],
              [
                4.977117417776419,
                51.31652985238221
              ],
              [
                4.976708678793719,
                51.31659628177257
              ],
              [
                4.976312296851602,
                51.31668749618607
              ],
              [
                4.975932088788273,
                51.316802617317975
              ],
              [
                4.975571715777811,
                51.31694053665824
              ],
              [
                4.9752346480878575,
                51.317099926160544
              ],
              [
                4.974924131671405,
                51.31727925102477
              ],
              [
                4.97464315691391,
                51.317476784469925
              ],
              [
                4.9743944298364555,
                51.31769062435574
              ],
              [
                4.974180346032203,
                51.31791871149303
              ],
              [
                4.9741644871965915,
                51.31794018156875
              ],
              [
                4.973774554884306,
                51.317881120964124
              ],
              [
                4.973356353885615,
                51.31784446084928
              ],
              [
                4.972934432729969,
                51.31783366247576
              ],
              [
                4.972512854047222,
                51.31784882982017
              ],
              [
                4.972095677171306,
                51.31788981683744
              ],
              [
                4.971686919073492,
                51.31795622886634
              ],
              [
                4.971290515702513,
                51.31804742642781
              ],
              [
                4.970910284102855,
                51.318162531379365
              ],
              [
                4.970549885675164,
                51.318300435366744
              ],
              [
                4.970212790931763,
                51.318459810491504
              ],
              [
                4.969902246086075,
                51.318639122091966
              ],
              [
                4.969621241797253,
                51.31883664351489
              ],
              [
                4.96937248437069,
                51.31905047273579
              ],
              [
                4.96915836969175,
                51.3192785506682
              ],
              [
                4.9689809601438,
                51.31951868098593
              ],
              [
                4.968841964733194,
                51.319768551267614
              ],
              [
                4.968742722613117,
                51.320025755260254
              ],
              [
                4.968684190165615,
                51.320287816047546
              ],
              [
                4.96866693176706,
                51.32055220990023
              ],
              [
                4.96869111432688,
                51.32081639057861
              ],
              [
                4.968756505653171,
                51.3210778138536
              ],
              [
                4.968862476661954,
                51.32133396201002
              ],
              [
                4.968871863014121,
                51.32134998363832
              ],
              [
                4.96890246940746,
                51.32142396336582
              ],
              [
                4.969048000650394,
                51.321672369393255
              ],
              [
                4.969231690693699,
                51.32191064091149
              ],
              [
                4.969451770939491,
                51.32213648306617
              ],
              [
                4.969706122216343,
                51.32234772068152
              ],
              [
                4.969992295175707,
                51.32254231921595
              ],
              [
                4.970307533873043,
                51.32271840436362
              ],
              [
                4.970648802306856,
                51.32287428011354
              ],
              [
                4.971012813660143,
                51.323008445091126
              ],
              [
                4.971396061962515,
                51.32311960702533
              ],
              [
                4.971794855867749,
                51.32320669520109
              ],
              [
                4.972205354220992,
                51.32326887077725
              ],
              [
                4.972623603072361,
                51.323305534870244
              ],
              [
                4.973045573779733,
                51.323316334325504
              ],
              [
                4.973467201832783,
                51.323301165120704
              ],
              [
                4.973884426023415,
                51.32326017336835
              ],
              [
                4.974293227584308,
                51.32319375390758
              ],
              [
                4.974689668917595,
                51.32310254649922
              ],
              [
                4.9750699315397435,
                51.32298742966039
              ],
              [
                4.975430352876266,
                51.32284951219859
              ],
              [
                4.975767461551128,
                51.32269012252672
              ],
              [
                4.97607801083036,
                51.32251079586241
              ],
              [
                4.976359009897293,
                51.32231325943497
              ],
              [
                4.976607752657969,
                51.32209941584298
              ],
              [
                4.976821843799192,
                51.32187132472299
              ],
              [
                4.976893467332411,
                51.3217743581234
              ],
              [
                4.97718766294423,
                51.32181890622545
              ],
              [
                4.977605902686127,
                51.32185555275644
              ],
              [
                4.978027861398069,
                51.321866334477434
              ],
              [
                4.978449474685289,
                51.32185114753695
              ],
              [
                4.978755000040802,
                51.32182111609041
              ],
              [
                4.9790339851965495,
                51.321845557420225
              ],
              [
                4.97945594414868,
                51.32185633405616
              ],
              [
                4.979877556879017,
                51.32184114203466
              ],
              [
                4.9802947623270875,
                51.32180012768801
              ],
              [
                4.980703541906153,
                51.321733686072996
              ],
              [
                4.981099958230137,
                51.3216424571638
              ],
              [
                4.981480193056479,
                51.321527319684655
              ],
              [
                4.981840584078497,
                51.321389382641826
              ],
              [
                4.982177660212234,
                51.32122997463686
              ],
              [
                4.982488175037236,
                51.3210506310639
              ],
              [
                4.9827691380687735,
                51.32085307931513
              ],
              [
                4.982837330619723,
                51.32079444207148
              ],
              [
                4.982850601257776,
                51.32078936257507
              ],
              [
                4.983187669583958,
                51.32062995165667
              ],
              [
                4.983498176511225,
                51.32045060539161
              ],
              [
                4.983779131630926,
                51.32025305119802
              ],
              [
                4.984027829272471,
                51.320039191845574
              ],
              [
                4.9841495959726485,
                51.31990942729595
              ],
              [
                4.984180059734674,
                51.31990241531996
              ],
              [
                4.984560272718508,
                51.31978726787306
              ],
              [
                4.984920641130895,
                51.319649321361574
              ],
              [
                4.9852576941056945,
                51.31948990447822
              ],
              [
                4.985311934768744,
                51.31945857313813
              ],
              [
                4.985420287918223,
                51.3194613349658
              ],
              [
                4.985841876997328,
                51.31944612170862
              ],
              [
                4.986259055710767,
                51.31940508632212
              ],
              [
                4.986667805729374,
                51.31933862406575
              ],
              [
                4.987064189951875,
                51.31924737511251
              ],
              [
                4.987444390444989,
                51.31913221837967
              ],
              [
                4.987446315658234,
                51.31913148135166
              ],
              [
                4.9874603910376045,
                51.31912721810644
              ],
              [
                4.987820745739268,
                51.318989262736814
              ],
              [
                4.9881577839958995,
                51.318829837559974
              ],
              [
                4.988468259751955,
                51.31865047813549
              ],
              [
                4.988749182899076,
                51.318452912008176
              ],
              [
                4.988997848074674,
                51.31823904206266
              ],
              [
                4.989211860712928,
                51.31801092818921
              ],
              [
                4.989389160097463,
                51.31777076743809
              ],
              [
                4.989528039194031,
                51.317520872853414
              ],
              [
                4.989627161072648,
                51.317263651190956
              ],
              [
                4.989685571761762,
                51.317001579734594
              ],
              [
                4.989702709411457,
                51.31673718243499
              ],
              [
                4.9896784096783415,
                51.316473005600194
              ],
              [
                4.989612907281323,
                51.31621159337271
              ],
              [
                4.989506833714252,
                51.315955463228946
              ],
              [
                4.989361211138554,
                51.315707081737024
              ],
              [
                4.989267167882536,
                51.315585162720815
              ],
              [
                4.989380753332782,
                51.31559510488234
              ],
              [
                4.9894064660053,
                51.315598996074655
              ],
              [
                4.989824659458109,
                51.31563559957617
              ],
              [
                4.9902465645915,
                51.315646337816865
              ],
              [
                4.990668117526865,
                51.31563110736405
              ],
              [
                4.991085257779803,
                51.31559005492016
              ],
              [
                4.99149396739168,
                51.31552357590897
              ],
              [
                4.991890309650505,
                51.315432310664825
              ],
              [
                4.99227046702728,
                51.31531713826197
              ],
              [
                4.992630777961486,
                51.31517916804299
              ],
              [
                4.992967772140719,
                51.31501972892897
              ],
              [
                4.99327820393404,
                51.314840356613665
              ],
              [
                4.993559083656582,
                51.31464277876607
              ],
              [
                4.993807706364033,
                51.31442889838362
              ],
              [
                4.9940216778996165,
                51.31420077545713
              ],
              [
                4.994198937942822,
                51.31396060712401
              ],
              [
                4.994337779838272,
                51.313710706501375
              ],
              [
                4.994436867014218,
                51.31345348040312
              ],
              [
                4.994495245833254,
                51.31319140615582
              ],
              [
                4.994512354752303,
                51.31292700773698
              ],
              [
                4.994488029704559,
                51.31266283146543
              ],
              [
                4.994422505652596,
                51.31240142147818
              ],
              [
                4.994316414298678,
                51.31214529523004
              ],
              [
                4.9941707779753814,
                51.31189691925164
              ],
              [
                4.9939869997763555,
                51.31165868539941
              ],
              [
                4.993766850023156,
                51.311432887826165
              ],
              [
                4.993512449199294,
                51.31122170089357
              ],
              [
                4.993226247516482,
                51.31102715823931
              ],
              [
                4.992911001310359,
                51.31085113320003
              ],
              [
                4.992569746493289,
                51.31069532077828
              ],
              [
                4.992205769319972,
                51.3105612213271
              ],
              [
                4.991822574747313,
                51.310450126108606
              ],
              [
                4.99142385269292,
                51.31036310486572
              ],
              [
                4.991013442516682,
                51.3103009955263
              ],
              [
                4.990724656910448,
                51.3102757189567
              ],
              [
                4.990693460213901,
                51.31027099766297
              ],
              [
                4.990275314285256,
                51.310234397145415
              ],
              [
                4.989853458209757,
                51.310223658982764
              ],
              [
                4.989851804909908,
                51.3102237187141
              ],
              [
                4.989849458441517,
                51.310223658981535
              ],
              [
                4.989427954221153,
                51.31023888655638
              ],
              [
                4.989010860472088,
                51.31027993325794
              ],
              [
                4.988602193365351,
                51.31034640385033
              ],
              [
                4.988205887973739,
                51.310437658290496
              ],
              [
                4.987825760398526,
                51.31055281788828
              ],
              [
                4.987465471038941,
                51.31069077376322
              ],
              [
                4.987128489357309,
                51.3108501975172
              ],
              [
                4.986818060478583,
                51.31102955402021
              ],
              [
                4.986537173945423,
                51.31122711618657
              ],
              [
                4.986288534929468,
                51.3114409815994
              ],
              [
                4.986074538175955,
                51.311669090823656
              ],
              [
                4.985897244932732,
                51.31190924723171
              ],
              [
                4.985758363086174,
                51.31215913815089
              ],
              [
                4.985659230695799,
                51.31241635712932
              ],
              [
                4.9856008030868395,
                51.31267842710633
              ],
              [
                4.985583643625877,
                51.312942824264
              ],
              [
                4.985607918269319,
                51.31320700233076
              ],
              [
                4.985673393938176,
                51.313468417102584
              ],
              [
                4.9857794407358895,
                51.31372455094604
              ],
              [
                4.9859201420600465,
                51.31396458473359
              ],
              [
                4.985575616174455,
                51.31393441661491
              ],
              [
                4.985153727641343,
                51.3139236617341
              ],
              [
                4.984732188370349,
                51.31393887257843
              ],
              [
                4.984315057315989,
                51.313979902684025
              ],
              [
                4.983906351008433,
                51.3140463569747
              ],
              [
                4.983510004897862,
                51.31413759556448
              ],
              [
                4.983129835477551,
                51.31425273991578
              ],
              [
                4.982769503549582,
                51.31439068129498
              ],
              [
                4.982432478986108,
                51.314550091443536
              ],
              [
                4.9821220073249375,
                51.314729435362494
              ],
              [
                4.982112182212423,
                51.31473634447703
              ],
              [
                4.982042335492883,
                51.314738863090106
              ],
              [
                4.981625194895731,
                51.31477988371176
              ],
              [
                4.981216477720603,
                51.31484632870121
              ],
              [
                4.980820119522296,
                51.314937558261946
              ],
              [
                4.980439936910446,
                51.31505269394341
              ],
              [
                4.980079590814121,
                51.3151906270954
              ],
              [
                4.9797425512418645,
                51.315350029538656
              ],
              [
                4.979432063875976,
                51.31552936634838
              ],
              [
                4.97915111882223,
                51.31572691062856
              ],
              [
                4.978902421815724,
                51.31594076013459
              ],
              [
                4.978784792635009,
                51.316066106048005
              ],
              [
                4.978748189016377,
                51.31607453007689
              ]
            ]
          ],
          [
            [
              [
                4.971287998973208,
                51.324057727439474
              ],
              [
                4.970972747489796,
                51.32388164499989
              ],
              [
                4.970631470581188,
                51.323725770249396
              ],
              [
                4.970267454715115,
                51.32359160414117
              ],
              [
                4.969884205221284,
                51.32348043857924
              ],
              [
                4.969485412546285,
                51.323393343983874
              ],
              [
                4.969074916730075,
                51.32333115898923
              ],
              [
                4.968656670445491,
                51.323294482372006
              ],
              [
                4.9682347009559065,
                51.32328366728877
              ],
              [
                4.967813071356499,
                51.32329881787698
              ],
              [
                4.967395841471381,
                51.32333978825293
              ],
              [
                4.966987028782148,
                51.32340618391564
              ],
              [
                4.966590569763091,
                51.32349736554362
              ],
              [
                4.966210281994433,
                51.32361245514783
              ],
              [
                4.965849827417587,
                51.32375034452182
              ],
              [
                4.965512677085468,
                51.32390970590783
              ],
              [
                4.965202077746718,
                51.32408900477656
              ],
              [
                4.964921020585185,
                51.32428651459733
              ],
              [
                4.964672212415386,
                51.324500333457415
              ],
              [
                4.964458049611335,
                51.32472840237017
              ],
              [
                4.964280595019872,
                51.32496852509626
              ],
              [
                4.964141558081186,
                51.32521838928749
              ],
              [
                4.964042278348471,
                51.325475588749484
              ],
              [
                4.963983712566112,
                51.32573764660965
              ],
              [
                4.963966425431644,
                51.32600203916693
              ],
              [
                4.963990584131397,
                51.32626622019414
              ],
              [
                4.964055956703429,
                51.32652764545885
              ],
              [
                4.964161914244554,
                51.32678379722675
              ],
              [
                4.964307436941275,
                51.327032208511234
              ],
              [
                4.96449112386747,
                51.32727048683594
              ],
              [
                4.964711206455444,
                51.327496337281
              ],
              [
                4.964912742367148,
                51.32766371473487
              ],
              [
                4.9649411014204885,
                51.32770050094839
              ],
              [
                4.965161188227493,
                51.32792635051656
              ],
              [
                4.965415551678074,
                51.328137596822025
              ],
              [
                4.965701742306565,
                51.32833220523941
              ],
              [
                4.966017003998362,
                51.32850830136776
              ],
              [
                4.966358300530581,
                51.32866418909032
              ],
              [
                4.966722344815639,
                51.32879836691718
              ],
              [
                4.967105630565981,
                51.32890954245348
              ],
              [
                4.967504466074692,
                51.328996644853184
              ],
              [
                4.9679150097861635,
                51.329058835138134
              ],
              [
                4.968333307313572,
                51.32909551428309
              ],
              [
                4.96875532954587,
                51.32910632898844
              ],
              [
                4.9691770114763525,
                51.32909117508503
              ],
              [
                4.969594291377869,
                51.32905019853794
              ],
              [
                4.9700031499463835,
                51.3289837940399
              ],
              [
                4.97039964903482,
                51.32889260120756
              ],
              [
                4.970779969603246,
                51.32877749841771
              ],
              [
                4.971140448518946,
                51.32863959434248
              ],
              [
                4.971477613851216,
                51.32848021726589
              ],
              [
                4.971788218320317,
                51.32830090228425
              ],
              [
                4.972069270577976,
                51.32810337651438
              ],
              [
                4.97231806401792,
                51.32788954245224
              ],
              [
                4.972532202838859,
                51.3276614596426
              ],
              [
                4.9727096251090765,
                51.3274213248366
              ],
              [
                4.972848622610814,
                51.327171450828594
              ],
              [
                4.972947857273815,
                51.326914244176216
              ],
              [
                4.973006374040467,
                51.32665218201896
              ],
              [
                4.973023610039465,
                51.326387788217964
              ],
              [
                4.972999399980524,
                51.32612360904773
              ],
              [
                4.972933977719268,
                51.32586218867331
              ],
              [
                4.972827973978167,
                51.32560604464965
              ],
              [
                4.972682410246598,
                51.32535764367871
              ],
              [
                4.972498688919686,
                51.32511937785764
              ],
              [
                4.972278579771846,
                51.324893541647235
              ],
              [
                4.972077029360867,
                51.32472617652294
              ],
              [
                4.97204866647822,
                51.32468939197065
              ],
              [
                4.971828561549296,
                51.32446355488321
              ],
              [
                4.971574189067869,
                51.324252322012796
              ],
              [
                4.971287998973208,
                51.324057727439474
              ]
            ]
          ]
        ]
      },
      "properties": {
        "type": "buffer_union_300m",
        "buffer_m": 300
      }
    },
    {
      "type": "Feature",
      "geometry": {
        "type": "Polygon",
        "coordinates": [
          [
            [
              4.977681369230964,
              51.31540053692306
            ],
            [
              4.977200892800347,
              51.31558443633375
            ],
            [
              4.977124797290873,
              51.31562042257749
            ],
            [
              4.976825912423095,
              51.31564980108865
            ],
            [
              4.976280936605917,
              51.315738371987464
            ],
            [
              4.9757524356306755,
              51.315859989046096
            ],
            [
              4.975245498296787,
              51.31601348127448
            ],
            [
              4.9747650059102835,
              51.31619737075968
            ],
            [
              4.974315585304044,
              51.31640988688738
            ],
            [
              4.97390156430083,
              51.31664898338068
            ],
            [
              4.973526930047181,
              51.31691235799271
            ],
            [
              4.973484016628156,
              51.316949251719436
            ],
            [
              4.972922577889314,
              51.316934882616714
            ],
            [
              4.972360483770367,
              51.3169551053607
            ],
            [
              4.971804258277358,
              51.317009753695864
            ],
            [
              4.971259256974628,
              51.31709830144646
            ],
            [
              4.9707307274290065,
              51.31721989603601
            ],
            [
              4.970223758714892,
              51.317373366690845
            ],
            [
              4.969743232440348,
              51.31755723570573
            ],
            [
              4.96929377576443,
              51.317769732663464
            ],
            [
              4.968879716857086,
              51.31800881147176
            ],
            [
              4.968505043229722,
              51.318272170054065
            ],
            [
              4.968173363337216,
              51.31855727250514
            ],
            [
              4.967887871821047,
              51.318861373498414
            ],
            [
              4.96765131872845,
              51.319181544711086
            ],
            [
              4.967465983004606,
              51.31951470301239
            ],
            [
              4.967333650514053,
              51.319857640144726
            ],
            [
              4.967255596804187,
              51.32020705361165
            ],
            [
              4.9672325747782615,
              51.32055957847597
            ],
            [
              4.967264807398278,
              51.320911819761946
            ],
            [
              4.9673519854898185,
              51.32126038514948
            ],
            [
              4.96749327067177,
              51.32160191764575
            ],
            [
              4.9675026566064915,
              51.32161793938068
            ],
            [
              4.96753326099894,
              51.32169191945342
            ],
            [
              4.96772729437181,
              51.322023129648926
            ],
            [
              4.967972207675685,
              51.32234082762043
            ],
            [
              4.968022173599567,
              51.32239210340162
            ],
            [
              4.967660773511953,
              51.32240508943419
            ],
            [
              4.967104477342852,
              51.32245971558128
            ],
            [
              4.966559403254457,
              51.32254824151059
            ],
            [
              4.966030799514227,
              51.322669814855736
            ],
            [
              4.965523755910773,
              51.32282326504761
            ],
            [
              4.965043154773076,
              51.32300711457805
            ],
            [
              4.964593623980889,
              51.32321959321745
            ],
            [
              4.964179492417707,
              51.32345865505
            ],
            [
              4.9638047482944705,
              51.3237219981626
            ],
            [
              4.963473000744847,
              51.324007086799
            ],
            [
              4.9631874450618305,
              51.324311175765764
            ],
            [
              4.96295083191062,
              51.32463133685587
            ],
            [
              4.962765440814862,
              51.32496448703615
            ],
            [
              4.962633058172491,
              51.32530741812722
            ],
            [
              4.962554960014077,
              51.325656827690864
            ],
            [
              4.962531899671177,
              51.32600935082757
            ],
            [
              4.9625641004750864,
              51.32636159257823
            ],
            [
              4.962651253558101,
              51.326710160618354
            ],
            [
              4.962792520780282,
              51.32705169792962
            ],
            [
              4.962986542755394,
              51.32738291513427
            ],
            [
              4.963231451900479,
              51.3277006221809
            ],
            [
              4.963524890384994,
              51.32800175907587
            ],
            [
              4.963687155591406,
              51.328136524950445
            ],
            [
              4.963974866079859,
              51.32843177672321
            ],
            [
              4.964314014362558,
              51.32871344167252
            ],
            [
              4.964695600978591,
              51.32897292288824
            ],
            [
              4.965115951142687,
              51.32920772104126
            ],
            [
              4.9655710165099896,
              51.329415574515075
            ],
            [
              4.966056414169325,
              51.329594481201106
            ],
            [
              4.966567468867743,
              51.32974271779415
            ],
            [
              4.9670992580591316,
              51.329858856401586
            ],
            [
              4.967646659342151,
              51.32994177830616
            ],
            [
              4.968204399829461,
              51.32999068474895
            ],
            [
              4.968767106971316,
              51.330005104628654
            ],
            [
              4.969329360342432,
              51.32998489904249
            ],
            [
              4.969885743891618,
              51.32993026262533
            ],
            [
              4.97043089814912,
              51.329841721673326
            ],
            [
              4.9709595718870645,
              51.32972012907103
            ],
            [
              4.971466672733719,
              51.32956665607043
            ],
            [
              4.971947316252506,
              51.32938278100158
            ],
            [
              4.9723968730117125,
              51.329170275023884
            ],
            [
              4.972811013190411,
              51.32893118505579
            ],
            [
              4.973185748290214,
              51.32866781404751
            ],
            [
              4.973517469550609,
              51.328382698787735
            ],
            [
              4.973802982697765,
              51.328078585458314
            ],
            [
              4.974039538692404,
              51.3277584031728
            ],
            [
              4.974224860181159,
              51.327425235754774
            ],
            [
              4.974357163397589,
              51.32708229202749
            ],
            [
              4.97443517530311,
              51.3267328749021
            ],
            [
              4.974458145804258,
              51.32638034956204
            ],
            [
              4.974425854930227,
              51.32602811105036
            ],
            [
              4.974338614903357,
              51.32567955157254
            ],
            [
              4.974197267084479,
              51.32533802782922
            ],
            [
              4.974003173824359,
              51.325006828693944
            ],
            [
              4.973758205301475,
              51.324689143546685
            ],
            [
              4.973464721474522,
              51.32438803156799
            ],
            [
              4.973302441020378,
              51.32425327886686
            ],
            [
              4.97326466072695,
              51.324214515954615
            ],
            [
              4.973258201625744,
              51.32420788885241
            ],
            [
              4.973619614154352,
              51.32419488575922
            ],
            [
              4.9741759234193985,
              51.324140229068014
            ],
            [
              4.974721001663764,
              51.32405166816544
            ],
            [
              4.975249598391969,
              51.323930056128226
            ],
            [
              4.975756621974256,
              51.323776564395565
            ],
            [
              4.9762371887184536,
              51.323592671477876
            ],
            [
              4.976686669932499,
              51.323380148706505
            ],
            [
              4.977100736523233,
              51.3231410431616
            ],
            [
              4.977475400701131,
              51.322877657943394
            ],
            [
              4.9776188240095784,
              51.32275435518417
            ],
            [
              4.978039816121138,
              51.32276511195084
            ],
            [
              4.978601977964233,
              51.32274486231444
            ],
            [
              4.978767085188202,
              51.32272863339367
            ],
            [
              4.978905303692241,
              51.32274074226964
            ],
            [
              4.979467926457417,
              51.322755111389114
            ],
            [
              4.9800300875579495,
              51.322734854977945
            ],
            [
              4.98058637183169,
              51.32268016816048
            ],
            [
              4.981131420765443,
              51.32259157771843
            ],
            [
              4.981659984146179,
              51.32246993701302
            ],
            [
              4.982166970665496,
              51.32231641775957
            ],
            [
              4.982647496988375,
              51.32213249873363
            ],
            [
              4.983096934812262,
              51.321919951518
            ],
            [
              4.983510955462098,
              51.32168082342822
            ],
            [
              4.983854292874257,
              51.321439411097295
            ],
            [
              4.984106947306756,
              51.32131992087763
            ],
            [
              4.9845209574259615,
              51.3210807891984
            ],
            [
              4.984895563005502,
              51.32081738029213
            ],
            [
              4.9851371340888795,
              51.320609645230505
            ],
            [
              4.985247076880539,
              51.32057634867723
            ],
            [
              4.985727573056069,
              51.32039241702631
            ],
            [
              4.985825896071985,
              51.3203459128352
            ],
            [
              4.9859945143898585,
              51.32033982787717
            ],
            [
              4.986550763015825,
              51.320285113006065
            ],
            [
              4.9870957725338085,
              51.32019649504175
            ],
            [
              4.987624293110581,
              51.32007482761058
            ],
            [
              4.9881312338502,
              51.31992128268529
            ],
            [
              4.988133159085216,
              51.31992054564636
            ],
            [
              4.988147234640357,
              51.31991628232097
            ],
            [
              4.9886277125340275,
              51.319732338859076
            ],
            [
              4.989077099853117,
              51.319519768747526
            ],
            [
              4.989491068409188,
              51.31928061952241
            ],
            [
              4.989865631357275,
              51.319017194704614
            ],
            [
              4.990197181595276,
              51.31873203160101
            ],
            [
              4.990482526496776,
              51.31842787685409
            ],
            [
              4.9907189186430365,
              51.31810765997623
            ],
            [
              4.990904082258731,
              51.31777446512396
            ],
            [
              4.991036235097763,
              51.317431501384625
            ],
            [
              4.9911141055695625,
              51.31708207186195
            ],
            [
              4.991136944942402,
              51.316729541858585
            ],
            [
              4.991115438932668,
              51.31649581594749
            ],
            [
              4.991377032444194,
              51.31647007113786
            ],
            [
              4.991921988084293,
              51.31638143083344
            ],
            [
              4.992450452707229,
              51.31625974168081
            ],
            [
              4.992957335956182,
              51.316106175861904
            ],
            [
              4.993437755491176,
              51.31592221260078
            ],
            [
              4.993887084038559,
              51.31570962390629
            ],
            [
              4.994300993976108,
              51.315470457493454
            ],
            [
              4.994675499023561,
              51.31520701704872
            ],
            [
              4.995006992636572,
              51.31492184002945
            ],
            [
              4.995292282734147,
              51.314617673212084
            ],
            [
              4.995528622425379,
              51.31429744622523
            ],
            [
              4.995713736440104,
              51.31396424332275
            ],
            [
              4.9958458430098505,
              51.313621273669455
            ],
            [
              4.995923670989537,
              51.313271840425976
            ],
            [
              4.9959464720565085,
              51.31291930893074
            ],
            [
              4.995914027871039,
              51.31256707428587
            ],
            [
              4.9958266521311385,
              51.31221852865935
            ],
            [
              4.995685187503718,
              51.31187702861822
            ],
            [
              4.995490997463488,
              51.31154586280761
            ],
            [
              4.995245953119953,
              51.31122822028645
            ],
            [
              4.994952415160984,
              51.31092715982458
            ],
            [
              4.994613211088264,
              51.31064558045686
            ],
            [
              4.994231607964982,
              51.31038619357687
            ],
            [
              4.993811280939064,
              51.310151496838955
            ],
            [
              4.993356277845629,
              51.30994375011924
            ],
            [
              4.992870980229644,
              51.30976495376637
            ],
            [
              4.992360061164003,
              51.30961682935115
            ],
            [
              4.9918284402686615,
              51.30950080309978
            ],
            [
              4.991281236363128,
              51.30941799216975
            ],
            [
              4.99099245609079,
              51.30939271624356
            ],
            [
              4.990961259959003,
              51.30938799501862
            ],
            [
              4.9904037424978664,
              51.30933919524268
            ],
            [
              4.989841278553974,
              51.309324877963036
            ],
            [
              4.98983962528604,
              51.30932493769423
            ],
            [
              4.98983727886298,
              51.309324877961394
            ],
            [
              4.989275284023115,
              51.309345181011146
            ],
            [
              4.98871916936101,
              51.309399908923986
            ],
            [
              4.988174289374206,
              51.309488534757946
            ],
            [
              4.987645890461828,
              51.30961020518474
            ],
            [
              4.9871390604408905,
              51.30976374870041
            ],
            [
              4.986658679584463,
              51.30994768689817
            ],
            [
              4.986209373651838,
              51.3101602486946
            ],
            [
              4.985795469361887,
              51.310399387373
            ],
            [
              4.985420952737565,
              51.31066280028025
            ],
            [
              4.985089430722244,
              51.31094795098787
            ],
            [
              4.984804096437379,
              51.311252093704496
            ],
            [
              4.98456769841628,
              51.31157229970539
            ],
            [
              4.984382514110874,
              51.31190548552464
            ],
            [
              4.984250327927492,
              51.31224844263948
            ],
            [
              4.984172414004405,
              51.31259786836084
            ],
            [
              4.9841495238984095,
              51.31295039763336
            ],
            [
              4.984162001716522,
              51.31308623831625
            ],
            [
              4.9840234318166265,
              51.31309986815773
            ],
            [
              4.983478499564241,
              51.313188472256435
            ],
            [
              4.982950046362124,
              51.31331012154963
            ],
            [
              4.98244316054987,
              51.31346364473686
            ],
            [
              4.981962722937609,
              51.313647563607084
            ],
            [
              4.981513359830988,
              51.31386010726298
            ],
            [
              4.981467334903108,
              51.31388669343827
            ],
            [
              4.981333615253357,
              51.31389984286146
            ],
            [
              4.980788668511585,
              51.31398843455872
            ],
            [
              4.980260199193282,
              51.31411007181337
            ],
            [
              4.9797532957931585,
              51.31426358344094
            ],
            [
              4.979272839290625,
              51.31444749134166
            ],
            [
              4.978823456173155,
              51.31466002472388
            ],
            [
              4.978409473902645,
              51.314899137144515
            ],
            [
              4.978034879252779,
              51.31516252620336
            ],
            [
              4.977799777400991,
              51.31536468169187
            ],
            [
              4.977681369230964,
              51.31540053692306
            ]
          ]
        ]
      },
      "properties": {
        "type": "buffer_union_400m",
        "buffer_m": 400
      }
    },
    {
      "type": "Feature",
      "geometry": {
        "type": "Polygon",
        "coordinates": [
          [
            [
              4.9741018,
              51.3631003
            ],
            [
              4.9731082,
              51.3610257
            ],
            [
              4.9721515,
              51.3606954
            ],
            [
              4.9725244,
              51.3602862
            ],
            [
              4.973132,
              51.3603786
            ],
            [
              4.975166,
              51.359968
            ],
            [
              4.9758975,
              51.3596382
            ],
            [
              4.9766092,
              51.3590902
            ],
            [
              4.9775412,
              51.3579549
            ],
            [
              4.9784555,
              51.357541
            ],
            [
              4.9781855,
              51.357286
            ],
            [
              4.9781427,
              51.3569622
            ],
            [
              4.9781584,
              51.3567521
            ],
            [
              4.9783347,
              51.3565526
            ],
            [
              4.9790128,
              51.3562267
            ],
            [
              4.9801965,
              51.3559047
            ],
            [
              4.9804601,
              51.3560918
            ],
            [
              4.9804073,
              51.3558329
            ],
            [
              4.9816608,
              51.3548519
            ],
            [
              4.9817763,
              51.3549623
            ],
            [
              4.9824564,
              51.3548075
            ],
            [
              4.9841262,
              51.3547975
            ],
            [
              4.9846446,
              51.3544626
            ],
            [
              4.9863498,
              51.3542482
            ],
            [
              4.9987458,
              51.3573662
            ],
            [
              5.0026305,
              51.3582555
            ],
            [
              5.0175803,
              51.3555578
            ],
            [
              5.0208532,
              51.355068
            ],
            [
              5.0440211,
              51.3527262
            ],
            [
              5.0294755,
              51.3254102
            ],
            [
              5.031269,
              51.3227705
            ],
            [
              5.0343553,
              51.3178309
            ],
            [
              5.0398424,
              51.3094503
            ],
            [
              5.0408863,
              51.3096902
            ],
            [
              5.0434795,
              51.3100869
            ],
            [
              5.0464629,
              51.310911
            ],
            [
              5.0473486,
              51.309472
            ],
            [
              5.0478413,
              51.3094828
            ],
            [
              5.0491286,
              51.308168
            ],
            [
              5.0493136,
              51.3076251
            ],
            [
              5.049872,
              51.3070386
            ],
            [
              5.0502585,
              51.3067642
            ],
            [
              5.0504244,
              51.3068
            ],
            [
              5.0505657,
              51.3066559
            ],
            [
              5.0515842,
              51.3045814
            ],
            [
              5.0516513,
              51.304583
            ],
            [
              5.0516279,
              51.3039125
            ],
            [
              5.0518867,
              51.3038974
            ],
            [
              5.0518983,
              51.3034782
            ],
            [
              5.0546203,
              51.303433
            ],
            [
              5.0550022,
              51.3032315
            ],
            [
              5.0558646,
              51.3020679
            ],
            [
              5.0556959,
              51.3019678
            ],
            [
              5.0560918,
              51.3018768
            ],
            [
              5.0562068,
              51.3019246
            ],
            [
              5.0562402,
              51.3020872
            ],
            [
              5.0565533,
              51.3021356
            ],
            [
              5.0569578,
              51.3020672
            ],
            [
              5.0572659,
              51.3016365
            ],
            [
              5.0578306,
              51.3012055
            ],
            [
              5.0549732,
              51.2996675
            ],
            [
              5.0540364,
              51.2990687
            ],
            [
              5.0529986,
              51.2986148
            ],
            [
              5.0516757,
              51.2974314
            ],
            [
              5.0502387,
              51.2971309
            ],
            [
              5.0498236,
              51.2969306
            ],
            [
              5.0495471,
              51.296684
            ],
            [
              5.0434548,
              51.2958853
            ],
            [
              5.0408197,
              51.2956161
            ],
            [
              5.0402842,
              51.2954223
            ],
            [
              5.0395087,
              51.2952688
            ],
            [
              5.0356669,
              51.2948352
            ],
            [
              5.0359676,
              51.2941576
            ],
            [
              5.0362429,
              51.2937522
            ],
            [
              5.0369656,
              51.2931097
            ],
            [
              5.0376547,
              51.2926529
            ],
            [
              5.0368502,
              51.2921237
            ],
            [
              5.0354409,
              51.2914847
            ],
            [
              5.0287052,
              51.2888735
            ],
            [
              5.0279483,
              51.2884088
            ],
            [
              5.0275135,
              51.2879437
            ],
            [
              5.0272984,
              51.2874727
            ],
            [
              5.0272452,
              51.2868672
            ],
            [
              5.0273515,
              51.2851444
            ],
            [
              5.0272355,
              51.2846472
            ],
            [
              5.0267888,
              51.2838012
            ],
            [
              5.0264448,
              51.2833991
            ],
            [
              5.0257927,
              51.2828583
            ],
            [
              5.0223708,
              51.2809211
            ],
            [
              5.0210044,
              51.279846
            ],
            [
              5.0203875,
              51.2791745
            ],
            [
              5.0196982,
              51.2781331
            ],
            [
              5.0193797,
              51.2773842
            ],
            [
              5.0189881,
              51.2760453
            ],
            [
              5.0153659,
              51.2781508
            ],
            [
              5.0152016,
              51.2788548
            ],
            [
              5.0127628,
              51.2781917
            ],
            [
              5.012798,
              51.2783744
            ],
            [
              5.0127176,
              51.2785144
            ],
            [
              5.0119517,
              51.2791513
            ],
            [
              5.0072344,
              51.280357
            ],
            [
              5.0065605,
              51.279561
            ],
            [
              5.0056156,
              51.2810817
            ],
            [
              5.0057007,
              51.2811029
            ],
            [
              5.0048109,
              51.2825799
            ],
            [
              5.0035407,
              51.2821094
            ],
            [
              5.0037722,
              51.2830322
            ],
            [
              4.999277,
              51.2833772
            ],
            [
              4.9949456,
              51.2846403
            ],
            [
              4.9922906,
              51.2845479
            ],
            [
              4.9849972,
              51.2827861
            ],
            [
              4.9809537,
              51.2829843
            ],
            [
              4.9811526,
              51.283337
            ],
            [
              4.9814466,
              51.2834162
            ],
            [
              4.9818182,
              51.2878223
            ],
            [
              4.9826834,
              51.2892245
            ],
            [
              4.9849138,
              51.2904171
            ],
            [
              4.9849348,
              51.2904968
            ],
            [
              4.9847173,
              51.2908298
            ],
            [
              4.9827226,
              51.2919389
            ],
            [
              4.9812286,
              51.2923828
            ],
            [
              4.9812705,
              51.292986
            ],
            [
              4.9809084,
              51.2934655
            ],
            [
              4.9804447,
              51.2936832
            ],
            [
              4.980034,
              51.2937711
            ],
            [
              4.9792411,
              51.2935905
            ],
            [
              4.978671,
              51.2933621
            ],
            [
              4.9755604,
              51.2935919
            ],
            [
              4.9750537,
              51.2934954
            ],
            [
              4.9747609,
              51.2940221
            ],
            [
              4.9745128,
              51.2947341
            ],
            [
              4.9736105,
              51.2956022
            ],
            [
              4.973237,
              51.2963076
            ],
            [
              4.9725788,
              51.2965181
            ],
            [
              4.9725946,
              51.2967394
            ],
            [
              4.9717745,
              51.2966449
            ],
            [
              4.9715326,
              51.2973868
            ],
            [
              4.9714403,
              51.29805
            ],
            [
              4.9711715,
              51.2987156
            ],
            [
              4.9707711,
              51.2993842
            ],
            [
              4.9716792,
              51.2994955
            ],
            [
              4.973095,
              51.300072
            ],
            [
              4.974784,
              51.301587
            ],
            [
              4.975555,
              51.302535
            ],
            [
              4.975712,
              51.302915
            ],
            [
              4.975644,
              51.303534
            ],
            [
              4.973217,
              51.303689
            ],
            [
              4.9713527,
              51.306765
            ],
            [
              4.9703509,
              51.3066354
            ],
            [
              4.97108,
              51.308792
            ],
            [
              4.972154,
              51.309691
            ],
            [
              4.971707,
              51.310407
            ],
            [
              4.968604,
              51.311088
            ],
            [
              4.968606,
              51.311279
            ],
            [
              4.969681,
              51.312225
            ],
            [
              4.96961,
              51.312606
            ],
            [
              4.968937,
              51.313466
            ],
            [
              4.968257,
              51.313708
            ],
            [
              4.968419,
              51.314516
            ],
            [
              4.967509,
              51.314568
            ],
            [
              4.966672,
              51.314477
            ],
            [
              4.966524,
              51.314715
            ],
            [
              4.967209,
              51.314855
            ],
            [
              4.967066,
              51.315617
            ],
            [
              4.968066,
              51.316659
            ],
            [
              4.9679501,
              51.3175929
            ],
            [
              4.9684134,
              51.3176859
            ],
            [
              4.96833,
              51.3184671
            ],
            [
              4.9682004,
              51.3188412
            ],
            [
              4.968115,
              51.320562
            ],
            [
              4.968355,
              51.321513
            ],
            [
              4.968975,
              51.322557
            ],
            [
              4.968989,
              51.323651
            ],
            [
              4.968624,
              51.324843
            ],
            [
              4.968107,
              51.325988
            ],
            [
              4.966617,
              51.328279
            ],
            [
              4.967985,
              51.328368
            ],
            [
              4.969207,
              51.328933
            ],
            [
              4.969663,
              51.328931
            ],
            [
              4.970283,
              51.329975
            ],
            [
              4.970152,
              51.331594
            ],
            [
              4.9697,
              51.331929
            ],
            [
              4.96866,
              51.333743
            ],
            [
              4.967921,
              51.335412
            ],
            [
              4.964683,
              51.337617
            ],
            [
              4.963247,
              51.338195
            ],
            [
              4.961884,
              51.338582
            ],
            [
              4.9646747,
              51.3444836
            ],
            [
              4.965137,
              51.3457392
            ],
            [
              4.9652202,
              51.3463843
            ],
            [
              4.964548,
              51.3511716
            ],
            [
              4.9662515,
              51.3527356
            ],
            [
              4.9691641,
              51.3528911
            ],
            [
              4.967764,
              51.3572591
            ],
            [
              4.9672234,
              51.3586724
            ],
            [
              4.966642,
              51.360738
            ],
            [
              4.965898,
              51.361979
            ],
            [
              4.965297,
              51.362553
            ],
            [
              4.965307,
              51.363315
            ],
            [
              4.965763,
              51.363312
            ],
            [
              4.965918,
              51.363597
            ],
            [
              4.966758,
              51.363879
            ],
            [
              4.969112,
              51.363725
            ],
            [
              4.969486,
              51.363247
            ],
            [
              4.970167,
              51.363054
            ],
            [
              4.971003,
              51.36305
            ],
            [
              4.971995,
              51.363378
            ],
            [
              4.972832,
              51.363421
            ],
            [
              4.9738348,
              51.3630985
            ],
            [
              4.9741018,
              51.3631003
            ]
          ]
        ]
      },
      "properties": {
        "type": "boundary",
        "gemeente": "Oud-Turnhout"
      }
    }
  ]
}