{"type":"FeatureCollection","metadata":{"gemeente":"Ouffet","slug":"ouffet","generated_at":"2026-09-26T10:41:03.791899Z","total_points":3,"providers":["bpost","DHL","Amazon"],"bounds":[5.464326,50.43844,5.46433,50.438443]},"features":[{"type":"Feature","geometry":{"type":"Point","coordinates":[5.46433,50.43844]},"properties":{"type":"pakketpunt","locatieNaam":"Ouffet","straatNaam":"Rue Sauvenière","straatNr":"1","vervoerder":"bpost","puntType":"postkantoor","bezettingsgraad":50,"latitude":50.43844,"longitude":5.46433,"canPickup":true,"canDropoff":true,"openingstijden":null}},{"type":"Feature","geometry":{"type":"Point","coordinates":[5.464326,50.438443]},"properties":{"type":"pakketpunt","locatieNaam":"OUFFET","straatNaam":"RUE SAUVENIÈRE","straatNr":"1","vervoerder":"DHL","puntType":"postOffice","bezettingsgraad":50,"latitude":50.438443,"longitude":5.464326,"canPickup":true,"canDropoff":true,"openingstijden":{"ma":"13:45 - 17:00","di":"09:30 - 12:30, 13:45 - 18:00","wo":"13:45 - 17:00","do":"09:30 - 12:30, 13:45 - 18:00","vr":"13:45 - 17:00","za":"gesloten","zo":"gesloten"}}},{"type":"Feature","geometry":{"type":"Point","coordinates":[5.464326,50.438443]},"properties":{"type":"pakketpunt","locatieNaam":"bpost - OUFFET","straatNaam":"RUE SAUVENIÈRE,1","straatNr":"","vervoerder":"Amazon","puntType":"3p","bezettingsgraad":50,"latitude":50.438443,"longitude":5.464326,"canPickup":true,"canDropoff":false,"openingstijden":null}},{"type":"Feature","geometry":{"type":"Polygon","coordinates":[[[5.384279,50.4466347],[5.4011641,50.4442939],[5.4028853,50.4443069],[5.4066665,50.4436186],[5.4148958,50.4453552],[5.4152212,50.4451118],[5.4163715,50.4430583],[5.4200446,50.4400697],[5.4213558,50.4386265],[5.4198328,50.4380933],[5.4202938,50.4375684],[5.4200256,50.4374454],[5.4206908,50.436639],[5.4203271,50.4364763],[5.4214639,50.4348535],[5.4202689,50.4329667],[5.4218905,50.4307575],[5.4219091,50.4306128],[5.429518,50.4302849],[5.4309475,50.4294701],[5.433398,50.4278195],[5.4354133,50.4260174],[5.4337448,50.4250241],[5.4335439,50.4242038],[5.4337824,50.4239288],[5.4349923,50.4235681],[5.4357433,50.4230383],[5.4373683,50.4222881],[5.4408234,50.4210731],[5.4412579,50.4207176],[5.442819,50.4204818],[5.4437417,50.4205057],[5.4453649,50.4200842],[5.446672,50.4200637],[5.4488436,50.4202596],[5.4513471,50.421255],[5.4520404,50.4214456],[5.4532099,50.4214286],[5.4535384,50.4209783],[5.4519546,50.4204545],[5.451256,50.4200312],[5.4507646,50.4180616],[5.4508257,50.4175812],[5.4513375,50.4171419],[5.4532285,50.4166678],[5.4547612,50.4161207],[5.4557598,50.4154861],[5.4559198,50.4148926],[5.4563807,50.4142008],[5.4579098,50.4135012],[5.4590449,50.41286],[5.4591522,50.4125932],[5.458727,50.4123973],[5.457056,50.4124424],[5.4563956,50.4122698],[5.4560934,50.412026],[5.4557213,50.4113281],[5.455404,50.4113893],[5.4552361,50.4113396],[5.4554483,50.4108321],[5.4553043,50.4104793],[5.4558737,50.4102229],[5.4560325,50.4098781],[5.4577046,50.4097749],[5.4578679,50.4098287],[5.4578027,50.4099309],[5.4580162,50.4101776],[5.4586635,50.4101326],[5.4595349,50.4099149],[5.4602258,50.4100284],[5.4603704,50.4100933],[5.4604546,50.4103118],[5.4609412,50.4104244],[5.4617855,50.4102427],[5.4627954,50.4103429],[5.4633308,50.4101932],[5.463715,50.4099284],[5.464026,50.4099106],[5.4641156,50.4097728],[5.4640056,50.4095145],[5.4643513,50.4093352],[5.4648712,50.4092645],[5.4652539,50.4089481],[5.4653207,50.4087479],[5.465506,50.408665],[5.4660532,50.4081558],[5.4663233,50.4080636],[5.4663284,50.4079009],[5.4664319,50.407773],[5.4670883,50.4077949],[5.4673954,50.407621],[5.4677202,50.4076335],[5.4682424,50.4080099],[5.4685595,50.4080922],[5.4685208,50.4081889],[5.4681963,50.4081882],[5.4680767,50.4082785],[5.4681488,50.4084258],[5.4686705,50.4086257],[5.4687134,50.4087164],[5.4685584,50.4089277],[5.4689613,50.4094776],[5.4690028,50.4096638],[5.4692646,50.40964],[5.4694473,50.4097508],[5.4694803,50.4098858],[5.469358,50.4099933],[5.469517,50.4101022],[5.4698158,50.4101],[5.4703646,50.410341],[5.4707211,50.4103282],[5.4710193,50.410433],[5.4712213,50.4106429],[5.4719256,50.4105613],[5.472093,50.4108165],[5.4725302,50.4110988],[5.4729132,50.4111948],[5.4729859,50.4112996],[5.4727088,50.4115903],[5.4727662,50.4116929],[5.4737925,50.4118823],[5.4738002,50.4118035],[5.4736197,50.4116785],[5.4736291,50.4115676],[5.4739469,50.411451],[5.4741824,50.411936],[5.4744161,50.4119507],[5.4745952,50.4122112],[5.4748916,50.4123532],[5.4755193,50.4124751],[5.4755496,50.4126362],[5.4754082,50.4127726],[5.4755396,50.4129666],[5.4754592,50.4132104],[5.4755187,50.4132982],[5.4758862,50.4133644],[5.4764816,50.413752],[5.4765299,50.4141318],[5.4766721,50.414258],[5.4773901,50.4144159],[5.4774982,50.4142039],[5.4779751,50.4141075],[5.4782288,50.4142513],[5.4781478,50.4146024],[5.4785995,50.4148534],[5.4787411,50.4147509],[5.4787537,50.4145044],[5.4791947,50.4144643],[5.479398,50.4148459],[5.4801705,50.415206],[5.4808569,50.4154072],[5.4808673,50.4154937],[5.4811009,50.4155861],[5.4813938,50.4155118],[5.482059,50.415561],[5.4822672,50.415915],[5.4824297,50.4160254],[5.482758,50.4159606],[5.4828277,50.4156755],[5.4834066,50.4157354],[5.4837059,50.4160691],[5.4840377,50.41629],[5.4845248,50.4162448],[5.4852278,50.416055],[5.4856792,50.4160811],[5.4857414,50.4161602],[5.4862776,50.4161273],[5.4869575,50.416365],[5.4871531,50.4163042],[5.4873019,50.4164043],[5.4876176,50.4164045],[5.4881581,50.4167277],[5.4884682,50.416754],[5.4889813,50.4170182],[5.4894343,50.4171481],[5.4894528,50.4172542],[5.4898699,50.4174457],[5.4901462,50.417834],[5.4901405,50.4180966],[5.4903787,50.4181129],[5.4904785,50.418279],[5.4901952,50.4184478],[5.4906512,50.4186336],[5.4908148,50.4188471],[5.491197,50.4188206],[5.4915337,50.4189447],[5.4916686,50.419081],[5.4916114,50.4191532],[5.4916868,50.4193039],[5.4919988,50.4191639],[5.4922573,50.4191756],[5.4922954,50.4192446],[5.4921398,50.419483],[5.4921688,50.4195922],[5.4926379,50.4196353],[5.4928616,50.4197501],[5.4933243,50.4196153],[5.4939847,50.4198891],[5.4942041,50.4198296],[5.4946807,50.419875],[5.4951959,50.4195973],[5.4953982,50.4195714],[5.4959944,50.419754],[5.4963834,50.4196252],[5.4973503,50.420054],[5.4973685,50.4203139],[5.4974731,50.4204245],[5.498144,50.4202866],[5.4987053,50.4203223],[5.4986541,50.4205715],[5.4989079,50.4209837],[5.4990975,50.4210452],[5.5003227,50.4220651],[5.5003292,50.4222529],[5.5001747,50.4224291],[5.500312,50.422486],[5.500249,50.4225454],[5.5005837,50.4226633],[5.5006443,50.4227613],[5.5005368,50.4229848],[5.5006575,50.4230919],[5.5006752,50.4232702],[5.50079,50.4233471],[5.5012838,50.4231905],[5.5014779,50.423297],[5.5014036,50.4234229],[5.5017454,50.4236357],[5.5039308,50.4240393],[5.5046362,50.4240535],[5.5053535,50.4243068],[5.506182,50.4242587],[5.50712,50.4240885],[5.5075741,50.4244262],[5.508939,50.4249101],[5.5098848,50.4249019],[5.5110336,50.4251581],[5.511757,50.4250855],[5.5121322,50.425175],[5.512539,50.4251633],[5.5128747,50.4250065],[5.5128917,50.4251812],[5.5127319,50.4252485],[5.5124989,50.4255085],[5.5119512,50.4259298],[5.5113618,50.4261184],[5.5112916,50.4263072],[5.5104862,50.4262354],[5.5103323,50.4268343],[5.5105345,50.427625],[5.511074,50.4284201],[5.5112177,50.4285269],[5.5110546,50.4288979],[5.5108097,50.4291],[5.5107612,50.4293234],[5.5102957,50.4297256],[5.5089161,50.4306319],[5.5090761,50.4307265],[5.5090936,50.4308472],[5.5087034,50.4314655],[5.5084629,50.4320141],[5.5083668,50.4324743],[5.5079453,50.4328874],[5.5078337,50.4335122],[5.5082909,50.4337335],[5.5109278,50.4343571],[5.5116368,50.4346294],[5.5130679,50.4353462],[5.514513,50.4363854],[5.5149481,50.43697],[5.5169748,50.437728],[5.5176184,50.4380545],[5.5177625,50.4379381],[5.5177615,50.4377259],[5.5182895,50.4377102],[5.5183724,50.4376819],[5.5183095,50.4376239],[5.5183838,50.4375481],[5.5190794,50.4374486],[5.5193562,50.437319],[5.5201352,50.4372315],[5.5210193,50.4373875],[5.5213417,50.4373355],[5.5214323,50.4374621],[5.5218934,50.4374187],[5.5228201,50.4378426],[5.5236098,50.4380944],[5.5239576,50.4380761],[5.5239617,50.4381516],[5.5241934,50.4382327],[5.5247721,50.4381036],[5.5260689,50.4383165],[5.5277239,50.4377897],[5.5281357,50.4378231],[5.5287954,50.4381225],[5.5298552,50.438774],[5.5301508,50.4387354],[5.5303894,50.4388193],[5.5308573,50.4388277],[5.5320367,50.4392126],[5.5329865,50.439303],[5.5331376,50.4394528],[5.5324489,50.4399523],[5.5323183,50.4402311],[5.5326606,50.44238],[5.5328472,50.4429029],[5.5330768,50.4432894],[5.5333813,50.443605],[5.5344207,50.4441409],[5.5356149,50.4444982],[5.5350182,50.4451383],[5.5365095,50.4457037],[5.5364683,50.4459752],[5.5368815,50.4464996],[5.5362572,50.4470903],[5.5356326,50.4478285],[5.535373,50.4482819],[5.5351586,50.4489356],[5.5348127,50.4493276],[5.5348748,50.4495547],[5.5348168,50.4498335],[5.5353183,50.4504735],[5.5351084,50.4507519],[5.5340463,50.4512118],[5.5318958,50.4517493],[5.5308348,50.4523294],[5.5293873,50.4527505],[5.529151,50.4530525],[5.5290914,50.4533647],[5.5285947,50.4538414],[5.5283196,50.4538202],[5.5280616,50.453923],[5.5276735,50.4538913],[5.5256144,50.4533155],[5.52515,50.4532712],[5.5243071,50.4533417],[5.5239715,50.4535396],[5.5233681,50.4542407],[5.5233343,50.4543401],[5.523425,50.4544125],[5.5234171,50.4545264],[5.5231049,50.4546812],[5.5227523,50.4550031],[5.5226179,50.4549371],[5.5211782,50.4551896],[5.5206433,50.4551861],[5.519644,50.4543885],[5.5191678,50.4541779],[5.5189762,50.4539641],[5.5175281,50.4535303],[5.5161298,50.4532601],[5.5146366,50.4526699],[5.5140202,50.4522952],[5.5124058,50.451037],[5.511727,50.4508294],[5.5101584,50.4517237],[5.5087338,50.4531118],[5.5081918,50.4534939],[5.5074312,50.4542479],[5.5062883,50.4551397],[5.5059951,50.4561219],[5.5056411,50.4564432],[5.5055844,50.4591875],[5.505482,50.4595478],[5.5052933,50.459891],[5.5047237,50.4605185],[5.5007309,50.4618785],[5.4997862,50.4620203],[5.4966241,50.4619266],[5.4952562,50.4616807],[5.4941333,50.4617306],[5.4936683,50.4615748],[5.4931694,50.4615953],[5.492624,50.4615061],[5.4919329,50.4617892],[5.4896927,50.462299],[5.4895526,50.462824],[5.4892963,50.4629767],[5.4891568,50.463173],[5.4873061,50.4640335],[5.4864451,50.4645816],[5.486185,50.4651553],[5.4862012,50.4656537],[5.4864666,50.466026],[5.486885,50.4663265],[5.486877,50.4665379],[5.4862037,50.4673424],[5.4857523,50.467691],[5.4855974,50.4677019],[5.4854814,50.4679181],[5.4808367,50.4662352],[5.4792353,50.4659953],[5.4780659,50.465729],[5.4778379,50.4654882],[5.476812,50.4662471],[5.4764698,50.4667249],[5.4760087,50.4666552],[5.4759229,50.4663979],[5.4738822,50.4654473],[5.471913,50.4667052],[5.4705286,50.4660183],[5.4697076,50.4666784],[5.4669642,50.4675916],[5.4658245,50.4677171],[5.4644881,50.468051],[5.4639084,50.4681053],[5.4638126,50.4682071],[5.4636598,50.4691486],[5.4639923,50.4697291],[5.4641104,50.471484],[5.4637778,50.4727473],[5.4638774,50.4731109],[5.4636222,50.4741505],[5.4627907,50.475627],[5.4629436,50.4758831],[5.4630605,50.4763352],[5.4633781,50.4765181],[5.463008,50.4766102],[5.4625145,50.4776378],[5.4623327,50.4778674],[5.4621103,50.4780428],[5.4612609,50.4783471],[5.4609641,50.4790545],[5.4599589,50.4802464],[5.4598223,50.4808313],[5.4594648,50.4810361],[5.4597153,50.4812476],[5.4592175,50.481391],[5.4594111,50.4819019],[5.4594482,50.4822914],[5.4596472,50.4823452],[5.459874,50.4825727],[5.4596914,50.4827515],[5.4594782,50.4826661],[5.4584655,50.4825631],[5.458408,50.4824288],[5.4576623,50.4825176],[5.4559982,50.4824334],[5.4548434,50.4821142],[5.4529712,50.4814167],[5.45289,50.4814626],[5.4516012,50.4812423],[5.451276,50.4817171],[5.4509383,50.4820209],[5.4498491,50.4816284],[5.4475898,50.4812877],[5.4448978,50.4816634],[5.4405998,50.4812758],[5.4423563,50.477928],[5.4399646,50.4766023],[5.4347925,50.474085],[5.4348555,50.474054],[5.4333159,50.4733191],[5.430502,50.4721945],[5.4285342,50.4712212],[5.4296828,50.4699666],[5.4262648,50.4685506],[5.4269377,50.4678252],[5.4253869,50.4672769],[5.4257085,50.4667319],[5.4237529,50.4661175],[5.42642,50.4620119],[5.4272928,50.4610647],[5.4222823,50.4593302],[5.4197681,50.45831],[5.4197119,50.4581983],[5.4165988,50.4567224],[5.4128697,50.4519633],[5.4134476,50.4498204],[5.4080664,50.4489405],[5.4064375,50.4483776],[5.4051325,50.4485934],[5.4036988,50.4490625],[5.4034954,50.4488537],[5.4025805,50.4491325],[5.4020466,50.4491973],[5.4003351,50.4505621],[5.3964205,50.4506957],[5.384279,50.4466347]]]},"properties":{"type":"boundary","gemeente":"Ouffet"}}]}