{"type":"FeatureCollection","metadata":{"gemeente":"Peer","slug":"peer","generated_at":"2026-09-26T12:42:22.607469Z","total_points":45,"providers":["bpost","DHL","GLS","InPost","VintedGo","PostNL","DPD","Amazon","ViaTim","FedEx"],"bounds":[5.4029,51.08369,5.5058403,51.1749175]},"features":[{"type":"Feature","geometry":{"type":"Point","coordinates":[5.46503,51.08369]},"properties":{"type":"pakketpunt","locatieNaam":"Bbox 24/7 Twentyfor","straatNaam":"Meeuwerbaan","straatNr":"101","vervoerder":"bpost","puntType":"automaat","bezettingsgraad":50,"latitude":51.08369,"longitude":5.46503,"canPickup":true,"canDropoff":true,"openingstijden":null}},{"type":"Feature","geometry":{"type":"Point","coordinates":[5.44613,51.09723]},"properties":{"type":"pakketpunt","locatieNaam":"Buurtwinkel Het Linnerke","straatNaam":"Lindedorp","straatNr":"30","vervoerder":"bpost","puntType":"servicepunt","bezettingsgraad":50,"latitude":51.09723,"longitude":5.44613,"canPickup":true,"canDropoff":true,"openingstijden":null}},{"type":"Feature","geometry":{"type":"Point","coordinates":[5.45666,51.13174]},"properties":{"type":"pakketpunt","locatieNaam":"Bbox 24/7 Alvo Peer","straatNaam":"De Bogaerd","straatNr":"3","vervoerder":"bpost","puntType":"automaat","bezettingsgraad":50,"latitude":51.13174,"longitude":5.45666,"canPickup":true,"canDropoff":true,"openingstijden":null}},{"type":"Feature","geometry":{"type":"Point","coordinates":[5.4723,51.13441]},"properties":{"type":"pakketpunt","locatieNaam":"Bbox 24/7 Lidl Peer","straatNaam":"Kleine Ambachtslaan","straatNr":"7","vervoerder":"bpost","puntType":"automaat","bezettingsgraad":50,"latitude":51.13441,"longitude":5.4723,"canPickup":true,"canDropoff":true,"openingstijden":null}},{"type":"Feature","geometry":{"type":"Point","coordinates":[5.45135,51.133]},"properties":{"type":"pakketpunt","locatieNaam":"Peer","straatNaam":"Kerkstraat","straatNr":"30","vervoerder":"bpost","puntType":"postkantoor","bezettingsgraad":50,"latitude":51.133,"longitude":5.45135,"canPickup":true,"canDropoff":true,"openingstijden":null}},{"type":"Feature","geometry":{"type":"Point","coordinates":[5.45136,51.13311]},"properties":{"type":"pakketpunt","locatieNaam":"Bbox Peer Bpost","straatNaam":"Noordervest","straatNr":"AUTOMAAT","vervoerder":"bpost","puntType":"automaat","bezettingsgraad":50,"latitude":51.13311,"longitude":5.45136,"canPickup":true,"canDropoff":true,"openingstijden":null}},{"type":"Feature","geometry":{"type":"Point","coordinates":[5.44701,51.13519]},"properties":{"type":"pakketpunt","locatieNaam":"Bbox 24/7 Wzc Het Perrehof","straatNaam":"Rode Kruisstraat","straatNr":"25","vervoerder":"bpost","puntType":"automaat","bezettingsgraad":50,"latitude":51.13519,"longitude":5.44701,"canPickup":true,"canDropoff":true,"openingstijden":null}},{"type":"Feature","geometry":{"type":"Point","coordinates":[5.4029,51.12884]},"properties":{"type":"pakketpunt","locatieNaam":"Pakjesautomaat 24/7 Hoppinpunt Wijchmaal","straatNaam":"Stationsstraat","straatNr":"9","vervoerder":"bpost","puntType":"automaat","bezettingsgraad":50,"latitude":51.12884,"longitude":5.4029,"canPickup":true,"canDropoff":true,"openingstijden":null}},{"type":"Feature","geometry":{"type":"Point","coordinates":[5.50584,51.15467]},"properties":{"type":"pakketpunt","locatieNaam":"Spar Express Grote-Brogel + Lotto","straatNaam":"Kleine Dorpsstraat","straatNr":"9","vervoerder":"bpost","puntType":"servicepunt","bezettingsgraad":50,"latitude":51.15467,"longitude":5.50584,"canPickup":true,"canDropoff":true,"openingstijden":null}},{"type":"Feature","geometry":{"type":"Point","coordinates":[5.465029,51.083694]},"properties":{"type":"pakketpunt","locatieNaam":"BBOX 24/7 TWENTYFOR","straatNaam":"MEEUWERBAAN","straatNr":"101","vervoerder":"DHL","puntType":"packStation","bezettingsgraad":50,"latitude":51.083694,"longitude":5.465029,"canPickup":true,"canDropoff":true,"openingstijden":{"ma":"00:00 - 23:59","di":"00:00 - 23:59","wo":"00:00 - 23:59","do":"00:00 - 23:59","vr":"00:00 - 23:59","za":"00:00 - 23:59","zo":"00:00 - 23:59"}}},{"type":"Feature","geometry":{"type":"Point","coordinates":[5.402901,51.128837]},"properties":{"type":"pakketpunt","locatieNaam":"PARCEL LOCKER 24/7 HOPPINPUNT WIJCH","straatNaam":"STATIONSSTRAAT","straatNr":"9","vervoerder":"DHL","puntType":"packStation","bezettingsgraad":50,"latitude":51.128837,"longitude":5.402901,"canPickup":true,"canDropoff":true,"openingstijden":{"ma":"00:00 - 23:59","di":"00:00 - 23:59","wo":"00:00 - 23:59","do":"00:00 - 23:59","vr":"00:00 - 23:59","za":"00:00 - 23:59","zo":"00:00 - 23:59"}}},{"type":"Feature","geometry":{"type":"Point","coordinates":[5.446135,51.097226]},"properties":{"type":"pakketpunt","locatieNaam":"BUURTWINKEL HET LINNERKE","straatNaam":"LINDEDORP","straatNr":"30","vervoerder":"DHL","puntType":"parcelShop","bezettingsgraad":50,"latitude":51.097226,"longitude":5.446135,"canPickup":true,"canDropoff":true,"openingstijden":{"ma":"07:00 - 18:00","di":"gesloten","wo":"07:00 - 18:00","do":"07:00 - 18:00","vr":"07:00 - 18:00","za":"07:30 - 18:00","zo":"gesloten"}}},{"type":"Feature","geometry":{"type":"Point","coordinates":[5.456663,51.131736]},"properties":{"type":"pakketpunt","locatieNaam":"BBOX 24/7 ALVO PEER","straatNaam":"DE BOGAERD","straatNr":"3","vervoerder":"DHL","puntType":"packStation","bezettingsgraad":50,"latitude":51.131736,"longitude":5.456663,"canPickup":true,"canDropoff":true,"openingstijden":{"ma":"00:00 - 23:59","di":"00:00 - 23:59","wo":"00:00 - 23:59","do":"00:00 - 23:59","vr":"00:00 - 23:59","za":"00:00 - 23:59","zo":"00:00 - 23:59"}}},{"type":"Feature","geometry":{"type":"Point","coordinates":[5.472297,51.134406]},"properties":{"type":"pakketpunt","locatieNaam":"BBOX 24/7 LIDL PEER","straatNaam":"KLEINE AMBACHTSLAAN","straatNr":"7","vervoerder":"DHL","puntType":"packStation","bezettingsgraad":50,"latitude":51.134406,"longitude":5.472297,"canPickup":true,"canDropoff":true,"openingstijden":{"ma":"00:00 - 23:59","di":"00:00 - 23:59","wo":"00:00 - 23:59","do":"00:00 - 23:59","vr":"00:00 - 23:59","za":"00:00 - 23:59","zo":"00:00 - 23:59"}}},{"type":"Feature","geometry":{"type":"Point","coordinates":[5.45135,51.132996]},"properties":{"type":"pakketpunt","locatieNaam":"PEER","straatNaam":"KERKSTRAAT","straatNr":"30","vervoerder":"DHL","puntType":"postOffice","bezettingsgraad":50,"latitude":51.132996,"longitude":5.45135,"canPickup":true,"canDropoff":true,"openingstijden":{"ma":"09:30 - 12:30, 13:30 - 17:00","di":"09:30 - 12:30, 13:30 - 18:00","wo":"09:30 - 12:30, 13:30 - 17:00","do":"09:30 - 12:30, 13:30 - 18:00","vr":"09:30 - 12:30, 13:30 - 17:00","za":"09:30 - 13:00","zo":"gesloten"}}},{"type":"Feature","geometry":{"type":"Point","coordinates":[5.45136,51.13311]},"properties":{"type":"pakketpunt","locatieNaam":"BBOX PEER BPOST","straatNaam":"NOORDERVEST","straatNr":"AUTOMAAT","vervoerder":"DHL","puntType":"packStation","bezettingsgraad":50,"latitude":51.13311,"longitude":5.45136,"canPickup":true,"canDropoff":true,"openingstijden":{"ma":"09:30 - 17:00","di":"09:30 - 18:00","wo":"09:30 - 17:00","do":"09:30 - 18:00","vr":"09:30 - 17:00","za":"09:30 - 13:00","zo":"gesloten"}}},{"type":"Feature","geometry":{"type":"Point","coordinates":[5.447011,51.135188]},"properties":{"type":"pakketpunt","locatieNaam":"BBOX 24/7 WZC HET PERREHOF","straatNaam":"RODE KRUISSTRAAT","straatNr":"25","vervoerder":"DHL","puntType":"packStation","bezettingsgraad":50,"latitude":51.135188,"longitude":5.447011,"canPickup":true,"canDropoff":true,"openingstijden":{"ma":"00:00 - 23:59","di":"00:00 - 23:59","wo":"00:00 - 23:59","do":"00:00 - 23:59","vr":"00:00 - 23:59","za":"00:00 - 23:59","zo":"00:00 - 23:59"}}},{"type":"Feature","geometry":{"type":"Point","coordinates":[5.50584,51.154667]},"properties":{"type":"pakketpunt","locatieNaam":"SPAR EXPRESS GROTE-BROGEL + LOTTO","straatNaam":"KLEINE DORPSSTRAAT","straatNr":"9","vervoerder":"DHL","puntType":"parcelShop","bezettingsgraad":50,"latitude":51.154667,"longitude":5.50584,"canPickup":true,"canDropoff":true,"openingstijden":{"ma":"12:30 - 18:30","di":"07:30 - 18:30","wo":"07:30 - 18:30","do":"07:30 - 18:30","vr":"07:30 - 18:30","za":"07:30 - 18:00","zo":"gesloten"}}},{"type":"Feature","geometry":{"type":"Point","coordinates":[5.4650921,51.0840168]},"properties":{"type":"pakketpunt","locatieNaam":"TWENTYFOR","straatNaam":"Meeuwerbaan","straatNr":"101","vervoerder":"GLS","puntType":"parcel_shop","bezettingsgraad":50,"latitude":51.0840168,"longitude":5.4650921,"canPickup":true,"canDropoff":true,"openingstijden":"vr: 06:00 - 20:00; za: 06:00 - 20:00"}},{"type":"Feature","geometry":{"type":"Point","coordinates":[5.4562655,51.1318953]},"properties":{"type":"pakketpunt","locatieNaam":"GLS Parcel Locker powered by bbox","straatNaam":"De Bogaerd","straatNr":"3","vervoerder":"GLS","puntType":"locker","bezettingsgraad":50,"latitude":51.1318953,"longitude":5.4562655,"canPickup":true,"canDropoff":true,"openingstijden":"vr: 00:00 - 24:00; za: 00:00 - 24:00"}},{"type":"Feature","geometry":{"type":"Point","coordinates":[5.4724763,51.1346571]},"properties":{"type":"pakketpunt","locatieNaam":"GLS Parcel Locker powered by bbox","straatNaam":"Kleine Ambachtslaan","straatNr":"7","vervoerder":"GLS","puntType":"locker","bezettingsgraad":50,"latitude":51.1346571,"longitude":5.4724763,"canPickup":true,"canDropoff":true,"openingstijden":"vr: 00:00 - 24:00; za: 00:00 - 24:00"}},{"type":"Feature","geometry":{"type":"Point","coordinates":[5.4467198,51.135927]},"properties":{"type":"pakketpunt","locatieNaam":"GLS Parcel Locker powered by bbox","straatNaam":"Rode Kruisstraat","straatNr":"25","vervoerder":"GLS","puntType":"locker","bezettingsgraad":50,"latitude":51.135927,"longitude":5.4467198,"canPickup":true,"canDropoff":true,"openingstijden":"vr: 00:00 - 24:00; za: 00:00 - 24:00"}},{"type":"Feature","geometry":{"type":"Point","coordinates":[5.4514549,51.1749175]},"properties":{"type":"pakketpunt","locatieNaam":"ViaTim - De Pitstop","straatNaam":"Pieter Breugellaan","straatNr":"26","vervoerder":"GLS","puntType":"parcel_shop","bezettingsgraad":50,"latitude":51.1749175,"longitude":5.4514549,"canPickup":true,"canDropoff":true,"openingstijden":"vr: 08:00 - 18:30; za: 08:00 - 18:30"}},{"type":"Feature","geometry":{"type":"Point","coordinates":[5.45141,51.17473]},"properties":{"type":"pakketpunt","locatieNaam":"TANKSTATION GULF","straatNaam":"Pieter Breugellaan 26","straatNr":"","vervoerder":"InPost","puntType":"servicepunt","bezettingsgraad":50,"latitude":51.17473,"longitude":5.45141,"canPickup":true,"canDropoff":true,"openingstijden":null}},{"type":"Feature","geometry":{"type":"Point","coordinates":[5.45143,51.17489]},"properties":{"type":"pakketpunt","locatieNaam":"","straatNaam":"Pieter Breugellaan","straatNr":"26/28","vervoerder":"InPost","puntType":"automaat","bezettingsgraad":50,"latitude":51.17489,"longitude":5.45143,"canPickup":true,"canDropoff":true,"openingstijden":"24/7"}},{"type":"Feature","geometry":{"type":"Point","coordinates":[5.45149,51.17462]},"properties":{"type":"pakketpunt","locatieNaam":"De Pitstop","straatNaam":"Pieter Breugellaan","straatNr":"26","vervoerder":"VintedGo","puntType":"parcel_shop","bezettingsgraad":50,"latitude":51.17462,"longitude":5.45149,"canPickup":true,"canDropoff":true,"openingstijden":null}},{"type":"Feature","geometry":{"type":"Point","coordinates":[5.50563,51.15467]},"properties":{"type":"pakketpunt","locatieNaam":"Spar Express Grote-Brogel ","straatNaam":"Kleine Dorpsstraat","straatNr":"9","vervoerder":"VintedGo","puntType":"parcel_shop","bezettingsgraad":50,"latitude":51.15467,"longitude":5.50563,"canPickup":true,"canDropoff":true,"openingstijden":null}},{"type":"Feature","geometry":{"type":"Point","coordinates":[5.4525047,51.1330726]},"properties":{"type":"pakketpunt","locatieNaam":"Smartphones And More","straatNaam":"Kerkstraat 14 Peer","straatNr":"","vervoerder":"VintedGo","puntType":"parcel_shop","bezettingsgraad":50,"latitude":51.1330726,"longitude":5.4525047,"canPickup":true,"canDropoff":true,"openingstijden":null}},{"type":"Feature","geometry":{"type":"Point","coordinates":[5.505631,51.154671]},"properties":{"type":"pakketpunt","locatieNaam":"Spar Express Grote-Brogel","straatNaam":"Kleine Dorpsstraat","straatNr":"9","vervoerder":"PostNL","puntType":"servicepunt","bezettingsgraad":50,"latitude":51.154671,"longitude":5.505631,"canPickup":true,"canDropoff":true,"openingstijden":"07:30 - 18:30"}},{"type":"Feature","geometry":{"type":"Point","coordinates":[5.4525570966569,51.13310640169]},"properties":{"type":"pakketpunt","locatieNaam":"SMARTPHONES AND MORE","straatNaam":"Kerkstraat","straatNr":"14-2","vervoerder":"PostNL","puntType":"servicepunt","bezettingsgraad":50,"latitude":51.13310640169,"longitude":5.4525570966569,"canPickup":true,"canDropoff":true,"openingstijden":"10:00 - 18:00"}},{"type":"Feature","geometry":{"type":"Point","coordinates":[5.445819,51.097388]},"properties":{"type":"pakketpunt","locatieNaam":"Buurtwinkel Het Linnerke","straatNaam":"Lindedorp","straatNr":"30","vervoerder":"PostNL","puntType":"servicepunt","bezettingsgraad":50,"latitude":51.097388,"longitude":5.445819,"canPickup":true,"canDropoff":true,"openingstijden":"07:00 - 18:00"}},{"type":"Feature","geometry":{"type":"Point","coordinates":[5.451547,51.174629]},"properties":{"type":"pakketpunt","locatieNaam":"Balensshop","straatNaam":"Pieter Breugellaan","straatNr":"26","vervoerder":"PostNL","puntType":"servicepunt","bezettingsgraad":50,"latitude":51.174629,"longitude":5.451547,"canPickup":true,"canDropoff":true,"openingstijden":"07:00 - 19:00"}},{"type":"Feature","geometry":{"type":"Point","coordinates":[5.4537777,51.1326003]},"properties":{"type":"pakketpunt","locatieNaam":"HUIS WAS CREEMERS","straatNaam":"MARKT","straatNr":"10","vervoerder":"DPD","puntType":"pickup_point","bezettingsgraad":50,"latitude":51.1326003,"longitude":5.4537777,"canPickup":true,"canDropoff":true,"openingstijden":{"ma":"08:00 - 12:30","di":"08:00 - 12:00, 13:30 - 18:00","wo":"08:00 - 12:00, 13:30 - 18:00","do":"08:00 - 12:00, 13:30 - 18:00","vr":"08:00 - 12:00, 13:30 - 18:00","za":"08:00 - 12:00, 13:30 - 16:00","zo":"gesloten"}}},{"type":"Feature","geometry":{"type":"Point","coordinates":[5.45155,51.17462]},"properties":{"type":"pakketpunt","locatieNaam":"DE PITSTOP","straatNaam":"PIETER BREUGELLAAN","straatNr":"26","vervoerder":"DPD","puntType":"pickup_point","bezettingsgraad":50,"latitude":51.17462,"longitude":5.45155,"canPickup":true,"canDropoff":false,"openingstijden":{"ma":"09:00 - 17:00","di":"09:00 - 17:00","wo":"09:00 - 17:00","do":"09:00 - 17:00","vr":"09:00 - 17:00","za":"09:00 - 17:00","zo":"09:00 - 17:00"}}},{"type":"Feature","geometry":{"type":"Point","coordinates":[5.50563,51.15467]},"properties":{"type":"pakketpunt","locatieNaam":"SPAR EXPRESS GROTE BROGEL","straatNaam":"KLEINE DORPSSTRAAT","straatNr":"9","vervoerder":"DPD","puntType":"pickup_point","bezettingsgraad":50,"latitude":51.15467,"longitude":5.50563,"canPickup":true,"canDropoff":false,"openingstijden":{"ma":"12:30 - 18:30","di":"07:30 - 18:30","wo":"07:30 - 18:30","do":"07:30 - 18:30","vr":"07:30 - 18:30","za":"07:30 - 18:00","zo":"07:30 - 12:30"}}},{"type":"Feature","geometry":{"type":"Point","coordinates":[5.45135,51.132996]},"properties":{"type":"pakketpunt","locatieNaam":"bpost - PEER","straatNaam":"KERKSTRAAT,30","straatNr":"","vervoerder":"Amazon","puntType":"3p","bezettingsgraad":50,"latitude":51.132996,"longitude":5.45135,"canPickup":true,"canDropoff":false,"openingstijden":null}},{"type":"Feature","geometry":{"type":"Point","coordinates":[5.45136,51.13311]},"properties":{"type":"pakketpunt","locatieNaam":"bpost - BBOX PEER BPOST","straatNaam":"NOORDERVEST,AUTOMAAT","straatNr":"","vervoerder":"Amazon","puntType":"3p","bezettingsgraad":50,"latitude":51.13311,"longitude":5.45136,"canPickup":true,"canDropoff":false,"openingstijden":null}},{"type":"Feature","geometry":{"type":"Point","coordinates":[5.447011,51.135188]},"properties":{"type":"pakketpunt","locatieNaam":"bpost - BBOX 24/7 WZC HET PERREHOF","straatNaam":"RODE KRUISSTRAAT,25","straatNr":"","vervoerder":"Amazon","puntType":"3p","bezettingsgraad":50,"latitude":51.135188,"longitude":5.447011,"canPickup":true,"canDropoff":false,"openingstijden":null}},{"type":"Feature","geometry":{"type":"Point","coordinates":[5.456663,51.131736]},"properties":{"type":"pakketpunt","locatieNaam":"bpost - BBOX 24/7 ALVO PEER","straatNaam":"DE BOGAERD,3","straatNr":"","vervoerder":"Amazon","puntType":"3p","bezettingsgraad":50,"latitude":51.131736,"longitude":5.456663,"canPickup":true,"canDropoff":false,"openingstijden":null}},{"type":"Feature","geometry":{"type":"Point","coordinates":[5.472297,51.134406]},"properties":{"type":"pakketpunt","locatieNaam":"bpost - BBOX 24/7 LIDL PEER","straatNaam":"KLEINE AMBACHTSLAAN,7","straatNr":"","vervoerder":"Amazon","puntType":"3p","bezettingsgraad":50,"latitude":51.134406,"longitude":5.472297,"canPickup":true,"canDropoff":false,"openingstijden":null}},{"type":"Feature","geometry":{"type":"Point","coordinates":[5.446135,51.097226]},"properties":{"type":"pakketpunt","locatieNaam":"bpost - BUURTWINKEL HET LINNERKE","straatNaam":"LINDEDORP,30","straatNr":"","vervoerder":"Amazon","puntType":"3p","bezettingsgraad":50,"latitude":51.097226,"longitude":5.446135,"canPickup":true,"canDropoff":false,"openingstijden":null}},{"type":"Feature","geometry":{"type":"Point","coordinates":[5.465029,51.083694]},"properties":{"type":"pakketpunt","locatieNaam":"bpost - BBOX 24/7 TWENTYFOR","straatNaam":"MEEUWERBAAN,101","straatNr":"","vervoerder":"Amazon","puntType":"3p","bezettingsgraad":50,"latitude":51.083694,"longitude":5.465029,"canPickup":true,"canDropoff":false,"openingstijden":null}},{"type":"Feature","geometry":{"type":"Point","coordinates":[5.5058403,51.1546669]},"properties":{"type":"pakketpunt","locatieNaam":"bpost - SPAR EXPRESS GROTE-BROGEL + LOTTO","straatNaam":"KLEINE DORPSSTRAAT,9","straatNr":"","vervoerder":"Amazon","puntType":"3p","bezettingsgraad":50,"latitude":51.1546669,"longitude":5.5058403,"canPickup":true,"canDropoff":false,"openingstijden":null}},{"type":"Feature","geometry":{"type":"Point","coordinates":[5.451411999999999,51.17474259999999]},"properties":{"type":"pakketpunt","locatieNaam":"ViaTim en De Pitstop","straatNaam":"Pieter Breugellaan","straatNr":"26","vervoerder":"ViaTim","puntType":"servicepunt","bezettingsgraad":50,"latitude":51.17474259999999,"longitude":5.451411999999999,"canPickup":true,"canDropoff":true,"openingstijden":{"ma":"06:30 - 20:30","di":"06:30 - 20:30","wo":"06:30 - 20:30","do":"06:30 - 20:30","vr":"06:30 - 21:00","za":"08:00 - 21:00","zo":"10:00 - 15:00"}}},{"type":"Feature","geometry":{"type":"Point","coordinates":[5.451553457363358,51.174615074054714]},"properties":{"type":"pakketpunt","locatieNaam":"FedEx OnSite","straatNaam":"PIETER BREUGELLAAN 26","straatNr":"","vervoerder":"FedEx","puntType":"servicepunt","bezettingsgraad":50,"latitude":51.174615074054714,"longitude":5.451553457363358,"canPickup":true,"canDropoff":true,"openingstijden":{"ma":"07:00 - 19:00","di":"07:00 - 19:00","wo":"07:00 - 19:00","do":"07:00 - 19:00","vr":"07:00 - 19:00","za":"08:00 - 19:00","zo":"08:00 - 19:00"}}},{"type":"Feature","geometry":{"type":"Polygon","coordinates":[[[5.396484,51.1329532],[5.3960081,51.1327265],[5.3960748,51.1325287],[5.3976582,51.130139],[5.3980097,51.1297823],[5.3979379,51.1296153],[5.3977782,51.1295003],[5.3982353,51.129087],[5.3979961,51.128955],[5.3970759,51.1287535],[5.3972325,51.1280729],[5.3961225,51.1261785],[5.3930424,51.1224638],[5.3930721,51.1223828],[5.3937322,51.122108],[5.3937698,51.1219655],[5.3939822,51.121772],[5.393947,51.1215084],[5.3935016,51.1207999],[5.3937445,51.1206735],[5.3931006,51.1198709],[5.3920696,51.1192451],[5.3918342,51.1189654],[5.3915808,51.1178447],[5.3916703,51.1168311],[5.39156,51.115512],[5.391231,51.1150509],[5.3895886,51.1132589],[5.3892093,51.1118918],[5.3898194,51.1111015],[5.3914217,51.1109468],[5.3928106,51.1100842],[5.3925774,51.1095035],[5.3928377,51.106361],[5.3950741,51.1047676],[5.4037322,51.0989891],[5.4110523,51.0892418],[5.4145163,51.0857165],[5.4172612,51.0827921],[5.4232039,51.0767994],[5.4233204,51.0768358],[5.4256762,51.0764395],[5.4262874,51.0763047],[5.4265497,51.076138],[5.4544051,51.0549941],[5.482357,51.0621162],[5.4830382,51.0679848],[5.4831366,51.0695491],[5.4832268,51.0698195],[5.4848956,51.0828218],[5.4815916,51.086752],[5.4837845,51.0908707],[5.4828336,51.0928148],[5.4794674,51.0938401],[5.4792592,51.0940065],[5.4790451,51.0944492],[5.4783328,51.0951271],[5.4781491,51.0959676],[5.477483,51.0963088],[5.477071,51.0968412],[5.4769908,51.0974341],[5.4762906,51.0991159],[5.4762979,51.0992796],[5.4753526,51.0997862],[5.4745534,51.1000271],[5.4742205,51.1002654],[5.4743256,51.1009154],[5.4747434,51.1014017],[5.4751642,51.101623],[5.4751546,51.1018737],[5.4752829,51.1020295],[5.4752338,51.1023523],[5.4755612,51.1034243],[5.4755082,51.1036889],[5.4752667,51.1040744],[5.4751356,51.1047686],[5.4750566,51.1047857],[5.4757215,51.1059701],[5.4772053,51.1063478],[5.4798446,51.1074857],[5.4817339,51.1085606],[5.4837155,51.1097997],[5.4849387,51.1107054],[5.4865248,51.1116156],[5.4895226,51.1135069],[5.4897226,51.1135802],[5.4900224,51.1133374],[5.4903697,51.1135145],[5.4907179,51.1138058],[5.4912817,51.1144768],[5.4914811,51.1146008],[5.4933377,51.1151187],[5.4964704,51.1163924],[5.4967832,51.1163],[5.4983484,51.1170823],[5.4985902,51.1171023],[5.4995886,51.1175424],[5.5001908,51.11761],[5.5004531,51.1179081],[5.5009054,51.1180034],[5.5011971,51.1182885],[5.5019042,51.1186468],[5.5026457,51.1186733],[5.5032624,51.1188429],[5.5034024,51.1189733],[5.5035171,51.1189311],[5.5038471,51.1190183],[5.5039412,51.1191368],[5.5043933,51.1192083],[5.504856,51.1194567],[5.5054982,51.1196597],[5.5057577,51.1196194],[5.5059911,51.1197142],[5.5063319,51.1196364],[5.5067523,51.1197647],[5.5074619,51.1197115],[5.507712,51.1197805],[5.5079734,51.1196848],[5.5082044,51.1197292],[5.5083425,51.1196301],[5.508575,51.1202615],[5.5090836,51.12037],[5.5095887,51.1205997],[5.5095856,51.1207243],[5.5093649,51.1208531],[5.5093602,51.1209465],[5.5097792,51.1214973],[5.5100251,51.12152],[5.5099128,51.1217592],[5.5102263,51.1220634],[5.5107547,51.1221732],[5.5111808,51.122674],[5.5117838,51.1227721],[5.5121588,51.1229203],[5.5122223,51.1230026],[5.5120661,51.123129],[5.5121501,51.1232203],[5.5124785,51.1230914],[5.5128174,51.1232056],[5.5128988,51.1233234],[5.512855,51.1235625],[5.5129226,51.1236546],[5.5136558,51.1238814],[5.5146256,51.1243098],[5.5149312,51.124309],[5.5151012,51.1245563],[5.5155199,51.124601],[5.5130268,51.1263004],[5.5126278,51.1264925],[5.5128315,51.1266355],[5.5148748,51.1273951],[5.516799,51.1278434],[5.5173203,51.1278146],[5.51821,51.1293566],[5.5118574,51.1300842],[5.5100357,51.1310312],[5.510318,51.1314668],[5.5103165,51.1315603],[5.5101398,51.1317248],[5.51102,51.1323447],[5.5115897,51.1326434],[5.5134594,51.1332338],[5.5150715,51.1336238],[5.5156802,51.1340301],[5.5158385,51.1339434],[5.5163971,51.1342502],[5.5166834,51.1341139],[5.5171786,51.1342088],[5.5181269,51.1345927],[5.5193275,51.134944],[5.5193965,51.1350829],[5.5202951,51.1350083],[5.5204666,51.1355198],[5.5213658,51.1354911],[5.5212198,51.135616],[5.5211429,51.1358775],[5.5215913,51.1359334],[5.5216578,51.1360122],[5.5212589,51.1362164],[5.5212486,51.1363046],[5.5217018,51.1364431],[5.5219466,51.1367185],[5.5219931,51.1369597],[5.5216474,51.1371709],[5.521803,51.1375082],[5.5221115,51.1375262],[5.5221951,51.1376097],[5.5221391,51.1376998],[5.5218567,51.1377996],[5.5218469,51.1378731],[5.522377,51.1380813],[5.5224052,51.1382731],[5.5228462,51.1385522],[5.5227656,51.1387405],[5.5228982,51.1389049],[5.5231691,51.1390695],[5.5235081,51.1390463],[5.5237627,51.1391256],[5.5242745,51.1395715],[5.5240393,51.1399296],[5.5241241,51.1401569],[5.5243365,51.1402818],[5.5246619,51.1401883],[5.5249005,51.1402229],[5.5250651,51.140503],[5.5257898,51.1409364],[5.5259873,51.1413117],[5.5264737,51.1418912],[5.5268177,51.1420509],[5.52687,51.1425387],[5.527503,51.1427387],[5.5282031,51.1431998],[5.5288172,51.1439098],[5.5293511,51.1441792],[5.5296763,51.1445684],[5.5296956,51.144809],[5.5298558,51.1447631],[5.5307748,51.1451774],[5.531034,51.1454803],[5.531066,51.1456864],[5.531493,51.1456312],[5.5317932,51.1457111],[5.5318266,51.1460025],[5.5319436,51.1461713],[5.5321892,51.1463436],[5.5325655,51.1463244],[5.5328772,51.1464456],[5.5334889,51.147153],[5.5343475,51.1473392],[5.5348607,51.1472176],[5.536328,51.1474745],[5.5372564,51.1474302],[5.5373241,51.1474995],[5.5370946,51.1476753],[5.5371461,51.147803],[5.5373209,51.1478664],[5.5380141,51.1477544],[5.5389041,51.1479888],[5.539346,51.14788],[5.5400754,51.1479866],[5.540158,51.1481984],[5.5405984,51.1483322],[5.5413233,51.1482784],[5.5414125,51.1483521],[5.5414799,51.1486327],[5.5415887,51.1487019],[5.542013,51.1485621],[5.5421833,51.1482407],[5.5424631,51.148027],[5.5431197,51.1482473],[5.5431353,51.1484037],[5.5434345,51.1485633],[5.5438421,51.1483311],[5.5442058,51.1484469],[5.5442399,51.1485035],[5.5440789,51.148658],[5.5445656,51.1488436],[5.5446683,51.1492326],[5.5462398,51.1492644],[5.5467115,51.1499412],[5.5474563,51.149912],[5.547618,51.1499822],[5.5449893,51.1519433],[5.5448412,51.1519747],[5.5431797,51.1538128],[5.5427363,51.1544821],[5.5428272,51.1545533],[5.5422276,51.1559691],[5.541877,51.1565447],[5.5415612,51.1575212],[5.5404906,51.1619194],[5.5405745,51.162013],[5.5336014,51.1740957],[5.5353319,51.1748122],[5.5355105,51.1746589],[5.5357303,51.1747436],[5.5353917,51.1750938],[5.5330537,51.1742337],[5.5293107,51.173214],[5.5142315,51.1749487],[5.5045265,51.1773432],[5.501096,51.177927],[5.4989692,51.1779733],[5.496894,51.1778883],[5.4886001,51.1773993],[5.4828906,51.1822023],[5.477959,51.188185],[5.4702295,51.1887788],[5.4701087,51.1887238],[5.4616562,51.1894984],[5.4537326,51.1879401],[5.4536797,51.1880083],[5.4467344,51.186517],[5.4461952,51.1862887],[5.4400527,51.1829112],[5.4394982,51.1825817],[5.4393073,51.1823378],[5.4382962,51.1822385],[5.4383166,51.1820894],[5.437604,51.1820382],[5.4375766,51.181715],[5.4376721,51.1811221],[5.4372955,51.1799729],[5.4370576,51.1778709],[5.4371803,51.176632],[5.4379389,51.1752745],[5.4381151,51.1746245],[5.4373893,51.1720452],[5.4371812,51.1709393],[5.4369922,51.1706934],[5.4361846,51.1704134],[5.4362446,51.1700441],[5.4368023,51.1700307],[5.4368347,51.1698794],[5.4367139,51.1697295],[5.4368905,51.1696224],[5.4370013,51.1692691],[5.4375836,51.1689529],[5.4369823,51.1687121],[5.4374625,51.1680977],[5.4373966,51.1677275],[5.4374216,51.1678846],[5.4372512,51.1675727],[5.436724,51.1676369],[5.4366125,51.1674743],[5.4368314,51.1671805],[5.4365252,51.1671491],[5.4363658,51.1670104],[5.4366793,51.1669806],[5.4367439,51.1667788],[5.4370186,51.1665081],[5.437466,51.166372],[5.4373991,51.1662791],[5.4368645,51.1661074],[5.436472,51.1657437],[5.4367609,51.1649819],[5.4367374,51.1648036],[5.4366321,51.1646303],[5.4362013,51.1644343],[5.4363669,51.1642904],[5.437131,51.1640708],[5.4366928,51.1638101],[5.4362256,51.163705],[5.4361341,51.1631034],[5.4359567,51.1630232],[5.4354566,51.1631279],[5.4351268,51.1629017],[5.4351292,51.1627729],[5.4354884,51.1627214],[5.4354212,51.1625555],[5.4356162,51.1624219],[5.4354905,51.1621399],[5.4353599,51.1620898],[5.4344233,51.1621827],[5.4343771,51.1619466],[5.4345416,51.1618469],[5.4346029,51.161692],[5.4346656,51.1617296],[5.4346567,51.1614006],[5.4343514,51.161342],[5.4339173,51.161407],[5.4337183,51.1611748],[5.4336648,51.1609604],[5.4332042,51.1608407],[5.4331327,51.1605668],[5.4332747,51.1604478],[5.4332524,51.1603517],[5.4328138,51.160281],[5.4329037,51.1601697],[5.4327701,51.1599642],[5.432286,51.1597772],[5.4322407,51.1595905],[5.431976,51.1593881],[5.4315128,51.159446],[5.431463,51.159277],[5.431092,51.1590744],[5.4311719,51.1587052],[5.4305694,51.1583967],[5.4304481,51.1582124],[5.4300909,51.1583626],[5.4296587,51.1583188],[5.4297482,51.1580265],[5.4295863,51.1579188],[5.4294681,51.1579114],[5.4290417,51.1582287],[5.4283138,51.1579449],[5.4274668,51.1578158],[5.4275329,51.1575792],[5.4274705,51.1573759],[5.4260858,51.1563805],[5.4256203,51.1561733],[5.4256872,51.1559156],[5.425463,51.1557559],[5.4257068,51.1553333],[5.4254378,51.1549851],[5.4250502,51.1550103],[5.4248398,51.1549296],[5.4245884,51.1550084],[5.4244301,51.1552032],[5.4239192,51.1552099],[5.4231171,51.1549567],[5.4230228,51.1547975],[5.4225422,51.1547306],[5.4224927,51.1546758],[5.4225918,51.154519],[5.4224503,51.1544174],[5.4220894,51.1543747],[5.4217279,51.154018],[5.4215253,51.1541247],[5.4214054,51.1540587],[5.4214852,51.1540702],[5.4213188,51.1539318],[5.4212045,51.1536815],[5.4208728,51.1535179],[5.4205716,51.1530675],[5.4201664,51.1530591],[5.4201223,51.1529013],[5.4195222,51.1530061],[5.4193966,51.1529639],[5.41928,51.1528235],[5.4192196,51.1528593],[5.4189539,51.1524829],[5.4184358,51.1522072],[5.4183606,51.1520482],[5.4180976,51.1519874],[5.4178999,51.1517267],[5.417626,51.1515424],[5.4176359,51.1508659],[5.4175274,51.1508626],[5.4175424,51.1501876],[5.4174416,51.1499966],[5.4176098,51.1497166],[5.4179452,51.1495559],[5.4177695,51.1493146],[5.4180533,51.1490162],[5.4179953,51.1488652],[5.418253,51.1488049],[5.4183296,51.148701],[5.4180959,51.1484732],[5.4180357,51.1482542],[5.4177117,51.1481006],[5.4176257,51.1478052],[5.4174163,51.1478184],[5.417113,51.1476202],[5.4174083,51.1474962],[5.4172751,51.1474255],[5.4172493,51.1472562],[5.4166504,51.1470401],[5.4164525,51.1468917],[5.4162004,51.1464647],[5.4162649,51.1463827],[5.4162147,51.1462921],[5.4159623,51.1461993],[5.415902,51.1460851],[5.415688,51.1461104],[5.41532,51.1458662],[5.4152302,51.1456567],[5.4149599,51.1457517],[5.4150236,51.1455718],[5.4147604,51.1455793],[5.4143567,51.1454069],[5.414358,51.1452834],[5.4140791,51.1450531],[5.4140526,51.1449306],[5.413751,51.1449274],[5.4133898,51.1447836],[5.4130069,51.1444524],[5.4111519,51.1439241],[5.4106689,51.1439457],[5.4106161,51.1439081],[5.4107304,51.1437675],[5.4099056,51.1434377],[5.4099365,51.143314],[5.4096473,51.1430656],[5.4095022,51.1427903],[5.4086961,51.1428531],[5.4085697,51.1426704],[5.4082326,51.1426906],[5.4079028,51.1426383],[5.4078326,51.1425555],[5.4069067,51.1424905],[5.4068943,51.1423711],[5.4067583,51.142256],[5.4068598,51.1421371],[5.4067421,51.1421685],[5.4066089,51.1420676],[5.4064078,51.1421468],[5.4058396,51.1417141],[5.4029262,51.1405927],[5.4014493,51.1401273],[5.3997887,51.1391655],[5.3967412,51.1363043],[5.3962401,51.1356261],[5.3960818,51.1351522],[5.3960805,51.1343489],[5.3961529,51.1339665],[5.3965506,51.133091],[5.396484,51.1329532]]]},"properties":{"type":"boundary","gemeente":"Peer"}}]}