{
  "type": "FeatureCollection",
  "metadata": {
    "gemeente": "Pepingen",
    "slug": "pepingen",
    "generated_at": "2026-09-25T22:11:42.945787Z",
    "total_points": 6,
    "providers": [
      "bpost",
      "DHL",
      "Amazon"
    ],
    "bounds": [
      4.162317,
      50.7598,
      4.179684,
      50.76139
    ]
  },
  "features": [
    {
      "type": "Feature",
      "geometry": {
        "type": "Point",
        "coordinates": [
          4.17968,
          50.76139
        ]
      },
      "properties": {
        "type": "pakketpunt",
        "locatieNaam": "Bbox 24/7 Wzc Henri Vander Stokken",
        "straatNaam": "Palokenstraat",
        "straatNr": "17",
        "vervoerder": "bpost",
        "puntType": "automaat",
        "bezettingsgraad": 50,
        "latitude": 50.76139,
        "longitude": 4.17968,
        "canPickup": true,
        "canDropoff": true,
        "openingstijden": null
      }
    },
    {
      "type": "Feature",
      "geometry": {
        "type": "Point",
        "coordinates": [
          4.16232,
          50.7598
        ]
      },
      "properties": {
        "type": "pakketpunt",
        "locatieNaam": "Pepingen",
        "straatNaam": "Steenweg Op Elingen",
        "straatNr": "7",
        "vervoerder": "bpost",
        "puntType": "postkantoor",
        "bezettingsgraad": 50,
        "latitude": 50.7598,
        "longitude": 4.16232,
        "canPickup": true,
        "canDropoff": true,
        "openingstijden": null
      }
    },
    {
      "type": "Feature",
      "geometry": {
        "type": "Point",
        "coordinates": [
          4.162317,
          50.759802
        ]
      },
      "properties": {
        "type": "pakketpunt",
        "locatieNaam": "PEPINGEN",
        "straatNaam": "STEENWEG OP ELINGEN",
        "straatNr": "7",
        "vervoerder": "DHL",
        "puntType": "postOffice",
        "bezettingsgraad": 50,
        "latitude": 50.759802,
        "longitude": 4.162317,
        "canPickup": true,
        "canDropoff": true,
        "openingstijden": {
          "ma": "09:30 - 12:30",
          "di": "14:00 - 18:00",
          "wo": "09:30 - 12:30",
          "do": "14:00 - 18:00",
          "vr": "09:30 - 12:30",
          "za": "09:30 - 13:00",
          "zo": "gesloten"
        }
      }
    },
    {
      "type": "Feature",
      "geometry": {
        "type": "Point",
        "coordinates": [
          4.179684,
          50.761389
        ]
      },
      "properties": {
        "type": "pakketpunt",
        "locatieNaam": "BBOX 24/7 WZC HENRI VANDER STOKKEN",
        "straatNaam": "PALOKENSTRAAT",
        "straatNr": "17",
        "vervoerder": "DHL",
        "puntType": "packStation",
        "bezettingsgraad": 50,
        "latitude": 50.761389,
        "longitude": 4.179684,
        "canPickup": true,
        "canDropoff": true,
        "openingstijden": {
          "ma": "00:00 - 23:59",
          "di": "00:00 - 23:59",
          "wo": "00:00 - 23:59",
          "do": "00:00 - 23:59",
          "vr": "00:00 - 23:59",
          "za": "00:00 - 23:59",
          "zo": "00:00 - 23:59"
        }
      }
    },
    {
      "type": "Feature",
      "geometry": {
        "type": "Point",
        "coordinates": [
          4.179684,
          50.761389
        ]
      },
      "properties": {
        "type": "pakketpunt",
        "locatieNaam": "bpost - BBOX 24/7 WZC HENRI VANDER STOKKEN",
        "straatNaam": "PALOKENSTRAAT,17",
        "straatNr": "",
        "vervoerder": "Amazon",
        "puntType": "3p",
        "bezettingsgraad": 50,
        "latitude": 50.761389,
        "longitude": 4.179684,
        "canPickup": true,
        "canDropoff": false,
        "openingstijden": null
      }
    },
    {
      "type": "Feature",
      "geometry": {
        "type": "Point",
        "coordinates": [
          4.162317,
          50.759802
        ]
      },
      "properties": {
        "type": "pakketpunt",
        "locatieNaam": "bpost - PEPINGEN",
        "straatNaam": "STEENWEG OP ELINGEN,7",
        "straatNr": "",
        "vervoerder": "Amazon",
        "puntType": "3p",
        "bezettingsgraad": 50,
        "latitude": 50.759802,
        "longitude": 4.162317,
        "canPickup": true,
        "canDropoff": false,
        "openingstijden": null
      }
    },
    {
      "type": "Feature",
      "geometry": {
        "type": "MultiPolygon",
        "coordinates": [
          [
            [
              [
                4.166492413079461,
                50.75928079523209
              ],
              [
                4.166392077556072,
                50.759023895892184
              ],
              [
                4.1662525276324,
                50.75877447139963
              ],
              [
                4.166075107784012,
                50.75853492371287
              ],
              [
                4.165861527099768,
                50.758307559641324
              ],
              [
                4.165613842805515,
                50.75809456863584
              ],
              [
                4.165334440439308,
                50.75789800171045
              ],
              [
                4.165026010869579,
                50.75771975169788
              ],
              [
                4.164691524377888,
                50.75756153502875
              ],
              [
                4.1643342020559375,
                50.75742487520964
              ],
              [
                4.163957484792239,
                50.757311088158815
              ],
              [
                4.163565000146801,
                50.75722126954057
              ],
              [
                4.163160527432386,
                50.757156284219825
              ],
              [
                4.162747961337993,
                50.75711675793817
              ],
              [
                4.162331274444089,
                50.757103071291716
              ],
              [
                4.161914478989716,
                50.75711535606812
              ],
              [
                4.161501588258701,
                50.75715349397821
              ],
              [
                4.16109657795582,
                50.7572171177945
              ],
              [
                4.160703347943912,
                50.757305614885375
              ],
              [
                4.160325684709398,
                50.75741813311123
              ],
              [
                4.159967224916872,
                50.757553589025775
              ],
              [
                4.15963142040288,
                50.757710678303916
              ],
              [
                4.159321504945424,
                50.757887888295805
              ],
              [
                4.159319215435967,
                50.75788948196002
              ],
              [
                4.1593185049398915,
                50.757889888219914
              ],
              [
                4.159037463098797,
                50.75808551250339
              ],
              [
                4.158788001548727,
                50.75829766733212
              ],
              [
                4.158572522936705,
                50.75852430974562
              ],
              [
                4.158393102760231,
                50.758763257244006
              ],
              [
                4.1582514693667845,
                50.75901220879948
              ],
              [
                4.158148987292257,
                50.759268767010035
              ],
              [
                4.158086644099404,
                50.759530461182386
              ],
              [
                4.158065040843853,
                50.75979477112224
              ],
              [
                4.158084386260384,
                50.760059151402665
              ],
              [
                4.158144494726422,
                50.760321055877064
              ],
              [
                4.158244788023387,
                50.76057796220079
              ],
              [
                4.158384300879935,
                50.76082739612497
              ],
              [
                4.158561690244686,
                50.761066955328786
              ],
              [
                4.1587752482000235,
                50.76129433256042
              ],
              [
                4.159022918393403,
                50.7615073378634
              ],
              [
                4.159302315828571,
                50.76170391967443
              ],
              [
                4.159610749826574,
                50.76188218458894
              ],
              [
                4.159945249935727,
                50.76204041560386
              ],
              [
                4.160302594541133,
                50.762177088661595
              ],
              [
                4.160679341898128,
                50.76229088733533
              ],
              [
                4.161071863290485,
                50.76238071551439
              ],
              [
                4.161476377993596,
                50.762445707966776
              ],
              [
                4.161888989705233,
                50.76248523867707
              ],
              [
                4.162305724092316,
                50.762498926879324
              ],
              [
                4.162722567091152,
                50.7624866407264
              ],
              [
                4.163135503591341,
                50.76244849856064
              ],
              [
                4.163540556129794,
                50.7623848677734
              ],
              [
                4.163933823221199,
                50.762296361264475
              ],
              [
                4.164311516954831,
                50.76218383153569
              ],
              [
                4.164669999494701,
                50.762048362475674
              ],
              [
                4.165005818130785,
                50.76189125891498
              ],
              [
                4.165315738543072,
                50.76171403405253
              ],
              [
                4.165318028035532,
                50.76171244027258
              ],
              [
                4.165318738537519,
                50.76171203397665
              ],
              [
                4.165599775927687,
                50.761516394791755
              ],
              [
                4.165849223840312,
                50.76130422561921
              ],
              [
                4.16606468015176,
                50.76107756997057
              ],
              [
                4.166244070220848,
                50.76083861085417
              ],
              [
                4.166385666856449,
                50.76058964974411
              ],
              [
                4.166488106934625,
                50.76033308440951
              ],
              [
                4.166550404505922,
                50.76007138581732
              ],
              [
                4.166571960267365,
                50.75980707433164
              ],
              [
                4.166552567308836,
                50.75954269543882
              ],
              [
                4.166492413079461,
                50.75928079523209
              ]
            ]
          ],
          [
            [
              [
                4.183856362285163,
                50.760869176565315
              ],
              [
                4.183755928662605,
                50.760612292217594
              ],
              [
                4.183616282075189,
                50.76036288853066
              ],
              [
                4.1834387679292355,
                50.760123367262494
              ],
              [
                4.183225096221529,
                50.759896034968
              ],
              [
                4.182977325054259,
                50.75968308079197
              ],
              [
                4.182697840801825,
                50.759486555393735
              ],
              [
                4.182389335120948,
                50.75930835120606
              ],
              [
                4.182054779025857,
                50.75915018421823
              ],
              [
                4.181697394278255,
                50.75901357745841
              ],
              [
                4.181320622367537,
                50.75889984633394
              ],
              [
                4.180928091379718,
                50.75881008597059
              ],
              [
                4.180523581073618,
                50.758745160672255
              ],
              [
                4.180110986500072,
                50.758705695602636
              ],
              [
                4.1796942805136785,
                50.75869207076842
              ],
              [
                4.17927747553727,
                50.758704417362026
              ],
              [
                4.1788645849463615,
                50.75874261649913
              ],
              [
                4.1784595844444254,
                50.75880630036262
              ],
              [
                4.1780663738000205,
                50.75889485574274
              ],
              [
                4.178065013666134,
                50.75889526120669
              ],
              [
                4.178062373977506,
                50.75889585568809
              ],
              [
                4.177684739473125,
                50.75900842987098
              ],
              [
                4.17732631751276,
                50.759143938885025
              ],
              [
                4.176990559568871,
                50.75930107789377
              ],
              [
                4.176680698971263,
                50.75947833376847
              ],
              [
                4.176399719776137,
                50.7596739996524
              ],
              [
                4.176150328030718,
                50.75988619139058
              ],
              [
                4.175934925710094,
                50.760112865667
              ],
              [
                4.175755587577344,
                50.76035183967489
              ],
              [
                4.175614041190099,
                50.760600812131095
              ],
              [
                4.175511650246575,
                50.76085738543227
              ],
              [
                4.17544940143208,
                50.761119088739655
              ],
              [
                4.175427894893465,
                50.761383401770935
              ],
              [
                4.175447338434153,
                50.76164777906928
              ],
              [
                4.175507545486594,
                50.76190967451672
              ],
              [
                4.175607936882722,
                50.762166565855445
              ],
              [
                4.175747546406336,
                50.76241597898078
              ],
              [
                4.17592503007493,
                50.762655511772216
              ],
              [
                4.176138679062475,
                50.76288285723213
              ],
              [
                4.176386436139473,
                50.763095825710046
              ],
              [
                4.176665915472642,
                50.76329236599725
              ],
              [
                4.1769744255939925,
                50.76347058508905
              ],
              [
                4.177308995318402,
                50.76362876642374
              ],
              [
                4.177666402360222,
                50.76376538642213
              ],
              [
                4.178043204373184,
                50.763879129168444
              ],
              [
                4.178435772114417,
                50.76396889909075
              ],
              [
                4.178840324412706,
                50.76403383151809
              ],
              [
                4.179252964603566,
                50.76407330101327
              ],
              [
                4.17966971807951,
                50.764086927399916
              ],
              [
                4.180086570592928,
                50.764074579426335
              ],
              [
                4.180499506941772,
                50.76403637603035
              ],
              [
                4.180904549664461,
                50.763972685193075
              ],
              [
                4.181297797370321,
                50.7638841203927
              ],
              [
                4.181299157620463,
                50.763883714891705
              ],
              [
                4.181301797547816,
                50.76388312033806
              ],
              [
                4.1816794624953975,
                50.76377053462499
              ],
              [
                4.182037907142033,
                50.76363501244048
              ],
              [
                4.182373679142887,
                50.76347785912675
              ],
              [
                4.182683544627367,
                50.763300588361965
              ],
              [
                4.182964519350849,
                50.76310490757474
              ],
              [
                4.183213897437299,
                50.762892701492525
              ],
              [
                4.183429277435865,
                50.76266601398231
              ],
              [
                4.183608585440604,
                50.762427028359205
              ],
              [
                4.1837500950509945,
                50.762178046352545
              ],
              [
                4.18385244398144,
                50.76192146593262
              ],
              [
                4.1839146471604804,
                50.76165975821156
              ],
              [
                4.183936106194332,
                50.76139544364129
              ],
              [
                4.183916615104492,
                50.76113106773775
              ],
              [
                4.183856362285163,
                50.760869176565315
              ]
            ]
          ]
        ]
      },
      "properties": {
        "type": "buffer_union_300m",
        "buffer_m": 300
      }
    },
    {
      "type": "Feature",
      "geometry": {
        "type": "MultiPolygon",
        "coordinates": [
          [
            [
              [
                4.167883196994393,
                50.759107693913926
              ],
              [
                4.167749406916522,
                50.75876516301251
              ],
              [
                4.167563332117911,
                50.758432599117896
              ],
              [
                4.167326765549006,
                50.75811320476084
              ],
              [
                4.167041986255096,
                50.75781005558884
              ],
              [
                4.166711737397911,
                50.75752607075743
              ],
              [
                4.166339199815138,
                50.75726398482991
              ],
              [
                4.165927961373358,
                50.75702632145622
              ],
              [
                4.165481982410109,
                50.75681536908332
              ],
              [
                4.165005557598032,
                50.75663315893089
              ],
              [
                4.164503274598222,
                50.7564814454437
              ],
              [
                4.163979969900469,
                50.756361689408294
              ],
              [
                4.163440682274799,
                50.75627504389634
              ],
              [
                4.162890604281499,
                50.75622234316919
              ],
              [
                4.162335032305196,
                50.75620409465059
              ],
              [
                4.161779315592629,
                50.75622047404421
              ],
              [
                4.161228804783147,
                50.756271323643006
              ],
              [
                4.160688800425879,
                50.756356153846774
              ],
              [
                4.160164501977518,
                50.75647414787295
              ],
              [
                4.159660957770238,
                50.75662416961588
              ],
              [
                4.159183016429926,
                50.756804774578846
              ],
              [
                4.158735280211251,
                50.757014223774
              ],
              [
                4.158322060697785,
                50.75725050045692
              ],
              [
                4.158319771185494,
                50.757252094101844
              ],
              [
                4.158319060690412,
                50.75725250035573
              ],
              [
                4.157944337253075,
                50.757513329423894
              ],
              [
                4.157611718829123,
                50.75779619934276
              ],
              [
                4.157324409064064,
                50.75809838628738
              ],
              [
                4.15708517547802,
                50.75841698037091
              ],
              [
                4.156896322791095,
                50.75874891365551
              ],
              [
                4.156759670698091,
                50.759090989686705
              ],
              [
                4.156676536307736,
                50.75943991426763
              ],
              [
                4.15664772141692,
                50.75979232717696
              ],
              [
                4.156673504744102,
                50.76014483452535
              ],
              [
                4.1567536391984,
                50.76049404143887
              ],
              [
                4.1568873542124525,
                50.76083658475486
              ],
              [
                4.157073363118385,
                50.76116916541527
              ],
              [
                4.157309875497591,
                50.76148858024517
              ],
              [
                4.15759461438696,
                50.761791752810495
              ],
              [
                4.157924838177281,
                50.762075763056885
              ],
              [
                4.158297366994056,
                50.762337875444615
              ],
              [
                4.158708613307548,
                50.76257556530718
              ],
              [
                4.159154616477783,
                50.76278654317995
              ],
              [
                4.1596310809020185,
                50.76296877686362
              ],
              [
                4.160133417397132,
                50.763120511009525
              ],
              [
                4.160656787417877,
                50.7632402840375
              ],
              [
                4.161196149684321,
                50.76332694222332
              ],
              [
                4.161746308768277,
                50.76337965081895
              ],
              [
                4.162301965169419,
                50.763397902098674
              ],
              [
                4.162857766397264,
                50.763381520253134
              ],
              [
                4.16340835856529,
                50.76333066308397
              ],
              [
                4.1639484379985765,
                50.76324582048277
              ],
              [
                4.164472802356114,
                50.763127809708905
              ],
              [
                4.164976400773736,
                50.76297776751199
              ],
              [
                4.165454382543171,
                50.76279713917521
              ],
              [
                4.165902143856999,
                50.76258766458498
              ],
              [
                4.166315372168189,
                50.76235136146196
              ],
              [
                4.166317661657802,
                50.76234976766271
              ],
              [
                4.166318372160781,
                50.762349361360776
              ],
              [
                4.166693087696201,
                50.76208850580443
              ],
              [
                4.167025681886522,
                50.76180561038835
              ],
              [
                4.167312952016598,
                50.761503399917096
              ],
              [
                4.167552132088551,
                50.761184785181385
              ],
              [
                4.167740919437917,
                50.76085283491254
              ],
              [
                4.167877496879938,
                50.76051074621759
              ],
              [
                4.1679605501738894,
                50.76016181377996
              ],
              [
                4.167989280638626,
                50.75980939812281
              ],
              [
                4.167963412799455,
                50.75945689324107
              ],
              [
                4.167883196994393,
                50.759107693913926
              ]
            ]
          ],
          [
            [
              [
                4.185247129243854,
                50.760695869026776
              ],
              [
                4.185113208368775,
                50.760353358116326
              ],
              [
                4.184927004687744,
                50.76002082196377
              ],
              [
                4.1846903123921155,
                50.759701462832496
              ],
              [
                4.184405411737611,
                50.759398356030694
              ],
              [
                4.184075047054267,
                50.7591144203057
              ],
              [
                4.183702400294715,
                50.75885238974793
              ],
              [
                4.183291060376411,
                50.75861478747398
              ],
              [
                4.1828449886135886,
                50.758403901342405
              ],
              [
                4.182368480572029,
                50.75822176193502
              ],
              [
                4.18186612471383,
                50.758070123015344
              ],
              [
                4.18134275822995,
                50.75795044465193
              ],
              [
                4.180803420485024,
                50.75786387916853
              ],
              [
                4.180253304521667,
                50.75781126005595
              ],
              [
                4.179697707089935,
                50.7577930939521
              ],
              [
                4.179141977681573,
                50.757809555767125
              ],
              [
                4.178591467058169,
                50.75786048700044
              ],
              [
                4.178051475767144,
                50.757945397265765
              ],
              [
                4.177527203139552,
                50.7580634690097
              ],
              [
                4.177525843025032,
                50.75806387446747
              ],
              [
                4.177523203376195,
                50.75806446893684
              ],
              [
                4.177019697472397,
                50.75821456528813
              ],
              [
                4.176541806570945,
                50.75839524104965
              ],
              [
                4.176094132441217,
                50.758604756551776
              ],
              [
                4.175680986069354,
                50.75884109441159
              ],
              [
                4.175306346154969,
                50.75910197894715
              ],
              [
                4.174973820798927,
                50.75938489807899
              ],
              [
                4.174686612751012,
                50.759687127508194
              ],
              [
                4.174447488552297,
                50.7600057569387
              ],
              [
                4.174258751869924,
                50.76033771809214
              ],
              [
                4.174122221281934,
                50.76067981424548
              ],
              [
                4.174039212727241,
                50.76102875100793
              ],
              [
                4.174010526791116,
                50.7613811680407
              ],
              [
                4.174036440950253,
                50.761733671414554
              ],
              [
                4.1741167068538205,
                50.76208286629363
              ],
              [
                4.17425055266844,
                50.762425389631005
              ],
              [
                4.174436690466364,
                50.76275794256086
              ],
              [
                4.1746733285873905,
                50.763077322175256
              ],
              [
                4.174958188857058,
                50.763380452379046
              ],
              [
                4.175288528496733,
                50.76366441352585
              ],
              [
                4.175661166515704,
                50.763926470548654
              ],
              [
                4.176072514331998,
                50.764164099314215
              ],
              [
                4.176518610327536,
                50.76437501094624
              ],
              [
                4.176995158005044,
                50.76455717388342
              ],
              [
                4.177497567379084,
                50.7647088334585
              ],
              [
                4.178020999202048,
                50.764828528809616
              ],
              [
                4.1785604115983865,
                50.76491510696069
              ],
              [
                4.179110608656789,
                50.764967733934675
              ],
              [
                4.179666290510968,
                50.76498590279205
              ],
              [
                4.180222104425173,
                50.764969438517426
              ],
              [
                4.180772696390676,
                50.76491849970647
              ],
              [
                4.181312762734593,
                50.76483357703716
              ],
              [
                4.181837101242163,
                50.764715488540126
              ],
              [
                4.181838461511675,
                50.764715083032954
              ],
              [
                4.181841101478825,
                50.76471448846728
              ],
              [
                4.182344661511684,
                50.76456437162362
              ],
              [
                4.182822592752779,
                50.76438367245342
              ],
              [
                4.1832702918817715,
                50.76417413152532
              ],
              [
                4.183683446951023,
                50.76393776719897
              ],
              [
                4.1840580789258555,
                50.76367685617297
              ],
              [
                4.18439058000965,
                50.76339391154441
              ],
              [
                4.184677748384493,
                50.76309165859175
              ],
              [
                4.184916819033013,
                50.762773008514706
              ],
              [
                4.185105490345048,
                50.7624410303849
              ],
              [
                4.185241946253771,
                50.76209892157754
              ],
              [
                4.1853248736892334,
                50.76174997696956
              ],
              [
                4.185353475182625,
                50.76139755720116
              ],
              [
                4.185327476501458,
                50.761045056306706
              ],
              [
                4.185247129243854,
                50.760695869026776
              ]
            ]
          ]
        ]
      },
      "properties": {
        "type": "buffer_union_400m",
        "buffer_m": 400
      }
    },
    {
      "type": "Feature",
      "geometry": {
        "type": "Polygon",
        "coordinates": [
          [
            [
              4.071963,
              50.7117579
            ],
            [
              4.0817162,
              50.7244873
            ],
            [
              4.0914151,
              50.7276115
            ],
            [
              4.0935179,
              50.7269323
            ],
            [
              4.0941187,
              50.7278016
            ],
            [
              4.0993544,
              50.7310071
            ],
            [
              4.0993973,
              50.7313874
            ],
            [
              4.1003415,
              50.7318763
            ],
            [
              4.099054,
              50.7324739
            ],
            [
              4.0991827,
              50.7334246
            ],
            [
              4.0988823,
              50.7336691
            ],
            [
              4.102056,
              50.735519
            ],
            [
              4.104973,
              50.737048
            ],
            [
              4.10968,
              50.740866
            ],
            [
              4.110057,
              50.740581
            ],
            [
              4.11275,
              50.74211
            ],
            [
              4.112976,
              50.741825
            ],
            [
              4.11335,
              50.742016
            ],
            [
              4.1125642,
              50.7429598
            ],
            [
              4.1142117,
              50.743922
            ],
            [
              4.1163466,
              50.745343
            ],
            [
              4.1162658,
              50.7458365
            ],
            [
              4.1171245,
              50.7464588
            ],
            [
              4.1177807,
              50.747341
            ],
            [
              4.1186889,
              50.7466551
            ],
            [
              4.1184474,
              50.7465143
            ],
            [
              4.1192328,
              50.7460039
            ],
            [
              4.1190373,
              50.7458925
            ],
            [
              4.1196385,
              50.7454029
            ],
            [
              4.1209022,
              50.7460638
            ],
            [
              4.1205414,
              50.7464029
            ],
            [
              4.1217536,
              50.7471087
            ],
            [
              4.1234112,
              50.7486205
            ],
            [
              4.1219836,
              50.7497113
            ],
            [
              4.1220566,
              50.7497939
            ],
            [
              4.1230086,
              50.7499102
            ],
            [
              4.1263371,
              50.7513965
            ],
            [
              4.1260892,
              50.7518041
            ],
            [
              4.1267637,
              50.7525372
            ],
            [
              4.1276003,
              50.7530052
            ],
            [
              4.1282925,
              50.7529419
            ],
            [
              4.129101,
              50.7522827
            ],
            [
              4.1311017,
              50.7527658
            ],
            [
              4.1312313,
              50.7526356
            ],
            [
              4.1315286,
              50.7526742
            ],
            [
              4.1331218,
              50.7530793
            ],
            [
              4.1345202,
              50.7531175
            ],
            [
              4.1348731,
              50.7528162
            ],
            [
              4.1347984,
              50.752738
            ],
            [
              4.1348911,
              50.7524446
            ],
            [
              4.1350913,
              50.7521314
            ],
            [
              4.1355556,
              50.7522475
            ],
            [
              4.1362233,
              50.7514253
            ],
            [
              4.1380719,
              50.7524523
            ],
            [
              4.1391133,
              50.7533983
            ],
            [
              4.1401888,
              50.7535814
            ],
            [
              4.1413299,
              50.7535422
            ],
            [
              4.143355,
              50.7540433
            ],
            [
              4.142698,
              50.7547324
            ],
            [
              4.139685,
              50.7571813
            ],
            [
              4.1385989,
              50.7578216
            ],
            [
              4.1390579,
              50.757962
            ],
            [
              4.1406754,
              50.758149
            ],
            [
              4.1417266,
              50.7583979
            ],
            [
              4.1430912,
              50.7588753
            ],
            [
              4.1430454,
              50.7589525
            ],
            [
              4.1439495,
              50.7592133
            ],
            [
              4.1435587,
              50.7598696
            ],
            [
              4.1440517,
              50.7599941
            ],
            [
              4.1419509,
              50.7607405
            ],
            [
              4.1414774,
              50.7615412
            ],
            [
              4.1399413,
              50.7613616
            ],
            [
              4.1397299,
              50.7619242
            ],
            [
              4.1396451,
              50.762675
            ],
            [
              4.1375101,
              50.7644028
            ],
            [
              4.1340224,
              50.7654679
            ],
            [
              4.1333176,
              50.7660285
            ],
            [
              4.1343836,
              50.7667155
            ],
            [
              4.1336768,
              50.7676275
            ],
            [
              4.133572,
              50.7682566
            ],
            [
              4.1324814,
              50.768208
            ],
            [
              4.1322603,
              50.7684474
            ],
            [
              4.1354755,
              50.7694085
            ],
            [
              4.1357573,
              50.7692715
            ],
            [
              4.1356834,
              50.768231
            ],
            [
              4.1412166,
              50.7702522
            ],
            [
              4.1426421,
              50.7711477
            ],
            [
              4.1436752,
              50.7716696
            ],
            [
              4.1445023,
              50.7717647
            ],
            [
              4.1481424,
              50.77268
            ],
            [
              4.1489883,
              50.7723735
            ],
            [
              4.1517487,
              50.7730521
            ],
            [
              4.1517438,
              50.7731499
            ],
            [
              4.1523564,
              50.7735587
            ],
            [
              4.151161,
              50.7739905
            ],
            [
              4.1504573,
              50.7745722
            ],
            [
              4.1500589,
              50.7752207
            ],
            [
              4.1489238,
              50.7757189
            ],
            [
              4.1481854,
              50.7752724
            ],
            [
              4.1479044,
              50.775213
            ],
            [
              4.1469745,
              50.775796
            ],
            [
              4.146465,
              50.7757912
            ],
            [
              4.1459435,
              50.7759821
            ],
            [
              4.1458266,
              50.7764859
            ],
            [
              4.145631,
              50.7768546
            ],
            [
              4.1453642,
              50.776951
            ],
            [
              4.1455636,
              50.7781262
            ],
            [
              4.1457802,
              50.7787165
            ],
            [
              4.1461227,
              50.7790913
            ],
            [
              4.1460361,
              50.7799854
            ],
            [
              4.1458133,
              50.7802581
            ],
            [
              4.1471956,
              50.7812518
            ],
            [
              4.1473035,
              50.7809498
            ],
            [
              4.1479368,
              50.7816968
            ],
            [
              4.1489435,
              50.7821588
            ],
            [
              4.1508448,
              50.7823562
            ],
            [
              4.1517093,
              50.7822096
            ],
            [
              4.1521994,
              50.7819429
            ],
            [
              4.1528619,
              50.7806961
            ],
            [
              4.1535609,
              50.7803235
            ],
            [
              4.1543645,
              50.7801422
            ],
            [
              4.1557796,
              50.7796631
            ],
            [
              4.1561449,
              50.7808982
            ],
            [
              4.1574624,
              50.7815671
            ],
            [
              4.1556893,
              50.782833
            ],
            [
              4.1562603,
              50.7835562
            ],
            [
              4.1568094,
              50.7838402
            ],
            [
              4.1578914,
              50.7829473
            ],
            [
              4.1600582,
              50.7840091
            ],
            [
              4.1600851,
              50.7843361
            ],
            [
              4.1622916,
              50.7848092
            ],
            [
              4.1621152,
              50.785053
            ],
            [
              4.1617933,
              50.7861305
            ],
            [
              4.1618804,
              50.7861916
            ],
            [
              4.1627538,
              50.7862917
            ],
            [
              4.1630608,
              50.7861286
            ],
            [
              4.1637157,
              50.7859598
            ],
            [
              4.1656254,
              50.786228
            ],
            [
              4.1660574,
              50.7861271
            ],
            [
              4.1664694,
              50.7864951
            ],
            [
              4.1677801,
              50.787103
            ],
            [
              4.1677613,
              50.7873153
            ],
            [
              4.1695284,
              50.7879136
            ],
            [
              4.1703391,
              50.7879291
            ],
            [
              4.1723236,
              50.7884836
            ],
            [
              4.1730354,
              50.7888331
            ],
            [
              4.1734854,
              50.7889196
            ],
            [
              4.1739935,
              50.7883049
            ],
            [
              4.1750647,
              50.7886465
            ],
            [
              4.1759882,
              50.7878449
            ],
            [
              4.1780021,
              50.7885161
            ],
            [
              4.1777247,
              50.788758
            ],
            [
              4.17839,
              50.7889445
            ],
            [
              4.1791076,
              50.7879311
            ],
            [
              4.179937,
              50.7880323
            ],
            [
              4.1801255,
              50.7876208
            ],
            [
              4.180409,
              50.787493
            ],
            [
              4.1816081,
              50.7877739
            ],
            [
              4.1810023,
              50.7888406
            ],
            [
              4.1819243,
              50.7889706
            ],
            [
              4.181612,
              50.789807
            ],
            [
              4.1826873,
              50.7897871
            ],
            [
              4.1830668,
              50.7883737
            ],
            [
              4.1833453,
              50.7884842
            ],
            [
              4.1843899,
              50.7875328
            ],
            [
              4.1851759,
              50.7879341
            ],
            [
              4.1854454,
              50.7877706
            ],
            [
              4.1867107,
              50.7883866
            ],
            [
              4.1871753,
              50.7881287
            ],
            [
              4.1874538,
              50.787823
            ],
            [
              4.1871214,
              50.7877342
            ],
            [
              4.1873258,
              50.7874904
            ],
            [
              4.1860063,
              50.7869648
            ],
            [
              4.1862426,
              50.786651
            ],
            [
              4.1870636,
              50.786827
            ],
            [
              4.188174,
              50.7872292
            ],
            [
              4.1901159,
              50.7880919
            ],
            [
              4.1904853,
              50.787719
            ],
            [
              4.1896509,
              50.787347
            ],
            [
              4.1904771,
              50.7864114
            ],
            [
              4.1900534,
              50.78633
            ],
            [
              4.1906151,
              50.7854009
            ],
            [
              4.1912502,
              50.7855629
            ],
            [
              4.1920219,
              50.7844375
            ],
            [
              4.1902343,
              50.7841166
            ],
            [
              4.1888353,
              50.7841275
            ],
            [
              4.187977,
              50.7842251
            ],
            [
              4.1849296,
              50.7838249
            ],
            [
              4.1859409,
              50.7823049
            ],
            [
              4.186385,
              50.7825266
            ],
            [
              4.1865056,
              50.7809939
            ],
            [
              4.1843515,
              50.7805291
            ],
            [
              4.184833,
              50.7799149
            ],
            [
              4.1831619,
              50.779558
            ],
            [
              4.1828701,
              50.7775934
            ],
            [
              4.1832821,
              50.7772569
            ],
            [
              4.1861746,
              50.778109
            ],
            [
              4.1892387,
              50.7777453
            ],
            [
              4.1883804,
              50.7773329
            ],
            [
              4.1891786,
              50.7764265
            ],
            [
              4.1855051,
              50.7751347
            ],
            [
              4.1840545,
              50.7742554
            ],
            [
              4.1830932,
              50.773463
            ],
            [
              4.1818401,
              50.7740383
            ],
            [
              4.1820633,
              50.7742663
            ],
            [
              4.1806385,
              50.7749719
            ],
            [
              4.1803209,
              50.7743749
            ],
            [
              4.1797201,
              50.7743314
            ],
            [
              4.1798317,
              50.774022
            ],
            [
              4.1792051,
              50.7736964
            ],
            [
              4.1786901,
              50.7738321
            ],
            [
              4.1785614,
              50.7731156
            ],
            [
              4.1782352,
              50.7729745
            ],
            [
              4.1783039,
              50.7726271
            ],
            [
              4.177746,
              50.7723557
            ],
            [
              4.1785785,
              50.771091
            ],
            [
              4.1791899,
              50.7703813
            ],
            [
              4.1775234,
              50.7697301
            ],
            [
              4.1754863,
              50.7692739
            ],
            [
              4.1739385,
              50.7686023
            ],
            [
              4.1747583,
              50.766723
            ],
            [
              4.1736167,
              50.7666361
            ],
            [
              4.1739,
              50.7660553
            ],
            [
              4.1755296,
              50.7661091
            ],
            [
              4.1757392,
              50.7662173
            ],
            [
              4.1760309,
              50.7660862
            ],
            [
              4.1761772,
              50.766198
            ],
            [
              4.1764936,
              50.7662312
            ],
            [
              4.1770286,
              50.7666195
            ],
            [
              4.177117,
              50.7667936
            ],
            [
              4.1779685,
              50.7671143
            ],
            [
              4.1784259,
              50.7674474
            ],
            [
              4.178728,
              50.7674759
            ],
            [
              4.1788445,
              50.7676468
            ],
            [
              4.1793571,
              50.76783
            ],
            [
              4.1795289,
              50.7680475
            ],
            [
              4.1800718,
              50.7682167
            ],
            [
              4.1805766,
              50.7685091
            ],
            [
              4.1807959,
              50.768742
            ],
            [
              4.1811321,
              50.7687119
            ],
            [
              4.181469,
              50.7688214
            ],
            [
              4.1818045,
              50.768783
            ],
            [
              4.1828677,
              50.7689469
            ],
            [
              4.1833699,
              50.7688527
            ],
            [
              4.1834538,
              50.7686512
            ],
            [
              4.1836076,
              50.7686205
            ],
            [
              4.184141,
              50.7688064
            ],
            [
              4.1844369,
              50.76869
            ],
            [
              4.1848742,
              50.7686637
            ],
            [
              4.1853059,
              50.7684354
            ],
            [
              4.1854444,
              50.768456
            ],
            [
              4.1854819,
              50.7686143
            ],
            [
              4.1857029,
              50.7687597
            ],
            [
              4.1857167,
              50.7688886
            ],
            [
              4.1858463,
              50.7689355
            ],
            [
              4.1861577,
              50.7688848
            ],
            [
              4.1863392,
              50.7687569
            ],
            [
              4.1866824,
              50.7688371
            ],
            [
              4.1865453,
              50.7689334
            ],
            [
              4.1867228,
              50.7690382
            ],
            [
              4.187071,
              50.768914
            ],
            [
              4.1873212,
              50.7691095
            ],
            [
              4.1889832,
              50.7692895
            ],
            [
              4.1889664,
              50.769508
            ],
            [
              4.189167,
              50.7695657
            ],
            [
              4.1893775,
              50.7695213
            ],
            [
              4.1894233,
              50.7693305
            ],
            [
              4.1898524,
              50.7690754
            ],
            [
              4.1903674,
              50.7689234
            ],
            [
              4.1904961,
              50.7686411
            ],
            [
              4.1903674,
              50.7683263
            ],
            [
              4.1889083,
              50.7669854
            ],
            [
              4.1887795,
              50.7659974
            ],
            [
              4.1889941,
              50.765384
            ],
            [
              4.1889083,
              50.7651397
            ],
            [
              4.1876895,
              50.7643633
            ],
            [
              4.1873462,
              50.7638585
            ],
            [
              4.1873462,
              50.763587
            ],
            [
              4.1877066,
              50.7628161
            ],
            [
              4.1877066,
              50.7625555
            ],
            [
              4.1880156,
              50.7618497
            ],
            [
              4.188359,
              50.7615565
            ],
            [
              4.1883933,
              50.7606987
            ],
            [
              4.1885907,
              50.7602806
            ],
            [
              4.1888654,
              50.7598734
            ],
            [
              4.1909682,
              50.7585812
            ],
            [
              4.1930281,
              50.7577125
            ],
            [
              4.1945731,
              50.7565071
            ],
            [
              4.195028,
              50.7564745
            ],
            [
              4.1956288,
              50.7565614
            ],
            [
              4.1961524,
              50.7564202
            ],
            [
              4.1970794,
              50.7556926
            ],
            [
              4.197148,
              50.7553342
            ],
            [
              4.196839,
              50.7548347
            ],
            [
              4.1968219,
              50.7544003
            ],
            [
              4.1980578,
              50.7530699
            ],
            [
              4.1980321,
              50.7521087
            ],
            [
              4.19756,
              50.75162
            ],
            [
              4.1967017,
              50.7510444
            ],
            [
              4.1953027,
              50.7503276
            ],
            [
              4.1964185,
              50.7490079
            ],
            [
              4.1983496,
              50.7476937
            ],
            [
              4.2004353,
              50.7460644
            ],
            [
              4.2025124,
              50.7452606
            ],
            [
              4.2009392,
              50.7440077
            ],
            [
              4.2005203,
              50.7440399
            ],
            [
              4.1994154,
              50.7445308
            ],
            [
              4.1984733,
              50.745062
            ],
            [
              4.1967789,
              50.7440386
            ],
            [
              4.1956889,
              50.7440114
            ],
            [
              4.1937749,
              50.7456951
            ],
            [
              4.1930437,
              50.7461064
            ],
            [
              4.1920432,
              50.7464305
            ],
            [
              4.1903245,
              50.745782
            ],
            [
              4.1881358,
              50.7451574
            ],
            [
              4.1873032,
              50.7462708
            ],
            [
              4.1864621,
              50.7459286
            ],
            [
              4.1836983,
              50.7475796
            ],
            [
              4.1823422,
              50.7469062
            ],
            [
              4.1838443,
              50.7435932
            ],
            [
              4.1841704,
              50.7432293
            ],
            [
              4.1847283,
              50.743023
            ],
            [
              4.1854579,
              50.742306
            ],
            [
              4.1859042,
              50.7423169
            ],
            [
              4.1887023,
              50.7386505
            ],
            [
              4.1903532,
              50.7363108
            ],
            [
              4.1915249,
              50.7343287
            ],
            [
              4.1930281,
              50.7333378
            ],
            [
              4.1943671,
              50.7322948
            ],
            [
              4.1962039,
              50.7304694
            ],
            [
              4.1978158,
              50.7292575
            ],
            [
              4.1960767,
              50.7276529
            ],
            [
              4.1966571,
              50.7273202
            ],
            [
              4.1946199,
              50.7258333
            ],
            [
              4.1936325,
              50.7271445
            ],
            [
              4.193395,
              50.7262719
            ],
            [
              4.1916965,
              50.7266671
            ],
            [
              4.1916118,
              50.7257697
            ],
            [
              4.1899677,
              50.7245088
            ],
            [
              4.1893191,
              50.7249309
            ],
            [
              4.188589,
              50.7250946
            ],
            [
              4.1880203,
              50.724346
            ],
            [
              4.1874721,
              50.7228848
            ],
            [
              4.1831072,
              50.7227586
            ],
            [
              4.1794919,
              50.7232651
            ],
            [
              4.1774357,
              50.7234063
            ],
            [
              4.176717,
              50.7226377
            ],
            [
              4.1758403,
              50.7221889
            ],
            [
              4.1753358,
              50.722092
            ],
            [
              4.1748722,
              50.7221455
            ],
            [
              4.1734009,
              50.7217497
            ],
            [
              4.1718026,
              50.7216313
            ],
            [
              4.1696233,
              50.7222314
            ],
            [
              4.1687575,
              50.7225499
            ],
            [
              4.1683001,
              50.722775
            ],
            [
              4.1677653,
              50.7233189
            ],
            [
              4.1667925,
              50.7234023
            ],
            [
              4.1651679,
              50.7233908
            ],
            [
              4.1643036,
              50.7236756
            ],
            [
              4.1634667,
              50.7241393
            ],
            [
              4.1626898,
              50.7247895
            ],
            [
              4.1624241,
              50.7258192
            ],
            [
              4.1623791,
              50.7264274
            ],
            [
              4.1621105,
              50.7267078
            ],
            [
              4.161159,
              50.727091
            ],
            [
              4.1607008,
              50.7270404
            ],
            [
              4.1598874,
              50.727676
            ],
            [
              4.1569835,
              50.7283337
            ],
            [
              4.1566555,
              50.72868
            ],
            [
              4.1564192,
              50.7290783
            ],
            [
              4.152414,
              50.7286469
            ],
            [
              4.1533511,
              50.7275457
            ],
            [
              4.1562963,
              50.7277436
            ],
            [
              4.1563708,
              50.7276307
            ],
            [
              4.1573969,
              50.7279067
            ],
            [
              4.1580648,
              50.7274032
            ],
            [
              4.1569326,
              50.7272481
            ],
            [
              4.1562244,
              50.7270189
            ],
            [
              4.1551746,
              50.7270195
            ],
            [
              4.154848,
              50.7268824
            ],
            [
              4.1535383,
              50.7261181
            ],
            [
              4.1532666,
              50.7257617
            ],
            [
              4.1530723,
              50.7258072
            ],
            [
              4.1528459,
              50.7247602
            ],
            [
              4.1507135,
              50.7256454
            ],
            [
              4.1500213,
              50.7257903
            ],
            [
              4.1480152,
              50.7264412
            ],
            [
              4.1484509,
              50.7271869
            ],
            [
              4.148604,
              50.7282187
            ],
            [
              4.1468277,
              50.7280588
            ],
            [
              4.1460909,
              50.7280659
            ],
            [
              4.1446777,
              50.7282985
            ],
            [
              4.1433778,
              50.7286123
            ],
            [
              4.1423764,
              50.7289673
            ],
            [
              4.1421061,
              50.7287891
            ],
            [
              4.1417917,
              50.7282133
            ],
            [
              4.1411982,
              50.7276615
            ],
            [
              4.1407873,
              50.7265469
            ],
            [
              4.1402209,
              50.7265631
            ],
            [
              4.140041,
              50.7259162
            ],
            [
              4.1395614,
              50.725013
            ],
            [
              4.1396853,
              50.7245123
            ],
            [
              4.1398177,
              50.7243038
            ],
            [
              4.1409433,
              50.7233884
            ],
            [
              4.1414001,
              50.7232077
            ],
            [
              4.1385815,
              50.7212008
            ],
            [
              4.1367739,
              50.7197422
            ],
            [
              4.1362706,
              50.7192378
            ],
            [
              4.1363364,
              50.7187036
            ],
            [
              4.135302,
              50.7182983
            ],
            [
              4.1343894,
              50.7160521
            ],
            [
              4.1342084,
              50.7160292
            ],
            [
              4.1338729,
              50.7166811
            ],
            [
              4.1320912,
              50.7169781
            ],
            [
              4.1239282,
              50.7148919
            ],
            [
              4.1211133,
              50.7137544
            ],
            [
              4.11879,
              50.71355
            ],
            [
              4.11682,
              50.712818
            ],
            [
              4.11334,
              50.71339
            ],
            [
              4.112006,
              50.712776
            ],
            [
              4.1112973,
              50.7139565
            ],
            [
              4.1113981,
              50.7139754
            ],
            [
              4.111471,
              50.7141412
            ],
            [
              4.1120248,
              50.7144139
            ],
            [
              4.1117813,
              50.7151171
            ],
            [
              4.111381,
              50.7152786
            ],
            [
              4.1112916,
              50.7153943
            ],
            [
              4.1113539,
              50.7159879
            ],
            [
              4.1115823,
              50.7164712
            ],
            [
              4.1114669,
              50.7166987
            ],
            [
              4.1089492,
              50.716175
            ],
            [
              4.1087669,
              50.7161086
            ],
            [
              4.1090504,
              50.715789
            ],
            [
              4.1082795,
              50.7148461
            ],
            [
              4.1056884,
              50.7126996
            ],
            [
              4.1043609,
              50.7117668
            ],
            [
              4.1037404,
              50.7114305
            ],
            [
              4.102735,
              50.709779
            ],
            [
              4.0990666,
              50.708342
            ],
            [
              4.0973475,
              50.7078771
            ],
            [
              4.1004681,
              50.7059461
            ],
            [
              4.0990132,
              50.7055054
            ],
            [
              4.0977928,
              50.7062876
            ],
            [
              4.0973694,
              50.7060865
            ],
            [
              4.0960106,
              50.706589
            ],
            [
              4.0962984,
              50.7068947
            ],
            [
              4.0931626,
              50.7081605
            ],
            [
              4.0907377,
              50.7071091
            ],
            [
              4.085457,
              50.7119409
            ],
            [
              4.0856298,
              50.7119115
            ],
            [
              4.0858375,
              50.7123566
            ],
            [
              4.0869055,
              50.7132156
            ],
            [
              4.0863728,
              50.7135083
            ],
            [
              4.0846559,
              50.7123283
            ],
            [
              4.084855,
              50.712146
            ],
            [
              4.0845602,
              50.7119788
            ],
            [
              4.0836708,
              50.7117702
            ],
            [
              4.0822837,
              50.7119122
            ],
            [
              4.0806914,
              50.711806
            ],
            [
              4.0789016,
              50.7115089
            ],
            [
              4.0777674,
              50.7116111
            ],
            [
              4.0778224,
              50.7112191
            ],
            [
              4.0764199,
              50.7111467
            ],
            [
              4.07391,
              50.710781
            ],
            [
              4.072521,
              50.7113221
            ],
            [
              4.071963,
              50.7117579
            ]
          ]
        ]
      },
      "properties": {
        "type": "boundary",
        "gemeente": "Pepingen"
      }
    }
  ]
}