{"type":"FeatureCollection","metadata":{"gemeente":"Péruwelz","slug":"peruwelz","generated_at":"2026-09-26T12:42:22.745451Z","total_points":26,"providers":["bpost","DHL","GLS","InPost","VintedGo","PostNL","DPD","Amazon","FedEx"],"bounds":[3.51908,50.5014,3.60229,50.53076]},"features":[{"type":"Feature","geometry":{"type":"Point","coordinates":[3.51908,50.53076]},"properties":{"type":"pakketpunt","locatieNaam":"Bbox 24/7 Station Callenelle","straatNaam":"Rue De Flines","straatNr":"DISTRIB","vervoerder":"bpost","puntType":"automaat","bezettingsgraad":50,"latitude":50.53076,"longitude":3.51908,"canPickup":true,"canDropoff":true,"openingstijden":null}},{"type":"Feature","geometry":{"type":"Point","coordinates":[3.60045,50.5243]},"properties":{"type":"pakketpunt","locatieNaam":"Bbox 24/7 Lidl Peruwelz","straatNaam":"Rue Neuve Chaussée","straatNr":"137","vervoerder":"bpost","puntType":"automaat","bezettingsgraad":50,"latitude":50.5243,"longitude":3.60045,"canPickup":true,"canDropoff":true,"openingstijden":null}},{"type":"Feature","geometry":{"type":"Point","coordinates":[3.59418,50.51022]},"properties":{"type":"pakketpunt","locatieNaam":"Bbox 24/7 Peruwelz Bpost","straatNaam":"Grand'Place","straatNr":"2","vervoerder":"bpost","puntType":"automaat","bezettingsgraad":50,"latitude":50.51022,"longitude":3.59418,"canPickup":true,"canDropoff":true,"openingstijden":null}},{"type":"Feature","geometry":{"type":"Point","coordinates":[3.59419,50.51011]},"properties":{"type":"pakketpunt","locatieNaam":"Peruwelz","straatNaam":"Grand'Place","straatNr":"2","vervoerder":"bpost","puntType":"postkantoor","bezettingsgraad":50,"latitude":50.51011,"longitude":3.59419,"canPickup":true,"canDropoff":true,"openingstijden":null}},{"type":"Feature","geometry":{"type":"Point","coordinates":[3.60229,50.50162]},"properties":{"type":"pakketpunt","locatieNaam":"Bbox 24/7 Delhaize Bon Secours","straatNaam":"Avenue De La Basilique","straatNr":"108B","vervoerder":"bpost","puntType":"automaat","bezettingsgraad":50,"latitude":50.50162,"longitude":3.60229,"canPickup":true,"canDropoff":true,"openingstijden":null}},{"type":"Feature","geometry":{"type":"Point","coordinates":[3.602285,50.501616]},"properties":{"type":"pakketpunt","locatieNaam":"BBOX 24/7 DELHAIZE BON SECOURS","straatNaam":"AVENUE DE LA BASILIQUE","straatNr":"108B","vervoerder":"DHL","puntType":"packStation","bezettingsgraad":50,"latitude":50.501616,"longitude":3.602285,"canPickup":true,"canDropoff":true,"openingstijden":{"ma":"00:00 - 23:59","di":"00:00 - 23:59","wo":"00:00 - 23:59","do":"00:00 - 23:59","vr":"00:00 - 23:59","za":"00:00 - 23:59","zo":"00:00 - 23:59"}}},{"type":"Feature","geometry":{"type":"Point","coordinates":[3.59419,50.510107]},"properties":{"type":"pakketpunt","locatieNaam":"PERUWELZ","straatNaam":"GRAND'PLACE","straatNr":"2","vervoerder":"DHL","puntType":"postOffice","bezettingsgraad":50,"latitude":50.510107,"longitude":3.59419,"canPickup":true,"canDropoff":true,"openingstijden":{"ma":"09:30 - 12:30, 13:30 - 17:00","di":"09:30 - 12:30, 13:30 - 18:00","wo":"09:30 - 12:30, 13:30 - 17:00","do":"09:30 - 12:30, 13:30 - 18:00","vr":"09:30 - 12:30, 13:30 - 17:00","za":"09:30 - 13:00","zo":"gesloten"}}},{"type":"Feature","geometry":{"type":"Point","coordinates":[3.59418,50.51022]},"properties":{"type":"pakketpunt","locatieNaam":"BBOX 24/7 PERUWELZ BPOST","straatNaam":"GRAND'PLACE","straatNr":"2","vervoerder":"DHL","puntType":"packStation","bezettingsgraad":50,"latitude":50.51022,"longitude":3.59418,"canPickup":true,"canDropoff":true,"openingstijden":{"ma":"00:00 - 23:59","di":"00:00 - 23:59","wo":"00:00 - 23:59","do":"00:00 - 23:59","vr":"00:00 - 23:59","za":"00:00 - 23:59","zo":"00:00 - 23:59"}}},{"type":"Feature","geometry":{"type":"Point","coordinates":[3.600448,50.524303]},"properties":{"type":"pakketpunt","locatieNaam":"BBOX 24/7 LIDL PERUWELZ","straatNaam":"RUE NEUVE CHAUSSÉE","straatNr":"137","vervoerder":"DHL","puntType":"packStation","bezettingsgraad":50,"latitude":50.524303,"longitude":3.600448,"canPickup":true,"canDropoff":true,"openingstijden":{"ma":"00:00 - 23:59","di":"00:00 - 23:59","wo":"00:00 - 23:59","do":"00:00 - 23:59","vr":"00:00 - 23:59","za":"00:00 - 23:59","zo":"00:00 - 23:59"}}},{"type":"Feature","geometry":{"type":"Point","coordinates":[3.51908,50.53076]},"properties":{"type":"pakketpunt","locatieNaam":"BBOX 24/7 STATION CALLENELLE","straatNaam":"RUE DE FLINES","straatNr":"DISTRIB","vervoerder":"DHL","puntType":"packStation","bezettingsgraad":50,"latitude":50.53076,"longitude":3.51908,"canPickup":true,"canDropoff":true,"openingstijden":{"ma":"00:00 - 23:59","di":"00:00 - 23:59","wo":"00:00 - 23:59","do":"00:00 - 23:59","vr":"00:00 - 23:59","za":"00:00 - 23:59","zo":"00:00 - 23:59"}}},{"type":"Feature","geometry":{"type":"Point","coordinates":[3.5958379,50.5112305]},"properties":{"type":"pakketpunt","locatieNaam":"Phonesat solutions","straatNaam":"Rue Pont A La Faulx","straatNr":"30","vervoerder":"GLS","puntType":"parcel_shop","bezettingsgraad":50,"latitude":50.5112305,"longitude":3.5958379,"canPickup":true,"canDropoff":true,"openingstijden":"vr: 10:00 - 18:00; za: 10:00 - 18:00"}},{"type":"Feature","geometry":{"type":"Point","coordinates":[3.6000852,50.52456]},"properties":{"type":"pakketpunt","locatieNaam":"GLS Parcel Locker powered by bbox","straatNaam":"Rue Neuve Chaussee","straatNr":"137","vervoerder":"GLS","puntType":"locker","bezettingsgraad":50,"latitude":50.52456,"longitude":3.6000852,"canPickup":true,"canDropoff":true,"openingstijden":"vr: 01:00 - 24:00; za: 01:00 - 24:00"}},{"type":"Feature","geometry":{"type":"Point","coordinates":[3.52845,50.51255]},"properties":{"type":"pakketpunt","locatieNaam":"","straatNaam":"Rue de Gourgues","straatNr":"46","vervoerder":"InPost","puntType":"automaat","bezettingsgraad":50,"latitude":50.51255,"longitude":3.52845,"canPickup":true,"canDropoff":true,"openingstijden":"24/7"}},{"type":"Feature","geometry":{"type":"Point","coordinates":[3.59792,50.50353]},"properties":{"type":"pakketpunt","locatieNaam":"TEXACO TAHON","straatNaam":"Boulevard Léopold III 105","straatNr":"","vervoerder":"InPost","puntType":"servicepunt","bezettingsgraad":50,"latitude":50.50353,"longitude":3.59792,"canPickup":true,"canDropoff":true,"openingstijden":null}},{"type":"Feature","geometry":{"type":"Point","coordinates":[3.60145,50.5014]},"properties":{"type":"pakketpunt","locatieNaam":"","straatNaam":"Avenue de la Basilique","straatNr":"110","vervoerder":"InPost","puntType":"automaat","bezettingsgraad":50,"latitude":50.5014,"longitude":3.60145,"canPickup":true,"canDropoff":true,"openingstijden":"24/7"}},{"type":"Feature","geometry":{"type":"Point","coordinates":[3.59358,50.51096]},"properties":{"type":"pakketpunt","locatieNaam":"RTM MOBILE ","straatNaam":"Rue Astrid","straatNr":"12","vervoerder":"VintedGo","puntType":"parcel_shop","bezettingsgraad":50,"latitude":50.51096,"longitude":3.59358,"canPickup":true,"canDropoff":true,"openingstijden":null}},{"type":"Feature","geometry":{"type":"Point","coordinates":[3.5978706,50.5035277]},"properties":{"type":"pakketpunt","locatieNaam":"Texaco","straatNaam":"Bd Léopold Iii","straatNr":"105","vervoerder":"VintedGo","puntType":"parcel_shop","bezettingsgraad":50,"latitude":50.5035277,"longitude":3.5978706,"canPickup":true,"canDropoff":true,"openingstijden":null}},{"type":"Feature","geometry":{"type":"Point","coordinates":[3.6014345,50.5238214]},"properties":{"type":"pakketpunt","locatieNaam":"Boulangerie Firmin Peruwelz","straatNaam":"Rue Neuve Chaussée","straatNr":"88b","vervoerder":"VintedGo","puntType":"locker","bezettingsgraad":50,"latitude":50.5238214,"longitude":3.6014345,"canPickup":true,"canDropoff":true,"openingstijden":null}},{"type":"Feature","geometry":{"type":"Point","coordinates":[3.59239500000001,50.509196]},"properties":{"type":"pakketpunt","locatieNaam":"Le Cassd'hal","straatNaam":"Rue Albert 1er","straatNr":"3","vervoerder":"PostNL","puntType":"servicepunt","bezettingsgraad":50,"latitude":50.509196,"longitude":3.59239500000001,"canPickup":true,"canDropoff":true,"openingstijden":"09:00 - 15:00"}},{"type":"Feature","geometry":{"type":"Point","coordinates":[3.59156,50.50901]},"properties":{"type":"pakketpunt","locatieNaam":"LIBRAIRIE DU MOULIN","straatNaam":"RUE ALBERT 1ER","straatNr":"20","vervoerder":"DPD","puntType":"pickup_point","bezettingsgraad":50,"latitude":50.50901,"longitude":3.59156,"canPickup":true,"canDropoff":true,"openingstijden":{"ma":"06:00 - 12:00","di":"06:00 - 18:00","wo":"06:00 - 18:00","do":"06:00 - 18:00","vr":"06:00 - 18:00","za":"07:00 - 17:00","zo":"gesloten"}}},{"type":"Feature","geometry":{"type":"Point","coordinates":[3.602285,50.501616]},"properties":{"type":"pakketpunt","locatieNaam":"bpost - BBOX 24/7 DELHAIZE BON SECOURS","straatNaam":"AVENUE DE LA BASILIQUE,108B","straatNr":"","vervoerder":"Amazon","puntType":"3p","bezettingsgraad":50,"latitude":50.501616,"longitude":3.602285,"canPickup":true,"canDropoff":false,"openingstijden":null}},{"type":"Feature","geometry":{"type":"Point","coordinates":[3.59418,50.51022]},"properties":{"type":"pakketpunt","locatieNaam":"bpost - BBOX 24/7 PERUWELZ BPOST","straatNaam":"GRAND'PLACE,2","straatNr":"","vervoerder":"Amazon","puntType":"3p","bezettingsgraad":50,"latitude":50.51022,"longitude":3.59418,"canPickup":true,"canDropoff":false,"openingstijden":null}},{"type":"Feature","geometry":{"type":"Point","coordinates":[3.59419,50.510107]},"properties":{"type":"pakketpunt","locatieNaam":"bpost - PERUWELZ","straatNaam":"GRAND'PLACE,2","straatNr":"","vervoerder":"Amazon","puntType":"3p","bezettingsgraad":50,"latitude":50.510107,"longitude":3.59419,"canPickup":true,"canDropoff":false,"openingstijden":null}},{"type":"Feature","geometry":{"type":"Point","coordinates":[3.600448,50.524303]},"properties":{"type":"pakketpunt","locatieNaam":"bpost - BBOX 24/7 LIDL PERUWELZ","straatNaam":"RUE NEUVE CHAUSSÉE,137","straatNr":"","vervoerder":"Amazon","puntType":"3p","bezettingsgraad":50,"latitude":50.524303,"longitude":3.600448,"canPickup":true,"canDropoff":false,"openingstijden":null}},{"type":"Feature","geometry":{"type":"Point","coordinates":[3.51908,50.53076]},"properties":{"type":"pakketpunt","locatieNaam":"bpost - BBOX 24/7 STATION CALLENELLE","straatNaam":"RUE DE FLINES,DISTRIB","straatNr":"","vervoerder":"Amazon","puntType":"3p","bezettingsgraad":50,"latitude":50.53076,"longitude":3.51908,"canPickup":true,"canDropoff":false,"openingstijden":null}},{"type":"Feature","geometry":{"type":"Point","coordinates":[3.597921,50.503527]},"properties":{"type":"pakketpunt","locatieNaam":"FedEx OnSite","straatNaam":"BOULEVARD LEOPOLD III 105","straatNr":"","vervoerder":"FedEx","puntType":"servicepunt","bezettingsgraad":50,"latitude":50.503527,"longitude":3.597921,"canPickup":true,"canDropoff":true,"openingstijden":{"ma":"07:00 - 19:00","di":"07:00 - 19:00","wo":"07:00 - 19:00","do":"07:00 - 19:00","vr":"07:00 - 19:00","za":"07:00 - 19:00","zo":"gesloten"}}},{"type":"Feature","geometry":{"type":"Polygon","coordinates":[[[3.4962522,50.4988535],[3.4968848,50.4978714],[3.4977173,50.4968775],[3.498663,50.4955153],[3.4994528,50.4946277],[3.498879,50.4941471],[3.4986239,50.4941111],[3.4978028,50.4935647],[3.4975523,50.4931305],[3.4977481,50.4927713],[3.4985072,50.4919601],[3.4984026,50.4908683],[3.4992245,50.4899719],[3.499129,50.4895046],[3.4993012,50.4892129],[3.4990012,50.4890902],[3.4993541,50.4882999],[3.4993678,50.4880792],[3.5003706,50.4877576],[3.5006778,50.4867209],[3.5022017,50.4870077],[3.5026313,50.4869781],[3.5026067,50.4873168],[3.5028336,50.4874684],[3.5031868,50.4879576],[3.5040953,50.4881656],[3.5067994,50.48914],[3.5070948,50.4893659],[3.5073974,50.4893051],[3.5077125,50.4894603],[3.5081603,50.4892564],[3.5087727,50.4893831],[3.5089392,50.4897132],[3.509324,50.4898516],[3.5093658,50.4899397],[3.5088527,50.490226],[3.5088995,50.4903172],[3.5090462,50.4903543],[3.5099533,50.490178],[3.5100141,50.4905242],[3.5105142,50.4905192],[3.5108223,50.4909648],[3.511087,50.4907688],[3.5113519,50.4909469],[3.5118984,50.4910142],[3.5123203,50.490892],[3.512645,50.491158],[3.5131599,50.491147],[3.5131859,50.4913995],[3.5135709,50.491257],[3.5140684,50.4912296],[3.5142226,50.4911183],[3.5147509,50.4911849],[3.5151913,50.491133],[3.5151929,50.4913101],[3.5152654,50.491363],[3.5157865,50.4913796],[3.5159941,50.4915864],[3.5162726,50.491682],[3.5161813,50.4919436],[3.5162381,50.4920422],[3.5167571,50.4919452],[3.5168815,50.4919985],[3.5168453,50.4921594],[3.5169008,50.4921999],[3.5175007,50.4922068],[3.5175008,50.4926268],[3.5179047,50.4925165],[3.518114,50.4927881],[3.5184152,50.4929495],[3.5185791,50.4932412],[3.5191002,50.4933776],[3.5189403,50.4936048],[3.519052,50.4938241],[3.5199067,50.4937719],[3.5201065,50.4939781],[3.5197562,50.4942525],[3.5197844,50.4944318],[3.5208094,50.4944202],[3.5210387,50.4946801],[3.5216206,50.4943709],[3.5220525,50.4946994],[3.523015,50.4950711],[3.5227597,50.4952119],[3.5228893,50.4953752],[3.5230267,50.4953428],[3.5233774,50.4949999],[3.5235497,50.4950854],[3.5234082,50.4954123],[3.5234546,50.495485],[3.5236199,50.4953952],[3.5240836,50.4954549],[3.5241557,50.4953219],[3.5241155,50.4951371],[3.524361,50.4950928],[3.5245174,50.4951255],[3.5244662,50.4953403],[3.5251333,50.4950609],[3.5253252,50.4950881],[3.5255247,50.4952657],[3.5256761,50.4952658],[3.5257886,50.495043],[3.5259385,50.4950054],[3.5262667,50.4952703],[3.5263759,50.4952649],[3.5265571,50.4950964],[3.5266673,50.4952146],[3.5271004,50.4953233],[3.5271383,50.4952546],[3.5269897,50.4951386],[3.5270243,50.4950931],[3.5272523,50.4950506],[3.527563,50.495122],[3.5278261,50.4950578],[3.5280115,50.4951661],[3.5282249,50.494974],[3.5284531,50.4949152],[3.5287294,50.4951377],[3.5291031,50.4950604],[3.5290519,50.4951936],[3.5291743,50.4953346],[3.5289756,50.4955136],[3.5291365,50.4956101],[3.5296725,50.4955362],[3.5303892,50.4958356],[3.5309424,50.4957149],[3.5311457,50.4959214],[3.5313075,50.4957091],[3.53152,50.4956562],[3.5319576,50.4959006],[3.5320589,50.4960552],[3.5321782,50.4960058],[3.5322434,50.4958376],[3.5326891,50.4959607],[3.5329107,50.4957803],[3.5333157,50.4957288],[3.5334545,50.4957337],[3.5336271,50.4958995],[3.5340707,50.4958096],[3.534251,50.4958868],[3.5343205,50.4954974],[3.5344659,50.4954616],[3.53474,50.4956322],[3.5349263,50.4953554],[3.5353154,50.4952661],[3.5358621,50.4953333],[3.5368113,50.4950582],[3.5370022,50.4951637],[3.5376845,50.4951094],[3.5376631,50.4950464],[3.5380378,50.4946768],[3.538406,50.4944682],[3.5386347,50.4944772],[3.5388789,50.4943388],[3.5391865,50.4943578],[3.5393664,50.4944192],[3.5393058,50.4946916],[3.5404872,50.4948628],[3.5409318,50.4950131],[3.540857,50.4953143],[3.5409573,50.4954994],[3.5414869,50.4955059],[3.5417778,50.4951657],[3.5420113,50.4951519],[3.5420376,50.4952515],[3.5419254,50.4953222],[3.5419479,50.4953814],[3.5424885,50.4955646],[3.5426441,50.4959134],[3.5431293,50.49606],[3.542969,50.4963299],[3.5435383,50.4966203],[3.5440296,50.4967235],[3.5438498,50.4969423],[3.5438726,50.4970119],[3.5446473,50.4970793],[3.5447074,50.4972485],[3.544821,50.4972206],[3.5449456,50.4967924],[3.545056,50.4966945],[3.5453094,50.4967191],[3.5451828,50.4969408],[3.5454929,50.4970092],[3.5456733,50.4968751],[3.5461478,50.4967773],[3.5463298,50.4969944],[3.5466194,50.4970024],[3.5469203,50.4973839],[3.5468429,50.4976457],[3.5472737,50.497754],[3.5476023,50.4976594],[3.5478876,50.4979589],[3.5483152,50.497889],[3.5485176,50.4976318],[3.5487546,50.4975145],[3.5491054,50.4975236],[3.5497124,50.4977315],[3.5500306,50.4975419],[3.550155,50.4975889],[3.5502412,50.4977608],[3.550734,50.4976968],[3.5511738,50.4978122],[3.5512486,50.4975816],[3.5513571,50.4975457],[3.5517365,50.4979614],[3.5520166,50.49787],[3.5521907,50.4980958],[3.5521443,50.4982195],[3.5521999,50.4982632],[3.552425,50.4981534],[3.552681,50.4982866],[3.5527592,50.4984375],[3.5530188,50.4983211],[3.553037,50.4982577],[3.5528602,50.4981205],[3.552909,50.4980915],[3.5531613,50.4980787],[3.5534585,50.4982723],[3.5535671,50.4982586],[3.5536006,50.4982108],[3.5533183,50.498014],[3.5536778,50.4979855],[3.5537392,50.4978144],[3.5541561,50.4978417],[3.554278,50.4977646],[3.5545225,50.4979014],[3.55465,50.4978161],[3.5550283,50.4980476],[3.5557039,50.4981228],[3.5556888,50.4977748],[3.5557482,50.4977459],[3.5560442,50.4978788],[3.5564366,50.497819],[3.5567592,50.4981214],[3.5571953,50.4980997],[3.5572543,50.4981603],[3.5570149,50.4984253],[3.5570243,50.4985152],[3.5575783,50.4985774],[3.5579149,50.4987696],[3.5582447,50.4986317],[3.5584868,50.4984016],[3.5588126,50.4983663],[3.5586354,50.4981902],[3.5589126,50.4980519],[3.5596123,50.498167],[3.559487,50.4979826],[3.5598273,50.4980064],[3.5602079,50.4978933],[3.5604578,50.4979037],[3.560329,50.4977635],[3.5603506,50.4976936],[3.560781,50.4978146],[3.5609554,50.4977603],[3.5613616,50.4978324],[3.5614108,50.4979043],[3.5613452,50.4981038],[3.5614364,50.4981329],[3.5620396,50.4981173],[3.5623504,50.4978756],[3.5625229,50.4978911],[3.5629799,50.498128],[3.5634939,50.4981279],[3.5633052,50.4983652],[3.5633564,50.4984228],[3.5636319,50.498338],[3.5637345,50.498499],[3.5639901,50.4985669],[3.5640593,50.4983521],[3.5644587,50.4985727],[3.5646461,50.4984464],[3.5647174,50.4984774],[3.5646863,50.498721],[3.5651512,50.4987453],[3.5650725,50.4990713],[3.5652143,50.4990667],[3.5653294,50.4992019],[3.5655831,50.4991003],[3.5659563,50.4992657],[3.5662017,50.4991362],[3.5662758,50.4992809],[3.5661571,50.4993403],[3.5661519,50.4994593],[3.5663173,50.4997041],[3.5671925,50.4998755],[3.5679235,50.5003517],[3.5681731,50.5003225],[3.5685343,50.5004618],[3.5685224,50.5005644],[3.5682625,50.5006883],[3.5682512,50.5008189],[3.5683554,50.5008924],[3.5687918,50.5008133],[3.5692262,50.5009133],[3.5695439,50.5008536],[3.570616,50.5004203],[3.5709163,50.5005356],[3.5725205,50.4998488],[3.5738104,50.4987292],[3.5718332,50.4976972],[3.572695,50.4966059],[3.5740972,50.4965909],[3.5757654,50.4961806],[3.5768114,50.4956431],[3.5776766,50.4953018],[3.5784397,50.4948121],[3.5791585,50.4945507],[3.579269,50.4942859],[3.5787937,50.4932918],[3.5787728,50.4928419],[3.5789761,50.492512],[3.579766,50.49182],[3.5809584,50.4912591],[3.5820982,50.4911656],[3.5851076,50.4905394],[3.5857346,50.4905437],[3.5939442,50.4914369],[3.5963298,50.4921115],[3.6010649,50.4942716],[3.6026472,50.4951389],[3.6058552,50.4963203],[3.607522,50.497224],[3.6085746,50.4964874],[3.6152205,50.4901032],[3.6243933,50.492166],[3.6250668,50.4953284],[3.6266203,50.4956428],[3.6256317,50.4959572],[3.62429,50.4972598],[3.623019,50.4978437],[3.6244312,50.498787],[3.628124,50.5001518],[3.6292691,50.5007029],[3.6275383,50.5008531],[3.6259142,50.501976],[3.624286,50.5023902],[3.6228701,50.5028657],[3.6218854,50.5033684],[3.6198616,50.5045747],[3.6200137,50.5054726],[3.623937,50.5070965],[3.6232308,50.5108694],[3.6238248,50.5113221],[3.6236508,50.5117278],[3.6223846,50.5127097],[3.6229443,50.5128377],[3.6229401,50.5132099],[3.6230843,50.5137284],[3.6236083,50.5140094],[3.6236805,50.5139741],[3.6252482,50.5150368],[3.626719,50.5152786],[3.6272958,50.5151437],[3.6277366,50.5151328],[3.6288789,50.5152276],[3.6260928,50.5191419],[3.6260389,50.5190508],[3.6258507,50.5190316],[3.6259391,50.5188757],[3.6255958,50.5187257],[3.625709,50.5186221],[3.6253599,50.5186648],[3.6253133,50.5184784],[3.6249712,50.5184185],[3.6239794,50.5179928],[3.6240286,50.517849],[3.623792,50.5178409],[3.6239044,50.5175311],[3.6237503,50.5174011],[3.6238045,50.5173211],[3.6235449,50.5172139],[3.6234053,50.5173388],[3.6231415,50.51697],[3.6228467,50.516873],[3.622935,50.5166563],[3.6227581,50.5165142],[3.6226017,50.5165628],[3.6225458,50.5163799],[3.6223033,50.5162394],[3.6221797,50.5163211],[3.6220466,50.5161608],[3.6219486,50.5162596],[3.6215894,50.5163031],[3.6215728,50.5161662],[3.6211052,50.5162207],[3.62079,50.5160225],[3.6203167,50.5161202],[3.6200017,50.5160174],[3.6198341,50.5161051],[3.6180964,50.5164258],[3.6175205,50.5161279],[3.6163491,50.5165525],[3.6164978,50.5167186],[3.6167195,50.5174059],[3.6174007,50.5172945],[3.617467,50.5175125],[3.6180811,50.5173732],[3.6180917,50.5179874],[3.6195975,50.5178376],[3.619452,50.5188762],[3.6186205,50.5189167],[3.6175459,50.5186722],[3.6169713,50.5192905],[3.6166686,50.5197878],[3.6180358,50.5202222],[3.6177367,50.5206955],[3.6181593,50.520853],[3.6168684,50.5215844],[3.6166747,50.5208045],[3.6167316,50.5202453],[3.6157981,50.5209523],[3.6149717,50.5206797],[3.6141715,50.5215164],[3.61397,50.5214028],[3.6142714,50.5210563],[3.6129286,50.5207211],[3.6127905,50.5209718],[3.6110906,50.5206512],[3.6108515,50.5210826],[3.6103098,50.5210606],[3.6102769,50.5211941],[3.6085214,50.5210181],[3.6105678,50.5250775],[3.6109084,50.5254541],[3.6116122,50.5258934],[3.6125192,50.5261422],[3.6138194,50.5263136],[3.6156124,50.5263208],[3.6165245,50.5269326],[3.6176618,50.5279265],[3.6193188,50.5286614],[3.6197317,50.5289699],[3.6202072,50.529632],[3.6205789,50.5307059],[3.6214277,50.5318123],[3.6194393,50.5326202],[3.6197542,50.5329759],[3.6186635,50.5336999],[3.6177391,50.5349217],[3.6170905,50.5355425],[3.6162789,50.5365751],[3.6135887,50.5394123],[3.6129169,50.5406521],[3.6128409,50.5416041],[3.613309,50.544843],[3.613089,50.5458319],[3.6129061,50.5472324],[3.6130861,50.5474307],[3.6140855,50.5496617],[3.6149671,50.5507439],[3.6154418,50.5516494],[3.6156523,50.5516547],[3.6157496,50.5521363],[3.6157748,50.5528392],[3.6155975,50.5535928],[3.6156182,50.5541858],[3.6154867,50.5552348],[3.6151659,50.5558446],[3.6145789,50.5564854],[3.6145201,50.5567683],[3.6143184,50.5571259],[3.61433,50.557655],[3.6141989,50.5582345],[3.6142641,50.5590405],[3.6146124,50.5595676],[3.6155775,50.5604449],[3.6161515,50.5609175],[3.6168462,50.5613523],[3.61398,50.5603976],[3.6126555,50.5603996],[3.6111605,50.5600435],[3.6103524,50.5582923],[3.610315,50.5587392],[3.607648,50.5585701],[3.6075093,50.5589218],[3.6068636,50.5588102],[3.6066728,50.5567724],[3.6055454,50.5572036],[3.6047838,50.5565188],[3.601154,50.5582594],[3.5997636,50.5573515],[3.5973166,50.5592291],[3.5955004,50.5582641],[3.5936793,50.5592053],[3.5925732,50.558372],[3.591477,50.558752],[3.5904238,50.5593331],[3.5902543,50.5592073],[3.5890369,50.5598049],[3.5878831,50.5601599],[3.5865282,50.5610029],[3.5874785,50.5616458],[3.5878441,50.5614504],[3.5909284,50.5633758],[3.59101,50.5633447],[3.5918787,50.5639581],[3.5909738,50.5645081],[3.5890075,50.5665933],[3.5873053,50.565933],[3.587065,50.5661809],[3.5867378,50.5660519],[3.5859198,50.5668008],[3.5852908,50.5664988],[3.5847811,50.5669264],[3.5844015,50.566752],[3.5841956,50.5665465],[3.583793,50.567003],[3.5821702,50.5682305],[3.5827163,50.5685302],[3.5834535,50.5681644],[3.5841928,50.5684038],[3.5798056,50.5708891],[3.5787787,50.5715528],[3.5784852,50.5718682],[3.5789688,50.572061],[3.5794046,50.5718066],[3.5796669,50.5719434],[3.5807682,50.5721791],[3.5814221,50.5729581],[3.5807091,50.5735733],[3.5785479,50.5745567],[3.5780508,50.5749292],[3.578089,50.574968],[3.5776226,50.5752431],[3.5766173,50.5755895],[3.5756413,50.576068],[3.5755744,50.5761641],[3.5739202,50.5763684],[3.5739307,50.5765147],[3.5737457,50.576623],[3.5717193,50.5769741],[3.5708455,50.5774625],[3.5677317,50.5758418],[3.5678699,50.5751735],[3.5693202,50.5726928],[3.5683207,50.5721848],[3.5673004,50.5718671],[3.5662754,50.5712269],[3.5649711,50.5706067],[3.5638463,50.5704269],[3.563152,50.5704942],[3.5626482,50.5700645],[3.5617011,50.5695337],[3.5596989,50.5700567],[3.5594464,50.5696082],[3.5594758,50.5692593],[3.5582998,50.5693856],[3.5580537,50.5689349],[3.556119,50.5697821],[3.5562509,50.5701313],[3.5561912,50.5701841],[3.5554318,50.5702124],[3.5543721,50.5705445],[3.553607,50.5709173],[3.5495789,50.572359],[3.5482372,50.5725387],[3.5497202,50.5748743],[3.5488022,50.5751888],[3.5488022,50.5752786],[3.5497202,50.5764464],[3.5495789,50.5764913],[3.5511324,50.5772998],[3.5510618,50.5772998],[3.5511324,50.5780634],[3.5480405,50.5789477],[3.5464324,50.5799448],[3.5447706,50.5794248],[3.5440584,50.5792864],[3.5436962,50.5793662],[3.5427513,50.5768141],[3.5415457,50.5769481],[3.5408494,50.5764017],[3.5401738,50.5766189],[3.5394142,50.5766411],[3.5388631,50.5761652],[3.5378444,50.5758839],[3.5373687,50.5756636],[3.5366083,50.5762246],[3.5356239,50.575129],[3.5346245,50.5738405],[3.534052,50.5725617],[3.5323265,50.5706676],[3.5320694,50.5704762],[3.5320519,50.569764],[3.5318175,50.5684581],[3.5295891,50.5686692],[3.5268314,50.5651049],[3.5246945,50.5655389],[3.5239845,50.563646],[3.5238559,50.5634734],[3.5235978,50.5636104],[3.5226194,50.5626844],[3.5230576,50.5622738],[3.5221512,50.5614427],[3.5161156,50.5580367],[3.51556,50.5577557],[3.5152067,50.557706],[3.5137319,50.5571757],[3.5131967,50.5567565],[3.5123378,50.5562671],[3.5123294,50.5555592],[3.5143871,50.5550383],[3.5169738,50.5548848],[3.5160711,50.5532856],[3.5178386,50.5526586],[3.516583,50.5514593],[3.517667,50.5512027],[3.5185405,50.5511057],[3.5196476,50.5507972],[3.5203959,50.550812],[3.5207778,50.550392],[3.5210106,50.5499779],[3.5239086,50.5497704],[3.524226,50.5496249],[3.5263084,50.5478317],[3.5267485,50.5481366],[3.5271266,50.5480305],[3.5276546,50.5477064],[3.5286832,50.5468837],[3.5271499,50.5461105],[3.5266375,50.5459132],[3.5261572,50.5458299],[3.5244262,50.5450637],[3.5248088,50.5446848],[3.5241744,50.5437306],[3.5243068,50.5432578],[3.5232683,50.5424335],[3.5228917,50.5419382],[3.5241186,50.5416303],[3.5239082,50.5414625],[3.5232324,50.5413017],[3.5225748,50.5413558],[3.5222719,50.5414702],[3.521718,50.5412719],[3.5213095,50.5415283],[3.5207781,50.5412297],[3.520199,50.5406163],[3.5188424,50.5413454],[3.5176274,50.5398429],[3.5170427,50.5400321],[3.5129127,50.5375027],[3.514308,50.5370284],[3.513877,50.5364399],[3.5153902,50.5356731],[3.5133822,50.5342765],[3.5119503,50.5349329],[3.5108429,50.5342948],[3.5107176,50.534358],[3.5095896,50.5338085],[3.508728,50.5337008],[3.5075223,50.5329588],[3.5067141,50.5323344],[3.5059438,50.5319086],[3.5051759,50.5315966],[3.5043857,50.5313195],[3.5042388,50.5315014],[3.5019514,50.5309445],[3.5009497,50.5310148],[3.4992233,50.5300543],[3.5011544,50.5296878],[3.5018743,50.5293711],[3.5022271,50.5293604],[3.5038845,50.5297067],[3.5048643,50.5281944],[3.506682,50.5285263],[3.5069043,50.527815],[3.5083135,50.5281095],[3.5087139,50.5280318],[3.5092659,50.5275488],[3.5104354,50.5268515],[3.5110368,50.5261801],[3.5116259,50.5257264],[3.5127753,50.525807],[3.5132054,50.5255342],[3.5151533,50.5250791],[3.5157715,50.5251391],[3.5183323,50.5246626],[3.5185852,50.524297],[3.5197138,50.5237091],[3.5198608,50.5237096],[3.5199234,50.523617],[3.5197646,50.5235211],[3.5196458,50.5232056],[3.519399,50.5229756],[3.5188823,50.5226373],[3.518447,50.5226344],[3.5180386,50.5222456],[3.5181018,50.5221947],[3.5176997,50.5216734],[3.5177421,50.5215542],[3.5180425,50.5215314],[3.5179084,50.5213211],[3.5179922,50.521235],[3.517938,50.5209413],[3.5181102,50.5207861],[3.5182413,50.5207787],[3.5183064,50.5203152],[3.5182179,50.5202156],[3.5182606,50.5201113],[3.5178688,50.5201962],[3.5179681,50.5198633],[3.5177971,50.5198086],[3.5178453,50.51963],[3.5176321,50.5196376],[3.5177189,50.5195414],[3.5176425,50.5193488],[3.5179495,50.5192862],[3.5178528,50.5191564],[3.5178764,50.5189536],[3.5176376,50.5184689],[3.5177832,50.5183802],[3.5177782,50.5182587],[3.5173154,50.5177959],[3.5171452,50.5177849],[3.5169561,50.5176563],[3.5170293,50.5176236],[3.5169902,50.5175859],[3.5168382,50.5176194],[3.5169069,50.5174985],[3.5168606,50.5174318],[3.5167668,50.5175349],[3.5165953,50.5174559],[3.5165763,50.5175551],[3.5163874,50.5174488],[3.516621,50.5173427],[3.5165478,50.5170742],[3.5163952,50.5170589],[3.5165262,50.5170081],[3.5164503,50.516897],[3.5167242,50.5166918],[3.5154707,50.5152666],[3.516712,50.5148041],[3.5167962,50.514646],[3.5166346,50.514549],[3.5167392,50.5143649],[3.5165463,50.5142892],[3.5164266,50.514058],[3.5165795,50.5136397],[3.5162856,50.5132931],[3.5163209,50.5131496],[3.5161405,50.5128255],[3.5158515,50.5126896],[3.515218,50.5120798],[3.5146868,50.5118881],[3.5147018,50.5118195],[3.514351,50.5117301],[3.5142749,50.5118405],[3.5138715,50.5117501],[3.5139011,50.5116228],[3.5137656,50.5115212],[3.5137456,50.5113889],[3.5136056,50.5113264],[3.5135136,50.5113715],[3.5133538,50.5110883],[3.5131257,50.5110827],[3.5129734,50.5108622],[3.512742,50.5108721],[3.5127096,50.5107201],[3.5126125,50.5107515],[3.5126522,50.5106027],[3.512541,50.5106609],[3.5123953,50.5105634],[3.5122567,50.5106561],[3.5122049,50.5104906],[3.5122812,50.5103879],[3.5119843,50.5103558],[3.5121232,50.5102284],[3.5117922,50.5102146],[3.5117421,50.5101161],[3.5113596,50.5101991],[3.5110433,50.510053],[3.5110855,50.5098287],[3.5107114,50.5097609],[3.5108882,50.5096678],[3.5108305,50.5095136],[3.5105746,50.5095369],[3.5104505,50.5093463],[3.5102132,50.5093075],[3.510266,50.5092202],[3.5102045,50.5091492],[3.5099568,50.5091761],[3.5099129,50.5090379],[3.5099767,50.5090099],[3.5099034,50.5089436],[3.5097682,50.5089815],[3.5097195,50.5089409],[3.5097897,50.5088838],[3.5095242,50.5088651],[3.5094627,50.5087911],[3.509522,50.5086764],[3.5094401,50.5086452],[3.5094224,50.5085068],[3.509043,50.5084207],[3.5089315,50.50855],[3.5087135,50.508424],[3.5087899,50.5083243],[3.5087491,50.5082166],[3.5085592,50.5081651],[3.508408,50.5082336],[3.5083096,50.5081157],[3.5075472,50.5080869],[3.5074126,50.508245],[3.5072259,50.5082353],[3.5073191,50.5081302],[3.5072062,50.5081039],[3.5074112,50.5078933],[3.5069169,50.5075982],[3.5068982,50.5075147],[3.507003,50.5074085],[3.506927,50.5073658],[3.5067369,50.507463],[3.5065207,50.5074088],[3.5065277,50.5075016],[3.5064024,50.5075515],[3.5064241,50.5076594],[3.5062098,50.5077523],[3.5060993,50.5076535],[3.5061425,50.5075648],[3.5057283,50.5076176],[3.5057659,50.5074896],[3.5055364,50.5072875],[3.5052588,50.5072614],[3.504781,50.5073809],[3.5047429,50.5072558],[3.5044612,50.5072601],[3.5042852,50.5071887],[3.5043332,50.5071],[3.5037665,50.5069167],[3.5032819,50.5060327],[3.5034342,50.5058894],[3.5040952,50.5057127],[3.5034105,50.5052563],[3.5031376,50.5054429],[3.5024432,50.505128],[3.5028945,50.5047849],[3.5016393,50.504122],[3.5020721,50.5038877],[3.5014616,50.5034188],[3.5011224,50.5035921],[3.4998856,50.502594],[3.5000399,50.5025149],[3.4991606,50.5016591],[3.4990601,50.5017159],[3.4975407,50.5001061],[3.4973687,50.4998558],[3.4975786,50.4996611],[3.4962522,50.4988535]]]},"properties":{"type":"boundary","gemeente":"Péruwelz"}}]}