{
  "type": "FeatureCollection",
  "metadata": {
    "gemeente": "Perwez",
    "slug": "perwez",
    "generated_at": "2026-09-25T22:11:42.978312Z",
    "total_points": 14,
    "providers": [
      "bpost",
      "DHL",
      "GLS",
      "InPost",
      "PostNL",
      "DPD",
      "Amazon"
    ],
    "bounds": [
      4.78197,
      50.62481,
      4.8166213,
      50.63727
    ]
  },
  "features": [
    {
      "type": "Feature",
      "geometry": {
        "type": "Point",
        "coordinates": [
          4.81662,
          50.62481
        ]
      },
      "properties": {
        "type": "pakketpunt",
        "locatieNaam": "Perwez",
        "straatNaam": "Avenue Wilmart",
        "straatNr": "26",
        "vervoerder": "bpost",
        "puntType": "postkantoor",
        "bezettingsgraad": 50,
        "latitude": 50.62481,
        "longitude": 4.81662,
        "canPickup": true,
        "canDropoff": true,
        "openingstijden": null
      }
    },
    {
      "type": "Feature",
      "geometry": {
        "type": "Point",
        "coordinates": [
          4.79593,
          50.62978
        ]
      },
      "properties": {
        "type": "pakketpunt",
        "locatieNaam": "Bbox 24/7 Schoenen Luxus Perwez",
        "straatNaam": "Avenue Des Moissons",
        "straatNr": "8",
        "vervoerder": "bpost",
        "puntType": "automaat",
        "bezettingsgraad": 50,
        "latitude": 50.62978,
        "longitude": 4.79593,
        "canPickup": true,
        "canDropoff": true,
        "openingstijden": null
      }
    },
    {
      "type": "Feature",
      "geometry": {
        "type": "Point",
        "coordinates": [
          4.79824,
          50.6303
        ]
      },
      "properties": {
        "type": "pakketpunt",
        "locatieNaam": "Bbox 24/7 Lidl Perwez",
        "straatNaam": "Chaussée De Wavre",
        "straatNr": "110",
        "vervoerder": "bpost",
        "puntType": "automaat",
        "bezettingsgraad": 50,
        "latitude": 50.6303,
        "longitude": 4.79824,
        "canPickup": true,
        "canDropoff": true,
        "openingstijden": null
      }
    },
    {
      "type": "Feature",
      "geometry": {
        "type": "Point",
        "coordinates": [
          4.795925,
          50.629775
        ]
      },
      "properties": {
        "type": "pakketpunt",
        "locatieNaam": "BBOX 24/7 LUXUS SHOES PERWEZ",
        "straatNaam": "AVENUE DES MOISSONS",
        "straatNr": "8",
        "vervoerder": "DHL",
        "puntType": "packStation",
        "bezettingsgraad": 50,
        "latitude": 50.629775,
        "longitude": 4.795925,
        "canPickup": true,
        "canDropoff": true,
        "openingstijden": {
          "ma": "00:00 - 23:59",
          "di": "00:00 - 23:59",
          "wo": "00:00 - 23:59",
          "do": "00:00 - 23:59",
          "vr": "00:00 - 23:59",
          "za": "00:00 - 23:59",
          "zo": "00:00 - 23:59"
        }
      }
    },
    {
      "type": "Feature",
      "geometry": {
        "type": "Point",
        "coordinates": [
          4.798245,
          50.630302
        ]
      },
      "properties": {
        "type": "pakketpunt",
        "locatieNaam": "BBOX 24/7 LIDL PERWEZ",
        "straatNaam": "CHAUSSÉE DE WAVRE",
        "straatNr": "110",
        "vervoerder": "DHL",
        "puntType": "packStation",
        "bezettingsgraad": 50,
        "latitude": 50.630302,
        "longitude": 4.798245,
        "canPickup": true,
        "canDropoff": true,
        "openingstijden": {
          "ma": "00:00 - 23:59",
          "di": "00:00 - 23:59",
          "wo": "00:00 - 23:59",
          "do": "00:00 - 23:59",
          "vr": "00:00 - 23:59",
          "za": "00:00 - 23:59",
          "zo": "00:00 - 23:59"
        }
      }
    },
    {
      "type": "Feature",
      "geometry": {
        "type": "Point",
        "coordinates": [
          4.816621,
          50.624813
        ]
      },
      "properties": {
        "type": "pakketpunt",
        "locatieNaam": "PERWEZ",
        "straatNaam": "AVENUE WILMART",
        "straatNr": "26",
        "vervoerder": "DHL",
        "puntType": "postOffice",
        "bezettingsgraad": 50,
        "latitude": 50.624813,
        "longitude": 4.816621,
        "canPickup": true,
        "canDropoff": true,
        "openingstijden": {
          "ma": "09:30 - 12:30, 13:30 - 17:00",
          "di": "09:30 - 12:30, 13:30 - 18:00",
          "wo": "09:30 - 12:30, 13:30 - 17:00",
          "do": "09:30 - 12:30, 13:30 - 18:00",
          "vr": "09:30 - 12:30, 13:30 - 17:00",
          "za": "09:30 - 13:00",
          "zo": "gesloten"
        }
      }
    },
    {
      "type": "Feature",
      "geometry": {
        "type": "Point",
        "coordinates": [
          4.7991003,
          50.6303645
        ]
      },
      "properties": {
        "type": "pakketpunt",
        "locatieNaam": "GLS Parcel Locker powered by bbox",
        "straatNaam": "Chaussee De Wavre",
        "straatNr": "110",
        "vervoerder": "GLS",
        "puntType": "locker",
        "bezettingsgraad": 50,
        "latitude": 50.6303645,
        "longitude": 4.7991003,
        "canPickup": true,
        "canDropoff": true,
        "openingstijden": "vr: 00:00 - 24:00; za: 00:00 - 24:00"
      }
    },
    {
      "type": "Feature",
      "geometry": {
        "type": "Point",
        "coordinates": [
          4.78197,
          50.63727
        ]
      },
      "properties": {
        "type": "pakketpunt",
        "locatieNaam": "LIBRAIRIE DU ROND POINT",
        "straatNaam": "CHAUSSEE DE CHARLEROI 31 B",
        "straatNr": "",
        "vervoerder": "InPost",
        "puntType": "servicepunt",
        "bezettingsgraad": 50,
        "latitude": 50.63727,
        "longitude": 4.78197,
        "canPickup": true,
        "canDropoff": true,
        "openingstijden": null
      }
    },
    {
      "type": "Feature",
      "geometry": {
        "type": "Point",
        "coordinates": [
          4.792962,
          50.632393
        ]
      },
      "properties": {
        "type": "pakketpunt",
        "locatieNaam": "Mr Bricolage",
        "straatNaam": "Chaussée De Wavre",
        "straatNr": "154",
        "vervoerder": "PostNL",
        "puntType": "servicepunt",
        "bezettingsgraad": 50,
        "latitude": 50.632393,
        "longitude": 4.792962,
        "canPickup": true,
        "canDropoff": true,
        "openingstijden": "08:30 - 18:30"
      }
    },
    {
      "type": "Feature",
      "geometry": {
        "type": "Point",
        "coordinates": [
          4.8115703,
          50.625312
        ]
      },
      "properties": {
        "type": "pakketpunt",
        "locatieNaam": "NIGHT AND DAY PERWEZ",
        "straatNaam": "RUE DE LA STATION",
        "straatNr": "67",
        "vervoerder": "DPD",
        "puntType": "pickup_point",
        "bezettingsgraad": 50,
        "latitude": 50.625312,
        "longitude": 4.8115703,
        "canPickup": true,
        "canDropoff": true,
        "openingstijden": {
          "ma": "06:00 - 23:00",
          "di": "06:00 - 23:00",
          "wo": "06:00 - 23:00",
          "do": "06:00 - 23:00",
          "vr": "06:00 - 23:45",
          "za": "08:00 - 23:45",
          "zo": "08:00 - 23:00"
        }
      }
    },
    {
      "type": "Feature",
      "geometry": {
        "type": "Point",
        "coordinates": [
          4.79557,
          50.63163
        ]
      },
      "properties": {
        "type": "pakketpunt",
        "locatieNaam": "Playmekanics (smartrc)",
        "straatNaam": "CHEMIN DE LA GROSSE PIERRE",
        "straatNr": "7",
        "vervoerder": "DPD",
        "puntType": "pickup_point",
        "bezettingsgraad": 50,
        "latitude": 50.63163,
        "longitude": 4.79557,
        "canPickup": true,
        "canDropoff": false,
        "openingstijden": {
          "ma": "gesloten",
          "di": "11:00 - 19:00",
          "wo": "11:00 - 19:00",
          "do": "11:00 - 19:00",
          "vr": "11:00 - 19:00",
          "za": "11:00 - 19:00",
          "zo": "gesloten"
        }
      }
    },
    {
      "type": "Feature",
      "geometry": {
        "type": "Point",
        "coordinates": [
          4.795925,
          50.629775
        ]
      },
      "properties": {
        "type": "pakketpunt",
        "locatieNaam": "bpost - BBOX 24/7 LUXUS SHOES PERWEZ",
        "straatNaam": "AVENUE DES MOISSONS,8",
        "straatNr": "",
        "vervoerder": "Amazon",
        "puntType": "3p",
        "bezettingsgraad": 50,
        "latitude": 50.629775,
        "longitude": 4.795925,
        "canPickup": true,
        "canDropoff": false,
        "openingstijden": null
      }
    },
    {
      "type": "Feature",
      "geometry": {
        "type": "Point",
        "coordinates": [
          4.798245,
          50.630302
        ]
      },
      "properties": {
        "type": "pakketpunt",
        "locatieNaam": "bpost - BBOX 24/7 LIDL PERWEZ",
        "straatNaam": "CHAUSSÉE DE WAVRE,110",
        "straatNr": "",
        "vervoerder": "Amazon",
        "puntType": "3p",
        "bezettingsgraad": 50,
        "latitude": 50.630302,
        "longitude": 4.798245,
        "canPickup": true,
        "canDropoff": false,
        "openingstijden": null
      }
    },
    {
      "type": "Feature",
      "geometry": {
        "type": "Point",
        "coordinates": [
          4.8166213,
          50.624813
        ]
      },
      "properties": {
        "type": "pakketpunt",
        "locatieNaam": "bpost - PERWEZ",
        "straatNaam": "AVENUE WILMART,26",
        "straatNr": "",
        "vervoerder": "Amazon",
        "puntType": "3p",
        "bezettingsgraad": 50,
        "latitude": 50.624813,
        "longitude": 4.8166213,
        "canPickup": true,
        "canDropoff": false,
        "openingstijden": null
      }
    },
    {
      "type": "Feature",
      "geometry": {
        "type": "MultiPolygon",
        "coordinates": [
          [
            [
              [
                4.79790171999855,
                50.62738898847644
              ],
              [
                4.7975245271912375,
                50.62727724113272
              ],
              [
                4.797131932498722,
                50.62718954741247
              ],
              [
                4.7967277162891175,
                50.62712675171961
              ],
              [
                4.796315770779003,
                50.627089458711794
              ],
              [
                4.795900062572539,
                50.627078027481026
              ],
              [
                4.795484594486124,
                50.627092568097744
              ],
              [
                4.795073367025251,
                50.62713294055146
              ],
              [
                4.794670339883537,
                50.627198756098274
              ],
              [
                4.794279393833767,
                50.627289381002136
              ],
              [
                4.79390429337692,
                50.62740394263415
              ],
              [
                4.79354865050809,
                50.62754133787111
              ],
              [
                4.793215889947411,
                50.62770024371271
              ],
              [
                4.792909216170239,
                50.62787913001549
              ],
              [
                4.792631582553641,
                50.62807627422095
              ],
              [
                4.792385662936022,
                50.628289777936516
              ],
              [
                4.792173825863734,
                50.62851758520989
              ],
              [
                4.791998111772765,
                50.62875750232109
              ],
              [
                4.791860213325579,
                50.62900721890192
              ],
              [
                4.791761459092957,
                50.62926433017974
              ],
              [
                4.791702800738645,
                50.629526360131656
              ],
              [
                4.791684803831002,
                50.629790785326044
              ],
              [
                4.7916874458936745,
                50.62982135784393
              ],
              [
                4.791316458558294,
                50.62990734061259
              ],
              [
                4.7909413301215595,
                50.63002189266025
              ],
              [
                4.790585658918799,
                50.63015927879401
              ],
              [
                4.790252869942934,
                50.630318176101255
              ],
              [
                4.789946167942902,
                50.63049705452069
              ],
              [
                4.7896685065675095,
                50.63069419156973
              ],
              [
                4.789422559922448,
                50.630907688924744
              ],
              [
                4.78921069681433,
                50.63113549069468
              ],
              [
                4.789034957929871,
                50.63137540321257
              ],
              [
                4.788897036170319,
                50.631625116154495
              ],
              [
                4.788798260330987,
                50.63188222478286
              ],
              [
                4.788739582283749,
                50.6321442531003
              ],
              [
                4.788721567786675,
                50.632408677690954
              ],
              [
                4.788744391010261,
                50.63267295202006
              ],
              [
                4.788807832833886,
                50.63293453095777
              ],
              [
                4.788911282929962,
                50.6331908952911
              ],
              [
                4.789053745616665,
                50.63343957598772
              ],
              [
                4.789233849423865,
                50.63367817797811
              ],
              [
                4.789449860281017,
                50.633904403226744
              ],
              [
                4.78969969820077,
                50.63411607286982
              ],
              [
                4.78998095729826,
                50.63431114820632
              ],
              [
                4.790290928953766,
                50.63448775033971
              ],
              [
                4.790626627895906,
                50.63464417828093
              ],
              [
                4.790984820954321,
                50.634778925338196
              ],
              [
                4.791362058204781,
                50.63489069363507
              ],
              [
                4.791754706206498,
                50.634978406616995
              ],
              [
                4.792158983011055,
                50.63504121942539
              ],
              [
                4.792570994605135,
                50.63507852703935
              ],
              [
                4.792986772435319,
                50.63508997010609
              ],
              [
                4.793402311652664,
                50.63507543840401
              ],
              [
                4.793813609707759,
                50.635035071904966
              ],
              [
                4.7942167049236,
                50.63496925942528
              ],
              [
                4.794607714673743,
                50.63487863487878
              ],
              [
                4.794982872797167,
                50.63476407116788
              ],
              [
                4.795338565888564,
                50.634626671771706
              ],
              [
                4.795671368113845,
                50.63446776011253
              ],
              [
                4.795933032886059,
                50.63431513831848
              ],
              [
                4.796010452681444,
                50.634312429001426
              ],
              [
                4.796421741861249,
                50.63427205330783
              ],
              [
                4.796824826928907,
                50.63420623181273
              ],
              [
                4.797215825355751,
                50.63411559851681
              ],
              [
                4.797590971089859,
                50.634001026406736
              ],
              [
                4.797946650845286,
                50.63386361904252
              ],
              [
                4.798279438916432,
                50.63370469992322
              ],
              [
                4.798586130181555,
                50.633525799733476
              ],
              [
                4.798863770977174,
                50.63332864159435
              ],
              [
                4.799109687545738,
                50.63311512446045
              ],
              [
                4.79916072475648,
                50.633060233534096
              ],
              [
                4.799540941404883,
                50.633046916400076
              ],
              [
                4.799952216544045,
                50.63300652825843
              ],
              [
                4.800355285888537,
                50.632940694556595
              ],
              [
                4.8007462670611805,
                50.63285004941281
              ],
              [
                4.801121394176286,
                50.632735465927865
              ],
              [
                4.801477054127299,
                50.63259804777135
              ],
              [
                4.801809821399419,
                50.63243911854622
              ],
              [
                4.802116491071281,
                50.63226020903451
              ],
              [
                4.802394109687432,
                50.63206304244701
              ],
              [
                4.802640003703975,
                50.63184951781967
              ],
              [
                4.802851805233371,
                50.63162169171654
              ],
              [
                4.803027474840552,
                50.63138175841618
              ],
              [
                4.8031653211711385,
                50.63113202877209
              ],
              [
                4.8032640172231895,
                50.63087490795184
              ],
              [
                4.803322613106451,
                50.63061287226865
              ],
              [
                4.803340545166998,
                50.6303484453294
              ],
              [
                4.803317641390297,
                50.63008417372861
              ],
              [
                4.803254123031638,
                50.6298226025226
              ],
              [
                4.803150602459209,
                50.62956625072015
              ],
              [
                4.803008077231614,
                50.62931758702557
              ],
              [
                4.802827920467834,
                50.629079006067634
              ],
              [
                4.8026118676032326,
                50.62885280534346
              ],
              [
                4.802361999659957,
                50.62864116309868
              ],
              [
                4.802080723193456,
                50.628446117357136
              ],
              [
                4.801770747108715,
                50.62826954630157
              ],
              [
                4.801435056569764,
                50.62811315019385
              ],
              [
                4.801076884253812,
                50.627978435008835
              ],
              [
                4.8006996792267085,
                50.62786669793883
              ],
              [
                4.80030707373923,
                50.62777901490819
              ],
              [
                4.7999028482634,
                50.62771623021792
              ],
              [
                4.799490895104996,
                50.627678948419714
              ],
              [
                4.799159108819432,
                50.62766983416744
              ],
              [
                4.799042595406055,
                50.62765173609627
              ],
              [
                4.798630643489283,
                50.62761445126173
              ],
              [
                4.798443588315244,
                50.627609311537555
              ],
              [
                4.798259878787514,
                50.62752371342034
              ],
              [
                4.79790171999855,
                50.62738898847644
              ]
            ]
          ],
          [
            [
              [
                4.785878728398127,
                50.636223662000916
              ],
              [
                4.7856986318354275,
                50.635985054964365
              ],
              [
                4.785482629431861,
                50.635758822875765
              ],
              [
                4.7852328017239785,
                50.635547144282846
              ],
              [
                4.7849515548801,
                50.635352057559494
              ],
              [
                4.784641597520256,
                50.63517544128316
              ],
              [
                4.784305914628443,
                50.63501899615117
              ],
              [
                4.783947738808459,
                50.63488422861047
              ],
              [
                4.783570519160084,
                50.634772436357565
              ],
              [
                4.7831778880750155,
                50.63468469584813
              ],
              [
                4.782773626271837,
                50.63462185193667
              ],
              [
                4.782361626406146,
                50.634584509745096
              ],
              [
                4.781945855605439,
                50.63457302883902
              ],
              [
                4.781530317288741,
                50.634587519767194
              ],
              [
                4.781119012637653,
                50.63462784299759
              ],
              [
                4.780715902088894,
                50.63469361026025
              ],
              [
                4.780324867218188,
                50.634784188284094
              ],
              [
                4.77994967338158,
                50.63489870489163
              ],
              [
                4.779593933473126,
                50.63503605739323
              ],
              [
                4.779261073147173,
                50.635194923200125
              ],
              [
                4.778954297839566,
                50.6353737725544
              ],
              [
                4.778676561904893,
                50.63557088325339
              ],
              [
                4.778430540166703,
                50.63578435722725
              ],
              [
                4.778218602154647,
                50.636012138810095
              ],
              [
                4.778042789276697,
                50.63625203452943
              ],
              [
                4.7779047951466325,
                50.63650173422313
              ],
              [
                4.77780594925672,
                50.6367588332813
              ],
              [
                4.777747204153491,
                50.637020855798745
              ],
              [
                4.777729126240882,
                50.63728527841554
              ],
              [
                4.777751890300233,
                50.637549554616015
              ],
              [
                4.7778152777808724,
                50.63781113925236
              ],
              [
                4.7779186788787635,
                50.63806751305677
              ],
              [
                4.778061098384177,
                50.63831620690572
              ],
              [
                4.778241165243085,
                50.6385548256031
              ],
              [
                4.778457145741019,
                50.63878107095251
              ],
              [
                4.778706960183248,
                50.63899276389663
              ],
              [
                4.778988202911247,
                50.63918786550999
              ],
              [
                4.7792981654631514,
                50.639364496643
              ],
              [
                4.779633862655442,
                50.63952095602735
              ],
              [
                4.779992061334758,
                50.6396557366684
              ],
              [
                4.780369311522849,
                50.63976754036622
              ],
              [
                4.780761979654394,
                50.63985529022529
              ],
              [
                4.781166283587133,
                50.63991814103183
              ],
              [
                4.781578329046455,
                50.63995548739894
              ],
              [
                4.781994147152724,
                50.63996696960054
              ],
              [
                4.78240973266899,
                50.63995247703811
              ],
              [
                4.782821082599798,
                50.63991214930645
              ],
              [
                4.783224234768355,
                50.63984637484853
              ],
              [
                4.783615305999511,
                50.63975578721192
              ],
              [
                4.783990529539911,
                50.639641258943534
              ],
              [
                4.784346291353999,
                50.63950389318113
              ],
              [
                4.784679164945604,
                50.639345013023046
              ],
              [
                4.78498594436909,
                50.63916614877875
              ],
              [
                4.785263675111703,
                50.638969023223105
              ],
              [
                4.785509682549416,
                50.638755534996875
              ],
              [
                4.78572159770214,
                50.63852774031366
              ],
              [
                4.785897380040373,
                50.63828783314941
              ],
              [
                4.786035337123962,
                50.63803812410608
              ],
              [
                4.786134140884312,
                50.63778101815283
              ],
              [
                4.786192840393911,
                50.63751899145985
              ],
              [
                4.78621087100096,
                50.63725456754753
              ],
              [
                4.786188059742041,
                50.636990292981324
              ],
              [
                4.786124626981681,
                50.63672871284623
              ],
              [
                4.786021184263993,
                50.63647234623709
              ],
              [
                4.785878728398127,
                50.636223662000916
              ]
            ]
          ],
          [
            [
              [
                4.820346705185045,
                50.623523945186605
              ],
              [
                4.820130593839661,
                50.623297776627396
              ],
              [
                4.8198806767933275,
                50.62308617163898
              ],
              [
                4.8195993610740295,
                50.62289116788637
              ],
              [
                4.8192893559644405,
                50.62271464314795
              ],
              [
                4.818953646907816,
                50.62255829723954
              ],
              [
                4.818595466759438,
                50.62242363565261
              ],
              [
                4.818218264660387,
                50.622311955063296
              ],
              [
                4.817825672833092,
                50.622224330852134
              ],
              [
                4.817421471617948,
                50.62216160675371
              ],
              [
                4.817009553087081,
                50.62212438673632
              ],
              [
                4.816593883584858,
                50.6221130291891
              ],
              [
                4.816178465555049,
                50.62212764347304
              ],
              [
                4.815767299021252,
                50.6221680888683
              ],
              [
                4.8153643430905815,
                50.62223397592862
              ],
              [
                4.814973477850326,
                50.62232467022935
              ],
              [
                4.814598467023583,
                50.62243929847334
              ],
              [
                4.814242921742644,
                50.62257675689595
              ],
              [
                4.813910265788225,
                50.6227357218884
              ],
              [
                4.81360370262867,
                50.62291466273762
              ],
              [
                4.813573571737244,
                50.62293607269869
              ],
              [
                4.8135460428697545,
                50.62292572136978
              ],
              [
                4.813168848700856,
                50.62281402447444
              ],
              [
                4.812776262068641,
                50.622726383288835
              ],
              [
                4.812372063263519,
                50.622663641711064
              ],
              [
                4.811960144334434,
                50.6226264038777
              ],
              [
                4.8115444716296025,
                50.622615028349465
              ],
              [
                4.811129047623628,
                50.62262962466046
              ],
              [
                4.8107178723976425,
                50.62267005226392
              ],
              [
                4.810314905142423,
                50.62273592188488
              ],
              [
                4.809924026054267,
                50.62282659926663
              ],
              [
                4.809548998989561,
                50.62294121127492
              ],
              [
                4.809193435236898,
                50.62307865430147
              ],
              [
                4.8088607587547925,
                50.623237604885766
              ],
              [
                4.808554173209195,
                50.62341653245347
              ],
              [
                4.808276631127749,
                50.62361371404869
              ],
              [
                4.8080308054676,
                50.62382725091872
              ],
              [
                4.807819063870473,
                50.62405508679196
              ],
              [
                4.807643445853068,
                50.62429502767293
              ],
              [
                4.807505643152745,
                50.62454476296445
              ],
              [
                4.807406983418271,
                50.62480188771366
              ],
              [
                4.807348417403339,
                50.62506392576779
              ],
              [
                4.807330509786987,
                50.625328353617114
              ],
              [
                4.807353433710216,
                50.625592624695386
              ],
              [
                4.807416969082372,
                50.62585419390398
              ],
              [
                4.807520504674644,
                50.626110542123484
              ],
              [
                4.807663043981488,
                50.62635920047665
              ],
              [
                4.807843214794502,
                50.62659777410909
              ],
              [
                4.808059282397446,
                50.6268239652583
              ],
              [
                4.808309166256073,
                50.627035595388875
              ],
              [
                4.808590460042721,
                50.62723062618025
              ],
              [
                4.808900454803231,
                50.62740717916489
              ],
              [
                4.809236165043391,
                50.62756355382712
              ],
              [
                4.809594357483769,
                50.6276982439883
              ],
              [
                4.809971582205887,
                50.62780995231998
              ],
              [
                4.810364205889482,
                50.62789760284517
              ],
              [
                4.810768446820279,
                50.62796035130688
              ],
              [
                4.811180411330468,
                50.627997593303995
              ],
              [
                4.811596131320176,
                50.628008970115786
              ],
              [
                4.812011602497669,
                50.6279943721588
              ],
              [
                4.812422822969039,
                50.62795394004309
              ],
              [
                4.812825831804756,
                50.627888063217014
              ],
              [
                4.813216747210606,
                50.627797376214154
              ],
              [
                4.813591803934534,
                50.62768275253849
              ],
              [
                4.81394738954816,
                50.627545296246694
              ],
              [
                4.814280079252864,
                50.62738633130904
              ],
              [
                4.814586668874559,
                50.62720738885148
              ],
              [
                4.814614386849337,
                50.62718769468386
              ],
              [
                4.81464533354199,
                50.62719932973066
              ],
              [
                4.8150225662248785,
                50.62731102175164
              ],
              [
                4.8154151951335935,
                50.62739865529735
              ],
              [
                4.815819438503495,
                50.627461386274405
              ],
              [
                4.8162314026432504,
                50.62749861045004
              ],
              [
                4.816647119456546,
                50.6275099692752
              ],
              [
                4.816647250610032,
                50.627509964661485
              ],
              [
                4.816647419473677,
                50.62750996927514
              ],
              [
                4.81706288469928,
                50.627495353338595
              ],
              [
                4.817474096500556,
                50.627454903424585
              ],
              [
                4.817877094031511,
                50.62738900915294
              ],
              [
                4.818267995606865,
                50.627298305225274
              ],
              [
                4.818643036107826,
                50.62718366530857
              ],
              [
                4.818998603262332,
                50.627046193615975
              ],
              [
                4.819331272449624,
                50.626887214266034
              ],
              [
                4.8196378396933035,
                50.626708258523536
              ],
              [
                4.819915352524689,
                50.6265110500445
              ],
              [
                4.820161138418956,
                50.626297488268314
              ],
              [
                4.820372830530098,
                50.62606963011675
              ],
              [
                4.8205483904770094,
                50.62582967017693
              ],
              [
                4.820686127961544,
                50.62557991955886
              ],
              [
                4.820784717030084,
                50.625322783632
              ],
              [
                4.82084320882269,
                50.62506073885496
              ],
              [
                4.820861040687823,
                50.62479630892212
              ],
              [
                4.820838041575753,
                50.62453204045671
              ],
              [
                4.820774433659707,
                50.62427047848476
              ],
              [
                4.8206708301701084,
                50.62401414192603
              ],
              [
                4.820670532998004,
                50.62401362377134
              ],
              [
                4.820669529934895,
                50.62401114197062
              ],
              [
                4.820526929244493,
                50.62376249938076
              ],
              [
                4.820346705185045,
                50.623523945186605
              ]
            ]
          ]
        ]
      },
      "properties": {
        "type": "buffer_union_300m",
        "buffer_m": 300
      }
    },
    {
      "type": "Feature",
      "geometry": {
        "type": "MultiPolygon",
        "coordinates": [
          [
            [
              [
                4.798057665326426,
                50.62644464968092
              ],
              [
                4.7975342139680786,
                50.62632772679705
              ],
              [
                4.796995268381868,
                50.6262440007375
              ],
              [
                4.796446017830244,
                50.626194277653646
              ],
              [
                4.795891750729589,
                50.62617903629924
              ],
              [
                4.795337803764684,
                50.62619842342383
              ],
              [
                4.794789510540033,
                50.62625225236079
              ],
              [
                4.794252150260726,
                50.626340004823376
              ],
              [
                4.793730896935315,
                50.62646083589167
              ],
              [
                4.793230769588189,
                50.626613582142554
              ],
              [
                4.792756583959365,
                50.626796772844706
              ],
              [
                4.792312906155468,
                50.627008644110965
              ],
              [
                4.791904008697161,
                50.62724715587258
              ],
              [
                4.791533829385471,
                50.627510011512044
              ],
              [
                4.79120593338265,
                50.62779467996609
              ],
              [
                4.790923478872621,
                50.62809842008665
              ],
              [
                4.790689186631866,
                50.62841830702562
              ],
              [
                4.790505313804393,
                50.628751260389784
              ],
              [
                4.790373632134171,
                50.62909407389547
              ],
              [
                4.790348367310899,
                50.62920691884859
              ],
              [
                4.790267818583697,
                50.62923151551041
              ],
              [
                4.789793595177586,
                50.629414694075045
              ],
              [
                4.789349879487909,
                50.62962655396218
              ],
              [
                4.7889409444000615,
                50.62986505521262
              ],
              [
                4.788570728077353,
                50.6301279013101
              ],
              [
                4.788242796038394,
                50.63041256128325
              ],
              [
                4.7879603068140995,
                50.63071629406574
              ],
              [
                4.787725981515251,
                50.63103617488009
              ],
              [
                4.7875420776042334,
                50.63136912339214
              ],
              [
                4.787410367124416,
                50.63171193336494
              ],
              [
                4.787332119597976,
                50.632061303527514
              ],
              [
                4.787308089758282,
                50.632413869361024
              ],
              [
                4.787338510236547,
                50.63276623549687
              ],
              [
                4.787423089274953,
                50.63311500841459
              ],
              [
                4.7875610134899995,
                50.633456829125095
              ],
              [
                4.7877509556612985,
                50.63378840552379
              ],
              [
                4.787991087472489,
                50.63410654410259
              ],
              [
                4.788279097083149,
                50.634408180714495
              ],
              [
                4.788612211363859,
                50.634690410094535
              ],
              [
                4.788987222581396,
                50.63495051385208
              ],
              [
                4.789400519277911,
                50.6351859866646
              ],
              [
                4.789848121047188,
                50.63539456041982
              ],
              [
                4.790325716873236,
                50.63557422607364
              ],
              [
                4.790828706661808,
                50.63572325301226
              ],
              [
                4.791352245564311,
                50.63584020573182
              ],
              [
                4.791891290666408,
                50.63592395767446
              ],
              [
                4.79244064959049,
                50.63597370208674
              ],
              [
                4.792995030542573,
                50.635988959795995
              ],
              [
                4.793549093320033,
                50.63596958382905
              ],
              [
                4.794097500787227,
                50.63591576082905
              ],
              [
                4.794634970321466,
                50.635828009256265
              ],
              [
                4.7951563247321145,
                50.63570717439059
              ],
              [
                4.795656542160705,
                50.63555442018405
              ],
              [
                4.796130804479948,
                50.635371218041776
              ],
              [
                4.796557996783691,
                50.635167233865474
              ],
              [
                4.796705676994671,
                50.63515273603278
              ],
              [
                4.7972431329973455,
                50.635064972439245
              ],
              [
                4.797764472309524,
                50.6349441259075
              ],
              [
                4.798264673218234,
                50.63479136050194
              ],
              [
                4.79873891775537,
                50.634608147735534
              ],
              [
                4.7991826381265765,
                50.63439625238696
              ],
              [
                4.799591560723122,
                50.6341577154917
              ],
              [
                4.799930173357155,
                50.63391725645039
              ],
              [
                4.800236209908635,
                50.63388720263359
              ],
              [
                4.8007736449461085,
                50.63379942276412
              ],
              [
                4.801294961251607,
                50.63367856043501
              ],
              [
                4.801795137333845,
                50.63352577986278
              ],
              [
                4.802269355463945,
                50.63334255270652
              ],
              [
                4.802713048101994,
                50.63313064388347
              ],
              [
                4.80312194190648,
                50.63289209455889
              ],
              [
                4.803492098901913,
                50.63262920247439
              ],
              [
                4.8038199544077145,
                50.632344499804745
              ],
              [
                4.804102351362873,
                50.63204072875711
              ],
              [
                4.804336570716081,
                50.63172081514795
              ],
              [
                4.804520357589151,
                50.631387840213094
              ],
              [
                4.804651942962667,
                50.63104501092232
              ],
              [
                4.804730060676126,
                50.63069562908545
              ],
              [
                4.804753959580312,
                50.63034305954719
              ],
              [
                4.8047234107264165,
                50.629990697777906
              ],
              [
                4.804638709524409,
                50.629641937172
              ],
              [
                4.804500672851667,
                50.62930013636933
              ],
              [
                4.804310631141485,
                50.628968586914084
              ],
              [
                4.804070415529364,
                50.62865048156255
              ],
              [
                4.803782340182453,
                50.62834888354454
              ],
              [
                4.8034491799836765,
                50.62806669707431
              ],
              [
                4.8030741437865965,
                50.62780663939446
              ],
              [
                4.802660843499382,
                50.627571214621426
              ],
              [
                4.80221325929616,
                50.62736268964426
              ],
              [
                4.801735701290898,
                50.62718307230772
              ],
              [
                4.801232768042743,
                50.62703409208976
              ],
              [
                4.80070930229188,
                50.62691718345851
              ],
              [
                4.8001703443513515,
                50.626833472068824
              ],
              [
                4.799621083602512,
                50.626783763930845
              ],
              [
                4.799358923196516,
                50.62677656255246
              ],
              [
                4.79931010720712,
                50.6267689799065
              ],
              [
                4.798936911819931,
                50.626735203137066
              ],
              [
                4.798560582282388,
                50.62659364359699
              ],
              [
                4.798057665326426,
                50.62644464968092
              ]
            ]
          ],
          [
            [
              [
                4.787181599369594,
                50.63587485353757
              ],
              [
                4.786941464019853,
                50.63555671341371
              ],
              [
                4.786653455948579,
                50.63525507357589
              ],
              [
                4.786320349391459,
                50.63497283864119
              ],
              [
                4.785945352686091,
                50.63471272631896
              ],
              [
                4.78553207736091,
                50.634477241251886
              ],
              [
                4.785084503350158,
                50.634268650909625
              ],
              [
                4.784606940670077,
                50.63408896376641
              ],
              [
                4.78410398792515,
                50.633939909972334
              ],
              [
                4.783580488043531,
                50.63382292470398
              ],
              [
                4.783041481667031,
                50.63373913435413
              ],
              [
                4.782492158643414,
                50.633689345693185
              ],
              [
                4.781937808086762,
                50.633674038106285
              ],
              [
                4.78138376748524,
                50.63369335898072
              ],
              [
                4.780835371344691,
                50.63374712228771
              ],
              [
                4.780297899860833,
                50.63383481037245
              ],
              [
                4.779776528112624,
                50.633955578934895
              ],
              [
                4.779276276264338,
                50.63410826515382
              ],
              [
                4.77880196125441,
                50.63429139887592
              ],
              [
                4.77835815043489,
                50.63450321676276
              ],
              [
                4.777949117606911,
                50.63474167925965
              ],
              [
                4.777578801874695,
                50.635004490223494
              ],
              [
                4.777250769713887,
                50.635289119021365
              ],
              [
                4.776968180619363,
                50.635592824887155
              ],
              [
                4.776733756663516,
                50.63591268330273
              ],
              [
                4.776549756258738,
                50.63624561414966
              ],
              [
                4.776417952377654,
                50.63658841136125
              ],
              [
                4.776339615442009,
                50.63693777378954
              ],
              [
                4.776315501046365,
                50.637290336990276
              ],
              [
                4.776345842636476,
                50.6376427056203
              ],
              [
                4.776430349214551,
                50.637991486135306
              ],
              [
                4.776568208095267,
                50.63833331947308
              ],
              [
                4.776758092687836,
                50.63866491340754
              ],
              [
                4.776998175230836,
                50.63898307426179
              ],
              [
                4.7772861443587615,
                50.63928473767439
              ],
              [
                4.777619227332499,
                50.639566998122284
              ],
              [
                4.777994216720745,
                50.639827136915684
              ],
              [
                4.778407501276259,
                50.6400626483946
              ],
              [
                4.7788551007100795,
                50.6402712640744
              ],
              [
                4.779332704028973,
                50.64045097450714
              ],
              [
                4.779835711066729,
                50.640600048647734
              ],
              [
                4.78035927680875,
                50.64071705053767
              ],
              [
                4.780898358082249,
                50.640800853145436
              ],
              [
                4.781447762161208,
                50.64085064922955
              ],
              [
                4.782002196816638,
                50.640865959119616
              ],
              [
                4.782556321328502,
                50.640846635339805
              ],
              [
                4.783104797966333,
                50.64079286403058
              ],
              [
                4.783642343440942,
                50.640705163154266
              ],
              [
                4.784163779829953,
                50.64058437750246
              ],
              [
                4.78466408448498,
                50.640431670553134
              ],
              [
                4.785138438438255,
                50.640248513256275
              ],
              [
                4.785582272841156,
                50.64003666985622
              ],
              [
                4.785991312986256,
                50.639798180888185
              ],
              [
                4.78636161948814,
                50.63953534351248
              ],
              [
                4.786689626225877,
                50.63925068937708
              ],
              [
                4.786972174681589,
                50.638946960221766
              ],
              [
                4.787206544344606,
                50.63862708145969
              ],
              [
                4.787390478888981,
                50.63829413399115
              ],
              [
                4.787522207873067,
                50.63795132452164
              ],
              [
                4.787600463753372,
                50.63760195467018
              ],
              [
                4.787624494050239,
                50.63724938916629
              ],
              [
                4.787594068549786,
                50.636897023441634
              ],
              [
                4.787509481474433,
                50.63654825092886
              ],
              [
                4.787371548602963,
                50.63620643038268
              ],
              [
                4.787181599369594,
                50.63587485353757
              ]
            ]
          ],
          [
            [
              [
                4.821588895149073,
                50.62309523373156
              ],
              [
                4.821300741833345,
                50.622793678600786
              ],
              [
                4.820967516169296,
                50.62251154180604
              ],
              [
                4.820592427640324,
                50.62225154011144
              ],
              [
                4.820179088657985,
                50.62201617709431
              ],
              [
                4.819731479768526,
                50.621807719048974
              ],
              [
                4.819253911323197,
                50.62162817317568
              ],
              [
                4.81875098198132,
                50.621479268264224
              ],
              [
                4.818227534445209,
                50.6213624380576
              ],
              [
                4.817688608852352,
                50.62127880745562
              ],
              [
                4.8171393942725675,
                50.621229181690495
              ],
              [
                4.816585178775865,
                50.621214038579
              ],
              [
                4.816031298550248,
                50.62123352392472
              ],
              [
                4.815483086557813,
                50.621287450115325
              ],
              [
                4.814945821221787,
                50.62137529792769
              ],
              [
                4.814424675636916,
                50.6214962215238
              ],
              [
                4.813924667790621,
                50.6216490565896
              ],
              [
                4.813450612272748,
                50.62183233153853
              ],
              [
                4.813317985126066,
                50.62189570939437
              ],
              [
                4.813178220085852,
                50.6218645079717
              ],
              [
                4.812639297705895,
                50.62178085406431
              ],
              [
                4.81209008259497,
                50.62173120454502
              ],
              [
                4.811535862828222,
                50.62171603745925
              ],
              [
                4.8109819746347675,
                50.62173549884152
              ],
              [
                4.8104337510533925,
                50.621789401310146
              ],
              [
                4.809896470618857,
                50.62187722587041
              ],
              [
                4.809375306571212,
                50.6219981269082
              ],
              [
                4.80887527707556,
                50.62215094032669
              ],
              [
                4.808401196930096,
                50.62233419474775
              ],
              [
                4.807957631226142,
                50.622546125670645
              ],
              [
                4.8075488514053335,
                50.62278469245214
              ],
              [
                4.807178794136314,
                50.62304759794482
              ],
              [
                4.806851023406485,
                50.623332310605335
              ],
              [
                4.806568696193735,
                50.623636088859826
              ],
              [
                4.806334532048945,
                50.62395600749282
              ],
              [
                4.806150786882732,
                50.624288985805734
              ],
              [
                4.80601923120976,
                50.624631817274526
              ],
              [
                4.805941133061292,
                50.624981200421004
              ],
              [
                4.805917245731921,
                50.625333770601095
              ],
              [
                4.8059478004801015,
                50.625686132404134
              ],
              [
                4.806032504254491,
                50.62603489235124
              ],
              [
                4.806170542469784,
                50.626376691578
              ],
              [
                4.806360586807093,
                50.626708238186616
              ],
              [
                4.8066008079654745,
                50.62702633895574
              ],
              [
                4.8068888932433405,
                50.62732793010238
              ],
              [
                4.8072220687818445,
                50.627610106799374
              ],
              [
                4.807597126257131,
                50.62787015116342
              ],
              [
                4.808010453765228,
                50.62810555844394
              ],
              [
                4.808458070602619,
                50.62831406115987
              ],
              [
                4.808935665607728,
                50.62849365095127
              ],
              [
                4.809438638693855,
                50.628642597935084
              ],
              [
                4.809962145173032,
                50.62875946737762
              ],
              [
                4.810501142443078,
                50.62884313352313
              ],
              [
                4.811050438587077,
                50.62889279044466
              ],
              [
                4.811604742415828,
                50.628907959812274
              ],
              [
                4.81215871446976,
                50.628888495503844
              ],
              [
                4.812707018487377,
                50.62883458501342
              ],
              [
                4.813244372842795,
                50.62874674764403
              ],
              [
                4.813765601455229,
                50.628625829502035
              ],
              [
                4.814265683678386,
                50.62847299534157
              ],
              [
                4.814739802687784,
                50.628289717337864
              ],
              [
                4.814868484736776,
                50.62822823066505
              ],
              [
                4.815013230838605,
                50.628260537315384
              ],
              [
                4.815552231361252,
                50.62834418014759
              ],
              [
                4.816101527011526,
                50.628393813306715
              ],
              [
                4.81665582660496,
                50.628408958691736
              ],
              [
                4.816655957760942,
                50.62840895407801
              ],
              [
                4.8166561266278025,
                50.62840895869164
              ],
              [
                4.817210090745501,
                50.628389470409985
              ],
              [
                4.817758383202344,
                50.62833553618809
              ],
              [
                4.818295722483862,
                50.628247675557546
              ],
              [
                4.8188169326545385,
                50.628126734848806
              ],
              [
                4.819316993245814,
                50.62797387903338
              ],
              [
                4.819791087641676,
                50.62779058049503
              ],
              [
                4.820234649494483,
                50.62757860483858
              ],
              [
                4.820643406722883,
                50.627339993872944
              ],
              [
                4.82101342266729,
                50.62707704593337
              ],
              [
                4.821341134006058,
                50.62679229373252
              ],
              [
                4.821623385067046,
                50.626488479954475
              ],
              [
                4.821857458204348,
                50.62616853082717
              ],
              [
                4.8220410999481755,
                50.62583552792828
              ],
              [
                4.822172542676917,
                50.62549267849681
              ],
              [
                4.82225052160383,
                50.62514328453634
              ],
              [
                4.8222742869161745,
                50.62479071100822
              ],
              [
                4.8222436109514675,
                50.62443835342099
              ],
              [
                4.822158790343478,
                50.624089605128624
              ],
              [
                4.822020643119083,
                50.62374782465222
              ],
              [
                4.822020345933845,
                50.62374730650094
              ],
              [
                4.822019342805469,
                50.62374482471167
              ],
              [
                4.821829200483313,
                50.62341330339721
              ],
              [
                4.821588895149073,
                50.62309523373156
              ]
            ]
          ]
        ]
      },
      "properties": {
        "type": "buffer_union_400m",
        "buffer_m": 400
      }
    },
    {
      "type": "Feature",
      "geometry": {
        "type": "Polygon",
        "coordinates": [
          [
            [
              4.7345101,
              50.6106476
            ],
            [
              4.7359979,
              50.6113486
            ],
            [
              4.7358924,
              50.6114272
            ],
            [
              4.7368848,
              50.6119083
            ],
            [
              4.7430731,
              50.6147402
            ],
            [
              4.7440598,
              50.6153065
            ],
            [
              4.7447132,
              50.6161295
            ],
            [
              4.7440059,
              50.6164968
            ],
            [
              4.7444238,
              50.6184219
            ],
            [
              4.7442201,
              50.6192777
            ],
            [
              4.7433225,
              50.6207465
            ],
            [
              4.743408,
              50.6227687
            ],
            [
              4.7435676,
              50.6227534
            ],
            [
              4.7435319,
              50.6245417
            ],
            [
              4.7439096,
              50.6245429
            ],
            [
              4.7439702,
              50.6253815
            ],
            [
              4.7436827,
              50.6260069
            ],
            [
              4.7422649,
              50.6277576
            ],
            [
              4.7420782,
              50.6278336
            ],
            [
              4.741483,
              50.6285737
            ],
            [
              4.7396885,
              50.6300853
            ],
            [
              4.7394221,
              50.6306365
            ],
            [
              4.7391092,
              50.6320422
            ],
            [
              4.7395726,
              50.6320852
            ],
            [
              4.7395249,
              50.6324929
            ],
            [
              4.739113,
              50.6329252
            ],
            [
              4.738289,
              50.6333172
            ],
            [
              4.7377897,
              50.6334071
            ],
            [
              4.7366416,
              50.6334476
            ],
            [
              4.7365574,
              50.6336663
            ],
            [
              4.7362473,
              50.6337101
            ],
            [
              4.7343791,
              50.6335179
            ],
            [
              4.7335114,
              50.6347438
            ],
            [
              4.7342964,
              50.6350461
            ],
            [
              4.7345105,
              50.6350454
            ],
            [
              4.7354226,
              50.6353413
            ],
            [
              4.7354099,
              50.6354171
            ],
            [
              4.7356729,
              50.6355666
            ],
            [
              4.7360773,
              50.6356991
            ],
            [
              4.7362606,
              50.6351745
            ],
            [
              4.7374443,
              50.6352256
            ],
            [
              4.7402961,
              50.6356259
            ],
            [
              4.740839,
              50.6358285
            ],
            [
              4.7410456,
              50.6363925
            ],
            [
              4.7421331,
              50.6375574
            ],
            [
              4.744551,
              50.6404413
            ],
            [
              4.7443931,
              50.6405024
            ],
            [
              4.7445781,
              50.642306
            ],
            [
              4.7444613,
              50.6434057
            ],
            [
              4.7431123,
              50.6427774
            ],
            [
              4.7417448,
              50.643018
            ],
            [
              4.742289,
              50.6432913
            ],
            [
              4.7390788,
              50.6464155
            ],
            [
              4.7379937,
              50.6477405
            ],
            [
              4.74205,
              50.6492743
            ],
            [
              4.7427136,
              50.6496269
            ],
            [
              4.7445441,
              50.65025
            ],
            [
              4.7438061,
              50.652472
            ],
            [
              4.7432636,
              50.6535045
            ],
            [
              4.7424897,
              50.6545038
            ],
            [
              4.7432808,
              50.6548445
            ],
            [
              4.7449966,
              50.6540654
            ],
            [
              4.7477411,
              50.6542768
            ],
            [
              4.7474551,
              50.6537177
            ],
            [
              4.7490159,
              50.6538132
            ],
            [
              4.7495252,
              50.653947
            ],
            [
              4.7494438,
              50.6541471
            ],
            [
              4.7500909,
              50.6542953
            ],
            [
              4.7494887,
              50.6559322
            ],
            [
              4.7502569,
              50.6564354
            ],
            [
              4.7486749,
              50.6576583
            ],
            [
              4.7495456,
              50.6584591
            ],
            [
              4.7487857,
              50.6588169
            ],
            [
              4.7497612,
              50.6592686
            ],
            [
              4.7528197,
              50.6604352
            ],
            [
              4.7530588,
              50.6601382
            ],
            [
              4.7565188,
              50.6619149
            ],
            [
              4.7560516,
              50.6623692
            ],
            [
              4.7576599,
              50.6629672
            ],
            [
              4.7596456,
              50.6633911
            ],
            [
              4.7600126,
              50.6629283
            ],
            [
              4.7613276,
              50.6633187
            ],
            [
              4.7609881,
              50.6638084
            ],
            [
              4.761603,
              50.6640069
            ],
            [
              4.7614589,
              50.6641963
            ],
            [
              4.7657483,
              50.6655482
            ],
            [
              4.7667038,
              50.6648517
            ],
            [
              4.7688309,
              50.665835
            ],
            [
              4.7677929,
              50.6663002
            ],
            [
              4.7691606,
              50.6670397
            ],
            [
              4.76814,
              50.6680028
            ],
            [
              4.7679565,
              50.6679449
            ],
            [
              4.7672077,
              50.6689023
            ],
            [
              4.768266,
              50.669266
            ],
            [
              4.7687247,
              50.6687538
            ],
            [
              4.7712022,
              50.6694913
            ],
            [
              4.7738813,
              50.6684551
            ],
            [
              4.7740543,
              50.6682861
            ],
            [
              4.7790857,
              50.6705173
            ],
            [
              4.7802268,
              50.671136
            ],
            [
              4.7809849,
              50.6706684
            ],
            [
              4.7818508,
              50.6711608
            ],
            [
              4.7823622,
              50.6716126
            ],
            [
              4.7841642,
              50.6706429
            ],
            [
              4.7852513,
              50.6717948
            ],
            [
              4.78572,
              50.6721705
            ],
            [
              4.7865102,
              50.6726089
            ],
            [
              4.7876333,
              50.672003
            ],
            [
              4.7877488,
              50.6721704
            ],
            [
              4.7883109,
              50.6718962
            ],
            [
              4.7893245,
              50.6728727
            ],
            [
              4.7920859,
              50.6716621
            ],
            [
              4.793295,
              50.6727356
            ],
            [
              4.7950289,
              50.6739393
            ],
            [
              4.7964341,
              50.6752106
            ],
            [
              4.79762,
              50.6760233
            ],
            [
              4.8015018,
              50.6739055
            ],
            [
              4.8031207,
              50.6751446
            ],
            [
              4.8058034,
              50.6777211
            ],
            [
              4.8063498,
              50.6785181
            ],
            [
              4.8063197,
              50.6787717
            ],
            [
              4.8060639,
              50.6792233
            ],
            [
              4.8069525,
              50.679573
            ],
            [
              4.8073634,
              50.679822
            ],
            [
              4.8074928,
              50.6797658
            ],
            [
              4.8071233,
              50.6793861
            ],
            [
              4.8067799,
              50.6791612
            ],
            [
              4.8072212,
              50.6789955
            ],
            [
              4.8075711,
              50.6781108
            ],
            [
              4.8075473,
              50.6777534
            ],
            [
              4.8073683,
              50.6772671
            ],
            [
              4.8064658,
              50.6757678
            ],
            [
              4.8059065,
              50.6746291
            ],
            [
              4.8055398,
              50.6746439
            ],
            [
              4.8053122,
              50.6744489
            ],
            [
              4.8051199,
              50.6743993
            ],
            [
              4.8052366,
              50.6743279
            ],
            [
              4.8052849,
              50.6738999
            ],
            [
              4.8051499,
              50.6737743
            ],
            [
              4.8049022,
              50.6737976
            ],
            [
              4.8049315,
              50.6733757
            ],
            [
              4.8047047,
              50.6732673
            ],
            [
              4.8047794,
              50.6731803
            ],
            [
              4.8045407,
              50.6730835
            ],
            [
              4.8048526,
              50.6726468
            ],
            [
              4.8047198,
              50.672059
            ],
            [
              4.80521,
              50.6716176
            ],
            [
              4.8048583,
              50.6711847
            ],
            [
              4.8051282,
              50.6711124
            ],
            [
              4.8053138,
              50.6714884
            ],
            [
              4.8063945,
              50.6711422
            ],
            [
              4.8118816,
              50.668392
            ],
            [
              4.8125964,
              50.6690636
            ],
            [
              4.8163667,
              50.6682442
            ],
            [
              4.8182817,
              50.6691245
            ],
            [
              4.8199993,
              50.6702845
            ],
            [
              4.8214183,
              50.6714059
            ],
            [
              4.8228294,
              50.6704254
            ],
            [
              4.8238366,
              50.6709204
            ],
            [
              4.8244908,
              50.6704315
            ],
            [
              4.8262041,
              50.6695436
            ],
            [
              4.8267503,
              50.670093
            ],
            [
              4.8294183,
              50.6671991
            ],
            [
              4.8305459,
              50.667873
            ],
            [
              4.8309624,
              50.6669999
            ],
            [
              4.8310827,
              50.6670404
            ],
            [
              4.8312874,
              50.6668202
            ],
            [
              4.8314824,
              50.6669379
            ],
            [
              4.8320372,
              50.6665239
            ],
            [
              4.8327347,
              50.6656649
            ],
            [
              4.8331169,
              50.6658052
            ],
            [
              4.8344985,
              50.6650494
            ],
            [
              4.8347627,
              50.6653204
            ],
            [
              4.8355392,
              50.6644019
            ],
            [
              4.8371026,
              50.6635186
            ],
            [
              4.8400798,
              50.6608217
            ],
            [
              4.8389561,
              50.66037
            ],
            [
              4.8411623,
              50.6590072
            ],
            [
              4.8348627,
              50.6553743
            ],
            [
              4.8353536,
              50.6550771
            ],
            [
              4.8340013,
              50.6542332
            ],
            [
              4.836925,
              50.6520215
            ],
            [
              4.8378388,
              50.6521053
            ],
            [
              4.8393402,
              50.6509619
            ],
            [
              4.8388002,
              50.650722
            ],
            [
              4.8399822,
              50.649844
            ],
            [
              4.8388923,
              50.6495736
            ],
            [
              4.8384597,
              50.6493596
            ],
            [
              4.8371706,
              50.6480568
            ],
            [
              4.8366528,
              50.6477042
            ],
            [
              4.8361666,
              50.6480799
            ],
            [
              4.835624,
              50.647892
            ],
            [
              4.8340542,
              50.6481384
            ],
            [
              4.8332616,
              50.6475973
            ],
            [
              4.8324203,
              50.6475829
            ],
            [
              4.8310443,
              50.6468014
            ],
            [
              4.8314729,
              50.6465177
            ],
            [
              4.8313116,
              50.6464223
            ],
            [
              4.8330367,
              50.6454089
            ],
            [
              4.8326497,
              50.6451991
            ],
            [
              4.8354524,
              50.6437884
            ],
            [
              4.8381493,
              50.6412273
            ],
            [
              4.839227,
              50.6399731
            ],
            [
              4.8380492,
              50.6395702
            ],
            [
              4.8387486,
              50.6387457
            ],
            [
              4.8372547,
              50.6382286
            ],
            [
              4.8384143,
              50.6381335
            ],
            [
              4.8386704,
              50.6380306
            ],
            [
              4.8410284,
              50.6364946
            ],
            [
              4.8420227,
              50.635647
            ],
            [
              4.8399448,
              50.6347821
            ],
            [
              4.8403413,
              50.6340227
            ],
            [
              4.8413345,
              50.6332444
            ],
            [
              4.8408668,
              50.6327665
            ],
            [
              4.8406518,
              50.6328908
            ],
            [
              4.8390465,
              50.6320814
            ],
            [
              4.8400209,
              50.631441
            ],
            [
              4.8388049,
              50.6308812
            ],
            [
              4.8394866,
              50.6302733
            ],
            [
              4.83953,
              50.6301133
            ],
            [
              4.8394485,
              50.6300035
            ],
            [
              4.8419191,
              50.6287699
            ],
            [
              4.8414455,
              50.6283777
            ],
            [
              4.8437255,
              50.628015
            ],
            [
              4.8436608,
              50.6271934
            ],
            [
              4.8434854,
              50.626823
            ],
            [
              4.8430538,
              50.6261573
            ],
            [
              4.8424786,
              50.6255813
            ],
            [
              4.8429047,
              50.625372
            ],
            [
              4.8422049,
              50.6248227
            ],
            [
              4.8420492,
              50.6243855
            ],
            [
              4.842039,
              50.6231968
            ],
            [
              4.8418384,
              50.6230937
            ],
            [
              4.8417033,
              50.6228358
            ],
            [
              4.8450362,
              50.6220088
            ],
            [
              4.8461703,
              50.6212045
            ],
            [
              4.8453584,
              50.6201509
            ],
            [
              4.8494091,
              50.6177361
            ],
            [
              4.8488167,
              50.6174138
            ],
            [
              4.849697,
              50.6168594
            ],
            [
              4.850014,
              50.6170815
            ],
            [
              4.8524258,
              50.6153875
            ],
            [
              4.8507773,
              50.6148066
            ],
            [
              4.8460558,
              50.6129234
            ],
            [
              4.8447033,
              50.6122766
            ],
            [
              4.8446469,
              50.6120676
            ],
            [
              4.841897,
              50.6106366
            ],
            [
              4.8407313,
              50.6101921
            ],
            [
              4.8395055,
              50.6098664
            ],
            [
              4.8375652,
              50.6094759
            ],
            [
              4.8326637,
              50.6088558
            ],
            [
              4.8313141,
              50.6085169
            ],
            [
              4.8299543,
              50.608644
            ],
            [
              4.8278922,
              50.6086514
            ],
            [
              4.8241519,
              50.6089007
            ],
            [
              4.8215384,
              50.6091914
            ],
            [
              4.8181682,
              50.6094008
            ],
            [
              4.8170072,
              50.6093476
            ],
            [
              4.807207,
              50.6067804
            ],
            [
              4.8056255,
              50.6054414
            ],
            [
              4.8057501,
              50.6053394
            ],
            [
              4.8027163,
              50.6035561
            ],
            [
              4.8003583,
              50.6024373
            ],
            [
              4.8001848,
              50.6028415
            ],
            [
              4.799981,
              50.603772
            ],
            [
              4.7996408,
              50.6045473
            ],
            [
              4.7950115,
              50.6034668
            ],
            [
              4.7945734,
              50.603441
            ],
            [
              4.7924838,
              50.6028937
            ],
            [
              4.7877886,
              50.6020129
            ],
            [
              4.7860767,
              50.6018247
            ],
            [
              4.7866794,
              50.6015144
            ],
            [
              4.7868717,
              50.6004241
            ],
            [
              4.7874468,
              50.5990559
            ],
            [
              4.7877598,
              50.5984213
            ],
            [
              4.7883504,
              50.5978143
            ],
            [
              4.7895656,
              50.5969531
            ],
            [
              4.791212,
              50.5963101
            ],
            [
              4.7926541,
              50.5955658
            ],
            [
              4.7929117,
              50.5953375
            ],
            [
              4.7932694,
              50.5948226
            ],
            [
              4.7953541,
              50.5930645
            ],
            [
              4.7970115,
              50.5920074
            ],
            [
              4.7922645,
              50.5899229
            ],
            [
              4.7911972,
              50.5895472
            ],
            [
              4.7908988,
              50.5906126
            ],
            [
              4.7887748,
              50.5940127
            ],
            [
              4.7879595,
              50.5958068
            ],
            [
              4.7871848,
              50.5963068
            ],
            [
              4.7871939,
              50.5975333
            ],
            [
              4.7869526,
              50.5981401
            ],
            [
              4.7847317,
              50.5997689
            ],
            [
              4.7827644,
              50.6005683
            ],
            [
              4.7812162,
              50.600875
            ],
            [
              4.7796699,
              50.601032
            ],
            [
              4.7788149,
              50.6009583
            ],
            [
              4.7780819,
              50.6001333
            ],
            [
              4.7759464,
              50.599348
            ],
            [
              4.7749788,
              50.5995175
            ],
            [
              4.7719076,
              50.6006054
            ],
            [
              4.7706171,
              50.6007487
            ],
            [
              4.7695713,
              50.6006457
            ],
            [
              4.767717,
              50.6000449
            ],
            [
              4.7660721,
              50.5997001
            ],
            [
              4.7649561,
              50.5991891
            ],
            [
              4.7644014,
              50.5988353
            ],
            [
              4.7628432,
              50.5983764
            ],
            [
              4.7613155,
              50.5977193
            ],
            [
              4.7604129,
              50.5972158
            ],
            [
              4.7589465,
              50.5961881
            ],
            [
              4.757769,
              50.5955726
            ],
            [
              4.7568725,
              50.5949713
            ],
            [
              4.7564693,
              50.594605
            ],
            [
              4.7556915,
              50.5942417
            ],
            [
              4.7549222,
              50.594003
            ],
            [
              4.7539685,
              50.5934061
            ],
            [
              4.7529839,
              50.5929793
            ],
            [
              4.7522683,
              50.5922155
            ],
            [
              4.75176,
              50.591947
            ],
            [
              4.751394,
              50.5919776
            ],
            [
              4.7512403,
              50.5916531
            ],
            [
              4.7496545,
              50.5902131
            ],
            [
              4.7492993,
              50.5897027
            ],
            [
              4.7488257,
              50.5893339
            ],
            [
              4.7481304,
              50.5892548
            ],
            [
              4.7472048,
              50.5894336
            ],
            [
              4.7465804,
              50.5896824
            ],
            [
              4.7453723,
              50.590518
            ],
            [
              4.7452623,
              50.590239
            ],
            [
              4.7457498,
              50.5895951
            ],
            [
              4.7459209,
              50.589234
            ],
            [
              4.744531,
              50.5888452
            ],
            [
              4.7433713,
              50.5894005
            ],
            [
              4.7439586,
              50.5910242
            ],
            [
              4.7455468,
              50.5920213
            ],
            [
              4.7468077,
              50.5925565
            ],
            [
              4.7452363,
              50.5938677
            ],
            [
              4.7440283,
              50.593386
            ],
            [
              4.7409741,
              50.5979791
            ],
            [
              4.744345,
              50.5995262
            ],
            [
              4.7440725,
              50.5998148
            ],
            [
              4.7453731,
              50.6010163
            ],
            [
              4.7448433,
              50.6017347
            ],
            [
              4.7446794,
              50.6017072
            ],
            [
              4.7438413,
              50.6037285
            ],
            [
              4.74265,
              50.6034579
            ],
            [
              4.7412798,
              50.6030123
            ],
            [
              4.7404393,
              50.6036791
            ],
            [
              4.7384832,
              50.6044265
            ],
            [
              4.7373118,
              50.6053125
            ],
            [
              4.7383191,
              50.6067076
            ],
            [
              4.7387081,
              50.6080898
            ],
            [
              4.7390147,
              50.6087364
            ],
            [
              4.7365793,
              50.609602
            ],
            [
              4.7345101,
              50.6106476
            ]
          ]
        ]
      },
      "properties": {
        "type": "boundary",
        "gemeente": "Perwez"
      }
    }
  ]
}