{
  "type": "FeatureCollection",
  "metadata": {
    "gemeente": "Quiévrain",
    "slug": "quievrain",
    "generated_at": "2026-09-25T22:11:43.199475Z",
    "total_points": 26,
    "providers": [
      "bpost",
      "DHL",
      "GLS",
      "InPost",
      "VintedGo",
      "PostNL",
      "Amazon"
    ],
    "bounds": [
      3.6777077,
      50.3881,
      3.69618,
      50.410034
    ]
  },
  "features": [
    {
      "type": "Feature",
      "geometry": {
        "type": "Point",
        "coordinates": [
          3.68628,
          50.41003
        ]
      },
      "properties": {
        "type": "pakketpunt",
        "locatieNaam": "Pakjesautomaat 24/7 Station Quiévrain",
        "straatNaam": "Place De La Gare",
        "straatNr": "5",
        "vervoerder": "bpost",
        "puntType": "automaat",
        "bezettingsgraad": 50,
        "latitude": 50.41003,
        "longitude": 3.68628,
        "canPickup": true,
        "canDropoff": true,
        "openingstijden": null
      }
    },
    {
      "type": "Feature",
      "geometry": {
        "type": "Point",
        "coordinates": [
          3.69618,
          50.3881
        ]
      },
      "properties": {
        "type": "pakketpunt",
        "locatieNaam": "Superette D/L Pl Baisieux",
        "straatNaam": "Rue Alphonse Scouvemont",
        "straatNr": "110",
        "vervoerder": "bpost",
        "puntType": "servicepunt",
        "bezettingsgraad": 50,
        "latitude": 50.3881,
        "longitude": 3.69618,
        "canPickup": true,
        "canDropoff": true,
        "openingstijden": null
      }
    },
    {
      "type": "Feature",
      "geometry": {
        "type": "Point",
        "coordinates": [
          3.68365,
          50.40763
        ]
      },
      "properties": {
        "type": "pakketpunt",
        "locatieNaam": "Bbox Lavoir Top Wash Quiévrain",
        "straatNaam": "Rue Debast",
        "straatNr": "12",
        "vervoerder": "bpost",
        "puntType": "automaat",
        "bezettingsgraad": 50,
        "latitude": 50.40763,
        "longitude": 3.68365,
        "canPickup": true,
        "canDropoff": true,
        "openingstijden": null
      }
    },
    {
      "type": "Feature",
      "geometry": {
        "type": "Point",
        "coordinates": [
          3.68147,
          50.40508
        ]
      },
      "properties": {
        "type": "pakketpunt",
        "locatieNaam": "Quievrain",
        "straatNaam": "Rue De Valenciennes",
        "straatNr": "26",
        "vervoerder": "bpost",
        "puntType": "postkantoor",
        "bezettingsgraad": 50,
        "latitude": 50.40508,
        "longitude": 3.68147,
        "canPickup": true,
        "canDropoff": true,
        "openingstijden": null
      }
    },
    {
      "type": "Feature",
      "geometry": {
        "type": "Point",
        "coordinates": [
          3.67791,
          50.40425
        ]
      },
      "properties": {
        "type": "pakketpunt",
        "locatieNaam": "Librairie Six",
        "straatNaam": "Rue De Valenciennes",
        "straatNr": "53",
        "vervoerder": "bpost",
        "puntType": "servicepunt",
        "bezettingsgraad": 50,
        "latitude": 50.40425,
        "longitude": 3.67791,
        "canPickup": true,
        "canDropoff": true,
        "openingstijden": null
      }
    },
    {
      "type": "Feature",
      "geometry": {
        "type": "Point",
        "coordinates": [
          3.67804,
          50.40486
        ]
      },
      "properties": {
        "type": "pakketpunt",
        "locatieNaam": "Bbox 24/7 Hôtel Casino Elite",
        "straatNaam": "Rue Du Vert Pré",
        "straatNr": "5",
        "vervoerder": "bpost",
        "puntType": "automaat",
        "bezettingsgraad": 50,
        "latitude": 50.40486,
        "longitude": 3.67804,
        "canPickup": true,
        "canDropoff": true,
        "openingstijden": null
      }
    },
    {
      "type": "Feature",
      "geometry": {
        "type": "Point",
        "coordinates": [
          3.696175,
          50.388103
        ]
      },
      "properties": {
        "type": "pakketpunt",
        "locatieNaam": "SUPERETTE D/L PL BAISIEUX",
        "straatNaam": "RUE ALPHONSE SCOUVEMONT",
        "straatNr": "110",
        "vervoerder": "DHL",
        "puntType": "parcelShop",
        "bezettingsgraad": 50,
        "latitude": 50.388103,
        "longitude": 3.696175,
        "canPickup": true,
        "canDropoff": true,
        "openingstijden": {
          "ma": "gesloten",
          "di": "08:30 - 12:30, 14:00 - 18:30",
          "wo": "08:30 - 12:30, 14:00 - 18:30",
          "do": "08:30 - 12:30, 14:00 - 18:30",
          "vr": "08:30 - 12:30, 14:00 - 18:30",
          "za": "08:30 - 12:30, 14:00 - 18:00",
          "zo": "09:00 - 12:30"
        }
      }
    },
    {
      "type": "Feature",
      "geometry": {
        "type": "Point",
        "coordinates": [
          3.681474,
          50.405083
        ]
      },
      "properties": {
        "type": "pakketpunt",
        "locatieNaam": "QUIEVRAIN",
        "straatNaam": "RUE DE VALENCIENNES",
        "straatNr": "26",
        "vervoerder": "DHL",
        "puntType": "postOffice",
        "bezettingsgraad": 50,
        "latitude": 50.405083,
        "longitude": 3.681474,
        "canPickup": true,
        "canDropoff": true,
        "openingstijden": {
          "ma": "09:30 - 12:30, 13:45 - 17:00",
          "di": "09:30 - 12:30, 13:45 - 18:00",
          "wo": "09:30 - 12:30, 13:45 - 17:00",
          "do": "09:30 - 12:30, 13:45 - 18:00",
          "vr": "09:30 - 12:30, 13:45 - 17:00",
          "za": "09:30 - 13:00",
          "zo": "gesloten"
        }
      }
    },
    {
      "type": "Feature",
      "geometry": {
        "type": "Point",
        "coordinates": [
          3.677906,
          50.404248
        ]
      },
      "properties": {
        "type": "pakketpunt",
        "locatieNaam": "LIBRAIRIE SIX",
        "straatNaam": "RUE DE VALENCIENNES",
        "straatNr": "53",
        "vervoerder": "DHL",
        "puntType": "parcelShop",
        "bezettingsgraad": 50,
        "latitude": 50.404248,
        "longitude": 3.677906,
        "canPickup": true,
        "canDropoff": true,
        "openingstijden": {
          "ma": "06:00 - 17:00",
          "di": "06:00 - 17:00",
          "wo": "06:00 - 17:00",
          "do": "06:00 - 17:00",
          "vr": "06:00 - 17:00",
          "za": "07:00 - 18:00",
          "zo": "09:00 - 12:30"
        }
      }
    },
    {
      "type": "Feature",
      "geometry": {
        "type": "Point",
        "coordinates": [
          3.678037,
          50.40486
        ]
      },
      "properties": {
        "type": "pakketpunt",
        "locatieNaam": "BBOX 24/7 HÔTEL CASINO ELITE",
        "straatNaam": "RUE DU VERT PRÉ",
        "straatNr": "5",
        "vervoerder": "DHL",
        "puntType": "packStation",
        "bezettingsgraad": 50,
        "latitude": 50.40486,
        "longitude": 3.678037,
        "canPickup": true,
        "canDropoff": true,
        "openingstijden": {
          "ma": "00:00 - 23:59",
          "di": "00:00 - 23:59",
          "wo": "00:00 - 23:59",
          "do": "00:00 - 23:59",
          "vr": "00:00 - 23:59",
          "za": "00:00 - 23:59",
          "zo": "00:00 - 23:59"
        }
      }
    },
    {
      "type": "Feature",
      "geometry": {
        "type": "Point",
        "coordinates": [
          3.68365,
          50.40763
        ]
      },
      "properties": {
        "type": "pakketpunt",
        "locatieNaam": "BBOX LAVOIR TOP WASH QUIÉVRAIN",
        "straatNaam": "RUE DEBAST",
        "straatNr": "12",
        "vervoerder": "DHL",
        "puntType": "packStation",
        "bezettingsgraad": 50,
        "latitude": 50.40763,
        "longitude": 3.68365,
        "canPickup": true,
        "canDropoff": true,
        "openingstijden": {
          "ma": "07:00 - 21:00",
          "di": "07:00 - 21:00",
          "wo": "07:00 - 21:00",
          "do": "07:00 - 21:00",
          "vr": "07:00 - 21:00",
          "za": "07:00 - 21:00",
          "zo": "07:00 - 21:00"
        }
      }
    },
    {
      "type": "Feature",
      "geometry": {
        "type": "Point",
        "coordinates": [
          3.686283,
          50.410034
        ]
      },
      "properties": {
        "type": "pakketpunt",
        "locatieNaam": "PARCEL LOCKER 24/7 STATION QUIÉVRAI",
        "straatNaam": "PLACE DE LA GARE",
        "straatNr": "5",
        "vervoerder": "DHL",
        "puntType": "packStation",
        "bezettingsgraad": 50,
        "latitude": 50.410034,
        "longitude": 3.686283,
        "canPickup": true,
        "canDropoff": true,
        "openingstijden": {
          "ma": "00:00 - 23:59",
          "di": "00:00 - 23:59",
          "wo": "00:00 - 23:59",
          "do": "00:00 - 23:59",
          "vr": "00:00 - 23:59",
          "za": "00:00 - 23:59",
          "zo": "00:00 - 23:59"
        }
      }
    },
    {
      "type": "Feature",
      "geometry": {
        "type": "Point",
        "coordinates": [
          3.6779438,
          50.4042421
        ]
      },
      "properties": {
        "type": "pakketpunt",
        "locatieNaam": "La Paix",
        "straatNaam": "Rue De Valenciennes",
        "straatNr": "53",
        "vervoerder": "GLS",
        "puntType": "parcel_shop",
        "bezettingsgraad": 50,
        "latitude": 50.4042421,
        "longitude": 3.6779438,
        "canPickup": true,
        "canDropoff": true,
        "openingstijden": "vr: 07:00 - 18:00; za: 08:00 - 19:00"
      }
    },
    {
      "type": "Feature",
      "geometry": {
        "type": "Point",
        "coordinates": [
          3.6777077,
          50.4052105
        ]
      },
      "properties": {
        "type": "pakketpunt",
        "locatieNaam": "GLS Parcel Locker powered by bbox",
        "straatNaam": "Rue Du Vert Pre",
        "straatNr": "5",
        "vervoerder": "GLS",
        "puntType": "locker",
        "bezettingsgraad": 50,
        "latitude": 50.4052105,
        "longitude": 3.6777077,
        "canPickup": true,
        "canDropoff": true,
        "openingstijden": "vr: 00:00 - 24:00; za: 00:00 - 24:00"
      }
    },
    {
      "type": "Feature",
      "geometry": {
        "type": "Point",
        "coordinates": [
          3.6797,
          50.40476
        ]
      },
      "properties": {
        "type": "pakketpunt",
        "locatieNaam": "ESSO QUIÉVRAIN",
        "straatNaam": "48 Rue de Valenciennes",
        "straatNr": "",
        "vervoerder": "InPost",
        "puntType": "servicepunt",
        "bezettingsgraad": 50,
        "latitude": 50.40476,
        "longitude": 3.6797,
        "canPickup": true,
        "canDropoff": true,
        "openingstijden": null
      }
    },
    {
      "type": "Feature",
      "geometry": {
        "type": "Point",
        "coordinates": [
          3.68357,
          50.4077
        ]
      },
      "properties": {
        "type": "pakketpunt",
        "locatieNaam": "WHY NOT STORE",
        "straatNaam": "Rue Debast 9",
        "straatNr": "",
        "vervoerder": "InPost",
        "puntType": "servicepunt",
        "bezettingsgraad": 50,
        "latitude": 50.4077,
        "longitude": 3.68357,
        "canPickup": true,
        "canDropoff": true,
        "openingstijden": null
      }
    },
    {
      "type": "Feature",
      "geometry": {
        "type": "Point",
        "coordinates": [
          3.68333,
          50.40663
        ]
      },
      "properties": {
        "type": "pakketpunt",
        "locatieNaam": "",
        "straatNaam": "Rue Grande",
        "straatNr": "35",
        "vervoerder": "InPost",
        "puntType": "automaat",
        "bezettingsgraad": 50,
        "latitude": 50.40663,
        "longitude": 3.68333,
        "canPickup": true,
        "canDropoff": true,
        "openingstijden": "MON|07:00-20:00|-;TUE|07:00-20:00|-;WED|07:00-20:00|-;THU|07:00-20:00|-;FRI|07:00-20:00|-;SAT|07:00-20:00|-;SUN|07:00-20:00|-;"
      }
    },
    {
      "type": "Feature",
      "geometry": {
        "type": "Point",
        "coordinates": [
          3.68354,
          50.40773
        ]
      },
      "properties": {
        "type": "pakketpunt",
        "locatieNaam": "Why Not Store",
        "straatNaam": "Rue Debast",
        "straatNr": "9",
        "vervoerder": "VintedGo",
        "puntType": "parcel_shop",
        "bezettingsgraad": 50,
        "latitude": 50.40773,
        "longitude": 3.68354,
        "canPickup": true,
        "canDropoff": true,
        "openingstijden": null
      }
    },
    {
      "type": "Feature",
      "geometry": {
        "type": "Point",
        "coordinates": [
          3.6823772,
          50.4063936
        ]
      },
      "properties": {
        "type": "pakketpunt",
        "locatieNaam": "Carrefour Market Quievrain",
        "straatNaam": "Rue Grande",
        "straatNr": "35",
        "vervoerder": "VintedGo",
        "puntType": "locker",
        "bezettingsgraad": 50,
        "latitude": 50.4063936,
        "longitude": 3.6823772,
        "canPickup": true,
        "canDropoff": true,
        "openingstijden": null
      }
    },
    {
      "type": "Feature",
      "geometry": {
        "type": "Point",
        "coordinates": [
          3.683537,
          50.407732
        ]
      },
      "properties": {
        "type": "pakketpunt",
        "locatieNaam": "Why Not Store",
        "straatNaam": "Rue Debast",
        "straatNr": "9",
        "vervoerder": "PostNL",
        "puntType": "servicepunt",
        "bezettingsgraad": 50,
        "latitude": 50.407732,
        "longitude": 3.683537,
        "canPickup": true,
        "canDropoff": true,
        "openingstijden": "10:00 - 18:00"
      }
    },
    {
      "type": "Feature",
      "geometry": {
        "type": "Point",
        "coordinates": [
          3.677945,
          50.404158
        ]
      },
      "properties": {
        "type": "pakketpunt",
        "locatieNaam": "Librairie six Quié©vrain",
        "straatNaam": "Rue de Valenciennes",
        "straatNr": "53",
        "vervoerder": "PostNL",
        "puntType": "servicepunt",
        "bezettingsgraad": 50,
        "latitude": 50.404158,
        "longitude": 3.677945,
        "canPickup": true,
        "canDropoff": true,
        "openingstijden": "06:00 - 17:00"
      }
    },
    {
      "type": "Feature",
      "geometry": {
        "type": "Point",
        "coordinates": [
          3.68365,
          50.40763
        ]
      },
      "properties": {
        "type": "pakketpunt",
        "locatieNaam": "bpost - BBOX LAVOIR TOP WASH QUIÉVRAIN",
        "straatNaam": "RUE DEBAST,12",
        "straatNr": "",
        "vervoerder": "Amazon",
        "puntType": "3p",
        "bezettingsgraad": 50,
        "latitude": 50.40763,
        "longitude": 3.68365,
        "canPickup": true,
        "canDropoff": false,
        "openingstijden": null
      }
    },
    {
      "type": "Feature",
      "geometry": {
        "type": "Point",
        "coordinates": [
          3.681474,
          50.405083
        ]
      },
      "properties": {
        "type": "pakketpunt",
        "locatieNaam": "bpost - QUIEVRAIN",
        "straatNaam": "RUE DE VALENCIENNES,26",
        "straatNr": "",
        "vervoerder": "Amazon",
        "puntType": "3p",
        "bezettingsgraad": 50,
        "latitude": 50.405083,
        "longitude": 3.681474,
        "canPickup": true,
        "canDropoff": false,
        "openingstijden": null
      }
    },
    {
      "type": "Feature",
      "geometry": {
        "type": "Point",
        "coordinates": [
          3.677906,
          50.404248
        ]
      },
      "properties": {
        "type": "pakketpunt",
        "locatieNaam": "bpost - LIBRAIRIE SIX",
        "straatNaam": "RUE DE VALENCIENNES,53",
        "straatNr": "",
        "vervoerder": "Amazon",
        "puntType": "3p",
        "bezettingsgraad": 50,
        "latitude": 50.404248,
        "longitude": 3.677906,
        "canPickup": true,
        "canDropoff": false,
        "openingstijden": null
      }
    },
    {
      "type": "Feature",
      "geometry": {
        "type": "Point",
        "coordinates": [
          3.696175,
          50.388103
        ]
      },
      "properties": {
        "type": "pakketpunt",
        "locatieNaam": "bpost - SUPERETTE D/L PL BAISIEUX",
        "straatNaam": "RUE ALPHONSE SCOUVEMONT,110",
        "straatNr": "",
        "vervoerder": "Amazon",
        "puntType": "3p",
        "bezettingsgraad": 50,
        "latitude": 50.388103,
        "longitude": 3.696175,
        "canPickup": true,
        "canDropoff": false,
        "openingstijden": null
      }
    },
    {
      "type": "Feature",
      "geometry": {
        "type": "Point",
        "coordinates": [
          3.678037,
          50.40486
        ]
      },
      "properties": {
        "type": "pakketpunt",
        "locatieNaam": "bpost - BBOX 24/7 HÔTEL CASINO ELITE",
        "straatNaam": "RUE DU VERT PRÉ,5",
        "straatNr": "",
        "vervoerder": "Amazon",
        "puntType": "3p",
        "bezettingsgraad": 50,
        "latitude": 50.40486,
        "longitude": 3.678037,
        "canPickup": true,
        "canDropoff": false,
        "openingstijden": null
      }
    },
    {
      "type": "Feature",
      "geometry": {
        "type": "MultiPolygon",
        "coordinates": [
          [
            [
              [
                3.679968308187124,
                50.401791094301664
              ],
              [
                3.679595583389274,
                50.40167574285212
              ],
              [
                3.679206965057306,
                50.40158429576357
              ],
              [
                3.6788061952828497,
                50.40151763358211
              ],
              [
                3.6783971331068486,
                50.40147639819626
              ],
              [
                3.6779837173775833,
                50.40146098665917
              ],
              [
                3.6775699288421717,
                50.401471547367414
              ],
              [
                3.677159751835619,
                50.40150797863272
              ],
              [
                3.676757135935427,
                50.40156992966069
              ],
              [
                3.676365957950029,
                50.40165680392681
              ],
              [
                3.675989984606159,
                50.40176776491769
              ],
              [
                3.6756328362936306,
                50.40190174418186
              ],
              [
                3.6752979522158684,
                50.402057451613366
              ],
              [
                3.6749885572811833,
                50.40223338786895
              ],
              [
                3.6747076310531597,
                50.40242785879974
              ],
              [
                3.6744578790588465,
                50.402638991758515
              ],
              [
                3.6742417067309976,
                50.40286475362623
              ],
              [
                3.674061196235349,
                50.403102970384
              ],
              [
                3.6739180864063883,
                50.403351348042804
              ],
              [
                3.6738870972716784,
                50.40342743127275
              ],
              [
                3.6738790794323455,
                50.40344134670127
              ],
              [
                3.67377474860286,
                50.403697493349526
              ],
              [
                3.673710202602403,
                50.40395894231099
              ],
              [
                3.673686063688376,
                50.4042231757554
              ],
              [
                3.673695710589051,
                50.40437779088069
              ],
              [
                3.6736807011279256,
                50.40440383993783
              ],
              [
                3.6735763671115804,
                50.404659986372614
              ],
              [
                3.673511818708998,
                50.40492143518779
              ],
              [
                3.6734876782007357,
                50.40518566855452
              ],
              [
                3.673504178745555,
                50.40545014178602
              ],
              [
                3.6735611621091198,
                50.40571230784338
              ],
              [
                3.6736580801619496,
                50.405969641865575
              ],
              [
                3.6737940001331695,
                50.406219665487534
              ],
              [
                3.6739676135704222,
                50.40645997071185
              ],
              [
                3.6741772489205666,
                50.40668824310426
              ],
              [
                3.674420887610764,
                50.406902284089234
              ],
              [
                3.6746961834757395,
                50.407100032130614
              ],
              [
                3.6750004853446314,
                50.40727958259323
              ],
              [
                3.6753308625701697,
                50.407439206093756
              ],
              [
                3.675684133254487,
                50.407577365163874
              ],
              [
                3.6760568948996286,
                50.40769272906483
              ],
              [
                3.6764455571873014,
                50.407784186610606
              ],
              [
                3.6768463765717505,
                50.40785085687568
              ],
              [
                3.6772554923519474,
                50.407892097684176
              ],
              [
                3.67766896387499,
                50.40790751179842
              ],
              [
                3.6780828085115007,
                50.40789695074708
              ],
              [
                3.6784930400363733,
                50.40786051625599
              ],
              [
                3.678794172971192,
                50.40781418211345
              ],
              [
                3.67884680631651,
                50.40787148474152
              ],
              [
                3.679090472144754,
                50.40808551589758
              ],
              [
                3.679365794333929,
                50.40828325284051
              ],
              [
                3.679421161534529,
                50.40831591695654
              ],
              [
                3.6794872582323586,
                50.40849134476876
              ],
              [
                3.6796232161411218,
                50.40874136147962
              ],
              [
                3.6797968683254534,
                50.40898165790519
              ],
              [
                3.680006542859022,
                50.409209919695925
              ],
              [
                3.6802502207915713,
                50.409423948378375
              ],
              [
                3.680525555579824,
                50.40962168253484
              ],
              [
                3.6808298956779693,
                50.40980121766383
              ],
              [
                3.6811603100704544,
                50.40996082452975
              ],
              [
                3.681513616501355,
                50.41009896582443
              ],
              [
                3.681886412128328,
                50.410214310980365
              ],
              [
                3.682075395260488,
                50.41025876835367
              ],
              [
                3.6820760950943936,
                50.410269951759865
              ],
              [
                3.6821331316077166,
                50.41053211342877
              ],
              [
                3.682230105994214,
                50.41078944011943
              ],
              [
                3.6823660849405355,
                50.41103945353733
              ],
              [
                3.682539759426374,
                50.4112797457833
              ],
              [
                3.682540268772347,
                50.41128030021102
              ],
              [
                3.6825427591900763,
                50.41128374587914
              ],
              [
                3.6827524571064405,
                50.41151200263832
              ],
              [
                3.6829961592480385,
                50.41172602549033
              ],
              [
                3.68327151883842,
                50.41192375307362
              ],
              [
                3.6835758840928734,
                50.41210328095003
              ],
              [
                3.683906323753523,
                50.41226287995374
              ],
              [
                3.6842596553210303,
                50.41240101285236
              ],
              [
                3.6846324757108992,
                50.41251634915921
              ],
              [
                3.6850211940388857,
                50.412607777954044
              ],
              [
                3.685422066219328,
                50.41267441858823
              ],
              [
                3.685831231042549,
                50.41271562917135
              ],
              [
                3.686244747383155,
                50.412731012756815
              ],
              [
                3.6866586321799955,
                50.41272042116735
              ],
              [
                3.687068898821076,
                50.41268395642295
              ],
              [
                3.687471595562766,
                50.41262196975768
              ],
              [
                3.6878628436122916,
                50.41253505823489
              ],
              [
                3.688238874505811,
                50.41242405899334
              ],
              [
                3.688596066421192,
                50.41229004118004
              ],
              [
                3.6889309790750247,
                50.41213429564748
              ],
              [
                3.6892403868671027,
                50.411958322514764
              ],
              [
                3.689521309952722,
                50.411763816712806
              ],
              [
                3.689771042943238,
                50.41155265165301
              ],
              [
                3.6899871809583336,
                50.411326861177116
              ],
              [
                3.6901676427792296,
                50.411088619962115
              ],
              [
                3.690310690880102,
                50.41084022256974
              ],
              [
                3.6904149481452517,
                50.41058406134194
              ],
              [
                3.690479411111657,
                50.41032260335609
              ],
              [
                3.6905034596101443,
                50.41005836666159
              ],
              [
                3.6904868627131813,
                50.4097938960272
              ],
              [
                3.690429780932994,
                50.409531738432484
              ],
              [
                3.690332764649797,
                50.4092744185397
              ],
              [
                3.6901967487863025,
                50.409024414382266
              ],
              [
                3.690023043780739,
                50.40878413350355
              ],
              [
                3.690022534374132,
                50.40878357910844
              ],
              [
                3.690020043544484,
                50.4087801335994
              ],
              [
                3.6898103227420602,
                50.40855188986646
              ],
              [
                3.689566606168821,
                50.40833788120818
              ],
              [
                3.6892912411567975,
                50.40814016844049
              ],
              [
                3.6889868797000824,
                50.407960655431964
              ],
              [
                3.688656452911671,
                50.40780107077681
              ],
              [
                3.688303142797322,
                50.40766295115579
              ],
              [
                3.6879303516182076,
                50.40754762654507
              ],
              [
                3.6878625463310146,
                50.40753167868434
              ],
              [
                3.6878536630626386,
                50.407389991209
              ],
              [
                3.6877965987217527,
                50.40712783222972
              ],
              [
                3.687699601632295,
                50.40687051004914
              ],
              [
                3.6875636065320916,
                50.40662050272264
              ],
              [
                3.6875465461341252,
                50.40659690030781
              ],
              [
                3.6875335760958095,
                50.40639000275357
              ],
              [
                3.6874765147257906,
                50.40612784357933
              ],
              [
                3.6873795214160467,
                50.40587052109448
              ],
              [
                3.68724353086798,
                50.40562051335736
              ],
              [
                3.687069853275974,
                50.405380227945884
              ],
              [
                3.6868601616890997,
                50.405151978776296
              ],
              [
                3.6866164758818747,
                50.40493796382525
              ],
              [
                3.6863411428900585,
                50.404740243969236
              ],
              [
                3.6860368143994124,
                50.40456072314513
              ],
              [
                3.6857064212055133,
                50.40440113002245
              ],
              [
                3.6855260676495103,
                50.40433061321222
              ],
              [
                3.6855234191099235,
                50.404323585617156
              ],
              [
                3.68538744277334,
                50.4040735756521
              ],
              [
                3.6852137802409364,
                50.403833287412766
              ],
              [
                3.685004104416747,
                50.403605034842705
              ],
              [
                3.6847604349234966,
                50.40339101595129
              ],
              [
                3.6847572289151174,
                50.403388713500846
              ],
              [
                3.684757228915116,
                50.40338871350083
              ],
              [
                3.6847564348583584,
                50.403388016063715
              ],
              [
                3.684481118608781,
                50.403190291755855
              ],
              [
                3.6841768070939866,
                50.403010766019776
              ],
              [
                3.683846430946104,
                50.40285116757226
              ],
              [
                3.683493171683316,
                50.4027130332269
              ],
              [
                3.683120431077211,
                50.40259769310164
              ],
              [
                3.682731798403706,
                50.40250625781639
              ],
              [
                3.682331015892484,
                50.4024396078036
              ],
              [
                3.6819219427070986,
                50.402398384834626
              ],
              [
                3.681715605728274,
                50.40239069950941
              ],
              [
                3.681350512530567,
                50.40227771813267
              ],
              [
                3.6809618858875877,
                50.40218627692252
              ],
              [
                3.6807601813887896,
                50.402152730211746
              ],
              [
                3.6806519082024907,
                50.40208884787543
              ],
              [
                3.6803215503271143,
                50.40192923938321
              ],
              [
                3.679968308187124,
                50.401791094301664
              ]
            ]
          ],
          [
            [
              [
                3.7000917299622373,
                50.38709007792547
              ],
              [
                3.6999180551340207,
                50.38684981109672
              ],
              [
                3.699708383626493,
                50.3866215845242
              ],
              [
                3.699464735020334,
                50.3864075959669
              ],
              [
                3.699189455992653,
                50.38620990604718
              ],
              [
                3.6988851977092123,
                50.3860304184136
              ],
              [
                3.6985548902892638,
                50.38587086141605
              ],
              [
                3.698201714588979,
                50.38573277146897
              ],
              [
                3.6978290715751747,
                50.38561747826279
              ],
              [
                3.69744054958399,
                50.385526091965616
              ],
              [
                3.6970398897793735,
                50.38545949253822
              ],
              [
                3.696630950143437,
                50.38541832126485
              ],
              [
                3.6962176683446684,
                50.38540297458137
              ],
              [
                3.6958040238407746,
                50.385413600259845
              ],
              [
                3.6953939995801446,
                50.38545009598642
              ],
              [
                3.694991543669783,
                50.385512110345985
              ],
              [
                3.6946005313778922,
                50.38559904620422
              ],
              [
                3.6942247278360534,
                50.38571006645458
              ],
              [
                3.6938677517993437,
                50.38584410207501
              ],
              [
                3.6935330408125906,
                50.385999862416796
              ],
              [
                3.693223818117602,
                50.3861758476272
              ],
              [
                3.693222570920817,
                50.38617671172285
              ],
              [
                3.6932188181334507,
                50.38617884750073
              ],
              [
                3.6929380615972014,
                50.38637336294716
              ],
              [
                3.692688475150888,
                50.3865845355671
              ],
              [
                3.6924724626331398,
                50.38681033185945
              ],
              [
                3.6922921046707224,
                50.38704857747378
              ],
              [
                3.6921491386291216,
                50.387296978143034
              ],
              [
                3.692044941864644,
                50.387553141772294
              ],
              [
                3.691980518439929,
                50.38781460147039
              ],
              [
                3.6919564894315684,
                50.38807883930358
              ],
              [
                3.6919730869240723,
                50.388343310541984
              ],
              [
                3.692030151748933,
                50.388605468165764
              ],
              [
                3.6921271349915923,
                50.38886278739504
              ],
              [
                3.692263103252772,
                50.38911279000708
              ],
              [
                3.6924367476144666,
                50.389353068206766
              ],
              [
                3.6926463962251437,
                50.389581307820045
              ],
              [
                3.6928900303837233,
                50.389795310587054
              ],
              [
                3.6931653039681036,
                50.38999301533966
              ],
              [
                3.693469566021607,
                50.39017251785961
              ],
              [
                3.693799886280109,
                50.39033208922534
              ],
              [
                3.6941530833941774,
                50.39047019247063
              ],
              [
                3.6945257555742987,
                50.39058549739446
              ],
              [
                3.694914313363818,
                50.39067689337887
              ],
              [
                3.695315014223506,
                50.390743500091304
              ],
              [
                3.695723998594056,
                50.39078467596802
              ],
              [
                3.6961373270884725,
                50.390800024396796
              ],
              [
                3.696551018455266,
                50.390789397539
              ],
              [
                3.6969610879459185,
                50.39075289775432
              ],
              [
                3.697363585716118,
                50.39069087661431
              ],
              [
                3.6977546348899315,
                50.39060393151437
              ],
              [
                3.6981304689194032,
                50.39049289991667
              ],
              [
                3.6984874678788535,
                50.39035885127986
              ],
              [
                3.6988221933436027,
                50.3902030767532
              ],
              [
                3.6991314215165434,
                50.390027076735095
              ],
              [
                3.699132668706928,
                50.39002621257643
              ],
              [
                3.6991364215323634,
                50.390024076608626
              ],
              [
                3.699417174260641,
                50.38982954627665
              ],
              [
                3.6996667478344536,
                50.389618359291866
              ],
              [
                3.6998827389087596,
                50.38939254970705
              ],
              [
                3.700063067679775,
                50.38915429238324
              ],
              [
                3.7002059979027715,
                50.38890588203717
              ],
              [
                3.700310153596918,
                50.38864971113552
              ],
              [
                3.700374532276921,
                50.388388246848756
              ],
              [
                3.7003985145847884,
                50.38812400728689
              ],
              [
                3.7003818702298403,
                50.38785953724624
              ],
              [
                3.700324760180711,
                50.387597383700594
              ],
              [
                3.700227735089209,
                50.38734007127319
              ],
              [
                3.7000917299622373,
                50.38709007792547
              ]
            ]
          ]
        ]
      },
      "properties": {
        "type": "buffer_union_300m",
        "buffer_m": 300
      }
    },
    {
      "type": "Feature",
      "geometry": {
        "type": "MultiPolygon",
        "coordinates": [
          [
            [
              [
                3.68014573948269,
                50.400848318396406
              ],
              [
                3.6796275896599777,
                50.40072639109531
              ],
              [
                3.679093239082658,
                50.40063750980323
              ],
              [
                3.678547832788147,
                50.400582530309386
              ],
              [
                3.677996622192224,
                50.40056198197879
              ],
              [
                3.6774449145590093,
                50.4005760626587
              ],
              [
                3.676898021935042,
                50.40062463677493
              ],
              [
                3.6763612100374465,
                50.40070723663634
              ],
              [
                3.675839647586687,
                50.40082306693494
              ],
              [
                3.6753383565701268,
                50.40097101239847
              ],
              [
                3.6748621639138337,
                50.40114964852205
              ],
              [
                3.6744156550266207,
                50.40135725527562
              ],
              [
                3.674003129662611,
                50.401591833656084
              ],
              [
                3.6736285605264936,
                50.40185112492481
              ],
              [
                3.673295555019595,
                50.4021326323459
              ],
              [
                3.673007320494967,
                50.40243364521653
              ],
              [
                3.672766633356224,
                50.40275126495835
              ],
              [
                3.672575812298226,
                50.403082433019335
              ],
              [
                3.6725448211871505,
                50.40315851589414
              ],
              [
                3.672536802999664,
                50.40317243123056
              ],
              [
                3.672397686104989,
                50.40351395847786
              ],
              [
                3.672311614830244,
                50.40386255607201
              ],
              [
                3.672279419233955,
                50.404214866945246
              ],
              [
                3.6722829261932373,
                50.404271101411204
              ],
              [
                3.672199277451076,
                50.40447644917467
              ],
              [
                3.6721132029731094,
                50.40482504657376
              ],
              [
                3.67208100525076,
                50.40517735734337
              ],
              [
                3.6721029955611777,
                50.40552998858268
              ],
              [
                3.6721789633255426,
                50.405879544229656
              ],
              [
                3.672308178090931,
                50.40622265776822
              ],
              [
                3.6724893965204695,
                50.40655602465358
              ],
              [
                3.6727208743261492,
                50.406876434143534
              ],
              [
                3.6730003830309608,
                50.40718080022876
              ],
              [
                3.673325231400329,
                50.4074661913639
              ],
              [
                3.673692291337602,
                50.407729858712855
              ],
              [
                3.6740980279950786,
                50.40796926263546
              ],
              [
                3.6745385338111247,
                50.4081820971602
              ],
              [
                3.6750095661458024,
                50.40836631220672
              ],
              [
                3.67550658815242,
                50.408520133343174
              ],
              [
                3.6760248124908967,
                50.408642078888214
              ],
              [
                3.6765592474611526,
                50.40873097419181
              ],
              [
                3.6771047451111287,
                50.408785962957296
              ],
              [
                3.677656050854789,
                50.408806515495236
              ],
              [
                3.678164027391531,
                50.408793552355206
              ],
              [
                3.678318584521115,
                50.40907778597649
              ],
              [
                3.678550113990095,
                50.40939818373516
              ],
              [
                3.678829674940362,
                50.40970253568512
              ],
              [
                3.679154575634086,
                50.4099879104171
              ],
              [
                3.679521687470563,
                50.41025155925294
              ],
              [
                3.679927475102101,
                50.41049094273073
              ],
              [
                3.6803680304759587,
                50.410703755075915
              ],
              [
                3.6808188696096305,
                50.41088003235232
              ],
              [
                3.680880112517741,
                50.41104255543878
              ],
              [
                3.68106140958058,
                50.4113759087194
              ],
              [
                3.6812929687848355,
                50.41169630090549
              ],
              [
                3.6812934781207103,
                50.411696855338626
              ],
              [
                3.6812959684697617,
                50.411700301033264
              ],
              [
                3.6815755605972695,
                50.412004646274646
              ],
              [
                3.681900493570149,
                50.41229001323284
              ],
              [
                3.6822676384767803,
                50.41255365330453
              ],
              [
                3.6826734596509145,
                50.41279302711222
              ],
              [
                3.6831140487166785,
                50.413005828974455
              ],
              [
                3.683585162232059,
                50.413190009125394
              ],
              [
                3.6840822625681917,
                50.41334379346932
              ],
              [
                3.6846005616302695,
                50.41346570067925
              ],
              [
                3.6851350669982152,
                50.41355455647439
              ],
              [
                3.685680630041655,
                50.413609504938655
              ],
              [
                3.6862319955444574,
                50.4136300167708
              ],
              [
                3.686783852359383,
                50.41361589438631
              ],
              [
                3.6873308846033086,
                50.41356727382202
              ],
              [
                3.6878678228982253,
                50.41348462342484
              ],
              [
                3.6883894951627596,
                50.41336873933721
              ],
              [
                3.688890876463355,
                50.41322073782327
              ],
              [
                3.6893671374434267,
                50.41304204450943
              ],
              [
                3.6898136908627097,
                50.412834380643645
              ],
              [
                3.6902262357974314,
                50.41259974650596
              ],
              [
                3.6906007990747858,
                50.412340402130916
              ],
              [
                3.690933773542118,
                50.41205884552744
              ],
              [
                3.6912219528020556,
                50.41175778860708
              ],
              [
                3.691462562079224,
                50.41144013105269
              ],
              [
                3.691653284921766,
                50.41110893237982
              ],
              [
                3.69179228548132,
                50.410767382460385
              ],
              [
                3.691878226157993,
                50.410418770792944
              ],
              [
                3.691910280441769,
                50.4100664548159
              ],
              [
                3.6918881408282185,
                50.409713827568986
              ],
              [
                3.691812021733973,
                50.40936428501477
              ],
              [
                3.6916826573856647,
                50.409021193334844
              ],
              [
                3.6915012947044175,
                50.408687856515634
              ],
              [
                3.691269681256133,
                50.40836748453595
              ],
              [
                3.6912691718394344,
                50.40836693014627
              ],
              [
                3.6912666809411374,
                50.408363484663745
              ],
              [
                3.6909870481130285,
                50.4080591625826
              ],
              [
                3.690662089468753,
                50.40777382086058
              ],
              [
                3.690294934907775,
                50.40751020713092
              ],
              [
                3.6898891204687256,
                50.407270859758555
              ],
              [
                3.6894485542700766,
                50.40705808340872
              ],
              [
                3.6891753349582213,
                50.40695127474805
              ],
              [
                3.689049440035095,
                50.40661731534845
              ],
              [
                3.688941601877387,
                50.40641908127352
              ],
              [
                3.6889347586772523,
                50.40630996987299
              ],
              [
                3.6888586667977807,
                50.40596042521249
              ],
              [
                3.688729333081698,
                50.40561733007618
              ],
              [
                3.6885480041550145,
                50.405283988483816
              ],
              [
                3.6883164272584805,
                50.40496361046022
              ],
              [
                3.6880368333844427,
                50.404659281130016
              ],
              [
                3.6877119157611897,
                50.40437393101745
              ],
              [
                3.6873448038931693,
                50.404110307836625
              ],
              [
                3.6869390334079326,
                50.40387095004345
              ],
              [
                3.686702582459484,
                50.40375673620026
              ],
              [
                3.6866918866998253,
                50.40373707154392
              ],
              [
                3.6864603298828045,
                50.40341668974975
              ],
              [
                3.6861807570255567,
                50.403112355885455
              ],
              [
                3.6858558611539816,
                50.402827000519
              ],
              [
                3.6858526551305593,
                50.40282469809859
              ],
              [
                3.6858526551305575,
                50.40282469809859
              ],
              [
                3.685851861067138,
                50.40282400066889
              ],
              [
                3.6854847715216623,
                50.40256037155221
              ],
              [
                3.685079023670319,
                50.402321007209686
              ],
              [
                3.684638524990476,
                50.40210821247005
              ],
              [
                3.684167517396809,
                50.401924036295476
              ],
              [
                3.683670536401962,
                50.401770252063095
              ],
              [
                3.683152367458151,
                50.40164834049953
              ],
              [
                3.6826179998993154,
                50.40155947543207
              ],
              [
                3.6820774686848337,
                50.40150500525445
              ],
              [
                3.6819006450051908,
                50.40145028543739
              ],
              [
                3.6814316733360806,
                50.40133993996672
              ],
              [
                3.681113684165233,
                50.401186308216985
              ],
              [
                3.680642699400894,
                50.401002117727614
              ],
              [
                3.68014573948269,
                50.400848318396406
              ]
            ]
          ],
          [
            [
              [
                3.701395602962972,
                50.38675340792466
              ],
              [
                3.70116402975953,
                50.386433054678456
              ],
              [
                3.7008844626650834,
                50.38612875547789
              ],
              [
                3.7005595946491994,
                50.38584344055696
              ],
              [
                3.7001925547378938,
                50.385579857290914
              ],
              [
                3.6997868778652134,
                50.385340543751255
              ],
              [
                3.699346470824557,
                50.385127804277516
              ],
              [
                3.69887557464784,
                50.384943687299696
              ],
              [
                3.698378723774671,
                50.38478996562499
              ],
              [
                3.69786070240428,
                50.3846681193776
              ],
              [
                3.6973264984497414,
                50.38457932175602
              ],
              [
                3.696781255536838,
                50.38452442774384
              ],
              [
                3.6962302235084845,
                50.38450396588306
              ],
              [
                3.695678707909842,
                50.38451813318835
              ],
              [
                3.6951320189389056,
                50.384566793251466
              ],
              [
                3.694595420352457,
                50.38464947755371
              ],
              [
                3.6940740788176494,
                50.384765389974035
              ],
              [
                3.693573014195312,
                50.38491341444948
              ],
              [
                3.6930970512321877,
                50.38509212571422
              ],
              [
                3.692650773125932,
                50.385299803014696
              ],
              [
                3.6922384774089343,
                50.3855344466684
              ],
              [
                3.692237230211065,
                50.38553531075353
              ],
              [
                3.6922334774300722,
                50.385537446499754
              ],
              [
                3.691859134545107,
                50.38579679712316
              ],
              [
                3.6915263497658675,
                50.386078357426584
              ],
              [
                3.6912383283200243,
                50.3863794161978
              ],
              [
                3.6909978445592815,
                50.3866970744163
              ],
              [
                3.690807215219817,
                50.387028273159345
              ],
              [
                3.6906682770821866,
                50.38736982304957
              ],
              [
                3.6905823692469424,
                50.3877184349609
              ],
              [
                3.6905503201980028,
                50.38807075168751
              ],
              [
                3.690572439779921,
                50.38842338027098
              ],
              [
                3.6906485161680087,
                50.38877292467466
              ],
              [
                3.690777817862239,
                50.3891160184906
              ],
              [
                3.6909591006875218,
                50.38944935736381
              ],
              [
                3.69119061973463,
                50.389769730821705
              ],
              [
                3.6914701461283577,
                50.3900740532019
              ],
              [
                3.69179498846283,
                50.39035939337991
              ],
              [
                3.692162018698679,
                50.390623003010305
              ],
              [
                3.69256770227355,
                50.390862343008834
              ],
              [
                3.6930081321364936,
                50.391075108019706
              ],
              [
                3.693479066378703,
                50.39125924863203
              ],
              [
                3.6939759690980334,
                50.391412991131
              ],
              [
                3.6944940541032736,
                50.39153485459273
              ],
              [
                3.6950283310364704,
                50.39162366515782
              ],
              [
                3.695573653468016,
                50.39167856734594
              ],
              [
                3.6961247684999634,
                50.391699032301574
              ],
              [
                3.696676367398313,
                50.3916848628918
              ],
              [
                3.697223136764953,
                50.391636195606395
              ],
              [
                3.6977598097546824,
                50.39155349924233
              ],
              [
                3.698281216842302,
                50.39143757038478
              ],
              [
                3.698782335649122,
                50.39128952572913
              ],
              [
                3.699258339347483,
                50.39111079131723
              ],
              [
                3.6997046431757057,
                50.39090308879284
              ],
              [
                3.7001169486143617,
                50.39066841880835
              ],
              [
                3.700118195803655,
                50.39066755463921
              ],
              [
                3.7001219486354477,
                50.39066541863972
              ],
              [
                3.7004962847676772,
                50.390406041558556
              ],
              [
                3.7008290466793654,
                50.390124455722464
              ],
              [
                3.7011170300201712,
                50.3898233733244
              ],
              [
                3.701357461901306,
                50.38950569429248
              ],
              [
                3.7015480275788955,
                50.38917447834901
              ],
              [
                3.701686892717524,
                50.38883291553211
              ],
              [
                3.7017727210206592,
                50.38848429546444
              ],
              [
                3.701804687059544,
                50.38813197566518
              ],
              [
                3.701782484178529,
                50.387779349210774
              ],
              [
                3.701706327402409,
                50.387429812056055
              ],
              [
                3.701576951319558,
                50.387086730330495
              ],
              [
                3.701395602962972,
                50.38675340792466
              ]
            ]
          ]
        ]
      },
      "properties": {
        "type": "buffer_union_400m",
        "buffer_m": 400
      }
    },
    {
      "type": "Feature",
      "geometry": {
        "type": "Polygon",
        "coordinates": [
          [
            [
              3.6686516,
              50.3845829
            ],
            [
              3.6732537,
              50.3832076
            ],
            [
              3.6722651,
              50.3815547
            ],
            [
              3.6733102,
              50.3812672
            ],
            [
              3.6717285,
              50.3781052
            ],
            [
              3.6704009,
              50.378195
            ],
            [
              3.6700619,
              50.3772967
            ],
            [
              3.6694405,
              50.3773506
            ],
            [
              3.6691016,
              50.3767756
            ],
            [
              3.671107,
              50.376039
            ],
            [
              3.6717376,
              50.3756895
            ],
            [
              3.6728964,
              50.3748336
            ],
            [
              3.673382,
              50.3754402
            ],
            [
              3.6754852,
              50.3747096
            ],
            [
              3.6791289,
              50.3745299
            ],
            [
              3.6792702,
              50.3747994
            ],
            [
              3.684185,
              50.3748353
            ],
            [
              3.6849476,
              50.3751048
            ],
            [
              3.6854843,
              50.3746736
            ],
            [
              3.6876027,
              50.3756797
            ],
            [
              3.6931672,
              50.3768116
            ],
            [
              3.6931672,
              50.3764343
            ],
            [
              3.6954269,
              50.3767217
            ],
            [
              3.6960766,
              50.3761289
            ],
            [
              3.6959918,
              50.3759133
            ],
            [
              3.6956246,
              50.3755001
            ],
            [
              3.6957658,
              50.3751048
            ],
            [
              3.6985881,
              50.3749457
            ],
            [
              3.6980538,
              50.3761289
            ],
            [
              3.7016411,
              50.376596
            ],
            [
              3.7052664,
              50.3779507
            ],
            [
              3.7078508,
              50.3757257
            ],
            [
              3.7111035,
              50.3737933
            ],
            [
              3.714719,
              50.3710983
            ],
            [
              3.7148684,
              50.3708981
            ],
            [
              3.7146106,
              50.3705234
            ],
            [
              3.7156239,
              50.3698767
            ],
            [
              3.7182302,
              50.371147
            ],
            [
              3.7190662,
              50.3713738
            ],
            [
              3.7207919,
              50.3715475
            ],
            [
              3.7249723,
              50.3721583
            ],
            [
              3.7259327,
              50.3726075
            ],
            [
              3.7263564,
              50.3730567
            ],
            [
              3.727006,
              50.3739909
            ],
            [
              3.7268648,
              50.3745838
            ],
            [
              3.7274015,
              50.374458
            ],
            [
              3.7277405,
              50.3748532
            ],
            [
              3.7290962,
              50.374458
            ],
            [
              3.7296329,
              50.3738651
            ],
            [
              3.7300284,
              50.3731464
            ],
            [
              3.7310452,
              50.373398
            ],
            [
              3.7311864,
              50.3731824
            ],
            [
              3.7318079,
              50.3732723
            ],
            [
              3.7333049,
              50.3730028
            ],
            [
              3.7339263,
              50.3728051
            ],
            [
              3.7357623,
              50.3730567
            ],
            [
              3.7360166,
              50.372877
            ],
            [
              3.7375437,
              50.3728103
            ],
            [
              3.7377343,
              50.3731156
            ],
            [
              3.7410444,
              50.3751227
            ],
            [
              3.7425989,
              50.376785
            ],
            [
              3.7440581,
              50.3779247
            ],
            [
              3.7424862,
              50.3784123
            ],
            [
              3.7408233,
              50.3792094
            ],
            [
              3.7395895,
              50.3801958
            ],
            [
              3.7384878,
              50.3815972
            ],
            [
              3.7404368,
              50.3819474
            ],
            [
              3.7399284,
              50.3827829
            ],
            [
              3.7406063,
              50.3828368
            ],
            [
              3.7405215,
              50.3828637
            ],
            [
              3.7400555,
              50.3848581
            ],
            [
              3.7397589,
              50.3851005
            ],
            [
              3.739547,
              50.3867175
            ],
            [
              3.7387845,
              50.3866636
            ],
            [
              3.7382107,
              50.3870588
            ],
            [
              3.7378151,
              50.3871335
            ],
            [
              3.7359228,
              50.3872125
            ],
            [
              3.7358166,
              50.3890541
            ],
            [
              3.7350559,
              50.3890084
            ],
            [
              3.7349712,
              50.3898707
            ],
            [
              3.7335307,
              50.3898168
            ],
            [
              3.7318359,
              50.3915685
            ],
            [
              3.7332349,
              50.3917718
            ],
            [
              3.7332829,
              50.3929105
            ],
            [
              3.731003,
              50.3929549
            ],
            [
              3.7315064,
              50.3949154
            ],
            [
              3.7306938,
              50.3951229
            ],
            [
              3.7307864,
              50.3953875
            ],
            [
              3.7294453,
              50.3960544
            ],
            [
              3.729558,
              50.3961707
            ],
            [
              3.7289464,
              50.3966528
            ],
            [
              3.7283671,
              50.3963365
            ],
            [
              3.7279221,
              50.3967496
            ],
            [
              3.7264319,
              50.3965577
            ],
            [
              3.7262454,
              50.3975026
            ],
            [
              3.725186,
              50.3973231
            ],
            [
              3.7249609,
              50.3981638
            ],
            [
              3.7259246,
              50.3983678
            ],
            [
              3.7251839,
              50.3997342
            ],
            [
              3.7264973,
              50.4001115
            ],
            [
              3.7261294,
              50.4006209
            ],
            [
              3.7256565,
              50.4005042
            ],
            [
              3.7253504,
              50.4019941
            ],
            [
              3.728378,
              50.4022655
            ],
            [
              3.7283631,
              50.4029625
            ],
            [
              3.7279057,
              50.4036181
            ],
            [
              3.7271225,
              50.4059397
            ],
            [
              3.7273362,
              50.4063393
            ],
            [
              3.7280108,
              50.4062111
            ],
            [
              3.7280881,
              50.406856
            ],
            [
              3.7277976,
              50.4106307
            ],
            [
              3.7273791,
              50.4106971
            ],
            [
              3.7278414,
              50.4132614
            ],
            [
              3.7256586,
              50.4132954
            ],
            [
              3.7251643,
              50.4120377
            ],
            [
              3.7234695,
              50.4121276
            ],
            [
              3.7233282,
              50.412981
            ],
            [
              3.7233989,
              50.412981
            ],
            [
              3.7239638,
              50.4144632
            ],
            [
              3.7143601,
              50.4189997
            ],
            [
              3.7151244,
              50.4206462
            ],
            [
              3.7144317,
              50.4206965
            ],
            [
              3.7139642,
              50.4199679
            ],
            [
              3.7114551,
              50.4202439
            ],
            [
              3.7113237,
              50.4198082
            ],
            [
              3.7075811,
              50.4200776
            ],
            [
              3.7067337,
              50.4207065
            ],
            [
              3.705392,
              50.4200776
            ],
            [
              3.7039797,
              50.4201675
            ],
            [
              3.703556,
              50.4209311
            ],
            [
              3.700802,
              50.4218743
            ],
            [
              3.6994254,
              50.4222353
            ],
            [
              3.6979616,
              50.4223514
            ],
            [
              3.6962449,
              50.4222728
            ],
            [
              3.6961183,
              50.4224397
            ],
            [
              3.6939705,
              50.4214305
            ],
            [
              3.6956062,
              50.4186477
            ],
            [
              3.6926106,
              50.4195387
            ],
            [
              3.6895036,
              50.4203472
            ],
            [
              3.6872439,
              50.4205718
            ],
            [
              3.6853373,
              50.4211556
            ],
            [
              3.6827708,
              50.4213349
            ],
            [
              3.6817595,
              50.4212148
            ],
            [
              3.6755924,
              50.4220539
            ],
            [
              3.6738754,
              50.421869
            ],
            [
              3.672246,
              50.4222553
            ],
            [
              3.672564,
              50.4201662
            ],
            [
              3.6702187,
              50.4197756
            ],
            [
              3.6701672,
              50.4193464
            ],
            [
              3.6703851,
              50.4193566
            ],
            [
              3.6703921,
              50.418181
            ],
            [
              3.6702106,
              50.4180567
            ],
            [
              3.670201,
              50.416995
            ],
            [
              3.6705194,
              50.4163468
            ],
            [
              3.6713606,
              50.4160087
            ],
            [
              3.6716429,
              50.4154872
            ],
            [
              3.6713386,
              50.4152126
            ],
            [
              3.6713344,
              50.415061
            ],
            [
              3.6722134,
              50.4146592
            ],
            [
              3.6721887,
              50.4144825
            ],
            [
              3.6718452,
              50.4142209
            ],
            [
              3.6718587,
              50.4139933
            ],
            [
              3.6713657,
              50.4140494
            ],
            [
              3.6713636,
              50.4139736
            ],
            [
              3.6716508,
              50.4136291
            ],
            [
              3.6717041,
              50.4134136
            ],
            [
              3.6725752,
              50.4120133
            ],
            [
              3.6724513,
              50.4118252
            ],
            [
              3.6725654,
              50.4116595
            ],
            [
              3.6729969,
              50.4115283
            ],
            [
              3.6728268,
              50.4111004
            ],
            [
              3.6729808,
              50.410947
            ],
            [
              3.6733156,
              50.4108926
            ],
            [
              3.6735038,
              50.4105492
            ],
            [
              3.6734389,
              50.4103477
            ],
            [
              3.6735336,
              50.410195
            ],
            [
              3.6736886,
              50.4093236
            ],
            [
              3.6738178,
              50.409238
            ],
            [
              3.6735929,
              50.409035
            ],
            [
              3.6736605,
              50.4088381
            ],
            [
              3.6735076,
              50.4085969
            ],
            [
              3.6735619,
              50.4084468
            ],
            [
              3.673515,
              50.4083352
            ],
            [
              3.6736961,
              50.4080155
            ],
            [
              3.6735456,
              50.4078584
            ],
            [
              3.6738658,
              50.4078081
            ],
            [
              3.6739653,
              50.4077042
            ],
            [
              3.6735147,
              50.4072252
            ],
            [
              3.6731055,
              50.4065901
            ],
            [
              3.6728374,
              50.4057324
            ],
            [
              3.6729642,
              50.4051576
            ],
            [
              3.6731137,
              50.4049058
            ],
            [
              3.6736058,
              50.4046306
            ],
            [
              3.6735838,
              50.4042793
            ],
            [
              3.6739632,
              50.4038568
            ],
            [
              3.6745175,
              50.403819
            ],
            [
              3.6749197,
              50.4033884
            ],
            [
              3.6749524,
              50.4030121
            ],
            [
              3.6748115,
              50.4028005
            ],
            [
              3.6749609,
              50.4023611
            ],
            [
              3.6747726,
              50.4019932
            ],
            [
              3.6742667,
              50.4017083
            ],
            [
              3.6736441,
              50.4010496
            ],
            [
              3.6734359,
              50.4004906
            ],
            [
              3.672993,
              50.3997796
            ],
            [
              3.6729447,
              50.3996
            ],
            [
              3.6731351,
              50.3994633
            ],
            [
              3.6731164,
              50.3989948
            ],
            [
              3.6730252,
              50.3988067
            ],
            [
              3.6733122,
              50.3985195
            ],
            [
              3.6728884,
              50.3982955
            ],
            [
              3.6727865,
              50.3981331
            ],
            [
              3.6734812,
              50.3977877
            ],
            [
              3.6735831,
              50.3971944
            ],
            [
              3.6734087,
              50.3969482
            ],
            [
              3.6730574,
              50.3967379
            ],
            [
              3.6730171,
              50.3957821
            ],
            [
              3.6728723,
              50.395541
            ],
            [
              3.672883,
              50.395264
            ],
            [
              3.672529,
              50.3944347
            ],
            [
              3.6722929,
              50.3941149
            ],
            [
              3.6723519,
              50.3939816
            ],
            [
              3.6729688,
              50.3938602
            ],
            [
              3.6730413,
              50.3937781
            ],
            [
              3.6729447,
              50.3933284
            ],
            [
              3.6727999,
              50.3930719
            ],
            [
              3.6729152,
              50.3928393
            ],
            [
              3.6727865,
              50.391485
            ],
            [
              3.6728589,
              50.391285
            ],
            [
              3.6732451,
              50.3910284
            ],
            [
              3.6736528,
              50.3904624
            ],
            [
              3.6738352,
              50.3899528
            ],
            [
              3.6740417,
              50.3897203
            ],
            [
              3.6740444,
              50.3895407
            ],
            [
              3.6737199,
              50.3890619
            ],
            [
              3.6736528,
              50.3886361
            ],
            [
              3.6732585,
              50.3880426
            ],
            [
              3.6730976,
              50.3879349
            ],
            [
              3.6723814,
              50.3877588
            ],
            [
              3.6721481,
              50.3873415
            ],
            [
              3.6719255,
              50.3872868
            ],
            [
              3.6712469,
              50.3873295
            ],
            [
              3.6711289,
              50.3872679
            ],
            [
              3.6710484,
              50.3869174
            ],
            [
              3.6709357,
              50.3868199
            ],
            [
              3.6700077,
              50.3868951
            ],
            [
              3.6698713,
              50.38697
            ],
            [
              3.669846,
              50.387137
            ],
            [
              3.6697582,
              50.387179
            ],
            [
              3.6692245,
              50.3868849
            ],
            [
              3.669144,
              50.3867156
            ],
            [
              3.6691977,
              50.3866318
            ],
            [
              3.669954,
              50.3864385
            ],
            [
              3.6699943,
              50.3862418
            ],
            [
              3.6699004,
              50.3853628
            ],
            [
              3.6695383,
              50.3850584
            ],
            [
              3.6694015,
              50.3847249
            ],
            [
              3.6686516,
              50.3845829
            ]
          ]
        ]
      },
      "properties": {
        "type": "boundary",
        "gemeente": "Quiévrain"
      }
    }
  ]
}