{"type":"FeatureCollection","metadata":{"gemeente":"Riemst","slug":"riemst","generated_at":"2026-09-26T12:42:22.889990Z","total_points":31,"providers":["bpost","DHL","GLS","InPost","VintedGo","PostNL","DPD","Amazon"],"bounds":[5.55143,50.79425,5.67396,50.8333648]},"features":[{"type":"Feature","geometry":{"type":"Point","coordinates":[5.58209,50.83327]},"properties":{"type":"pakketpunt","locatieNaam":"Bbox 24/7 Delhaize Vlijtingen","straatNaam":"Molenweg","straatNr":"71B","vervoerder":"bpost","puntType":"automaat","bezettingsgraad":50,"latitude":50.83327,"longitude":5.58209,"canPickup":true,"canDropoff":true,"openingstijden":null}},{"type":"Feature","geometry":{"type":"Point","coordinates":[5.62507,50.82386]},"properties":{"type":"pakketpunt","locatieNaam":"‘T Gazetje","straatNaam":"Maastrichtersteenweg","straatNr":"85","vervoerder":"bpost","puntType":"servicepunt","bezettingsgraad":50,"latitude":50.82386,"longitude":5.62507,"canPickup":true,"canDropoff":true,"openingstijden":null}},{"type":"Feature","geometry":{"type":"Point","coordinates":[5.59645,50.81203]},"properties":{"type":"pakketpunt","locatieNaam":"Bbox 24/7 Riemst Gemeentehu","straatNaam":"Maastrichtersteenweg","straatNr":"2B","vervoerder":"bpost","puntType":"automaat","bezettingsgraad":50,"latitude":50.81203,"longitude":5.59645,"canPickup":true,"canDropoff":true,"openingstijden":null}},{"type":"Feature","geometry":{"type":"Point","coordinates":[5.59188,50.81055]},"properties":{"type":"pakketpunt","locatieNaam":"Riemst","straatNaam":"Tongersesteenweg","straatNr":"24","vervoerder":"bpost","puntType":"postkantoor","bezettingsgraad":50,"latitude":50.81055,"longitude":5.59188,"canPickup":true,"canDropoff":true,"openingstijden":null}},{"type":"Feature","geometry":{"type":"Point","coordinates":[5.55143,50.79425]},"properties":{"type":"pakketpunt","locatieNaam":"Bbox 24/7 Voetbal Millen Riemst","straatNaam":"Elderenweg","straatNr":"2","vervoerder":"bpost","puntType":"automaat","bezettingsgraad":50,"latitude":50.79425,"longitude":5.55143,"canPickup":true,"canDropoff":true,"openingstijden":null}},{"type":"Feature","geometry":{"type":"Point","coordinates":[5.61942,50.79561]},"properties":{"type":"pakketpunt","locatieNaam":"Raja&Jot","straatNaam":"Visésteenweg","straatNr":"207B","vervoerder":"bpost","puntType":"servicepunt","bezettingsgraad":50,"latitude":50.79561,"longitude":5.61942,"canPickup":true,"canDropoff":true,"openingstijden":null}},{"type":"Feature","geometry":{"type":"Point","coordinates":[5.67396,50.81398]},"properties":{"type":"pakketpunt","locatieNaam":"Pakjesautomaat 24/7 Drankhandel Epding","straatNaam":"Brugstraat","straatNr":"44","vervoerder":"bpost","puntType":"automaat","bezettingsgraad":50,"latitude":50.81398,"longitude":5.67396,"canPickup":true,"canDropoff":true,"openingstijden":null}},{"type":"Feature","geometry":{"type":"Point","coordinates":[5.551434,50.794251]},"properties":{"type":"pakketpunt","locatieNaam":"BBOX 24/7 VOETBAL MILLEN RIEMST","straatNaam":"ELDERENWEG","straatNr":"2","vervoerder":"DHL","puntType":"packStation","bezettingsgraad":50,"latitude":50.794251,"longitude":5.551434,"canPickup":true,"canDropoff":true,"openingstijden":{"ma":"00:00 - 23:59","di":"00:00 - 23:59","wo":"00:00 - 23:59","do":"00:00 - 23:59","vr":"00:00 - 23:59","za":"00:00 - 23:59","zo":"00:00 - 23:59"}}},{"type":"Feature","geometry":{"type":"Point","coordinates":[5.619418,50.795609]},"properties":{"type":"pakketpunt","locatieNaam":"RAJA&JOT","straatNaam":"VISÉSTEENWEG","straatNr":"207B","vervoerder":"DHL","puntType":"parcelShop","bezettingsgraad":50,"latitude":50.795609,"longitude":5.619418,"canPickup":true,"canDropoff":true,"openingstijden":{"ma":"gesloten","di":"09:00 - 20:00","wo":"09:00 - 20:00","do":"09:00 - 20:00","vr":"09:00 - 20:00","za":"09:00 - 20:00","zo":"09:00 - 20:00"}}},{"type":"Feature","geometry":{"type":"Point","coordinates":[5.596445,50.812035]},"properties":{"type":"pakketpunt","locatieNaam":"BBOX 24/7 RIEMST GEMEENTEHU","straatNaam":"MAASTRICHTERSTEENWEG","straatNr":"2B","vervoerder":"DHL","puntType":"packStation","bezettingsgraad":50,"latitude":50.812035,"longitude":5.596445,"canPickup":true,"canDropoff":true,"openingstijden":{"ma":"00:00 - 23:59","di":"00:00 - 23:59","wo":"00:00 - 23:59","do":"00:00 - 23:59","vr":"00:00 - 23:59","za":"00:00 - 23:59","zo":"00:00 - 23:59"}}},{"type":"Feature","geometry":{"type":"Point","coordinates":[5.591878,50.810552]},"properties":{"type":"pakketpunt","locatieNaam":"RIEMST","straatNaam":"TONGERSESTEENWEG","straatNr":"24","vervoerder":"DHL","puntType":"postOffice","bezettingsgraad":50,"latitude":50.810552,"longitude":5.591878,"canPickup":true,"canDropoff":true,"openingstijden":{"ma":"09:30 - 12:30, 13:45 - 17:00","di":"09:30 - 12:30, 13:45 - 18:00","wo":"09:30 - 12:30, 13:45 - 17:00","do":"09:30 - 12:30, 13:45 - 18:00","vr":"09:30 - 12:30, 13:45 - 17:00","za":"09:30 - 13:00","zo":"gesloten"}}},{"type":"Feature","geometry":{"type":"Point","coordinates":[5.625075,50.823861]},"properties":{"type":"pakketpunt","locatieNaam":"‘T GAZETJE","straatNaam":"MAASTRICHTERSTEENWEG","straatNr":"85","vervoerder":"DHL","puntType":"parcelShop","bezettingsgraad":50,"latitude":50.823861,"longitude":5.625075,"canPickup":true,"canDropoff":true,"openingstijden":{"ma":"05:00 - 18:30","di":"05:00 - 18:30","wo":"05:00 - 18:30","do":"05:00 - 18:30","vr":"05:00 - 18:30","za":"05:00 - 18:00","zo":"gesloten"}}},{"type":"Feature","geometry":{"type":"Point","coordinates":[5.673959,50.813983]},"properties":{"type":"pakketpunt","locatieNaam":"PARCEL LOCKER 24/7 DRANKHANDEL EPDI","straatNaam":"BRUGSTRAAT","straatNr":"44","vervoerder":"DHL","puntType":"packStation","bezettingsgraad":50,"latitude":50.813983,"longitude":5.673959,"canPickup":true,"canDropoff":true,"openingstijden":{"ma":"00:00 - 23:59","di":"00:00 - 23:59","wo":"00:00 - 23:59","do":"00:00 - 23:59","vr":"00:00 - 23:59","za":"00:00 - 23:59","zo":"00:00 - 23:59"}}},{"type":"Feature","geometry":{"type":"Point","coordinates":[5.582093,50.833272]},"properties":{"type":"pakketpunt","locatieNaam":"BBOX 24/7 DELHAIZE VLIJTINGEN","straatNaam":"MOLENWEG","straatNr":"71B","vervoerder":"DHL","puntType":"packStation","bezettingsgraad":50,"latitude":50.833272,"longitude":5.582093,"canPickup":true,"canDropoff":true,"openingstijden":{"ma":"00:00 - 23:59","di":"00:00 - 23:59","wo":"00:00 - 23:59","do":"00:00 - 23:59","vr":"00:00 - 23:59","za":"00:00 - 23:59","zo":"00:00 - 23:59"}}},{"type":"Feature","geometry":{"type":"Point","coordinates":[5.59206,50.81528]},"properties":{"type":"pakketpunt","locatieNaam":"Exellent Electro Riemst","straatNaam":"Bilzersteenweg","straatNr":"45","vervoerder":"GLS","puntType":"parcel_shop","bezettingsgraad":50,"latitude":50.81528,"longitude":5.59206,"canPickup":true,"canDropoff":true,"openingstijden":"vr: 09:30 - 18:00; za: 09:30 - 17:00"}},{"type":"Feature","geometry":{"type":"Point","coordinates":[5.5823682,50.8333648]},"properties":{"type":"pakketpunt","locatieNaam":"GLS Parcel Locker powered by bbox","straatNaam":"Molenweg","straatNr":"71 B","vervoerder":"GLS","puntType":"locker","bezettingsgraad":50,"latitude":50.8333648,"longitude":5.5823682,"canPickup":true,"canDropoff":true,"openingstijden":"vr: 00:00 - 24:00; za: 00:00 - 24:00"}},{"type":"Feature","geometry":{"type":"Point","coordinates":[5.59236,50.81536]},"properties":{"type":"pakketpunt","locatieNaam":"","straatNaam":"Bilzersteenweg","straatNr":"45","vervoerder":"InPost","puntType":"automaat","bezettingsgraad":50,"latitude":50.81536,"longitude":5.59236,"canPickup":true,"canDropoff":true,"openingstijden":"24/7"}},{"type":"Feature","geometry":{"type":"Point","coordinates":[5.6154,50.79686]},"properties":{"type":"pakketpunt","locatieNaam":"","straatNaam":"Visesteenweg","straatNr":"174","vervoerder":"InPost","puntType":"automaat","bezettingsgraad":50,"latitude":50.79686,"longitude":5.6154,"canPickup":true,"canDropoff":true,"openingstijden":"24/7"}},{"type":"Feature","geometry":{"type":"Point","coordinates":[5.59189404,50.8153913]},"properties":{"type":"pakketpunt","locatieNaam":"Exellent Electro Riemst ","straatNaam":"Bilzersteenweg","straatNr":"45","vervoerder":"VintedGo","puntType":"parcel_shop","bezettingsgraad":50,"latitude":50.8153913,"longitude":5.59189404,"canPickup":true,"canDropoff":true,"openingstijden":null}},{"type":"Feature","geometry":{"type":"Point","coordinates":[5.6153315,50.7968145]},"properties":{"type":"pakketpunt","locatieNaam":"Riemst","straatNaam":"Visesteenweg","straatNr":"174","vervoerder":"VintedGo","puntType":"locker","bezettingsgraad":50,"latitude":50.7968145,"longitude":5.6153315,"canPickup":true,"canDropoff":true,"openingstijden":null}},{"type":"Feature","geometry":{"type":"Point","coordinates":[5.61929,50.79554]},"properties":{"type":"pakketpunt","locatieNaam":"RAJA & JOT","straatNaam":"Visésteenweg","straatNr":"207","vervoerder":"PostNL","puntType":"servicepunt","bezettingsgraad":50,"latitude":50.79554,"longitude":5.61929,"canPickup":true,"canDropoff":true,"openingstijden":"09:00 - 20:00"}},{"type":"Feature","geometry":{"type":"Point","coordinates":[5.591824,50.815569]},"properties":{"type":"pakketpunt","locatieNaam":"Exellent Electro Riemst","straatNaam":"Bilzersteenweg","straatNr":"45","vervoerder":"PostNL","puntType":"servicepunt","bezettingsgraad":50,"latitude":50.815569,"longitude":5.591824,"canPickup":true,"canDropoff":true,"openingstijden":"09:30 - 12:00, 13:00 - 18:00"}},{"type":"Feature","geometry":{"type":"Point","coordinates":[5.62131556853,50.821896371668]},"properties":{"type":"pakketpunt","locatieNaam":"CLASSIES","straatNaam":"Maastrichtersteenweg","straatNr":"72B","vervoerder":"PostNL","puntType":"servicepunt","bezettingsgraad":50,"latitude":50.821896371668,"longitude":5.62131556853,"canPickup":true,"canDropoff":true,"openingstijden":"09:00 - 17:00"}},{"type":"Feature","geometry":{"type":"Point","coordinates":[5.621514,50.822551]},"properties":{"type":"pakketpunt","locatieNaam":"H&N dagwinkel","straatNaam":"Maastrichtersteenweg","straatNr":"176-2","vervoerder":"PostNL","puntType":"servicepunt","bezettingsgraad":50,"latitude":50.822551,"longitude":5.621514,"canPickup":true,"canDropoff":true,"openingstijden":"08:00 - 21:30"}},{"type":"Feature","geometry":{"type":"Point","coordinates":[5.590089,50.809896]},"properties":{"type":"pakketpunt","locatieNaam":"AVEVE RIEMST","straatNaam":"TONGERSESTEENWEG","straatNr":"41","vervoerder":"DPD","puntType":"pickup_point","bezettingsgraad":50,"latitude":50.809896,"longitude":5.590089,"canPickup":true,"canDropoff":true,"openingstijden":{"ma":"13:00 - 18:00","di":"09:00 - 18:00","wo":"09:00 - 18:00","do":"09:00 - 18:00","vr":"09:00 - 18:00","za":"09:00 - 18:00","zo":"gesloten"}}},{"type":"Feature","geometry":{"type":"Point","coordinates":[5.625075,50.823861]},"properties":{"type":"pakketpunt","locatieNaam":"bpost - ‘T GAZETJE","straatNaam":"MAASTRICHTERSTEENWEG,85","straatNr":"","vervoerder":"Amazon","puntType":"3p","bezettingsgraad":50,"latitude":50.823861,"longitude":5.625075,"canPickup":true,"canDropoff":false,"openingstijden":null}},{"type":"Feature","geometry":{"type":"Point","coordinates":[5.582093,50.833272]},"properties":{"type":"pakketpunt","locatieNaam":"bpost - BBOX 24/7 DELHAIZE VLIJTINGEN","straatNaam":"MOLENWEG,71B","straatNr":"","vervoerder":"Amazon","puntType":"3p","bezettingsgraad":50,"latitude":50.833272,"longitude":5.582093,"canPickup":true,"canDropoff":false,"openingstijden":null}},{"type":"Feature","geometry":{"type":"Point","coordinates":[5.596445,50.8120346]},"properties":{"type":"pakketpunt","locatieNaam":"bpost - BBOX 24/7 RIEMST GEMEENTEHU","straatNaam":"MAASTRICHTERSTEENWEG,2B","straatNr":"","vervoerder":"Amazon","puntType":"3p","bezettingsgraad":50,"latitude":50.8120346,"longitude":5.596445,"canPickup":true,"canDropoff":false,"openingstijden":null}},{"type":"Feature","geometry":{"type":"Point","coordinates":[5.591878,50.810552]},"properties":{"type":"pakketpunt","locatieNaam":"bpost - RIEMST","straatNaam":"TONGERSESTEENWEG,24","straatNr":"","vervoerder":"Amazon","puntType":"3p","bezettingsgraad":50,"latitude":50.810552,"longitude":5.591878,"canPickup":true,"canDropoff":false,"openingstijden":null}},{"type":"Feature","geometry":{"type":"Point","coordinates":[5.6194181,50.7956085]},"properties":{"type":"pakketpunt","locatieNaam":"bpost - RAJA&JOT","straatNaam":"VISÉSTEENWEG,207B","straatNr":"","vervoerder":"Amazon","puntType":"3p","bezettingsgraad":50,"latitude":50.7956085,"longitude":5.6194181,"canPickup":true,"canDropoff":false,"openingstijden":null}},{"type":"Feature","geometry":{"type":"Point","coordinates":[5.551434,50.794251]},"properties":{"type":"pakketpunt","locatieNaam":"bpost - BBOX 24/7 VOETBAL MILLEN RIEMST","straatNaam":"ELDERENWEG,2","straatNr":"","vervoerder":"Amazon","puntType":"3p","bezettingsgraad":50,"latitude":50.794251,"longitude":5.551434,"canPickup":true,"canDropoff":false,"openingstijden":null}},{"type":"Feature","geometry":{"type":"Polygon","coordinates":[[[5.5135758,50.8211083],[5.5145198,50.8208083],[5.5159462,50.8209279],[5.5189688,50.8223156],[5.5228367,50.8244829],[5.5230748,50.8226422],[5.5236648,50.8222625],[5.5238257,50.8222425],[5.5243258,50.8219524],[5.5247921,50.8218281],[5.5258275,50.8212253],[5.526215,50.8211817],[5.5261811,50.8208408],[5.5279249,50.8208112],[5.5313145,50.8214085],[5.5330268,50.8215033],[5.5344969,50.8212086],[5.5355901,50.8205876],[5.5368797,50.8194852],[5.5376968,50.8198479],[5.5382736,50.8203862],[5.5384368,50.8212884],[5.5388814,50.8216753],[5.5389947,50.8213943],[5.5394259,50.8208918],[5.5404397,50.8201657],[5.5427423,50.8179284],[5.5423965,50.8177366],[5.5422378,50.8175509],[5.5421412,50.8173679],[5.5422998,50.8172523],[5.5433013,50.817079],[5.5450957,50.816508],[5.5469467,50.8164517],[5.5471556,50.8163528],[5.5698836,50.8244995],[5.568852,50.8252809],[5.5669261,50.8264494],[5.5660917,50.8271126],[5.565817,50.8269432],[5.5645775,50.8279108],[5.5610889,50.8298502],[5.5628216,50.8311395],[5.5635224,50.8315674],[5.5636163,50.8318594],[5.5642573,50.8316396],[5.5652244,50.8320424],[5.565291,50.8327344],[5.5657473,50.8327871],[5.5657644,50.83395],[5.5672289,50.8339678],[5.5671601,50.8344126],[5.5657834,50.8343318],[5.5657449,50.8350428],[5.5654785,50.8350796],[5.5673752,50.8352728],[5.5673058,50.8354244],[5.5654642,50.8352331],[5.5654184,50.8355508],[5.5672038,50.8356662],[5.5663888,50.8375844],[5.5650394,50.8374059],[5.5652421,50.8379841],[5.5650214,50.8387634],[5.5670977,50.8385123],[5.5690005,50.8380179],[5.5691607,50.838239],[5.5730746,50.8372029],[5.575639,50.8369789],[5.5758712,50.8369894],[5.5791256,50.8380246],[5.5788445,50.8382313],[5.5798304,50.8386005],[5.5800564,50.8383039],[5.5802121,50.8383613],[5.5805778,50.8380705],[5.5809741,50.8381992],[5.5807068,50.8385438],[5.5813685,50.838779],[5.5832997,50.8391888],[5.5836878,50.8384971],[5.5849073,50.8387608],[5.5853398,50.8382228],[5.5867541,50.8387654],[5.5885962,50.8388722],[5.5884017,50.8393737],[5.5941579,50.8407357],[5.5936771,50.8414239],[5.5958001,50.841922],[5.5955821,50.8422121],[5.5965644,50.8425454],[5.5971019,50.842025],[5.5988941,50.8429122],[5.6000487,50.8433868],[5.6005631,50.842833],[5.6010197,50.8425061],[5.6038266,50.8407933],[5.6075308,50.83892],[5.6102143,50.8377538],[5.6106908,50.8381291],[5.611451,50.8377537],[5.6117016,50.8377851],[5.6148125,50.8386956],[5.621043,50.834876],[5.6253935,50.8356845],[5.6275541,50.8359481],[5.6302643,50.8364093],[5.6307818,50.8357951],[5.6338824,50.8332498],[5.637526,50.8346847],[5.6390315,50.8351772],[5.6446938,50.8366538],[5.6453965,50.8371085],[5.6467674,50.8363811],[5.647419,50.8359323],[5.6472121,50.8358261],[5.6479548,50.835007],[5.6483343,50.8332182],[5.6500339,50.8338925],[5.650805,50.8329479],[5.6513825,50.8319918],[5.6510924,50.8309722],[5.6502953,50.8299533],[5.6503267,50.8291661],[5.6499834,50.8283451],[5.649507,50.8278383],[5.6488482,50.8269058],[5.6488963,50.8267026],[5.6492754,50.8263607],[5.6518553,50.8275079],[5.6530212,50.8265322],[5.6561778,50.8242896],[5.6555065,50.8237964],[5.656456,50.8231578],[5.6553178,50.8220211],[5.6543393,50.8212686],[5.6552327,50.8209362],[5.6546158,50.8205789],[5.6539909,50.8200822],[5.655728,50.8193943],[5.6569651,50.8192348],[5.6590098,50.8184816],[5.6620207,50.8182594],[5.6631839,50.818066],[5.6637301,50.8178119],[5.6642724,50.8171871],[5.6651918,50.8170382],[5.6653243,50.8172242],[5.6667267,50.8172546],[5.6663732,50.8169493],[5.6663944,50.8168295],[5.6676482,50.8165444],[5.6679411,50.8167776],[5.6680762,50.8177373],[5.6688782,50.8177411],[5.669454,50.8178503],[5.6699065,50.8173713],[5.6696719,50.8172463],[5.6704253,50.8171454],[5.6704229,50.8170851],[5.6727514,50.8169457],[5.6729304,50.8163027],[5.6731733,50.8159955],[5.6747512,50.8161924],[5.678283,50.8164684],[5.6784559,50.8150658],[5.6793991,50.8147447],[5.6796198,50.814109],[5.679661,50.8136234],[5.6795886,50.813565],[5.6797198,50.8130999],[5.6800403,50.8124949],[5.6805315,50.8120584],[5.6816814,50.8121392],[5.6822149,50.8124195],[5.6825584,50.8128382],[5.682922,50.8131254],[5.6832842,50.8132601],[5.6843602,50.8134202],[5.6842709,50.81309],[5.6845208,50.8128291],[5.6859259,50.8124923],[5.6859939,50.812224],[5.6869186,50.8123144],[5.6868856,50.8120698],[5.6878772,50.8119233],[5.6874006,50.8108114],[5.6872179,50.8107034],[5.6872877,50.8104797],[5.6871013,50.8099323],[5.6872072,50.809384],[5.6875236,50.8088713],[5.6878692,50.8085859],[5.6881218,50.8080035],[5.6881043,50.8078],[5.687657,50.8073999],[5.6875813,50.8072433],[5.6880118,50.8065466],[5.6881596,50.8058584],[5.6880071,50.805072],[5.6874821,50.804638],[5.6871925,50.8040999],[5.6860794,50.8040838],[5.6859426,50.8038804],[5.6849931,50.8040406],[5.6843011,50.8044],[5.68366,50.8044813],[5.6813452,50.8059204],[5.6802804,50.8063865],[5.6762457,50.8059153],[5.6764737,50.8052475],[5.6751916,50.8051131],[5.6740752,50.8051458],[5.6738163,50.8052152],[5.6738558,50.8055266],[5.6735695,50.8058271],[5.6738645,50.8061],[5.6736285,50.8064628],[5.6736881,50.8068805],[5.6731498,50.8074304],[5.6730092,50.8077573],[5.6707676,50.8073257],[5.671481,50.805929],[5.6696523,50.8056144],[5.6683615,50.805012],[5.6683416,50.8047381],[5.6656758,50.804861],[5.6609337,50.8053729],[5.6599037,50.8053013],[5.6599144,50.805439],[5.6586189,50.8054169],[5.6587021,50.8057153],[5.6563162,50.805847],[5.6561473,50.8049814],[5.6536408,50.8051991],[5.6531955,50.8054449],[5.6515158,50.8034164],[5.6516156,50.8033786],[5.6509518,50.802604],[5.6510523,50.8025573],[5.6503765,50.8021988],[5.6508767,50.8018335],[5.6505923,50.8016987],[5.6500465,50.8011232],[5.6501685,50.801063],[5.6495154,50.8003206],[5.6498721,50.8001857],[5.6500748,50.799801],[5.6512884,50.7993466],[5.6477399,50.7954271],[5.6462432,50.7930356],[5.6432257,50.7911765],[5.6405556,50.7892206],[5.6383587,50.7874571],[5.637935,50.7871866],[5.6376816,50.7873071],[5.6370647,50.7866372],[5.6362224,50.7861947],[5.6337736,50.7858369],[5.6317707,50.7856826],[5.6283771,50.7838859],[5.6274463,50.7832092],[5.6279773,50.7828955],[5.6268119,50.7823044],[5.6255419,50.782943],[5.6243376,50.783121],[5.6237938,50.7822235],[5.6204255,50.7836875],[5.62003,50.7831974],[5.6192038,50.783657],[5.6185829,50.7831601],[5.6169052,50.784002],[5.6167832,50.7837027],[5.6157237,50.7842319],[5.6124071,50.7822206],[5.6107508,50.7808817],[5.6103914,50.7810766],[5.6076996,50.7796259],[5.6063615,50.7790609],[5.6079175,50.7777926],[5.6087457,50.7782588],[5.6100622,50.777413],[5.6090858,50.7767652],[5.6105576,50.7753392],[5.6102225,50.775137],[5.6069889,50.7771788],[5.6063857,50.7768708],[5.6058457,50.7771832],[5.6037758,50.7757088],[5.602656,50.7767218],[5.5943921,50.7734376],[5.5944983,50.7731023],[5.593342,50.7739829],[5.5920733,50.7737336],[5.5911707,50.7733019],[5.5913893,50.7731128],[5.5906411,50.7726138],[5.5921766,50.7714538],[5.5920263,50.7713699],[5.5929155,50.770638],[5.591553,50.7700205],[5.5897075,50.7713274],[5.589265,50.7717125],[5.5889927,50.7721968],[5.5880285,50.771682],[5.5873063,50.772324],[5.5864084,50.7718024],[5.5856615,50.7711985],[5.5852592,50.7714157],[5.5847992,50.7710205],[5.5838001,50.7714021],[5.5840521,50.7716973],[5.5833695,50.7718821],[5.5834366,50.7719916],[5.5812013,50.7726877],[5.5803064,50.7731535],[5.5784772,50.7719789],[5.5747515,50.7716183],[5.574419,50.7715056],[5.5740703,50.7709407],[5.5734132,50.7709271],[5.5733595,50.7705634],[5.5732067,50.770543],[5.5727668,50.7693717],[5.5721472,50.7695193],[5.5720184,50.7692614],[5.5726514,50.7690968],[5.572276,50.7682334],[5.5725025,50.7673487],[5.5717126,50.7674543],[5.5715906,50.7668796],[5.570784,50.7671943],[5.5700846,50.7664884],[5.5696286,50.7648427],[5.5698524,50.7648179],[5.5698477,50.7646033],[5.5696271,50.7645982],[5.5699237,50.76415],[5.5689808,50.7642408],[5.5672674,50.7641484],[5.5660546,50.763943],[5.5660325,50.7637687],[5.5652948,50.7638013],[5.5653431,50.764027],[5.56355,50.7640546],[5.5635654,50.7642908],[5.5624235,50.7643252],[5.5623598,50.7640393],[5.5613673,50.7641487],[5.5613097,50.7639914],[5.56022,50.7641526],[5.5591076,50.7644232],[5.558999,50.764242],[5.5577309,50.7644515],[5.5565166,50.7648146],[5.5560458,50.7638586],[5.5560492,50.7636584],[5.5557602,50.7635574],[5.5544633,50.7636876],[5.5521339,50.7641986],[5.5523599,50.7645848],[5.551707,50.7649861],[5.5519026,50.7653789],[5.551704,50.7653945],[5.5518393,50.7658908],[5.5516587,50.7661158],[5.5506015,50.7669595],[5.5512572,50.7677116],[5.5508038,50.7676555],[5.5506777,50.7680264],[5.5505303,50.76793],[5.549522,50.768678],[5.5493971,50.7686195],[5.5470863,50.7700365],[5.5468941,50.7700747],[5.5468163,50.7701256],[5.546883,50.7703002],[5.54643,50.7705378],[5.5465554,50.7705994],[5.5459101,50.7711804],[5.5454715,50.7714421],[5.5449119,50.7716879],[5.5432194,50.7720305],[5.5408212,50.7727632],[5.5368036,50.7748547],[5.5359238,50.7752085],[5.5338559,50.7757876],[5.5329645,50.7761387],[5.5336976,50.7768103],[5.5373036,50.7807575],[5.5401632,50.7836981],[5.5424233,50.7856859],[5.5409396,50.7865973],[5.5364622,50.7897512],[5.5341847,50.7909624],[5.528302,50.7948429],[5.5248356,50.7974863],[5.5228392,50.7994319],[5.521731,50.8007848],[5.5200605,50.8030203],[5.5189361,50.8050201],[5.5181686,50.8066754],[5.5171301,50.809473],[5.5153644,50.8150371],[5.5135758,50.8211083]]]},"properties":{"type":"boundary","gemeente":"Riemst"}}]}