{
  "type": "FeatureCollection",
  "metadata": {
    "gemeente": "Rumes",
    "slug": "rumes",
    "generated_at": "2026-09-25T22:11:43.579777Z",
    "total_points": 15,
    "providers": [
      "bpost",
      "DHL",
      "GLS",
      "InPost",
      "VintedGo",
      "PostNL",
      "DPD",
      "Amazon"
    ],
    "bounds": [
      3.305837,
      50.54960179,
      3.34161,
      50.55665
    ]
  },
  "features": [
    {
      "type": "Feature",
      "geometry": {
        "type": "Point",
        "coordinates": [
          3.31283,
          50.55665
        ]
      },
      "properties": {
        "type": "pakketpunt",
        "locatieNaam": "Bbox 24/7 Intermarché Rumes",
        "straatNaam": "Chaussée De Douai",
        "straatNr": "1B",
        "vervoerder": "bpost",
        "puntType": "automaat",
        "bezettingsgraad": 50,
        "latitude": 50.55665,
        "longitude": 3.31283,
        "canPickup": true,
        "canDropoff": true,
        "openingstijden": null
      }
    },
    {
      "type": "Feature",
      "geometry": {
        "type": "Point",
        "coordinates": [
          3.30584,
          50.55503
        ]
      },
      "properties": {
        "type": "pakketpunt",
        "locatieNaam": "Rumes",
        "straatNaam": "Rue Albert Moulin",
        "straatNr": "6",
        "vervoerder": "bpost",
        "puntType": "postkantoor",
        "bezettingsgraad": 50,
        "latitude": 50.55503,
        "longitude": 3.30584,
        "canPickup": true,
        "canDropoff": true,
        "openingstijden": null
      }
    },
    {
      "type": "Feature",
      "geometry": {
        "type": "Point",
        "coordinates": [
          3.305837,
          50.555029
        ]
      },
      "properties": {
        "type": "pakketpunt",
        "locatieNaam": "RUMES",
        "straatNaam": "RUE ALBERT MOULIN",
        "straatNr": "6",
        "vervoerder": "DHL",
        "puntType": "postOffice",
        "bezettingsgraad": 50,
        "latitude": 50.555029,
        "longitude": 3.305837,
        "canPickup": true,
        "canDropoff": true,
        "openingstijden": {
          "ma": "09:30 - 12:30, 13:45 - 18:00",
          "di": "09:30 - 12:30",
          "wo": "09:30 - 12:30",
          "do": "09:30 - 12:30, 13:45 - 18:00",
          "vr": "09:30 - 12:30",
          "za": "gesloten",
          "zo": "gesloten"
        }
      }
    },
    {
      "type": "Feature",
      "geometry": {
        "type": "Point",
        "coordinates": [
          3.31283,
          50.55665
        ]
      },
      "properties": {
        "type": "pakketpunt",
        "locatieNaam": "BBOX 24/7 INTERMARCHÉ RUMES",
        "straatNaam": "CHAUSSÉE DE DOUAI",
        "straatNr": "1B",
        "vervoerder": "DHL",
        "puntType": "packStation",
        "bezettingsgraad": 50,
        "latitude": 50.55665,
        "longitude": 3.31283,
        "canPickup": true,
        "canDropoff": true,
        "openingstijden": {
          "ma": "00:00 - 23:59",
          "di": "00:00 - 23:59",
          "wo": "00:00 - 23:59",
          "do": "00:00 - 23:59",
          "vr": "00:00 - 23:59",
          "za": "00:00 - 23:59",
          "zo": "00:00 - 23:59"
        }
      }
    },
    {
      "type": "Feature",
      "geometry": {
        "type": "Point",
        "coordinates": [
          3.30601,
          50.5532179
        ]
      },
      "properties": {
        "type": "pakketpunt",
        "locatieNaam": "Chez Linda",
        "straatNaam": "Rue Reine Astrid",
        "straatNr": "13",
        "vervoerder": "GLS",
        "puntType": "parcel_shop",
        "bezettingsgraad": 50,
        "latitude": 50.5532179,
        "longitude": 3.30601,
        "canPickup": true,
        "canDropoff": true,
        "openingstijden": "vr: 08:00 - 12:00, 13:00 - 19:00; za: 08:00 - 12:00, 13:00 - 16:00"
      }
    },
    {
      "type": "Feature",
      "geometry": {
        "type": "Point",
        "coordinates": [
          3.3119603,
          50.5565832
        ]
      },
      "properties": {
        "type": "pakketpunt",
        "locatieNaam": "GLS Parcel Locker powered by bbox",
        "straatNaam": "Chaussee De Douai",
        "straatNr": "1 BIS",
        "vervoerder": "GLS",
        "puntType": "locker",
        "bezettingsgraad": 50,
        "latitude": 50.5565832,
        "longitude": 3.3119603,
        "canPickup": true,
        "canDropoff": true,
        "openingstijden": "vr: 08:00 - 12:30, 13:00 - 16:30; ma: 08:00 - 12:30, 13:00 - 16:30"
      }
    },
    {
      "type": "Feature",
      "geometry": {
        "type": "Point",
        "coordinates": [
          3.30587,
          50.55292
        ]
      },
      "properties": {
        "type": "pakketpunt",
        "locatieNaam": "CHEZ LINDA",
        "straatNaam": "Rue de la Reine Astrid 13",
        "straatNr": "",
        "vervoerder": "InPost",
        "puntType": "servicepunt",
        "bezettingsgraad": 50,
        "latitude": 50.55292,
        "longitude": 3.30587,
        "canPickup": true,
        "canDropoff": true,
        "openingstijden": null
      }
    },
    {
      "type": "Feature",
      "geometry": {
        "type": "Point",
        "coordinates": [
          3.34149,
          50.54963
        ]
      },
      "properties": {
        "type": "pakketpunt",
        "locatieNaam": "",
        "straatNaam": "Place de Taintignies",
        "straatNr": "1",
        "vervoerder": "InPost",
        "puntType": "automaat",
        "bezettingsgraad": 50,
        "latitude": 50.54963,
        "longitude": 3.34149,
        "canPickup": true,
        "canDropoff": true,
        "openingstijden": "24/7"
      }
    },
    {
      "type": "Feature",
      "geometry": {
        "type": "Point",
        "coordinates": [
          3.31272,
          50.55656
        ]
      },
      "properties": {
        "type": "pakketpunt",
        "locatieNaam": "",
        "straatNaam": "Chaussee de Douai",
        "straatNr": "1bis",
        "vervoerder": "InPost",
        "puntType": "automaat",
        "bezettingsgraad": 50,
        "latitude": 50.55656,
        "longitude": 3.31272,
        "canPickup": true,
        "canDropoff": true,
        "openingstijden": "24/7"
      }
    },
    {
      "type": "Feature",
      "geometry": {
        "type": "Point",
        "coordinates": [
          3.30585,
          50.55303
        ]
      },
      "properties": {
        "type": "pakketpunt",
        "locatieNaam": "Chez Linda",
        "straatNaam": "Rue de la Reine Astrid",
        "straatNr": "13",
        "vervoerder": "VintedGo",
        "puntType": "parcel_shop",
        "bezettingsgraad": 50,
        "latitude": 50.55303,
        "longitude": 3.30585,
        "canPickup": true,
        "canDropoff": true,
        "openingstijden": null
      }
    },
    {
      "type": "Feature",
      "geometry": {
        "type": "Point",
        "coordinates": [
          3.34146408,
          50.54960179
        ]
      },
      "properties": {
        "type": "pakketpunt",
        "locatieNaam": "Librairie de Taintignies ",
        "straatNaam": "Place",
        "straatNr": "4",
        "vervoerder": "VintedGo",
        "puntType": "parcel_shop",
        "bezettingsgraad": 50,
        "latitude": 50.54960179,
        "longitude": 3.34146408,
        "canPickup": true,
        "canDropoff": true,
        "openingstijden": null
      }
    },
    {
      "type": "Feature",
      "geometry": {
        "type": "Point",
        "coordinates": [
          3.305947,
          50.553029
        ]
      },
      "properties": {
        "type": "pakketpunt",
        "locatieNaam": "Chez Linda",
        "straatNaam": "Rue de la Reine Astrid",
        "straatNr": "13",
        "vervoerder": "PostNL",
        "puntType": "servicepunt",
        "bezettingsgraad": 50,
        "latitude": 50.553029,
        "longitude": 3.305947,
        "canPickup": true,
        "canDropoff": true,
        "openingstijden": "08:00 - 12:00, 13:00 - 19:00"
      }
    },
    {
      "type": "Feature",
      "geometry": {
        "type": "Point",
        "coordinates": [
          3.34161,
          50.55
        ]
      },
      "properties": {
        "type": "pakketpunt",
        "locatieNaam": "LIBRAIRIE TAINTIGNIES",
        "straatNaam": "PLACE",
        "straatNr": "4",
        "vervoerder": "DPD",
        "puntType": "pickup_point",
        "bezettingsgraad": 50,
        "latitude": 50.55,
        "longitude": 3.34161,
        "canPickup": true,
        "canDropoff": true,
        "openingstijden": {
          "ma": "07:00 - 12:00",
          "di": "07:00 - 12:00, 14:00 - 18:30",
          "wo": "07:00 - 12:00, 14:00 - 18:30",
          "do": "07:00 - 12:00, 14:00 - 18:30",
          "vr": "07:00 - 12:00, 14:00 - 18:30",
          "za": "07:00 - 12:00, 14:00 - 18:30",
          "zo": "gesloten"
        }
      }
    },
    {
      "type": "Feature",
      "geometry": {
        "type": "Point",
        "coordinates": [
          3.31283,
          50.55665
        ]
      },
      "properties": {
        "type": "pakketpunt",
        "locatieNaam": "bpost - BBOX 24/7 INTERMARCHÉ RUMES",
        "straatNaam": "CHAUSSÉE DE DOUAI,1B",
        "straatNr": "",
        "vervoerder": "Amazon",
        "puntType": "3p",
        "bezettingsgraad": 50,
        "latitude": 50.55665,
        "longitude": 3.31283,
        "canPickup": true,
        "canDropoff": false,
        "openingstijden": null
      }
    },
    {
      "type": "Feature",
      "geometry": {
        "type": "Point",
        "coordinates": [
          3.305837,
          50.555029
        ]
      },
      "properties": {
        "type": "pakketpunt",
        "locatieNaam": "bpost - RUMES",
        "straatNaam": "RUE ALBERT MOULIN,6",
        "straatNr": "",
        "vervoerder": "Amazon",
        "puntType": "3p",
        "bezettingsgraad": 50,
        "latitude": 50.555029,
        "longitude": 3.305837,
        "canPickup": true,
        "canDropoff": false,
        "openingstijden": null
      }
    },
    {
      "type": "Feature",
      "geometry": {
        "type": "MultiPolygon",
        "coordinates": [
          [
            [
              [
                3.309422825545404,
                50.55145350194322
              ],
              [
                3.3091800967475042,
                50.55123870330867
              ],
              [
                3.3089054932963746,
                50.55104009635128
              ],
              [
                3.3086016598592636,
                50.55085959355123
              ],
              [
                3.30827152247068,
                50.55069893303464
              ],
              [
                3.3079182603549095,
                50.55055966184256
              ],
              [
                3.3075452753152383,
                50.550443121040246
              ],
              [
                3.3071561589844096,
                50.55035043280928
              ],
              [
                3.3067546582512604,
                50.5502824896469
              ],
              [
                3.3063446391959,
                50.55023994577615
              ],
              [
                3.3059300498799593,
                50.55022321084954
              ],
              [
                3.305514882349426,
                50.55023244600641
              ],
              [
                3.305103134215026,
                50.55026756232214
              ],
              [
                3.3046987701791464,
                50.550328221664
              ],
              [
                3.304305683878853,
                50.55041383994532
              ],
              [
                3.303927660411442,
                50.55052359274691
              ],
              [
                3.3035683399025992,
                50.55065642325164
              ],
              [
                3.303231182467164,
                50.55081105241582
              ],
              [
                3.3029194348993274,
                50.55098599128006
              ],
              [
                3.3026360994125437,
                50.55117955530082
              ],
              [
                3.3023839047298726,
                50.55138988056532
              ],
              [
                3.3021652798030754,
                50.55161494173383
              ],
              [
                3.3019823304136025,
                50.551852571536735
              ],
              [
                3.301836818881088,
                50.552100481639215
              ],
              [
                3.301730147075231,
                50.552356284672605
              ],
              [
                3.301663342895273,
                50.55261751722058
              ],
              [
                3.301658167978977,
                50.55266950690598
              ],
              [
                3.3016433332414072,
                50.552727516504795
              ],
              [
                3.3016170405213017,
                50.552991662813426
              ],
              [
                3.301631513416001,
                50.553256179053406
              ],
              [
                3.301686613223282,
                50.55351851777375
              ],
              [
                3.3017818099592464,
                50.55377615245261
              ],
              [
                3.301913703504416,
                50.5540219723653
              ],
              [
                3.3018036396377552,
                50.55420948081986
              ],
              [
                3.3016969628966035,
                50.55446528372125
              ],
              [
                3.3016301555549625,
                50.55472651614638
              ],
              [
                3.3016038616501606,
                50.55499066235247
              ],
              [
                3.301618335082782,
                50.55525517849435
              ],
              [
                3.301673437145478,
                50.55551751712196
              ],
              [
                3.301768637832687,
                50.55577515171436
              ],
              [
                3.3019030209196014,
                50.55602560101361
              ],
              [
                3.3020752927624764,
                50.556266452924405
              ],
              [
                3.3022837947364176,
                50.55649538774882
              ],
              [
                3.302526519191654,
                50.55671020053263
              ],
              [
                3.3028011287753016,
                50.55690882230727
              ],
              [
                3.303104978933039,
                50.557089340023126
              ],
              [
                3.3034351433742852,
                50.557250014981285
              ],
              [
                3.3037884422558097,
                50.55738929958656
              ],
              [
                3.3037906761305855,
                50.557389997561664
              ],
              [
                3.3037914423621983,
                50.55739029963883
              ],
              [
                3.3041644729339086,
                50.55750685230216
              ],
              [
                3.3045536422740116,
                50.5575995503967
              ],
              [
                3.304955201954743,
                50.557667501048016
              ],
              [
                3.305365284145223,
                50.55771004974742
              ],
              [
                3.3057799388835365,
                50.55772678665941
              ],
              [
                3.3061951721418543,
                50.55771755057125
              ],
              [
                3.306606984317093,
                50.557682430446484
              ],
              [
                3.3070114087754137,
                50.55762176456773
              ],
              [
                3.307404550078331,
                50.55753613727653
              ],
              [
                3.3077826215213744,
                50.55742637334221
              ],
              [
                3.3079171655715065,
                50.55737663715506
              ],
              [
                3.308026320676954,
                50.55758000739301
              ],
              [
                3.3081986293601164,
                50.55782085018164
              ],
              [
                3.3084071678224087,
                50.55804977398404
              ],
              [
                3.3086499280625805,
                50.5582645739521
              ],
              [
                3.308924572383028,
                50.558463181240676
              ],
              [
                3.309228455894788,
                50.55864368293965
              ],
              [
                3.3095586519859492,
                50.55880434050438
              ],
              [
                3.309911980508353,
                50.55894360650714
              ],
              [
                3.3102850384110485,
                50.55906013954772
              ],
              [
                3.3106742325252205,
                50.559152817179125
              ],
              [
                3.3110758141844077,
                50.55922074672402
              ],
              [
                3.3114859153459704,
                50.559263273877015
              ],
              [
                3.311900585865216,
                50.55927998901014
              ],
              [
                3.3119008110732313,
                50.55927998398955
              ],
              [
                3.3119455614326463,
                50.55928755329006
              ],
              [
                3.312355663955413,
                50.559330077382505
              ],
              [
                3.3127703353676483,
                50.55934678942131
              ],
              [
                3.3131855814808815,
                50.55933752843334
              ],
              [
                3.3135974025681927,
                50.55930238362197
              ],
              [
                3.314001831909902,
                50.55924169350756
              ],
              [
                3.31439497402051,
                50.559156042665165
              ],
              [
                3.3147730421878108,
                50.559046256090916
              ],
              [
                3.315132394961687,
                50.55891339125193
              ],
              [
                3.3154695712404596,
                50.55875872789601
              ],
              [
                3.315781323616173,
                50.55858375571989
              ],
              [
                3.316064649657208,
                50.55839016001461
              ],
              [
                3.316316820826644,
                50.55817980542729
              ],
              [
                3.3165354087577144,
                50.55795471799507
              ],
              [
                3.316718308633407,
                50.55771706562548
              ],
              [
                3.3168637594453094,
                50.55746913721081
              ],
              [
                3.3169703609370327,
                50.557213320578306
              ],
              [
                3.3170370870696773,
                50.55695207948866
              ],
              [
                3.317063295880401,
                50.556687929904584
              ],
              [
                3.317048735640033,
                50.55642341575805
              ],
              [
                3.31699354725139,
                50.55616108444985
              ],
              [
                3.316898262866173,
                50.555903462317225
              ],
              [
                3.316763800734806,
                50.55565303030613
              ],
              [
                3.316591456339748,
                50.555412200082024
              ],
              [
                3.3163828898985988,
                50.555183290809204
              ],
              [
                3.3161401103581234,
                50.55496850682236
              ],
              [
                3.3160948148196283,
                50.55493575577786
              ],
              [
                3.31603010797054,
                50.55487850991774
              ],
              [
                3.315755454630793,
                50.55467991923748
              ],
              [
                3.3154515716779867,
                50.55449943442003
              ],
              [
                3.315121385623362,
                50.55433879341829
              ],
              [
                3.3147680761597367,
                50.554199543085424
              ],
              [
                3.3143950455462217,
                50.554083024285774
              ],
              [
                3.314005885854299,
                50.55399035898906
              ],
              [
                3.3136043443902348,
                50.553922439471656
              ],
              [
                3.3131942876262466,
                50.55387991972896
              ],
              [
                3.3127796639869795,
                50.55386320918113
              ],
              [
                3.312364465848855,
                50.55387246873276
              ],
              [
                3.3121430088751818,
                50.55389136786247
              ],
              [
                3.3120200073262556,
                50.55388640958198
              ],
              [
                3.311604808835832,
                50.553895666427366
              ],
              [
                3.3111930333380295,
                50.55393080423492
              ],
              [
                3.3107886457986884,
                50.553991484664934
              ],
              [
                3.310395540081179,
                50.55407712342771
              ],
              [
                3.310017501469783,
                50.554186895906824
              ],
              [
                3.309938389975073,
                50.55421614456157
              ],
              [
                3.310043348675993,
                50.55403727376813
              ],
              [
                3.310149979317458,
                50.55378146320845
              ],
              [
                3.310216738274671,
                50.55352022585492
              ],
              [
                3.3102429832685414,
                50.553256077634295
              ],
              [
                3.3102284622213185,
                50.55299156246547
              ],
              [
                3.3101733156582775,
                50.55272922775907
              ],
              [
                3.310119284712312,
                50.552583072827915
              ],
              [
                3.3101102996843212,
                50.55254032999248
              ],
              [
                3.3100150600777885,
                50.55228270205792
              ],
              [
                3.3098806446772393,
                50.55203226193619
              ],
              [
                3.309806547859191,
                50.551928687591094
              ],
              [
                3.3098036372360906,
                50.55192326451474
              ],
              [
                3.309631341862968,
                50.551682423830634
              ],
              [
                3.309422825545404,
                50.55145350194322
              ]
            ]
          ],
          [
            [
              [
                3.3444979456728494,
                50.547720958348314
              ],
              [
                3.344193997791612,
                50.547540548248335
              ],
              [
                3.3438637627349275,
                50.54737998847523
              ],
              [
                3.3435104206670725,
                50.54724082509994
              ],
              [
                3.343137374160774,
                50.547124398149464
              ],
              [
                3.3427482154402757,
                50.54703182870903
              ],
              [
                3.3423466918022937,
                50.54696400813203
              ],
              [
                3.3419366695472825,
                50.54692158946115
              ],
              [
                3.3415220967675707,
                50.54690498114332
              ],
              [
                3.341106965349908,
                50.5469143430988
              ],
              [
                3.3406952725573715,
                50.546949585182034
              ],
              [
                3.340290982559643,
                50.547010368049264
              ],
              [
                3.3398979882811353,
                50.5470961064244
              ],
              [
                3.3395200739334014,
                50.54720597473183
              ],
              [
                3.3391608785918003,
                50.547338915042154
              ],
              [
                3.338823861166357,
                50.547493647254356
              ],
              [
                3.33851226710354,
                50.54766868141663
              ],
              [
                3.3382290971391244,
                50.547862332067716
              ],
              [
                3.3379770784027443,
                50.54807273446054
              ],
              [
                3.3377586381523083,
                50.54829786251246
              ],
              [
                3.3375758803912734,
                50.54853554830971
              ],
              [
                3.3374305655942447,
                50.54878350297803
              ],
              [
                3.3373240937366067,
                50.549039338719425
              ],
              [
                3.3372574907922323,
                50.54930059180242
              ],
              [
                3.337231398830051,
                50.54956474628508
              ],
              [
                3.337246069805757,
                50.54982925824229
              ],
              [
                3.3373013631093524,
                50.5500915802641
              ],
              [
                3.337396746893197,
                50.55034918598931
              ],
              [
                3.3374310779252574,
                50.550413076108676
              ],
              [
                3.337447249580502,
                50.55048979543909
              ],
              [
                3.33754263496165,
                50.55074740102566
              ],
              [
                3.337677193142048,
                50.55099780928701
              ],
              [
                3.33784962879119,
                50.551238608522894
              ],
              [
                3.3380582817060467,
                50.551467479542524
              ],
              [
                3.3383011427825613,
                50.55168221800604
              ],
              [
                3.3385758733514437,
                50.551880755660626
              ],
              [
                3.3388798276925487,
                50.55206118026671
              ],
              [
                3.3392100785113086,
                50.55222175402214
              ],
              [
                3.3395634451320344,
                50.5523609303064
              ],
              [
                3.339936524136465,
                50.55247736858333
              ],
              [
                3.3403257221522495,
                50.552569947318744
              ],
              [
                3.3407272904751384,
                50.55263777478784
              ],
              [
                3.341137361190824,
                50.55268019766844
              ],
              [
                3.3415519844478285,
                50.552696807336915
              ],
              [
                3.341967166521567,
                50.552687443806164
              ],
              [
                3.342378908302082,
                50.55265219726732
              ],
              [
                3.3427832438337868,
                50.55259140722059
              ],
              [
                3.343176278535031,
                50.55250565920354
              ],
              [
                3.343554226728493,
                50.552395779148284
              ],
              [
                3.343913448119996,
                50.55226282542231
              ],
              [
                3.3442504828736968,
                50.552108078629566
              ],
              [
                3.3445620849451663,
                50.5519330292703
              ],
              [
                3.3448452533508446,
                50.55173936337895
              ],
              [
                3.345097261072441,
                50.551528946278495
              ],
              [
                3.3453156813177385,
                50.55130380460809
              ],
              [
                3.345498410885018,
                50.55106610679752
              ],
              [
                3.3456436904063294,
                50.55081814217655
              ],
              [
                3.3457501212751084,
                50.55056229892102
              ],
              [
                3.345816679095742,
                50.55030104104786
              ],
              [
                3.3458427235263115,
                50.550036884681255
              ],
              [
                3.3458280044205924,
                50.54977237381833
              ],
              [
                3.345772664211133,
                50.549510055828065
              ],
              [
                3.3456772365114276,
                50.54925245691931
              ],
              [
                3.3456757678808167,
                50.54924972472113
              ],
              [
                3.3456526328982887,
                50.54914006008096
              ],
              [
                3.34555720659847,
                50.5488824610561
              ],
              [
                3.3454226127266575,
                50.54863206179504
              ],
              [
                3.3452501480335637,
                50.54839127364773
              ],
              [
                3.345041473894791,
                50.54816241537316
              ],
              [
                3.3450404414672605,
                50.54816150260916
              ],
              [
                3.345015552581205,
                50.54813420615533
              ],
              [
                3.3447726792426145,
                50.547919481541804
              ],
              [
                3.3444979456728494,
                50.547720958348314
              ]
            ]
          ]
        ]
      },
      "properties": {
        "type": "buffer_union_300m",
        "buffer_m": 300
      }
    },
    {
      "type": "Feature",
      "geometry": {
        "type": "MultiPolygon",
        "coordinates": [
          [
            [
              [
                3.310607051777098,
                50.550964645100514
              ],
              [
                3.3102834100448355,
                50.55067825006915
              ],
              [
                3.3099172707841245,
                50.5504134440856
              ],
              [
                3.3095121602688615,
                50.5501727769969
              ],
              [
                3.309071979850133,
                50.54995856617729
              ],
              [
                3.308600968387332,
                50.54977287422513
              ],
              [
                3.3081036614378694,
                50.549617489113295
              ],
              [
                3.307584847598057,
                50.549493906982995
              ],
              [
                3.307049522414788,
                50.549403317746915
              ],
              [
                3.3065028403108183,
                50.54934659363915
              ],
              [
                3.305950064985247,
                50.5493242808226
              ],
              [
                3.3053965187653422,
                50.549336594133585
              ],
              [
                3.304847531395773,
                50.54938341501487
              ],
              [
                3.304308388756667,
                50.54946429265633
              ],
              [
                3.303784282002585,
                50.549578448332674
              ],
              [
                3.303280257610502,
                50.54972478289638
              ],
              [
                3.302801168816269,
                50.54990188735419
              ],
              [
                3.302351628905831,
                50.550108056425266
              ],
              [
                3.301935966809859,
                50.550341304951374
              ],
              [
                3.3015581854285583,
                50.55059938700097
              ],
              [
                3.3012219230874313,
                50.55087981748429
              ],
              [
                3.3009304184949952,
                50.55117989607139
              ],
              [
                3.300686479540018,
                50.55149673318362
              ],
              [
                3.3004924562292666,
                50.55182727780881
              ],
              [
                3.30035021802718,
                50.55216834687242
              ],
              [
                3.300261135816805,
                50.55251665588266
              ],
              [
                3.3002559593704963,
                50.55256864550677
              ],
              [
                3.3002411229450686,
                50.55262665492818
              ],
              [
                3.3002060555547583,
                50.55297884958697
              ],
              [
                3.300225342258635,
                50.553331538138025
              ],
              [
                3.300298798523502,
                50.55368132397116
              ],
              [
                3.30042410411039,
                50.55402047005911
              ],
              [
                3.300316972457676,
                50.55427734560246
              ],
              [
                3.300227886030837,
                50.55462565444888
              ],
              [
                3.300192817060051,
                50.55497784897094
              ],
              [
                3.30021210448027,
                50.55533053739119
              ],
              [
                3.3002855637514994,
                50.55568032310069
              ],
              [
                3.3004124885895707,
                50.55602383737131
              ],
              [
                3.3005916577231296,
                50.55635777180228
              ],
              [
                3.3008213466134744,
                50.55667891018837
              ],
              [
                3.3010993440259773,
                50.5569841595028
              ],
              [
                3.301422973294925,
                50.55727057969581
              ],
              [
                3.3017891180781467,
                50.55753541202171
              ],
              [
                3.3021942523543126,
                50.557776105621066
              ],
              [
                3.3026344743745435,
                50.55799034210143
              ],
              [
                3.3031055442416215,
                50.5581760578794
              ],
              [
                3.3031077781434774,
                50.55817675586749
              ],
              [
                3.303108544383474,
                50.55817705794912
              ],
              [
                3.303605924916984,
                50.558332464125165
              ],
              [
                3.3041248253071185,
                50.55845606376257
              ],
              [
                3.304660247345153,
                50.55854666627838
              ],
              [
                3.305207033572329,
                50.558603398931005
              ],
              [
                3.3057599169894334,
                50.55862571523267
              ],
              [
                3.306313571825041,
                50.5586134002169
              ],
              [
                3.3068626648718054,
                50.558566572510706
              ],
              [
                3.3072018656397004,
                50.55851569082174
              ],
              [
                3.3072227414671316,
                50.558538607817965
              ],
              [
                3.3075464184507517,
                50.55882501092351
              ],
              [
                3.30791260955134,
                50.55908982393476
              ],
              [
                3.308317788301316,
                50.559330496178276
              ],
              [
                3.3087580525232876,
                50.55954470946727
              ],
              [
                3.3092291619133984,
                50.559730400441715
              ],
              [
                3.3097265788900176,
                50.559885780453776
              ],
              [
                3.310245512313902,
                50.56000935280662
              ],
              [
                3.310780963658004,
                50.56009992718006
              ],
              [
                3.3113277751811636,
                50.56015663110366
              ],
              [
                3.311696691578317,
                50.56017150220619
              ],
              [
                3.3121975399949446,
                50.560223435777715
              ],
              [
                3.3127504456449084,
                50.56024571891452
              ],
              [
                3.313304117620984,
                50.56023337069836
              ],
              [
                3.3138532225506854,
                50.560186510076065
              ],
              [
                3.314392471084446,
                50.560105588441694
              ],
              [
                3.314916668879877,
                50.55999138528555
              ],
              [
                3.315420766667801,
                50.559845000680674
              ],
              [
                3.3158999089162857,
                50.559667844679474
              ],
              [
                3.3163494806226206,
                50.55946162372324
              ],
              [
                3.3167651517813996,
                50.55922832419517
              ],
              [
                3.317142919099606,
                50.55897019327663
              ],
              [
                3.317479144556365,
                50.55868971729101
              ],
              [
                3.317770590435801,
                50.5583895977443
              ],
              [
                3.3180144504957347,
                50.55807272529399
              ],
              [
                3.318208376972538,
                50.557742151897315
              ],
              [
                3.318350503162849,
                50.5574010614076
              ],
              [
                3.3184394613657817,
                50.55705273890237
              ],
              [
                3.3184743960142025,
                50.556700539039035
              ],
              [
                3.3184549718701506,
                50.55634785374291
              ],
              [
                3.3183813772071686,
                50.55599807953945
              ],
              [
                3.318254321950696,
                50.55565458484473
              ],
              [
                3.3180750307961895,
                50.555320677529714
              ],
              [
                3.317845231372991,
                50.55499957307018
              ],
              [
                3.3175671375695295,
                50.55469436358896
              ],
              [
                3.3172434281818437,
                50.554407988088144
              ],
              [
                3.3171981324161903,
                50.55437523746897
              ],
              [
                3.3171334249986333,
                50.55431799221533
              ],
              [
                3.316767219221485,
                50.55405320793479
              ],
              [
                3.316362042687344,
                50.55381256482293
              ],
              [
                3.3159217973828583,
                50.55359838002303
              ],
              [
                3.315450722792041,
                50.55341271588294
              ],
              [
                3.3149533550799792,
                50.55325736010768
              ],
              [
                3.3144344834278683,
                50.55313380855598
              ],
              [
                3.3138991039390806,
                50.55304325084605
              ],
              [
                3.3133523715590893,
                50.552986558908486
              ],
              [
                3.312799550470933,
                50.552964278596356
              ],
              [
                3.3122459634423844,
                50.55297662443308
              ],
              [
                3.312093470508199,
                50.55298963831185
              ],
              [
                3.312039908255535,
                50.5529874791308
              ],
              [
                3.311639019800258,
                50.55299641719869
              ],
              [
                3.3116346073228815,
                50.55291608268806
              ],
              [
                3.311561068428333,
                50.552566303953085
              ],
              [
                3.3115070333808974,
                50.552420149660826
              ],
              [
                3.311498047129962,
                50.55237740693107
              ],
              [
                3.3113710515789707,
                50.55203390449982
              ],
              [
                3.3111918227323014,
                50.55169998637009
              ],
              [
                3.311117723563985,
                50.551596412852156
              ],
              [
                3.3111148128110197,
                50.55159098980821
              ],
              [
                3.310885078750002,
                50.55126987140159
              ],
              [
                3.310607051777098,
                50.550964645100514
              ]
            ]
          ],
          [
            [
              [
                3.3455091806255157,
                50.547093996766534
              ],
              [
                3.345103917528035,
                50.546853453277635
              ],
              [
                3.3446636068945037,
                50.54663937678178
              ],
              [
                3.344192488837281,
                50.54645382858385
              ],
              [
                3.3436950999393784,
                50.546298595272425
              ],
              [
                3.3431762295855,
                50.546175171527075
              ],
              [
                3.3426408738661695,
                50.54608474573537
              ],
              [
                3.342094187497793,
                50.54602818855773
              ],
              [
                3.341541434220332,
                50.54600604454972
              ],
              [
                3.3409879361487413,
                50.54601852692234
              ],
              [
                3.3404390225642464,
                50.546065515490575
              ],
              [
                3.339899978636855,
                50.54614655782972
              ],
              [
                3.339375994571149,
                50.546260873628675
              ],
              [
                3.338872115663393,
                50.54640736219813
              ],
              [
                3.338393193749333,
                50.54658461306191
              ],
              [
                3.3379438405088573,
                50.5467909195294
              ],
              [
                3.33752838307606,
                50.54702429511923
              ],
              [
                3.3371508223813,
                50.547282492676224
              ],
              [
                3.336814794625894,
                50.54756302599819
              ],
              [
                3.336523536260246,
                50.54786319376467
              ],
              [
                3.3362798528027877,
                50.54818010553805
              ],
              [
                3.3360860918005195,
                50.54851070958683
              ],
              [
                3.335944120192341,
                50.54885182226391
              ],
              [
                3.33585530629428,
                50.549200158657186
              ],
              [
                3.3358205065814444,
                50.54955236421784
              ],
              [
                3.335840057395556,
                50.549905047061685
              ],
              [
                3.3359137716596345,
                50.55025481063319
              ],
              [
                3.3360409406332177,
                50.55059828641704
              ],
              [
                3.3360527366206387,
                50.55062023998542
              ],
              [
                3.336059646953982,
                50.55065302753292
              ],
              [
                3.3361868180571626,
                50.55099650313193
              ],
              [
                3.3363662206566724,
                50.55133038284814
              ],
              [
                3.336596127964488,
                50.551651451003025
              ],
              [
                3.336874326641452,
                50.55195661524589
              ],
              [
                3.337198138082422,
                50.55224293634611
              ],
              [
                3.3375644441896237,
                50.552507656512205
              ],
              [
                3.3379697173868985,
                50.55274822596487
              ],
              [
                3.3384100545863324,
                50.5529623275073
              ],
              [
                3.3388812147804137,
                50.55314789885574
              ],
              [
                3.3393786598975246,
                50.553303152514545
              ],
              [
                3.339897598526856,
                50.55342659300397
              ],
              [
                3.340433032090849,
                50.55351703127399
              ],
              [
                3.340979803019389,
                50.55357359616513
              ],
              [
                3.3415326444604703,
                50.55359574280559
              ],
              [
                3.342086231047029,
                50.55358325786322
              ],
              [
                3.3426352302293356,
                50.55353626160184
              ],
              [
                3.343174353676803,
                50.55345520672211
              ],
              [
                3.3436984082524157,
                50.55334087399783
              ],
              [
                3.344202346067128,
                50.55319436475002
              ],
              [
                3.3446813131305677,
                50.55301709023174
              ],
              [
                3.3451306961281375,
                50.552810758025686
              ],
              [
                3.3455461668727997,
                50.55257735558659
              ],
              [
                3.345923724002608,
                50.55231913108695
              ],
              [
                3.34625973152183,
                50.55203857175131
              ],
              [
                3.3465509538142637,
                50.55173837988829
              ],
              [
                3.346794586791683,
                50.551421446851684
              ],
              [
                3.3469882848779218,
                50.55109082518201
              ],
              [
                3.3471301835695013,
                50.55074969919722
              ],
              [
                3.3472189173566442,
                50.550401354316485
              ],
              [
                3.347253632833436,
                50.55004914541233
              ],
              [
                3.34723399687244,
                50.54969646449692
              ],
              [
                3.3471601997867033,
                50.549346708053136
              ],
              [
                3.3470626922485,
                50.54908351584768
              ],
              [
                3.3470401580367057,
                50.54897671372391
              ],
              [
                3.3469129135671816,
                50.54863324984175
              ],
              [
                3.3467334467661893,
                50.54829938619538
              ],
              [
                3.3465034869537837,
                50.54797833783981
              ],
              [
                3.346225249562086,
                50.54767319635738
              ],
              [
                3.3462242171223933,
                50.54767228360379
              ],
              [
                3.3461993278107123,
                50.54764498740029
              ],
              [
                3.345875493367556,
                50.54735869106455
              ],
              [
                3.3455091806255157,
                50.547093996766534
              ]
            ]
          ]
        ]
      },
      "properties": {
        "type": "buffer_union_400m",
        "buffer_m": 400
      }
    },
    {
      "type": "Feature",
      "geometry": {
        "type": "Polygon",
        "coordinates": [
          [
            [
              3.2808655,
              50.5559855
            ],
            [
              3.2825227,
              50.5520301
            ],
            [
              3.2819597,
              50.5517796
            ],
            [
              3.2818634,
              50.551819
            ],
            [
              3.2812419,
              50.5516771
            ],
            [
              3.2782089,
              50.5516858
            ],
            [
              3.2786387,
              50.5507084
            ],
            [
              3.2789783,
              50.5488506
            ],
            [
              3.2789087,
              50.5483951
            ],
            [
              3.2793054,
              50.5469696
            ],
            [
              3.2794136,
              50.5469224
            ],
            [
              3.2799054,
              50.5460218
            ],
            [
              3.2806623,
              50.544408
            ],
            [
              3.2815679,
              50.5435814
            ],
            [
              3.2804501,
              50.5434898
            ],
            [
              3.2800438,
              50.5419471
            ],
            [
              3.2798744,
              50.5419717
            ],
            [
              3.2787588,
              50.5388964
            ],
            [
              3.2787652,
              50.5386026
            ],
            [
              3.2789406,
              50.5382688
            ],
            [
              3.279935,
              50.5376425
            ],
            [
              3.2813302,
              50.5376623
            ],
            [
              3.2819888,
              50.5366135
            ],
            [
              3.2825998,
              50.5362299
            ],
            [
              3.282546,
              50.5359598
            ],
            [
              3.2827608,
              50.5357803
            ],
            [
              3.2837509,
              50.5355559
            ],
            [
              3.2841322,
              50.5352127
            ],
            [
              3.2845318,
              50.5351786
            ],
            [
              3.2843604,
              50.5344843
            ],
            [
              3.2849022,
              50.5336683
            ],
            [
              3.2848591,
              50.5327102
            ],
            [
              3.285191,
              50.5323018
            ],
            [
              3.2868867,
              50.5318346
            ],
            [
              3.286434,
              50.5301937
            ],
            [
              3.286341,
              50.527929
            ],
            [
              3.2871353,
              50.5274106
            ],
            [
              3.2873691,
              50.5269647
            ],
            [
              3.2876667,
              50.5267112
            ],
            [
              3.2880807,
              50.5265304
            ],
            [
              3.2884474,
              50.5258668
            ],
            [
              3.2885956,
              50.5257826
            ],
            [
              3.2904649,
              50.5259456
            ],
            [
              3.2907819,
              50.5257113
            ],
            [
              3.2914469,
              50.5254667
            ],
            [
              3.2912141,
              50.5251857
            ],
            [
              3.291081,
              50.5251543
            ],
            [
              3.291114,
              50.525064
            ],
            [
              3.2913107,
              50.5250403
            ],
            [
              3.291518,
              50.5247849
            ],
            [
              3.2917098,
              50.5248155
            ],
            [
              3.2918464,
              50.5245627
            ],
            [
              3.2920654,
              50.5244944
            ],
            [
              3.2920719,
              50.5242355
            ],
            [
              3.2923022,
              50.5241523
            ],
            [
              3.2923545,
              50.5239912
            ],
            [
              3.2927512,
              50.524131
            ],
            [
              3.2928886,
              50.5242502
            ],
            [
              3.292892,
              50.5243645
            ],
            [
              3.2931946,
              50.5243999
            ],
            [
              3.2933354,
              50.5245528
            ],
            [
              3.2932182,
              50.5246127
            ],
            [
              3.2932576,
              50.5246657
            ],
            [
              3.2935313,
              50.5247118
            ],
            [
              3.2938787,
              50.5244505
            ],
            [
              3.2946303,
              50.5243158
            ],
            [
              3.2946791,
              50.5241971
            ],
            [
              3.2948725,
              50.524095
            ],
            [
              3.2945285,
              50.5239575
            ],
            [
              3.294723,
              50.5239042
            ],
            [
              3.2949577,
              50.5236325
            ],
            [
              3.2956162,
              50.5233683
            ],
            [
              3.2959472,
              50.5233579
            ],
            [
              3.2961326,
              50.5232198
            ],
            [
              3.2964921,
              50.5231919
            ],
            [
              3.2965735,
              50.5229436
            ],
            [
              3.2967871,
              50.5228606
            ],
            [
              3.2972676,
              50.5228766
            ],
            [
              3.297291,
              50.5229895
            ],
            [
              3.2975058,
              50.5229405
            ],
            [
              3.2976487,
              50.5227677
            ],
            [
              3.2978044,
              50.5227407
            ],
            [
              3.2977619,
              50.5225539
            ],
            [
              3.2979191,
              50.5225466
            ],
            [
              3.298033,
              50.522446
            ],
            [
              3.2985178,
              50.522471
            ],
            [
              3.2990687,
              50.5226111
            ],
            [
              3.2992116,
              50.5223727
            ],
            [
              3.2991161,
              50.5223304
            ],
            [
              3.299225,
              50.5222337
            ],
            [
              3.299087,
              50.5220491
            ],
            [
              3.2992351,
              50.5219713
            ],
            [
              3.299519,
              50.5219227
            ],
            [
              3.2998464,
              50.5220055
            ],
            [
              3.2999398,
              50.5218415
            ],
            [
              3.3001888,
              50.5217812
            ],
            [
              3.300352,
              50.5218243
            ],
            [
              3.3015288,
              50.5215115
            ],
            [
              3.3016348,
              50.521592
            ],
            [
              3.3044707,
              50.5203937
            ],
            [
              3.3053406,
              50.5203011
            ],
            [
              3.3069942,
              50.5198294
            ],
            [
              3.3071363,
              50.5199246
            ],
            [
              3.3076518,
              50.5198754
            ],
            [
              3.3076807,
              50.5197639
            ],
            [
              3.3075987,
              50.5197049
            ],
            [
              3.3079448,
              50.5195268
            ],
            [
              3.3080705,
              50.5196344
            ],
            [
              3.30886,
              50.5195709
            ],
            [
              3.3090886,
              50.5194543
            ],
            [
              3.3095262,
              50.5194973
            ],
            [
              3.3097812,
              50.5193823
            ],
            [
              3.3099099,
              50.5194423
            ],
            [
              3.3102812,
              50.5191838
            ],
            [
              3.3106042,
              50.5192203
            ],
            [
              3.3107119,
              50.5191118
            ],
            [
              3.3109038,
              50.5191265
            ],
            [
              3.3109516,
              50.5192422
            ],
            [
              3.3111318,
              50.5192841
            ],
            [
              3.3116806,
              50.5193281
            ],
            [
              3.3117512,
              50.5192893
            ],
            [
              3.3116613,
              50.5191794
            ],
            [
              3.3117294,
              50.5190995
            ],
            [
              3.3119933,
              50.5190382
            ],
            [
              3.3120963,
              50.5190958
            ],
            [
              3.3125569,
              50.5190573
            ],
            [
              3.3126566,
              50.5191208
            ],
            [
              3.3126306,
              50.5193056
            ],
            [
              3.312748,
              50.5193785
            ],
            [
              3.3132926,
              50.5193519
            ],
            [
              3.3133472,
              50.5191813
            ],
            [
              3.3135226,
              50.5191268
            ],
            [
              3.3135907,
              50.5193047
            ],
            [
              3.3137856,
              50.5194124
            ],
            [
              3.3141157,
              50.5194052
            ],
            [
              3.31415,
              50.5193078
            ],
            [
              3.3145578,
              50.519272
            ],
            [
              3.3152337,
              50.5193756
            ],
            [
              3.3153632,
              50.5192537
            ],
            [
              3.3153368,
              50.5191439
            ],
            [
              3.315457,
              50.5191005
            ],
            [
              3.3162846,
              50.51913
            ],
            [
              3.3166854,
              50.5192248
            ],
            [
              3.3167418,
              50.5193228
            ],
            [
              3.3170791,
              50.5192449
            ],
            [
              3.3171445,
              50.519338
            ],
            [
              3.3190354,
              50.5188606
            ],
            [
              3.3206624,
              50.5187442
            ],
            [
              3.3207585,
              50.5186405
            ],
            [
              3.3202953,
              50.5178384
            ],
            [
              3.3208172,
              50.5175148
            ],
            [
              3.3208715,
              50.5173368
            ],
            [
              3.3207193,
              50.5172642
            ],
            [
              3.3207274,
              50.517094
            ],
            [
              3.320606,
              50.5170291
            ],
            [
              3.3206978,
              50.5168493
            ],
            [
              3.3208955,
              50.5167846
            ],
            [
              3.3208224,
              50.5165872
            ],
            [
              3.3208947,
              50.5165239
            ],
            [
              3.3212976,
              50.5164928
            ],
            [
              3.3213658,
              50.5164068
            ],
            [
              3.3212682,
              50.5163185
            ],
            [
              3.3213318,
              50.5162451
            ],
            [
              3.3214687,
              50.516278
            ],
            [
              3.321496,
              50.5161189
            ],
            [
              3.3218403,
              50.5160311
            ],
            [
              3.3219195,
              50.5158701
            ],
            [
              3.321819,
              50.5157841
            ],
            [
              3.3218802,
              50.5156955
            ],
            [
              3.3220671,
              50.5157152
            ],
            [
              3.3221906,
              50.5155611
            ],
            [
              3.3224527,
              50.5155075
            ],
            [
              3.322481,
              50.515613
            ],
            [
              3.3227472,
              50.5155886
            ],
            [
              3.3226857,
              50.5154674
            ],
            [
              3.3228797,
              50.5154367
            ],
            [
              3.3231,
              50.5152777
            ],
            [
              3.3232197,
              50.5153085
            ],
            [
              3.3233441,
              50.5151866
            ],
            [
              3.3234769,
              50.5151951
            ],
            [
              3.3234723,
              50.5150565
            ],
            [
              3.3237106,
              50.5149617
            ],
            [
              3.3240399,
              50.514959
            ],
            [
              3.3240395,
              50.5148204
            ],
            [
              3.3238883,
              50.5148013
            ],
            [
              3.3239137,
              50.5146864
            ],
            [
              3.3238474,
              50.5146207
            ],
            [
              3.3239803,
              50.514538
            ],
            [
              3.324265,
              50.5146031
            ],
            [
              3.3242058,
              50.5144471
            ],
            [
              3.3244189,
              50.5143404
            ],
            [
              3.3242189,
              50.5142714
            ],
            [
              3.3241942,
              50.514155
            ],
            [
              3.3243268,
              50.5140769
            ],
            [
              3.3245101,
              50.5136504
            ],
            [
              3.3247428,
              50.5136101
            ],
            [
              3.3247002,
              50.5134523
            ],
            [
              3.3250994,
              50.5131027
            ],
            [
              3.3254232,
              50.5131106
            ],
            [
              3.3262337,
              50.5138054
            ],
            [
              3.327063,
              50.5133877
            ],
            [
              3.3271672,
              50.5131787
            ],
            [
              3.3270464,
              50.5127701
            ],
            [
              3.3271849,
              50.5126937
            ],
            [
              3.3277662,
              50.5126846
            ],
            [
              3.3281251,
              50.5125141
            ],
            [
              3.3285034,
              50.5134334
            ],
            [
              3.3290947,
              50.5145415
            ],
            [
              3.3278865,
              50.5168308
            ],
            [
              3.3276665,
              50.5168888
            ],
            [
              3.3277523,
              50.5170593
            ],
            [
              3.327527,
              50.5174141
            ],
            [
              3.3277684,
              50.5191639
            ],
            [
              3.3259767,
              50.5206885
            ],
            [
              3.3227742,
              50.5230895
            ],
            [
              3.3213338,
              50.5237972
            ],
            [
              3.3212641,
              50.5239166
            ],
            [
              3.3214948,
              50.5240547
            ],
            [
              3.3214974,
              50.524261
            ],
            [
              3.3217764,
              50.5243685
            ],
            [
              3.321712,
              50.5245185
            ],
            [
              3.3219668,
              50.5248766
            ],
            [
              3.3222324,
              50.5249039
            ],
            [
              3.3227554,
              50.5252108
            ],
            [
              3.322919,
              50.5253677
            ],
            [
              3.3229083,
              50.5255843
            ],
            [
              3.323611,
              50.5256576
            ],
            [
              3.3236271,
              50.5257735
            ],
            [
              3.3239195,
              50.5259185
            ],
            [
              3.3241716,
              50.52628
            ],
            [
              3.3244184,
              50.52643
            ],
            [
              3.3244908,
              50.5267744
            ],
            [
              3.3398518,
              50.5220632
            ],
            [
              3.3423172,
              50.5212019
            ],
            [
              3.3423848,
              50.5212572
            ],
            [
              3.3466123,
              50.526741
            ],
            [
              3.3476955,
              50.5276848
            ],
            [
              3.347817,
              50.5279509
            ],
            [
              3.3478919,
              50.5286393
            ],
            [
              3.3480186,
              50.5290351
            ],
            [
              3.3484639,
              50.5296289
            ],
            [
              3.3492655,
              50.5302489
            ],
            [
              3.3498135,
              50.5310205
            ],
            [
              3.3498285,
              50.5310782
            ],
            [
              3.3459495,
              50.5304586
            ],
            [
              3.3452255,
              50.5312171
            ],
            [
              3.3458748,
              50.5325129
            ],
            [
              3.3463712,
              50.5332873
            ],
            [
              3.3466939,
              50.533599
            ],
            [
              3.3493503,
              50.5357874
            ],
            [
              3.3496606,
              50.5361624
            ],
            [
              3.3511359,
              50.53723
            ],
            [
              3.3510292,
              50.5377981
            ],
            [
              3.3520158,
              50.5377356
            ],
            [
              3.3520522,
              50.5379342
            ],
            [
              3.3516308,
              50.5395901
            ],
            [
              3.3517964,
              50.5400898
            ],
            [
              3.3520648,
              50.5402175
            ],
            [
              3.3523668,
              50.5414947
            ],
            [
              3.3531675,
              50.5413875
            ],
            [
              3.3534119,
              50.5417281
            ],
            [
              3.3543715,
              50.5414947
            ],
            [
              3.3553182,
              50.5427768
            ],
            [
              3.3549011,
              50.54291
            ],
            [
              3.3548054,
              50.5430868
            ],
            [
              3.3554577,
              50.5436042
            ],
            [
              3.3546901,
              50.543973
            ],
            [
              3.3551291,
              50.5446842
            ],
            [
              3.355679,
              50.5446149
            ],
            [
              3.3561932,
              50.5454455
            ],
            [
              3.3542262,
              50.5464871
            ],
            [
              3.3556214,
              50.5471031
            ],
            [
              3.3573206,
              50.5473954
            ],
            [
              3.3572554,
              50.5479434
            ],
            [
              3.3574412,
              50.5488262
            ],
            [
              3.3583911,
              50.5489624
            ],
            [
              3.3575551,
              50.5498186
            ],
            [
              3.3569445,
              50.5501788
            ],
            [
              3.3571519,
              50.5505529
            ],
            [
              3.3569949,
              50.550831
            ],
            [
              3.356622,
              50.55117
            ],
            [
              3.3577747,
              50.5517503
            ],
            [
              3.358605,
              50.5514715
            ],
            [
              3.3590645,
              50.5518448
            ],
            [
              3.3593323,
              50.5527555
            ],
            [
              3.3600814,
              50.5526855
            ],
            [
              3.3605079,
              50.5535593
            ],
            [
              3.3607133,
              50.554189
            ],
            [
              3.3602092,
              50.5548274
            ],
            [
              3.3609634,
              50.5548195
            ],
            [
              3.3611584,
              50.5555975
            ],
            [
              3.3627013,
              50.5572305
            ],
            [
              3.3625616,
              50.5572242
            ],
            [
              3.3626448,
              50.558794
            ],
            [
              3.36239,
              50.5588583
            ],
            [
              3.3628173,
              50.5605643
            ],
            [
              3.3648653,
              50.5633421
            ],
            [
              3.3612608,
              50.5641503
            ],
            [
              3.3619923,
              50.5657542
            ],
            [
              3.3590923,
              50.5667405
            ],
            [
              3.3577832,
              50.56393
            ],
            [
              3.3554502,
              50.5642486
            ],
            [
              3.3551769,
              50.5639056
            ],
            [
              3.3534525,
              50.5638304
            ],
            [
              3.3519066,
              50.5635085
            ],
            [
              3.3521348,
              50.5642328
            ],
            [
              3.3507269,
              50.5647238
            ],
            [
              3.3491463,
              50.5639314
            ],
            [
              3.3476354,
              50.5626329
            ],
            [
              3.3470739,
              50.5622939
            ],
            [
              3.3449606,
              50.5639695
            ],
            [
              3.343938,
              50.563508
            ],
            [
              3.3434594,
              50.563904
            ],
            [
              3.3416996,
              50.5629996
            ],
            [
              3.3409314,
              50.5636909
            ],
            [
              3.3426845,
              50.5644968
            ],
            [
              3.3422618,
              50.5648603
            ],
            [
              3.3430776,
              50.5652062
            ],
            [
              3.343434,
              50.5649464
            ],
            [
              3.3448912,
              50.5658661
            ],
            [
              3.3443354,
              50.5662086
            ],
            [
              3.3435943,
              50.5664923
            ],
            [
              3.3423425,
              50.565751
            ],
            [
              3.3425478,
              50.5655939
            ],
            [
              3.3410023,
              50.5648482
            ],
            [
              3.3405026,
              50.5652428
            ],
            [
              3.339544,
              50.5647303
            ],
            [
              3.3397686,
              50.5645814
            ],
            [
              3.3384412,
              50.5638372
            ],
            [
              3.3374734,
              50.5644282
            ],
            [
              3.3370739,
              50.5641147
            ],
            [
              3.3364203,
              50.5646889
            ],
            [
              3.3343998,
              50.5638796
            ],
            [
              3.334281,
              50.5637235
            ],
            [
              3.3333707,
              50.5631041
            ],
            [
              3.3330256,
              50.5634682
            ],
            [
              3.3323698,
              50.5644759
            ],
            [
              3.3322451,
              50.5644708
            ],
            [
              3.3314766,
              50.5656481
            ],
            [
              3.3297466,
              50.5652341
            ],
            [
              3.3286335,
              50.5653457
            ],
            [
              3.3282472,
              50.565919
            ],
            [
              3.3259405,
              50.5642809
            ],
            [
              3.3250312,
              50.5650646
            ],
            [
              3.325628,
              50.5653593
            ],
            [
              3.324928,
              50.5659812
            ],
            [
              3.3254376,
              50.5662333
            ],
            [
              3.324582,
              50.5670562
            ],
            [
              3.3243701,
              50.5670443
            ],
            [
              3.323029,
              50.5690818
            ],
            [
              3.3257917,
              50.5694822
            ],
            [
              3.3258614,
              50.5698416
            ],
            [
              3.3253652,
              50.5709558
            ],
            [
              3.3263227,
              50.5713425
            ],
            [
              3.3260357,
              50.5719438
            ],
            [
              3.3229968,
              50.5716985
            ],
            [
              3.3220527,
              50.571489
            ],
            [
              3.3213714,
              50.5725894
            ],
            [
              3.3193579,
              50.5721318
            ],
            [
              3.3191194,
              50.5724455
            ],
            [
              3.3187902,
              50.5724348
            ],
            [
              3.3170289,
              50.5719715
            ],
            [
              3.3139732,
              50.5714551
            ],
            [
              3.3141217,
              50.5710093
            ],
            [
              3.3120586,
              50.5706918
            ],
            [
              3.3126664,
              50.5693709
            ],
            [
              3.3126885,
              50.5691558
            ],
            [
              3.312058,
              50.5683083
            ],
            [
              3.3118103,
              50.567281
            ],
            [
              3.3117198,
              50.5671433
            ],
            [
              3.31161,
              50.5671297
            ],
            [
              3.3100844,
              50.5672736
            ],
            [
              3.3084004,
              50.5642922
            ],
            [
              3.3084698,
              50.5641932
            ],
            [
              3.3075087,
              50.5637641
            ],
            [
              3.3052737,
              50.5641844
            ],
            [
              3.305282,
              50.5645668
            ],
            [
              3.304106,
              50.5644053
            ],
            [
              3.3037897,
              50.5638505
            ],
            [
              3.3032966,
              50.5638039
            ],
            [
              3.3016864,
              50.5638694
            ],
            [
              3.3012378,
              50.5635815
            ],
            [
              3.30078,
              50.563689
            ],
            [
              3.299873,
              50.5632465
            ],
            [
              3.2990374,
              50.5622191
            ],
            [
              3.2973582,
              50.5634934
            ],
            [
              3.297094,
              50.5628026
            ],
            [
              3.2972325,
              50.561475
            ],
            [
              3.2952928,
              50.5617423
            ],
            [
              3.2951379,
              50.561046
            ],
            [
              3.2954362,
              50.5608016
            ],
            [
              3.2957847,
              50.5602831
            ],
            [
              3.296,
              50.5601606
            ],
            [
              3.2960309,
              50.5600569
            ],
            [
              3.2958092,
              50.559403
            ],
            [
              3.2957884,
              50.5589614
            ],
            [
              3.2959378,
              50.5589137
            ],
            [
              3.2958058,
              50.5586315
            ],
            [
              3.2952929,
              50.5580903
            ],
            [
              3.294801,
              50.5580151
            ],
            [
              3.2948452,
              50.5571633
            ],
            [
              3.2946355,
              50.5570927
            ],
            [
              3.2936755,
              50.5571425
            ],
            [
              3.2924357,
              50.5568717
            ],
            [
              3.2918007,
              50.5563722
            ],
            [
              3.2909378,
              50.5560894
            ],
            [
              3.2898594,
              50.5555374
            ],
            [
              3.2888366,
              50.554814
            ],
            [
              3.2849375,
              50.5582291
            ],
            [
              3.283911,
              50.5577506
            ],
            [
              3.2818848,
              50.5563158
            ],
            [
              3.2808655,
              50.5559855
            ]
          ]
        ]
      },
      "properties": {
        "type": "boundary",
        "gemeente": "Rumes"
      }
    }
  ]
}