{
  "type": "FeatureCollection",
  "metadata": {
    "gemeente": "Sainte-Ode",
    "slug": "sainte-ode",
    "generated_at": "2026-09-25T22:11:43.705910Z",
    "total_points": 9,
    "providers": [
      "bpost",
      "DHL",
      "GLS",
      "InPost",
      "Amazon"
    ],
    "bounds": [
      5.5126421,
      50.034007,
      5.53103,
      50.0513
    ]
  },
  "features": [
    {
      "type": "Feature",
      "geometry": {
        "type": "Point",
        "coordinates": [
          5.53103,
          50.03401
        ]
      },
      "properties": {
        "type": "pakketpunt",
        "locatieNaam": "Ste-Ode",
        "straatNaam": "Rue De La Gare",
        "straatNr": "7",
        "vervoerder": "bpost",
        "puntType": "postkantoor",
        "bezettingsgraad": 50,
        "latitude": 50.03401,
        "longitude": 5.53103,
        "canPickup": true,
        "canDropoff": true,
        "openingstijden": null
      }
    },
    {
      "type": "Feature",
      "geometry": {
        "type": "Point",
        "coordinates": [
          5.51309,
          50.05127
        ]
      },
      "properties": {
        "type": "pakketpunt",
        "locatieNaam": "Bbox 24/7 Proxy Delhaize Lavacherie",
        "straatNaam": "Rue D'Amberloup",
        "straatNr": "18",
        "vervoerder": "bpost",
        "puntType": "automaat",
        "bezettingsgraad": 50,
        "latitude": 50.05127,
        "longitude": 5.51309,
        "canPickup": true,
        "canDropoff": true,
        "openingstijden": null
      }
    },
    {
      "type": "Feature",
      "geometry": {
        "type": "Point",
        "coordinates": [
          5.513089,
          50.051275
        ]
      },
      "properties": {
        "type": "pakketpunt",
        "locatieNaam": "BBOX 24/7 PROXY DELHAIZE LAVACHERIE",
        "straatNaam": "RUE D'AMBERLOUP",
        "straatNr": "18",
        "vervoerder": "DHL",
        "puntType": "packStation",
        "bezettingsgraad": 50,
        "latitude": 50.051275,
        "longitude": 5.513089,
        "canPickup": true,
        "canDropoff": true,
        "openingstijden": {
          "ma": "00:00 - 23:59",
          "di": "00:00 - 23:59",
          "wo": "00:00 - 23:59",
          "do": "00:00 - 23:59",
          "vr": "00:00 - 23:59",
          "za": "00:00 - 23:59",
          "zo": "00:00 - 23:59"
        }
      }
    },
    {
      "type": "Feature",
      "geometry": {
        "type": "Point",
        "coordinates": [
          5.531026,
          50.034007
        ]
      },
      "properties": {
        "type": "pakketpunt",
        "locatieNaam": "STE-ODE",
        "straatNaam": "RUE DE LA GARE",
        "straatNr": "7",
        "vervoerder": "DHL",
        "puntType": "postOffice",
        "bezettingsgraad": 50,
        "latitude": 50.034007,
        "longitude": 5.531026,
        "canPickup": true,
        "canDropoff": true,
        "openingstijden": {
          "ma": "09:30 - 12:00",
          "di": "09:30 - 12:00",
          "wo": "09:30 - 12:00",
          "do": "09:30 - 12:00",
          "vr": "09:30 - 12:00",
          "za": "09:30 - 13:00",
          "zo": "gesloten"
        }
      }
    },
    {
      "type": "Feature",
      "geometry": {
        "type": "Point",
        "coordinates": [
          5.5126421,
          50.0512619
        ]
      },
      "properties": {
        "type": "pakketpunt",
        "locatieNaam": "GLS Parcel Locker powered by bbox",
        "straatNaam": "Rue D'Amberloup",
        "straatNr": "18",
        "vervoerder": "GLS",
        "puntType": "locker",
        "bezettingsgraad": 50,
        "latitude": 50.0512619,
        "longitude": 5.5126421,
        "canPickup": true,
        "canDropoff": true,
        "openingstijden": "vr: 00:00 - 24:00; za: 00:00 - 24:00"
      }
    },
    {
      "type": "Feature",
      "geometry": {
        "type": "Point",
        "coordinates": [
          5.51271,
          50.05114
        ]
      },
      "properties": {
        "type": "pakketpunt",
        "locatieNaam": "PROXY DELHAIZE",
        "straatNaam": "Amberloup 18",
        "straatNr": "",
        "vervoerder": "InPost",
        "puntType": "servicepunt",
        "bezettingsgraad": 50,
        "latitude": 50.05114,
        "longitude": 5.51271,
        "canPickup": true,
        "canDropoff": true,
        "openingstijden": null
      }
    },
    {
      "type": "Feature",
      "geometry": {
        "type": "Point",
        "coordinates": [
          5.51276,
          50.0513
        ]
      },
      "properties": {
        "type": "pakketpunt",
        "locatieNaam": "",
        "straatNaam": "Rue d Amberloup",
        "straatNr": "18",
        "vervoerder": "InPost",
        "puntType": "automaat",
        "bezettingsgraad": 50,
        "latitude": 50.0513,
        "longitude": 5.51276,
        "canPickup": true,
        "canDropoff": true,
        "openingstijden": "24/7"
      }
    },
    {
      "type": "Feature",
      "geometry": {
        "type": "Point",
        "coordinates": [
          5.513089,
          50.051275
        ]
      },
      "properties": {
        "type": "pakketpunt",
        "locatieNaam": "bpost - BBOX 24/7 PROXY DELHAIZE LAVACHERIE",
        "straatNaam": "RUE D'AMBERLOUP,18",
        "straatNr": "",
        "vervoerder": "Amazon",
        "puntType": "3p",
        "bezettingsgraad": 50,
        "latitude": 50.051275,
        "longitude": 5.513089,
        "canPickup": true,
        "canDropoff": false,
        "openingstijden": null
      }
    },
    {
      "type": "Feature",
      "geometry": {
        "type": "Point",
        "coordinates": [
          5.531026,
          50.034007
        ]
      },
      "properties": {
        "type": "pakketpunt",
        "locatieNaam": "bpost - STE-ODE",
        "straatNaam": "RUE DE LA GARE,7",
        "straatNr": "",
        "vervoerder": "Amazon",
        "puntType": "3p",
        "bezettingsgraad": 50,
        "latitude": 50.034007,
        "longitude": 5.531026,
        "canPickup": true,
        "canDropoff": false,
        "openingstijden": null
      }
    },
    {
      "type": "Feature",
      "geometry": {
        "type": "MultiPolygon",
        "coordinates": [
          [
            [
              [
                5.533939758352953,
                50.032069884836154
              ],
              [
                5.533630960336448,
                50.03189525308051
              ],
              [
                5.533297078440106,
                50.03174095798822
              ],
              [
                5.532941327915536,
                50.031608485302336
              ],
              [
                5.532567134502132,
                50.03149911062148
              ],
              [
                5.532178101448106,
                50.0314138871223
              ],
              [
                5.531777974826106,
                50.031353635423024
              ],
              [
                5.531370607476794,
                50.03131893568542
              ],
              [
                5.530959921926833,
                50.031310122031236
              ],
              [
                5.5305498726375415,
                50.03132727932648
              ],
              [
                5.530144407946828,
                50.031370242364765
              ],
              [
                5.52974743206992,
                50.03143859745722
              ],
              [
                5.529362767523909,
                50.031531686413864
              ],
              [
                5.528994118337004,
                50.03164861287831
              ],
              [
                5.5286450343960025,
                50.03178825095466
              ],
              [
                5.528318877274548,
                50.031949256044065
              ],
              [
                5.528018787870699,
                50.032130077786434
              ],
              [
                5.527747656165028,
                50.032328974983436
              ],
              [
                5.5275080933902325,
                50.032544032358864
              ],
              [
                5.527302406880237,
                50.032773178995704
              ],
              [
                5.527132577841107,
                50.033014208272334
              ],
              [
                5.527000242258174,
                50.03326479910639
              ],
              [
                5.526906675123744,
                50.03352253830189
              ],
              [
                5.526852778137924,
                50.03378494378447
              ],
              [
                5.526839071001803,
                50.03404948850169
              ],
              [
                5.526865686387717,
                50.03431362475755
              ],
              [
                5.526932368635972,
                50.03457480874782
              ],
              [
                5.527038476191589,
                50.03483052505923
              ],
              [
                5.527182987758561,
                50.035078310896985
              ],
              [
                5.52736451211328,
                50.03531577980686
              ],
              [
                5.527581301483494,
                50.03554064466353
              ],
              [
                5.527831268364684,
                50.03575073970336
              ],
              [
                5.527833649619618,
                50.03575237932635
              ],
              [
                5.527835268310124,
                50.03575373981404
              ],
              [
                5.528116005591727,
                50.035947041490175
              ],
              [
                5.528424809631453,
                50.03612168799663
              ],
              [
                5.528758706391401,
                50.03627599717948
              ],
              [
                5.529114480049736,
                50.03640848275388
              ],
              [
                5.52948870397901,
                50.03651786862551
              ],
              [
                5.529877773759241,
                50.03660310118731
              ],
              [
                5.530277941907323,
                50.036663359472385
              ],
              [
                5.530685353987635,
                50.03669806306551
              ],
              [
                5.53109608575535,
                50.03670687769635
              ],
              [
                5.531506180973788,
                50.03668971846091
              ],
              [
                5.531911689540709,
                50.036646750639775
              ],
              [
                5.532308705555377,
                50.03657838810523
              ],
              [
                5.532693404958781,
                50.03648528933279
              ],
              [
                5.5330620823836325,
                50.03636835105573
              ],
              [
                5.533411186858349,
                50.0362286996235
              ],
              [
                5.5337373560204846,
                50.03606768014789
              ],
              [
                5.534037448509463,
                50.03588684354148
              ],
              [
                5.5343085742262605,
                50.03568793157356
              ],
              [
                5.534548122168338,
                50.035472860087665
              ],
              [
                5.534753785571698,
                50.03524370054285
              ],
              [
                5.534923584118071,
                50.03500266005659
              ],
              [
                5.535055882993672,
                50.034752060141834
              ],
              [
                5.535149408616472,
                50.03449431434341
              ],
              [
                5.535203260881181,
                50.03423190498931
              ],
              [
                5.53521692180478,
                50.03396735928077
              ],
              [
                5.5351902604902445,
                50.03370322495181
              ],
              [
                5.535123534361597,
                50.03344204573266
              ],
              [
                5.535017386659361,
                50.03318633685329
              ],
              [
                5.53487284022155,
                50.03293856082302
              ],
              [
                5.5346912876109835,
                50.03270110371931
              ],
              [
                5.534474477684867,
                50.03247625221397
              ],
              [
                5.534224498736738,
                50.032266171557744
              ],
              [
                5.534222117436297,
                50.032264532066584
              ],
              [
                5.53422049868221,
                50.03226317166843
              ],
              [
                5.533939758352953,
                50.032069884836154
              ]
            ]
          ],
          [
            [
              [
                5.514626933028612,
                50.04874179109281
              ],
              [
                5.514252647432186,
                50.048632357025824
              ],
              [
                5.513863507627686,
                50.048547071767594
              ],
              [
                5.513463260715649,
                50.04848675653096
              ],
              [
                5.513055760694912,
                50.04845199208954
              ],
              [
                5.512644931369459,
                50.04844311318805
              ],
              [
                5.512234728584793,
                50.04846020532082
              ],
              [
                5.5118291021565495,
                50.04850310390889
              ],
              [
                5.5114319578570194,
                50.048571395883954
              ],
              [
                5.511047119824717,
                50.048664423663865
              ],
              [
                5.510678293758044,
                50.04878129148128
              ],
              [
                5.510329031246695,
                50.04892087400511
              ],
              [
                5.510002695583536,
                50.04908182717144
              ],
              [
                5.509702429385637,
                50.04926260112023
              ],
              [
                5.509431124335835,
                50.049461455113466
              ],
              [
                5.5091913933359615,
                50.04967647429104
              ],
              [
                5.508985545339882,
                50.049905588103854
              ],
              [
                5.508815563108814,
                50.0501465902465
              ],
              [
                5.5087614726692875,
                50.0502488967746
              ],
              [
                5.508747654590321,
                50.05026848795772
              ],
              [
                5.508615174891314,
                50.05051905753008
              ],
              [
                5.50852147488046,
                50.05077678164216
              ],
              [
                5.508467457537828,
                50.05103917836507
              ],
              [
                5.508453643723985,
                50.05130372073076
              ],
              [
                5.50848016713909,
                50.051567861066
              ],
              [
                5.508546773009696,
                50.05182905552739
              ],
              [
                5.50865282051695,
                50.05208478860091
              ],
              [
                5.50879728894372,
                50.052332597330405
              ],
              [
                5.508978787482442,
                50.05257009504125
              ],
              [
                5.5091955686100444,
                50.05279499433081
              ],
              [
                5.5094455449018955,
                50.053005129103866
              ],
              [
                5.5097263091234705,
                50.05319847544067
              ],
              [
                5.510035157406646,
                50.05337317109642
              ],
              [
                5.510369115287698,
                50.0535275334438
              ],
              [
                5.51072496635632,
                50.05366007568595
              ],
              [
                5.510797561830663,
                50.05368130181366
              ],
              [
                5.510842870742693,
                50.05369817764256
              ],
              [
                5.5112171881942285,
                50.05380762275646
              ],
              [
                5.51160636609746,
                50.053892916928426
              ],
              [
                5.512006655927818,
                50.05395323859817
              ],
              [
                5.512414202077529,
                50.05398800673988
              ],
              [
                5.512825079010222,
                50.05399688646149
              ],
              [
                5.513235329090739,
                50.05397979223205
              ],
              [
                5.513411506373101,
                50.053961160040316
              ],
              [
                5.513564347284064,
                50.053954790878436
              ],
              [
                5.5139700184108085,
                50.053911886194975
              ],
              [
                5.514367203449136,
                50.05384358549205
              ],
              [
                5.514752076711665,
                50.05375054664969
              ],
              [
                5.515120931156176,
                50.053633665823895
              ],
              [
                5.515470214105741,
                50.05349406881081
              ],
              [
                5.5157965614785995,
                50.05333310019811
              ],
              [
                5.516096830197475,
                50.05315231040854
              ],
              [
                5.516368128465797,
                50.052953440760504
              ],
              [
                5.516607843619006,
                50.05273840669008
              ],
              [
                5.516813667282618,
                50.05250927929597
              ],
              [
                5.51698361759493,
                50.05226826538612
              ],
              [
                5.517116058280642,
                50.052017686217624
              ],
              [
                5.5172097143922025,
                50.05175995513564
              ],
              [
                5.517263684567932,
                50.051497554326495
              ],
              [
                5.51726369433015,
                50.05149736671346
              ],
              [
                5.5172646841359905,
                50.05149255429036
              ],
              [
                5.517278449250734,
                50.051228010872926
              ],
              [
                5.517251877415637,
                50.05096387255982
              ],
              [
                5.517185225193506,
                50.05070268311972
              ],
              [
                5.517079135113663,
                50.05044695788112
              ],
              [
                5.516934629459767,
                50.05019915951096
              ],
              [
                5.516753100402435,
                50.049961674301926
              ],
              [
                5.516536296572596,
                50.04973678919652
              ],
              [
                5.516286306205578,
                50.049526669769115
              ],
              [
                5.516005537018897,
                50.0493333393777
              ],
              [
                5.51569669301795,
                50.04915865968574
              ],
              [
                5.515362748453257,
                50.04900431274155
              ],
              [
                5.515006919180113,
                50.0488717847875
              ],
              [
                5.514862889292637,
                50.04882967404834
              ],
              [
                5.514626933028612,
                50.04874179109281
              ]
            ]
          ]
        ]
      },
      "properties": {
        "type": "buffer_union_300m",
        "buffer_m": 300
      }
    },
    {
      "type": "Feature",
      "geometry": {
        "type": "MultiPolygon",
        "coordinates": [
          [
            [
              [
                5.534910958688556,
                50.031424163389104
              ],
              [
                5.53449922933158,
                50.0311913243285
              ],
              [
                5.534054056765685,
                50.030985600672466
              ],
              [
                5.533579727866343,
                50.030808973291315
              ],
              [
                5.533080810088802,
                50.03066314287306
              ],
              [
                5.532562107503722,
                50.03054951355761
              ],
              [
                5.532028614561333,
                50.030469179425054
              ],
              [
                5.531485468028235,
                50.030422913968096
              ],
              [
                5.530937897558331,
                50.030411162649344
              ],
              [
                5.530391175372365,
                50.030434038615056
              ],
              [
                5.529850565528968,
                50.03049132160648
              ],
              [
                5.529321273274039,
                50.03058246007914
              ],
              [
                5.528808394954505,
                50.03070657650983
              ],
              [
                5.528316868977167,
                50.0308624758404
              ],
              [
                5.527851428283406,
                50.03104865697709
              ],
              [
                5.527416554796134,
                50.03126332723531
              ],
              [
                5.527016436276621,
                50.03150441959106
              ],
              [
                5.526654926005905,
                50.031769612573385
              ],
              [
                5.526335505678633,
                50.03205635260674
              ],
              [
                5.526061251866577,
                50.03236187858884
              ],
              [
                5.525834806374977,
                50.03268324846772
              ],
              [
                5.525658350777821,
                50.03301736756257
              ],
              [
                5.525533585378119,
                50.03336101835624
              ],
              [
                5.525461712796979,
                50.03371089147269
              ],
              [
                5.525443426350898,
                50.034063617541676
              ],
              [
                5.525478903330775,
                50.034415799643725
              ],
              [
                5.525567803249066,
                50.034764046023405
              ],
              [
                5.5257092710736995,
                50.03510500275568
              ],
              [
                5.525901945419349,
                50.035435386050715
              ],
              [
                5.526143971618848,
                50.035752013885855
              ],
              [
                5.5264330195503435,
                50.036051836659894
              ],
              [
                5.526766306049862,
                50.03633196657403
              ],
              [
                5.526768687297224,
                50.036333606218996
              ],
              [
                5.526770305977108,
                50.03633496672162
              ],
              [
                5.527144621666771,
                50.036592705590635
              ],
              [
                5.527556361716596,
                50.03682557087968
              ],
              [
                5.528001560691636,
                50.037031319590746
              ],
              [
                5.528475930702829,
                50.03720796989029
              ],
              [
                5.528974902716308,
                50.03735382020903
              ],
              [
                5.529493670578406,
                50.03746746564183
              ],
              [
                5.530027237331543,
                50.03754781148866
              ],
              [
                5.530570463373775,
                50.03759408380614
              ],
              [
                5.531118115996796,
                50.03760583686748
              ],
              [
                5.531664919823784,
                50.03758295745888
              ],
              [
                5.5322056076596215,
                50.03752566597088
              ],
              [
                5.532734971262042,
                50.037434514273926
              ],
              [
                5.533247911543008,
                50.037310380398864
              ],
              [
                5.533739487715209,
                50.037154460073765
              ],
              [
                5.534204964908812,
                50.03696825519869
              ],
              [
                5.53463985979863,
                50.03675355937
              ],
              [
                5.535039983801174,
                50.036512440593924
              ],
              [
                5.535401483424838,
                50.036247221356334
              ],
              [
                5.535720877384147,
                50.035960456241405
              ],
              [
                5.535995090120526,
                50.03565490731497
              ],
              [
                5.536221481407006,
                50.03533351751045
              ],
              [
                5.5363978717523095,
                50.034999382274165
              ],
              [
                5.536522563360531,
                50.0346557197434
              ],
              [
                5.5365943564457245,
                50.0343058397451
              ],
              [
                5.536612560745664,
                50.033953111913945
              ],
              [
                5.536577002125467,
                50.03360093323707
              ],
              [
                5.536488024209153,
                50.033252695338334
              ],
              [
                5.536346485025219,
                50.03291175181695
              ],
              [
                5.536153748700208,
                50.03258138595518
              ],
              [
                5.535911672281977,
                50.03226477910597
              ],
              [
                5.535622587821057,
                50.03196498006425
              ],
              [
                5.535289279883981,
                50.031684875717104
              ],
              [
                5.535286898575982,
                50.031683236247915
              ],
              [
                5.535285279811283,
                50.03168187586467
              ],
              [
                5.534910958688556,
                50.031424163389104
              ]
            ]
          ],
          [
            [
              [
                5.515265867971451,
                50.04794238099609
              ],
              [
                5.514766827284247,
                50.047796471397696
              ],
              [
                5.514247982367951,
                50.04768275973832
              ],
              [
                5.513714329043201,
                50.047602340890926
              ],
              [
                5.513171005620667,
                50.047555989163875
              ],
              [
                5.512623243457126,
                50.047544150850406
              ],
              [
                5.512076316618629,
                50.047566939934384
              ],
              [
                5.511535491133801,
                50.047624136993605
              ],
              [
                5.511005974324298,
                50.04771519131098
              ],
              [
                5.510492864698602,
                50.047839226173664
              ],
              [
                5.510001102890093,
                50.04799504730892
              ],
              [
                5.509535424110355,
                50.048181154375946
              ],
              [
                5.509100312574298,
                50.04839575540347
              ],
              [
                5.508699958334944,
                50.04863678403419
              ],
              [
                5.508338216942802,
                50.048901919410916
              ],
              [
                5.508018572317878,
                50.049188608512914
              ],
              [
                5.507744103191766,
                50.04949409072852
              ],
              [
                5.507517453443217,
                50.04981542442737
              ],
              [
                5.507463360600653,
                50.049917730347815
              ],
              [
                5.50744954208548,
                50.04993732137563
              ],
              [
                5.507272894330781,
                50.05027141212
              ],
              [
                5.507147951758121,
                50.05061504280086
              ],
              [
                5.507075918695387,
                50.05096490423604
              ],
              [
                5.507057490005274,
                50.05131762716799
              ],
              [
                5.507092844349384,
                50.051669814707644
              ],
              [
                5.507181642422145,
                50.05201807504738
              ],
              [
                5.507323030173312,
                50.05235905412791
              ],
              [
                5.507515646989747,
                50.052689467944276
              ],
              [
                5.507757638759348,
                50.05300613417999
              ],
              [
                5.508046675692832,
                50.05330600286417
              ],
              [
                5.508379974733044,
                50.053586185755876
              ],
              [
                5.508754326337086,
                50.053843984172715
              ],
              [
                5.50916612537408,
                50.054076914994724
              ],
              [
                5.509611405841471,
                50.054282734592746
              ],
              [
                5.510085879065667,
                50.05445946045042
              ],
              [
                5.51015847547014,
                50.05448068697979
              ],
              [
                5.510203784914192,
                50.05449756305926
              ],
              [
                5.510702881625105,
                50.05464349236905
              ],
              [
                5.511221793654013,
                50.05475721995026
              ],
              [
                5.51175552265461,
                50.0548376503116
              ],
              [
                5.5122989274619085,
                50.05488400869552
              ],
              [
                5.512846773645322,
                50.054895848546195
              ],
              [
                5.513393783963119,
                50.05487305581384
              ],
              [
                5.513569964475622,
                50.05485442338066
              ],
              [
                5.513569964475627,
                50.05485442338066
              ],
              [
                5.513722808221327,
                50.05484805400899
              ],
              [
                5.514263712812229,
                50.05479084670595
              ],
              [
                5.514793301788449,
                50.05469977745238
              ],
              [
                5.515306473890455,
                50.054575723485044
              ],
              [
                5.5157982860973425,
                50.054419879762314
              ],
              [
                5.5162640012651645,
                50.054233747446474
              ],
              [
                5.516699133776016,
                50.05401911943505
              ],
              [
                5.517099492757214,
                50.05377806308115
              ],
              [
                5.51746122245355,
                50.05351290026953
              ],
              [
                5.517780839363365,
                50.053226185040984
              ],
              [
                5.518055265780681,
                50.05292067898104
              ],
              [
                5.518281859420597,
                50.052599324610405
              ],
              [
                5.51845843884319,
                50.05226521703432
              ],
              [
                5.51858330443197,
                50.051921574123845
              ],
              [
                5.518655254725974,
                50.05157170551718
              ],
              [
                5.518655264482748,
                50.051571517904016
              ],
              [
                5.5186562541500495,
                50.051566705468986
              ],
              [
                5.5186745973644316,
                50.05121398069103
              ],
              [
                5.518639158042143,
                50.050861796700445
              ],
              [
                5.518550278659222,
                50.050513545172365
              ],
              [
                5.518408816296226,
                50.050172579837465
              ],
              [
                5.518216134340901,
                50.04984218418824
              ],
              [
                5.517974089318514,
                50.04952553986458
              ],
              [
                5.5176850129782125,
                50.04922569602242
              ],
              [
                5.517351689809217,
                50.04894553998031
              ],
              [
                5.51697733020447,
                50.04868776942614
              ],
              [
                5.516565539530933,
                50.048454866451
              ],
              [
                5.516120283404909,
                50.048249073659996
              ],
              [
                5.515645849506865,
                50.048072372589075
              ],
              [
                5.515501821464785,
                50.048030262646755
              ],
              [
                5.515265867971451,
                50.04794238099609
              ]
            ]
          ]
        ]
      },
      "properties": {
        "type": "buffer_union_400m",
        "buffer_m": 400
      }
    },
    {
      "type": "Feature",
      "geometry": {
        "type": "Polygon",
        "coordinates": [
          [
            [
              5.4179142,
              50.0488566
            ],
            [
              5.4181991,
              50.0490824
            ],
            [
              5.4184836,
              50.0491179
            ],
            [
              5.4186653,
              50.049053
            ],
            [
              5.4192933,
              50.0491547
            ],
            [
              5.4204158,
              50.0495896
            ],
            [
              5.421026,
              50.0496783
            ],
            [
              5.4222768,
              50.0500827
            ],
            [
              5.4254919,
              50.0504413
            ],
            [
              5.4259157,
              50.0506729
            ],
            [
              5.426084,
              50.0506187
            ],
            [
              5.4263717,
              50.0507978
            ],
            [
              5.4268049,
              50.0507573
            ],
            [
              5.427305,
              50.0508766
            ],
            [
              5.4274191,
              50.05097
            ],
            [
              5.427855,
              50.0509709
            ],
            [
              5.42855,
              50.0507829
            ],
            [
              5.431142,
              50.0508046
            ],
            [
              5.4331001,
              50.0510869
            ],
            [
              5.4366723,
              50.05207
            ],
            [
              5.4378901,
              50.0539929
            ],
            [
              5.4400224,
              50.055806
            ],
            [
              5.4483714,
              50.060174
            ],
            [
              5.4520979,
              50.0628464
            ],
            [
              5.4543249,
              50.0645594
            ],
            [
              5.4560555,
              50.0671942
            ],
            [
              5.458185,
              50.0688899
            ],
            [
              5.4604277,
              50.0701436
            ],
            [
              5.4602265,
              50.0702366
            ],
            [
              5.4602453,
              50.070333
            ],
            [
              5.4608909,
              50.0707958
            ],
            [
              5.4607522,
              50.0709665
            ],
            [
              5.4616401,
              50.0712712
            ],
            [
              5.4618332,
              50.0711128
            ],
            [
              5.4626539,
              50.0710405
            ],
            [
              5.462787,
              50.0711038
            ],
            [
              5.4625064,
              50.0713642
            ],
            [
              5.4632306,
              50.0717946
            ],
            [
              5.4637492,
              50.0718272
            ],
            [
              5.4636785,
              50.0719788
            ],
            [
              5.4643652,
              50.0720597
            ],
            [
              5.4648882,
              50.0719667
            ],
            [
              5.4651833,
              50.0721216
            ],
            [
              5.4650599,
              50.0722594
            ],
            [
              5.4651055,
              50.0723661
            ],
            [
              5.4655319,
              50.0724745
            ],
            [
              5.4658672,
              50.0726622
            ],
            [
              5.4662511,
              50.0725462
            ],
            [
              5.466916,
              50.0725589
            ],
            [
              5.466873,
              50.0727689
            ],
            [
              5.4671171,
              50.0727379
            ],
            [
              5.4676777,
              50.0729135
            ],
            [
              5.4693058,
              50.0727723
            ],
            [
              5.4694265,
              50.0728963
            ],
            [
              5.4697806,
              50.0728584
            ],
            [
              5.4699951,
              50.0729617
            ],
            [
              5.4701453,
              50.0729497
            ],
            [
              5.4700572,
              50.072733
            ],
            [
              5.4702982,
              50.0727427
            ],
            [
              5.4702084,
              50.0726777
            ],
            [
              5.470207,
              50.0725572
            ],
            [
              5.4706139,
              50.0723931
            ],
            [
              5.4707381,
              50.0725012
            ],
            [
              5.4710928,
              50.0724685
            ],
            [
              5.4714382,
              50.0726381
            ],
            [
              5.4724319,
              50.072793
            ],
            [
              5.4728571,
              50.0726364
            ],
            [
              5.4726841,
              50.07241
            ],
            [
              5.4727645,
              50.0722731
            ],
            [
              5.4732552,
              50.0721563
            ],
            [
              5.4735129,
              50.0722774
            ],
            [
              5.4738642,
              50.0720829
            ],
            [
              5.4742511,
              50.0720175
            ],
            [
              5.4743583,
              50.0720438
            ],
            [
              5.4743028,
              50.0722396
            ],
            [
              5.4745348,
              50.0723428
            ],
            [
              5.4752643,
              50.0721475
            ],
            [
              5.4774997,
              50.072777
            ],
            [
              5.4782287,
              50.0731061
            ],
            [
              5.4791468,
              50.0727792
            ],
            [
              5.4805615,
              50.0724787
            ],
            [
              5.4806766,
              50.0721684
            ],
            [
              5.4833096,
              50.0723248
            ],
            [
              5.4843358,
              50.0724792
            ],
            [
              5.4852784,
              50.073127
            ],
            [
              5.4864907,
              50.0737743
            ],
            [
              5.4879284,
              50.0741461
            ],
            [
              5.4893365,
              50.0747778
            ],
            [
              5.4915601,
              50.075568
            ],
            [
              5.492059,
              50.0759811
            ],
            [
              5.4921985,
              50.0762737
            ],
            [
              5.4918842,
              50.076614
            ],
            [
              5.4916172,
              50.0777186
            ],
            [
              5.4931882,
              50.07752
            ],
            [
              5.4942727,
              50.0769438
            ],
            [
              5.4944717,
              50.0769748
            ],
            [
              5.4948646,
              50.0768848
            ],
            [
              5.496034,
              50.0770432
            ],
            [
              5.4971222,
              50.0766551
            ],
            [
              5.4979203,
              50.0766322
            ],
            [
              5.4980323,
              50.0765836
            ],
            [
              5.4979706,
              50.0765268
            ],
            [
              5.4980993,
              50.0763615
            ],
            [
              5.4981959,
              50.0764407
            ],
            [
              5.4990438,
              50.076271
            ],
            [
              5.4993224,
              50.0764803
            ],
            [
              5.4996711,
              50.0765285
            ],
            [
              5.4999125,
              50.0764218
            ],
            [
              5.5000171,
              50.0765027
            ],
            [
              5.5009037,
              50.0765909
            ],
            [
              5.5012268,
              50.0767626
            ],
            [
              5.5012268,
              50.0768934
            ],
            [
              5.5013958,
              50.0769743
            ],
            [
              5.5016224,
              50.0768082
            ],
            [
              5.5022071,
              50.0770303
            ],
            [
              5.5029977,
              50.0770746
            ],
            [
              5.50402,
              50.0769212
            ],
            [
              5.5042858,
              50.0767824
            ],
            [
              5.5053006,
              50.0765184
            ],
            [
              5.5065389,
              50.0766128
            ],
            [
              5.507597,
              50.0770756
            ],
            [
              5.5084899,
              50.0771117
            ],
            [
              5.5103059,
              50.0774871
            ],
            [
              5.5111587,
              50.0774233
            ],
            [
              5.5120856,
              50.0771586
            ],
            [
              5.5126065,
              50.0768409
            ],
            [
              5.5132767,
              50.0765733
            ],
            [
              5.5143866,
              50.0764693
            ],
            [
              5.5164188,
              50.0758391
            ],
            [
              5.5172543,
              50.0753717
            ],
            [
              5.5177956,
              50.0753322
            ],
            [
              5.5193234,
              50.0745886
            ],
            [
              5.5206674,
              50.0743594
            ],
            [
              5.5214426,
              50.0737415
            ],
            [
              5.5215821,
              50.0735264
            ],
            [
              5.5215396,
              50.0733045
            ],
            [
              5.5216384,
              50.0730848
            ],
            [
              5.521949,
              50.0728565
            ],
            [
              5.5233228,
              50.0730134
            ],
            [
              5.5238609,
              50.0729777
            ],
            [
              5.5238888,
              50.0728868
            ],
            [
              5.5237667,
              50.0727276
            ],
            [
              5.5231538,
              50.0725245
            ],
            [
              5.5224793,
              50.0720889
            ],
            [
              5.5222474,
              50.0718469
            ],
            [
              5.522205,
              50.0716607
            ],
            [
              5.5219703,
              50.0715346
            ],
            [
              5.5221649,
              50.0714838
            ],
            [
              5.522384,
              50.071186
            ],
            [
              5.523013,
              50.0708443
            ],
            [
              5.5234838,
              50.0704305
            ],
            [
              5.52365,
              50.0699293
            ],
            [
              5.5236782,
              50.0690986
            ],
            [
              5.5239103,
              50.0690967
            ],
            [
              5.5245481,
              50.0687371
            ],
            [
              5.5250287,
              50.0689798
            ],
            [
              5.5269524,
              50.068993
            ],
            [
              5.5280328,
              50.0683617
            ],
            [
              5.5303713,
              50.0676554
            ],
            [
              5.5302543,
              50.066955
            ],
            [
              5.5327105,
              50.0683617
            ],
            [
              5.53296,
              50.0679864
            ],
            [
              5.5339169,
              50.0685358
            ],
            [
              5.5342126,
              50.0676731
            ],
            [
              5.5341268,
              50.0675831
            ],
            [
              5.534992,
              50.0673656
            ],
            [
              5.5352291,
              50.0674975
            ],
            [
              5.5382788,
              50.068114
            ],
            [
              5.538889,
              50.0671912
            ],
            [
              5.5396508,
              50.0676395
            ],
            [
              5.5400836,
              50.0682365
            ],
            [
              5.5402606,
              50.0683286
            ],
            [
              5.540607,
              50.0682692
            ],
            [
              5.5405037,
              50.0680148
            ],
            [
              5.5421933,
              50.0677921
            ],
            [
              5.5414653,
              50.0668794
            ],
            [
              5.5401492,
              50.0655806
            ],
            [
              5.5385692,
              50.0635741
            ],
            [
              5.5383863,
              50.0630371
            ],
            [
              5.5383633,
              50.0626369
            ],
            [
              5.5385358,
              50.0620682
            ],
            [
              5.5392073,
              50.0611251
            ],
            [
              5.5387497,
              50.0610054
            ],
            [
              5.5422616,
              50.059022
            ],
            [
              5.5430612,
              50.059219
            ],
            [
              5.5449709,
              50.0586541
            ],
            [
              5.5457702,
              50.058649
            ],
            [
              5.5465722,
              50.0585216
            ],
            [
              5.5473183,
              50.0585441
            ],
            [
              5.5471804,
              50.0590072
            ],
            [
              5.5493885,
              50.0603021
            ],
            [
              5.5516437,
              50.0625918
            ],
            [
              5.5527194,
              50.0616919
            ],
            [
              5.5559653,
              50.0615883
            ],
            [
              5.5569309,
              50.0614609
            ],
            [
              5.5595572,
              50.0615369
            ],
            [
              5.5616342,
              50.0596895
            ],
            [
              5.561897,
              50.0599077
            ],
            [
              5.5621337,
              50.0608148
            ],
            [
              5.5625768,
              50.0614107
            ],
            [
              5.5634775,
              50.0620395
            ],
            [
              5.5644532,
              50.0629615
            ],
            [
              5.5650666,
              50.063371
            ],
            [
              5.5732743,
              50.0577695
            ],
            [
              5.5740015,
              50.0547784
            ],
            [
              5.5749505,
              50.0527245
            ],
            [
              5.5764802,
              50.0500022
            ],
            [
              5.5767564,
              50.0496688
            ],
            [
              5.5772222,
              50.0492263
            ],
            [
              5.5782076,
              50.0485802
            ],
            [
              5.5798773,
              50.0476208
            ],
            [
              5.5821462,
              50.0466037
            ],
            [
              5.5836837,
              50.0454925
            ],
            [
              5.5831659,
              50.0452605
            ],
            [
              5.584086,
              50.0442288
            ],
            [
              5.5851102,
              50.0428058
            ],
            [
              5.5852926,
              50.0422236
            ],
            [
              5.5855042,
              50.0409976
            ],
            [
              5.5852969,
              50.0399516
            ],
            [
              5.5847626,
              50.0389617
            ],
            [
              5.5836793,
              50.0376448
            ],
            [
              5.5869985,
              50.0356739
            ],
            [
              5.5892757,
              50.0347005
            ],
            [
              5.5918597,
              50.0337339
            ],
            [
              5.5936879,
              50.0336651
            ],
            [
              5.5939239,
              50.0335651
            ],
            [
              5.5940193,
              50.0332849
            ],
            [
              5.5963808,
              50.0313667
            ],
            [
              5.5965418,
              50.0309928
            ],
            [
              5.5972618,
              50.0303394
            ],
            [
              5.5966276,
              50.0297471
            ],
            [
              5.6021449,
              50.0266645
            ],
            [
              5.6020928,
              50.0264951
            ],
            [
              5.60233,
              50.0261872
            ],
            [
              5.603655,
              50.0254324
            ],
            [
              5.6038498,
              50.0255523
            ],
            [
              5.6060077,
              50.0261382
            ],
            [
              5.6076414,
              50.0264514
            ],
            [
              5.6080431,
              50.0263836
            ],
            [
              5.6091052,
              50.0264456
            ],
            [
              5.6097972,
              50.0254428
            ],
            [
              5.6108657,
              50.024522
            ],
            [
              5.6125069,
              50.0252099
            ],
            [
              5.6132726,
              50.0244096
            ],
            [
              5.6151397,
              50.0227654
            ],
            [
              5.6126884,
              50.0219577
            ],
            [
              5.6139882,
              50.0208081
            ],
            [
              5.6142055,
              50.0208529
            ],
            [
              5.6148451,
              50.0202497
            ],
            [
              5.6163228,
              50.0206144
            ],
            [
              5.6180316,
              50.0211519
            ],
            [
              5.6201547,
              50.0211656
            ],
            [
              5.6204939,
              50.0212932
            ],
            [
              5.6209016,
              50.0209864
            ],
            [
              5.621438,
              50.0214621
            ],
            [
              5.6219584,
              50.0217068
            ],
            [
              5.6225002,
              50.0218619
            ],
            [
              5.6230185,
              50.0218315
            ],
            [
              5.6228542,
              50.0211829
            ],
            [
              5.62213,
              50.0200868
            ],
            [
              5.6218672,
              50.0198869
            ],
            [
              5.6197899,
              50.0192687
            ],
            [
              5.6219502,
              50.0182086
            ],
            [
              5.622782,
              50.0183239
            ],
            [
              5.6238949,
              50.0187677
            ],
            [
              5.6261407,
              50.020012
            ],
            [
              5.6270636,
              50.0184245
            ],
            [
              5.6274247,
              50.0180877
            ],
            [
              5.6278109,
              50.0179877
            ],
            [
              5.6297099,
              50.0169709
            ],
            [
              5.628342,
              50.0163125
            ],
            [
              5.6236424,
              50.0135401
            ],
            [
              5.6243667,
              50.0126742
            ],
            [
              5.6247774,
              50.0124207
            ],
            [
              5.6225567,
              50.0118226
            ],
            [
              5.6186968,
              50.010535
            ],
            [
              5.6176105,
              50.010335
            ],
            [
              5.6149498,
              50.0094931
            ],
            [
              5.6121549,
              50.0081527
            ],
            [
              5.609445,
              50.0069698
            ],
            [
              5.6095125,
              50.0064159
            ],
            [
              5.612237,
              50.0026361
            ],
            [
              5.6108532,
              50.0012013
            ],
            [
              5.6044661,
              49.997762
            ],
            [
              5.6033238,
              49.9992219
            ],
            [
              5.6014931,
              49.9984053
            ],
            [
              5.6034755,
              49.9962031
            ],
            [
              5.6024963,
              49.9955139
            ],
            [
              5.602165,
              49.9951518
            ],
            [
              5.6025487,
              49.9944577
            ],
            [
              5.6006563,
              49.9938189
            ],
            [
              5.5975932,
              49.9923429
            ],
            [
              5.5977729,
              49.9921653
            ],
            [
              5.5967778,
              49.9913186
            ],
            [
              5.5964076,
              49.9907565
            ],
            [
              5.5941776,
              49.9890085
            ],
            [
              5.5920791,
              49.9900563
            ],
            [
              5.5918396,
              49.9895463
            ],
            [
              5.5927271,
              49.9890351
            ],
            [
              5.5918922,
              49.9885
            ],
            [
              5.590643,
              49.9875364
            ],
            [
              5.5900996,
              49.9879693
            ],
            [
              5.5896029,
              49.9878369
            ],
            [
              5.5891495,
              49.98792
            ],
            [
              5.5887318,
              49.9877218
            ],
            [
              5.5879802,
              49.9871506
            ],
            [
              5.5864502,
              49.9865431
            ],
            [
              5.5863681,
              49.986302
            ],
            [
              5.5863601,
              49.9856795
            ],
            [
              5.586769,
              49.9841811
            ],
            [
              5.5887645,
              49.9834596
            ],
            [
              5.5875939,
              49.9824466
            ],
            [
              5.5868681,
              49.9820678
            ],
            [
              5.5870682,
              49.9814502
            ],
            [
              5.5854212,
              49.9810887
            ],
            [
              5.5862045,
              49.9797775
            ],
            [
              5.5863316,
              49.9790804
            ],
            [
              5.5863896,
              49.977944
            ],
            [
              5.5863164,
              49.9776365
            ],
            [
              5.5863306,
              49.9771316
            ],
            [
              5.5865666,
              49.9765744
            ],
            [
              5.5865773,
              49.9761928
            ],
            [
              5.5863333,
              49.9751686
            ],
            [
              5.5861106,
              49.9746477
            ],
            [
              5.5857968,
              49.9742871
            ],
            [
              5.5850941,
              49.9737437
            ],
            [
              5.5843647,
              49.9730107
            ],
            [
              5.5850632,
              49.9727516
            ],
            [
              5.5840616,
              49.9717056
            ],
            [
              5.583725,
              49.9720847
            ],
            [
              5.5828719,
              49.9711749
            ],
            [
              5.5835003,
              49.9703808
            ],
            [
              5.5819666,
              49.9698683
            ],
            [
              5.5816721,
              49.9696068
            ],
            [
              5.5813356,
              49.9696287
            ],
            [
              5.5812194,
              49.9694395
            ],
            [
              5.5811675,
              49.9688998
            ],
            [
              5.5799258,
              49.9681815
            ],
            [
              5.580211,
              49.9679205
            ],
            [
              5.5797499,
              49.9677458
            ],
            [
              5.5788848,
              49.966831
            ],
            [
              5.5785618,
              49.9660754
            ],
            [
              5.5788177,
              49.9656665
            ],
            [
              5.5791456,
              49.9646222
            ],
            [
              5.5784499,
              49.9633706
            ],
            [
              5.5774968,
              49.9626229
            ],
            [
              5.5768708,
              49.96184
            ],
            [
              5.5766264,
              49.9607818
            ],
            [
              5.576051,
              49.9591995
            ],
            [
              5.5724977,
              49.9592147
            ],
            [
              5.5714037,
              49.9593015
            ],
            [
              5.570275,
              49.958834
            ],
            [
              5.5694193,
              49.9596982
            ],
            [
              5.5686165,
              49.9602518
            ],
            [
              5.5672021,
              49.959112
            ],
            [
              5.5671877,
              49.9595228
            ],
            [
              5.5667704,
              49.9591437
            ],
            [
              5.5667585,
              49.9584127
            ],
            [
              5.5672796,
              49.957523
            ],
            [
              5.5661175,
              49.9573514
            ],
            [
              5.5645591,
              49.9569045
            ],
            [
              5.5620912,
              49.9554063
            ],
            [
              5.5610089,
              49.9576007
            ],
            [
              5.5600803,
              49.9606639
            ],
            [
              5.5621291,
              49.9617232
            ],
            [
              5.5616093,
              49.9626169
            ],
            [
              5.5634969,
              49.963596
            ],
            [
              5.5638564,
              49.9636444
            ],
            [
              5.5639851,
              49.9637996
            ],
            [
              5.564413,
              49.9638486
            ],
            [
              5.5626655,
              49.9648349
            ],
            [
              5.562764,
              49.9648758
            ],
            [
              5.5627674,
              49.9656734
            ],
            [
              5.5622928,
              49.9657437
            ],
            [
              5.5592142,
              49.9653911
            ],
            [
              5.5576444,
              49.9650937
            ],
            [
              5.5537022,
              49.9651581
            ],
            [
              5.5534816,
              49.9653801
            ],
            [
              5.5528432,
              49.9653318
            ],
            [
              5.5526823,
              49.9654939
            ],
            [
              5.552119,
              49.9655319
            ],
            [
              5.551706,
              49.9658218
            ],
            [
              5.5508165,
              49.9661361
            ],
            [
              5.5492519,
              49.966313
            ],
            [
              5.5483049,
              49.9669501
            ],
            [
              5.5475646,
              49.9668052
            ],
            [
              5.5468565,
              49.96734
            ],
            [
              5.5446036,
              49.9676812
            ],
            [
              5.5426562,
              49.9671295
            ],
            [
              5.5413151,
              49.9669018
            ],
            [
              5.5409825,
              49.9670674
            ],
            [
              5.5405426,
              49.9670329
            ],
            [
              5.5399847,
              49.9667983
            ],
            [
              5.5344657,
              49.966196
            ],
            [
              5.5338156,
              49.9663911
            ],
            [
              5.5326829,
              49.9665102
            ],
            [
              5.5321795,
              49.966995
            ],
            [
              5.531922,
              49.9678231
            ],
            [
              5.5315196,
              49.9681302
            ],
            [
              5.5306506,
              49.9685408
            ],
            [
              5.5297946,
              49.9687935
            ],
            [
              5.5302,
              49.9707179
            ],
            [
              5.5302875,
              49.9743355
            ],
            [
              5.531289,
              49.9756585
            ],
            [
              5.5320075,
              49.9759196
            ],
            [
              5.5316216,
              49.9764347
            ],
            [
              5.5298977,
              49.9775866
            ],
            [
              5.5287409,
              49.9798189
            ],
            [
              5.5271852,
              49.9814126
            ],
            [
              5.5262732,
              49.9832684
            ],
            [
              5.5232477,
              49.9852897
            ],
            [
              5.5226362,
              49.9861175
            ],
            [
              5.5211395,
              49.987373
            ],
            [
              5.5201471,
              49.9879939
            ],
            [
              5.5158448,
              49.9898666
            ],
            [
              5.5139887,
              49.9908634
            ],
            [
              5.5060312,
              49.9942269
            ],
            [
              5.5043717,
              49.9951597
            ],
            [
              5.5001271,
              49.9980709
            ],
            [
              5.5000442,
              49.998034
            ],
            [
              5.4960287,
              49.9995399
            ],
            [
              5.495165,
              50.000033
            ],
            [
              5.492751,
              50.0011812
            ],
            [
              5.4905975,
              50.0020633
            ],
            [
              5.4909861,
              50.0028983
            ],
            [
              5.4906267,
              50.0031155
            ],
            [
              5.490455,
              50.0033155
            ],
            [
              5.4902351,
              50.0034155
            ],
            [
              5.4901265,
              50.0033336
            ],
            [
              5.4899763,
              50.0034146
            ],
            [
              5.4899868,
              50.003718
            ],
            [
              5.4893919,
              50.0040285
            ],
            [
              5.4891246,
              50.0092129
            ],
            [
              5.4881269,
              50.0101919
            ],
            [
              5.4875153,
              50.0110366
            ],
            [
              5.487301,
              50.0122971
            ],
            [
              5.4873517,
              50.0124827
            ],
            [
              5.4872149,
              50.0129705
            ],
            [
              5.48706,
              50.0131491
            ],
            [
              5.4886043,
              50.014751
            ],
            [
              5.4894465,
              50.0150319
            ],
            [
              5.4897094,
              50.015362
            ],
            [
              5.4893446,
              50.0158127
            ],
            [
              5.4893205,
              50.0160092
            ],
            [
              5.4897764,
              50.0163814
            ],
            [
              5.490911,
              50.0185737
            ],
            [
              5.4924533,
              50.0201747
            ],
            [
              5.4931641,
              50.0205513
            ],
            [
              5.493549,
              50.020653
            ],
            [
              5.4944274,
              50.0211743
            ],
            [
              5.4959549,
              50.0211751
            ],
            [
              5.4966201,
              50.0210657
            ],
            [
              5.4985325,
              50.0217835
            ],
            [
              5.498709,
              50.0219809
            ],
            [
              5.4984614,
              50.0221238
            ],
            [
              5.4971445,
              50.022085
            ],
            [
              5.4951918,
              50.0218636
            ],
            [
              5.4948807,
              50.0218946
            ],
            [
              5.4948163,
              50.0219722
            ],
            [
              5.4915936,
              50.022646
            ],
            [
              5.4891354,
              50.0230664
            ],
            [
              5.4869762,
              50.0239048
            ],
            [
              5.4856471,
              50.0240684
            ],
            [
              5.4842162,
              50.02414
            ],
            [
              5.4833633,
              50.0240918
            ],
            [
              5.4815179,
              50.023854
            ],
            [
              5.4811639,
              50.0237333
            ],
            [
              5.4774678,
              50.0233301
            ],
            [
              5.4765397,
              50.023306
            ],
            [
              5.4724842,
              50.0235851
            ],
            [
              5.4669374,
              50.0244295
            ],
            [
              5.4644,
              50.0250981
            ],
            [
              5.4633486,
              50.0251602
            ],
            [
              5.4628122,
              50.0250499
            ],
            [
              5.4603382,
              50.0251859
            ],
            [
              5.4544325,
              50.0247685
            ],
            [
              5.4541701,
              50.024657
            ],
            [
              5.4529384,
              50.0237016
            ],
            [
              5.4506564,
              50.0232577
            ],
            [
              5.4478937,
              50.0233559
            ],
            [
              5.4446107,
              50.0229751
            ],
            [
              5.4433683,
              50.0232981
            ],
            [
              5.4416817,
              50.0241573
            ],
            [
              5.4404372,
              50.024495
            ],
            [
              5.4392087,
              50.0251223
            ],
            [
              5.4379159,
              50.0260907
            ],
            [
              5.4307636,
              50.0305826
            ],
            [
              5.4275036,
              50.0306465
            ],
            [
              5.4269725,
              50.0326141
            ],
            [
              5.4274179,
              50.0332363
            ],
            [
              5.4286127,
              50.0335235
            ],
            [
              5.4285657,
              50.0343852
            ],
            [
              5.4286516,
              50.0350278
            ],
            [
              5.4278523,
              50.0355757
            ],
            [
              5.4270369,
              50.0359754
            ],
            [
              5.4254338,
              50.0374874
            ],
            [
              5.4236466,
              50.0393244
            ],
            [
              5.4226971,
              50.0409213
            ],
            [
              5.4226434,
              50.0413278
            ],
            [
              5.4217189,
              50.042306
            ],
            [
              5.4193014,
              50.0432537
            ],
            [
              5.4175794,
              50.04427
            ],
            [
              5.4161471,
              50.045226
            ],
            [
              5.4147965,
              50.0466429
            ],
            [
              5.4151802,
              50.0468709
            ],
            [
              5.4154712,
              50.0472808
            ],
            [
              5.416123,
              50.0475702
            ],
            [
              5.4167768,
              50.048012
            ],
            [
              5.4177411,
              50.0484161
            ],
            [
              5.4179142,
              50.0488566
            ]
          ]
        ]
      },
      "properties": {
        "type": "boundary",
        "gemeente": "Sainte-Ode"
      }
    }
  ]
}