{
  "type": "FeatureCollection",
  "metadata": {
    "gemeente": "Saint-Hubert",
    "slug": "saint-hubert",
    "generated_at": "2026-09-25T22:11:43.660485Z",
    "total_points": 17,
    "providers": [
      "bpost",
      "DHL",
      "GLS",
      "VintedGo",
      "PostNL",
      "DPD",
      "Amazon"
    ],
    "bounds": [
      5.36364,
      50.0206718,
      5.3763461,
      50.0260108
    ]
  },
  "features": [
    {
      "type": "Feature",
      "geometry": {
        "type": "Point",
        "coordinates": [
          5.37323,
          50.02359
        ]
      },
      "properties": {
        "type": "pakketpunt",
        "locatieNaam": "Bbox 24/7 Commune Saint-Hubert",
        "straatNaam": "Rue De La Comane",
        "straatNr": "17",
        "vervoerder": "bpost",
        "puntType": "automaat",
        "bezettingsgraad": 50,
        "latitude": 50.02359,
        "longitude": 5.37323,
        "canPickup": true,
        "canDropoff": true,
        "openingstijden": null
      }
    },
    {
      "type": "Feature",
      "geometry": {
        "type": "Point",
        "coordinates": [
          5.37197,
          50.02585
        ]
      },
      "properties": {
        "type": "pakketpunt",
        "locatieNaam": "Librairie Poncelet",
        "straatNaam": "Rue Saint-Gilles",
        "straatNr": "19",
        "vervoerder": "bpost",
        "puntType": "servicepunt",
        "bezettingsgraad": 50,
        "latitude": 50.02585,
        "longitude": 5.37197,
        "canPickup": true,
        "canDropoff": true,
        "openingstijden": null
      }
    },
    {
      "type": "Feature",
      "geometry": {
        "type": "Point",
        "coordinates": [
          5.3698,
          50.0258
        ]
      },
      "properties": {
        "type": "pakketpunt",
        "locatieNaam": "St-Hubert",
        "straatNaam": "Avenue Nestor-Martin",
        "straatNr": "10A",
        "vervoerder": "bpost",
        "puntType": "postkantoor",
        "bezettingsgraad": 50,
        "latitude": 50.0258,
        "longitude": 5.3698,
        "canPickup": true,
        "canDropoff": true,
        "openingstijden": null
      }
    },
    {
      "type": "Feature",
      "geometry": {
        "type": "Point",
        "coordinates": [
          5.36364,
          50.02585
        ]
      },
      "properties": {
        "type": "pakketpunt",
        "locatieNaam": "Bbox 24/7 Lidl St-Hubert",
        "straatNaam": "Avenue Nestor-Martin",
        "straatNr": "111",
        "vervoerder": "bpost",
        "puntType": "automaat",
        "bezettingsgraad": 50,
        "latitude": 50.02585,
        "longitude": 5.36364,
        "canPickup": true,
        "canDropoff": true,
        "openingstijden": null
      }
    },
    {
      "type": "Feature",
      "geometry": {
        "type": "Point",
        "coordinates": [
          5.363643,
          50.025849
        ]
      },
      "properties": {
        "type": "pakketpunt",
        "locatieNaam": "BBOX 24/7 LIDL ST-HUBERT",
        "straatNaam": "AVENUE NESTOR-MARTIN",
        "straatNr": "111",
        "vervoerder": "DHL",
        "puntType": "packStation",
        "bezettingsgraad": 50,
        "latitude": 50.025849,
        "longitude": 5.363643,
        "canPickup": true,
        "canDropoff": true,
        "openingstijden": {
          "ma": "00:00 - 23:59",
          "di": "00:00 - 23:59",
          "wo": "00:00 - 23:59",
          "do": "00:00 - 23:59",
          "vr": "00:00 - 23:59",
          "za": "00:00 - 23:59",
          "zo": "00:00 - 23:59"
        }
      }
    },
    {
      "type": "Feature",
      "geometry": {
        "type": "Point",
        "coordinates": [
          5.369799,
          50.025802
        ]
      },
      "properties": {
        "type": "pakketpunt",
        "locatieNaam": "ST-HUBERT",
        "straatNaam": "AVENUE NESTOR-MARTIN",
        "straatNr": "10A",
        "vervoerder": "DHL",
        "puntType": "postOffice",
        "bezettingsgraad": 50,
        "latitude": 50.025802,
        "longitude": 5.369799,
        "canPickup": true,
        "canDropoff": true,
        "openingstijden": {
          "ma": "09:30 - 12:30, 13:45 - 17:00",
          "di": "09:30 - 12:30, 13:45 - 18:00",
          "wo": "09:30 - 12:30",
          "do": "09:30 - 12:30",
          "vr": "09:30 - 12:30, 13:45 - 17:00",
          "za": "09:30 - 13:00",
          "zo": "gesloten"
        }
      }
    },
    {
      "type": "Feature",
      "geometry": {
        "type": "Point",
        "coordinates": [
          5.371965,
          50.02585
        ]
      },
      "properties": {
        "type": "pakketpunt",
        "locatieNaam": "LIBRAIRIE PONCELET",
        "straatNaam": "RUE SAINT-GILLES",
        "straatNr": "19",
        "vervoerder": "DHL",
        "puntType": "parcelShop",
        "bezettingsgraad": 50,
        "latitude": 50.02585,
        "longitude": 5.371965,
        "canPickup": true,
        "canDropoff": true,
        "openingstijden": {
          "ma": "06:30 - 12:30",
          "di": "06:30 - 12:30, 13:30 - 18:30",
          "wo": "06:30 - 12:30, 13:30 - 18:30",
          "do": "06:30 - 12:30, 13:30 - 18:30",
          "vr": "06:30 - 12:30, 13:30 - 18:30",
          "za": "06:30 - 12:30, 13:30 - 18:30",
          "zo": "gesloten"
        }
      }
    },
    {
      "type": "Feature",
      "geometry": {
        "type": "Point",
        "coordinates": [
          5.37323,
          50.02359
        ]
      },
      "properties": {
        "type": "pakketpunt",
        "locatieNaam": "BBOX 24/7 COMMUNE SAINT-HUBERT",
        "straatNaam": "RUE DE LA COMANE",
        "straatNr": "17",
        "vervoerder": "DHL",
        "puntType": "packStation",
        "bezettingsgraad": 50,
        "latitude": 50.02359,
        "longitude": 5.37323,
        "canPickup": true,
        "canDropoff": true,
        "openingstijden": {
          "ma": "00:00 - 23:59",
          "di": "00:00 - 23:59",
          "wo": "00:00 - 23:59",
          "do": "00:00 - 23:59",
          "vr": "00:00 - 23:59",
          "za": "00:00 - 23:59",
          "zo": "00:00 - 23:59"
        }
      }
    },
    {
      "type": "Feature",
      "geometry": {
        "type": "Point",
        "coordinates": [
          5.3763461,
          50.0206718
        ]
      },
      "properties": {
        "type": "pakketpunt",
        "locatieNaam": "Nicolas Gilles",
        "straatNaam": "Rue Du Mont",
        "straatNr": "141",
        "vervoerder": "GLS",
        "puntType": "parcel_shop",
        "bezettingsgraad": 50,
        "latitude": 50.0206718,
        "longitude": 5.3763461,
        "canPickup": true,
        "canDropoff": true,
        "openingstijden": "vr: 09:00 - 12:00, 13:15 - 18:00; za: 09:00 - 12:00, 13:15 - 18:00"
      }
    },
    {
      "type": "Feature",
      "geometry": {
        "type": "Point",
        "coordinates": [
          5.3690937,
          50.0260108
        ]
      },
      "properties": {
        "type": "pakketpunt",
        "locatieNaam": "GLS Parcel Locker powered by bbox",
        "straatNaam": "Avenue Nestor Martin",
        "straatNr": "11",
        "vervoerder": "GLS",
        "puntType": "locker",
        "bezettingsgraad": 50,
        "latitude": 50.0260108,
        "longitude": 5.3690937,
        "canPickup": true,
        "canDropoff": true,
        "openingstijden": "vr: 00:00 - 24:00; za: 00:00 - 24:00"
      }
    },
    {
      "type": "Feature",
      "geometry": {
        "type": "Point",
        "coordinates": [
          5.37464,
          50.02501
        ]
      },
      "properties": {
        "type": "pakketpunt",
        "locatieNaam": "Fun M'luck",
        "straatNaam": "Rue du Mont",
        "straatNr": "15",
        "vervoerder": "VintedGo",
        "puntType": "parcel_shop",
        "bezettingsgraad": 50,
        "latitude": 50.02501,
        "longitude": 5.37464,
        "canPickup": true,
        "canDropoff": true,
        "openingstijden": null
      }
    },
    {
      "type": "Feature",
      "geometry": {
        "type": "Point",
        "coordinates": [
          5.371995,
          50.025836
        ]
      },
      "properties": {
        "type": "pakketpunt",
        "locatieNaam": "Poncelet librairie papeterie",
        "straatNaam": "Rue Saint-Gilles",
        "straatNr": "19",
        "vervoerder": "PostNL",
        "puntType": "servicepunt",
        "bezettingsgraad": 50,
        "latitude": 50.025836,
        "longitude": 5.371995,
        "canPickup": true,
        "canDropoff": true,
        "openingstijden": "06:30 - 18:30"
      }
    },
    {
      "type": "Feature",
      "geometry": {
        "type": "Point",
        "coordinates": [
          5.371954,
          50.025895
        ]
      },
      "properties": {
        "type": "pakketpunt",
        "locatieNaam": "LIBRAIRIE PONCELET",
        "straatNaam": "RUE SAINT GILLES",
        "straatNr": "19",
        "vervoerder": "DPD",
        "puntType": "pickup_point",
        "bezettingsgraad": 50,
        "latitude": 50.025895,
        "longitude": 5.371954,
        "canPickup": true,
        "canDropoff": true,
        "openingstijden": {
          "ma": "06:30 - 12:30",
          "di": "06:30 - 12:30, 13:30 - 18:00",
          "wo": "06:30 - 12:30, 13:30 - 18:00",
          "do": "06:30 - 12:30, 13:30 - 18:00",
          "vr": "06:30 - 12:30, 13:30 - 18:00",
          "za": "06:30 - 12:30",
          "zo": "gesloten"
        }
      }
    },
    {
      "type": "Feature",
      "geometry": {
        "type": "Point",
        "coordinates": [
          5.371965,
          50.02585
        ]
      },
      "properties": {
        "type": "pakketpunt",
        "locatieNaam": "bpost - LIBRAIRIE PONCELET",
        "straatNaam": "RUE SAINT-GILLES,19",
        "straatNr": "",
        "vervoerder": "Amazon",
        "puntType": "3p",
        "bezettingsgraad": 50,
        "latitude": 50.02585,
        "longitude": 5.371965,
        "canPickup": true,
        "canDropoff": false,
        "openingstijden": null
      }
    },
    {
      "type": "Feature",
      "geometry": {
        "type": "Point",
        "coordinates": [
          5.37323,
          50.02359
        ]
      },
      "properties": {
        "type": "pakketpunt",
        "locatieNaam": "bpost - BBOX 24/7 COMMUNE SAINT-HUBERT",
        "straatNaam": "RUE DE LA COMANE,17",
        "straatNr": "",
        "vervoerder": "Amazon",
        "puntType": "3p",
        "bezettingsgraad": 50,
        "latitude": 50.02359,
        "longitude": 5.37323,
        "canPickup": true,
        "canDropoff": false,
        "openingstijden": null
      }
    },
    {
      "type": "Feature",
      "geometry": {
        "type": "Point",
        "coordinates": [
          5.369799,
          50.025802
        ]
      },
      "properties": {
        "type": "pakketpunt",
        "locatieNaam": "bpost - ST-HUBERT",
        "straatNaam": "AVENUE NESTOR-MARTIN,10A",
        "straatNr": "",
        "vervoerder": "Amazon",
        "puntType": "3p",
        "bezettingsgraad": 50,
        "latitude": 50.025802,
        "longitude": 5.369799,
        "canPickup": true,
        "canDropoff": false,
        "openingstijden": null
      }
    },
    {
      "type": "Feature",
      "geometry": {
        "type": "Point",
        "coordinates": [
          5.363643,
          50.025849
        ]
      },
      "properties": {
        "type": "pakketpunt",
        "locatieNaam": "bpost - BBOX 24/7 LIDL ST-HUBERT",
        "straatNaam": "AVENUE NESTOR-MARTIN,111",
        "straatNr": "",
        "vervoerder": "Amazon",
        "puntType": "3p",
        "bezettingsgraad": 50,
        "latitude": 50.025849,
        "longitude": 5.363643,
        "canPickup": true,
        "canDropoff": false,
        "openingstijden": null
      }
    },
    {
      "type": "Feature",
      "geometry": {
        "type": "Polygon",
        "coordinates": [
          [
            [
              5.365921614323353,
              50.023586260824246
            ],
            [
              5.365566388847347,
              50.023453271887014
            ],
            [
              5.365192642859267,
              50.02334335412262
            ],
            [
              5.36480397530079,
              50.023257565937335
            ],
            [
              5.364404128726658,
              50.0231967333868
            ],
            [
              5.363996953282063,
              50.02316144222586
            ],
            [
              5.363586369646525,
              50.02315203227103
            ],
            [
              5.363176331300304,
              50.02316859413013
            ],
            [
              5.362770786475765,
              50.02321096833012
            ],
            [
              5.362373640159127,
              50.02327874685208
            ],
            [
              5.361988716507615,
              50.02337127705786
            ],
            [
              5.361619722042963,
              50.02348766797142
            ],
            [
              5.361619072237123,
              50.0234879266425
            ],
            [
              5.361616722148756,
              50.023488667918826
            ],
            [
              5.361267210064706,
              50.02362779879222
            ],
            [
              5.3609405460705775,
              50.02378832992037
            ],
            [
              5.36063987594305,
              50.02396871550747
            ],
            [
              5.360368095252399,
              50.02416721855552
            ],
            [
              5.360127821478396,
              50.02438192758427
            ],
            [
              5.3599213687993545,
              50.02461077503179
            ],
            [
              5.359750725797247,
              50.02485155715829
            ],
            [
              5.359617536293896,
              50.02510195526222
            ],
            [
              5.35952308350331,
              50.02535955800442
            ],
            [
              5.35946827765341,
              50.025621884625565
            ],
            [
              5.3594536471971335,
              50.02588640883355
            ],
            [
              5.359479333698459,
              50.026150583130914
            ],
            [
              5.359545090443515,
              50.02641186334802
            ],
            [
              5.359650284791167,
              50.02666773314577
            ],
            [
              5.359793904241393,
              50.02691572825207
            ],
            [
              5.359974566163958,
              50.02715346019807
            ],
            [
              5.360190531094545,
              50.02737863932585
            ],
            [
              5.360439719471025,
              50.027589096845645
            ],
            [
              5.3607197316493265,
              50.02778280572971
            ],
            [
              5.361027871006532,
              50.0279579002418
            ],
            [
              5.361361169909012,
              50.02811269391338
            ],
            [
              5.361716418295542,
              50.02824569579337
            ],
            [
              5.362090194600052,
              50.02835562481472
            ],
            [
              5.362478898715847,
              50.0284414221389
            ],
            [
              5.362878786683388,
              50.02850226135928
            ],
            [
              5.363286006766889,
              50.02853755646503
            ],
            [
              5.363696636571563,
              50.02854696748834
            ],
            [
              5.364106720843123,
              50.02853040378065
            ],
            [
              5.364512309584598,
              50.02848802488629
            ],
            [
              5.3649094961223875,
              50.02842023900498
            ],
            [
              5.365294454753951,
              50.02832769905791
            ],
            [
              5.365663477613689,
              50.02821129639578
            ],
            [
              5.365664127461823,
              50.02821103770192
            ],
            [
              5.365666477719481,
              50.0282102963432
            ],
            [
              5.36601601049081,
              50.028071152147525
            ],
            [
              5.366220773348346,
              50.02797052138056
            ],
            [
              5.366481802562878,
              50.02811882382618
            ],
            [
              5.366815120235447,
              50.028273601725616
            ],
            [
              5.367170384981106,
              50.028406586795064
            ],
            [
              5.367544175076147,
              50.028516498129314
            ],
            [
              5.367932890280988,
              50.02860227706022
            ],
            [
              5.3683327865292325,
              50.028663097358326
            ],
            [
              5.368740012005299,
              50.028698373195056
            ],
            [
              5.369150644262438,
              50.02870776478817
            ],
            [
              5.369560728022731,
              50.0286911816763
            ],
            [
              5.369966313294141,
              50.028648783590704
            ],
            [
              5.37036349343651,
              50.028580978915876
            ],
            [
              5.370748442808935,
              50.02848842075407
            ],
            [
              5.37077049502705,
              50.0284814634953
            ],
            [
              5.370793348057612,
              50.028486505874724
            ],
            [
              5.371193246974784,
              50.02854731624891
            ],
            [
              5.3716004735743486,
              50.02858258197973
            ],
            [
              5.372011105398726,
              50.02859196338235
            ],
            [
              5.372421187174166,
              50.02857537009351
            ],
            [
              5.372826768927757,
              50.028532961942524
            ],
            [
              5.373223944053237,
              50.02846514741082
            ],
            [
              5.3736088869580465,
              50.02837257969562
            ],
            [
              5.373977889928141,
              50.02825615041507
            ],
            [
              5.374327398854637,
              50.02811698101616
            ],
            [
              5.37465404747754,
              50.02795641196801
            ],
            [
              5.374954689816107,
              50.0277759898451
            ],
            [
              5.375069814874372,
              50.02769187819119
            ],
            [
              5.375107329041837,
              50.02769035927477
            ],
            [
              5.375512900909575,
              50.02764794167084
            ],
            [
              5.3759100648779725,
              50.027580117881506
            ],
            [
              5.376294995461963,
              50.02748754119309
            ],
            [
              5.37666398506621,
              50.02737110331021
            ],
            [
              5.377013479710602,
              50.0272319257627
            ],
            [
              5.377340113272742,
              50.027071349098144
            ],
            [
              5.377640739916985,
              50.02689091996441
            ],
            [
              5.377912464397315,
              50.026692376206455
            ],
            [
              5.378152669941958,
              50.02647763012193
            ],
            [
              5.378359043451101,
              50.026248750036316
            ],
            [
              5.378529597765207,
              50.02600794037619
            ],
            [
              5.378662690789752,
              50.02575752043213
            ],
            [
              5.3787570412927055,
              50.02549990201645
            ],
            [
              5.378811741223256,
              50.025237566231155
            ],
            [
              5.378826264433924,
              50.02497303956984
            ],
            [
              5.378800471722943,
              50.02470886958401
            ],
            [
              5.378734612149321,
              50.02444760034819
            ],
            [
              5.378629320608837,
              50.024191747960096
            ],
            [
              5.378485611695382,
              50.02394377631193
            ],
            [
              5.378304869907607,
              50.02370607336574
            ],
            [
              5.378088836296124,
              50.02348092816149
            ],
            [
              5.377839591680538,
              50.02327050877883
            ],
            [
              5.377751231314522,
              50.023209404918084
            ],
            [
              5.378001033736566,
              50.02314931700569
            ],
            [
              5.378369985726049,
              50.0230328736465
            ],
            [
              5.378719443712819,
              50.02289369090845
            ],
            [
              5.379046041927589,
              50.02273310938915
            ],
            [
              5.379346634875192,
              50.022552675783174
            ],
            [
              5.379618327634166,
              50.022354127978616
            ],
            [
              5.379858503738247,
              50.022139378312005
            ],
            [
              5.380064850371142,
              50.021910495143366
            ],
            [
              5.380235380632114,
              50.02166968292895
            ],
            [
              5.380368452658227,
              50.0214192609839
            ],
            [
              5.380462785419602,
              50.02116164113982
            ],
            [
              5.38051747103619,
              50.02089930451245
            ],
            [
              5.3805319834982575,
              50.02063477760347
            ],
            [
              5.380506183707436,
              50.02037060796678
            ],
            [
              5.380440320790788,
              50.02010933967351
            ],
            [
              5.380335029676168,
              50.019853488812295
            ],
            [
              5.38019132495324,
              50.01960551926066
            ],
            [
              5.380010591080193,
              50.01936781896041
            ],
            [
              5.379794569031313,
              50.01914267692605
            ],
            [
              5.37954533951477,
              50.018932261206714
            ],
            [
              5.379265302922821,
              50.018738598014075
            ],
            [
              5.378957156207966,
              50.018563552216754
            ],
            [
              5.378623866908023,
              50.018408809388816
            ],
            [
              5.378268644570325,
              50.01827585958499
            ],
            [
              5.377894909850131,
              50.01816598299839
            ],
            [
              5.377506261580522,
              50.0180802376387
            ],
            [
              5.377106442130454,
              50.018019449149264
            ],
            [
              5.376699301383925,
              50.017984202860646
            ],
            [
              5.376288759686372,
              50.01797483815731
            ],
            [
              5.3758787701143,
              50.017991445211294
            ],
            [
              5.375473280430521,
              50.01803386411446
            ],
            [
              5.375076195090428,
              50.01810168641737
            ],
            [
              5.374691337664247,
              50.018194259060316
            ],
            [
              5.374322414036185,
              50.01831069065863
            ],
            [
              5.373972976734087,
              50.018449860081674
            ],
            [
              5.373646390732335,
              50.01861042724356
            ],
            [
              5.373345801056763,
              50.018790846001444
            ],
            [
              5.373074102503085,
              50.018989379037876
            ],
            [
              5.372833911760256,
              50.01920411458379
            ],
            [
              5.372627542207124,
              50.019432984821854
            ],
            [
              5.372456981625244,
              50.01967378579275
            ],
            [
              5.3723238730427605,
              50.01992419861338
            ],
            [
              5.3722294988943995,
              50.02018181180281
            ],
            [
              5.372174768650683,
              50.02044414450101
            ],
            [
              5.372160210036344,
              50.0207086703573
            ],
            [
              5.372185963923355,
              50.020972841858274
            ],
            [
              5.372188006361639,
              50.020980949496504
            ],
            [
              5.371960185035512,
              50.02101985229175
            ],
            [
              5.3715752981042995,
              50.0211124145207
            ],
            [
              5.37120634438903,
              50.021228836133794
            ],
            [
              5.370856876707212,
              50.02136799609662
            ],
            [
              5.370530260325714,
              50.02152855441437
            ],
            [
              5.370229640562866,
              50.02170896502936
            ],
            [
              5.369957912504081,
              50.021907490702574
            ],
            [
              5.369717693122414,
              50.02212221973588
            ],
            [
              5.369511296072501,
              50.022351084374655
            ],
            [
              5.369340709400689,
              50.022591880713506
            ],
            [
              5.3692075763864,
              50.022842289913996
            ],
            [
              5.369113179699678,
              50.02309990053001
            ],
            [
              5.369104069589564,
              50.02314355071822
            ],
            [
              5.368927447841992,
              50.02316201492896
            ],
            [
              5.368530310656055,
              50.02322981466628
            ],
            [
              5.368145399308083,
              50.023322365434446
            ],
            [
              5.367776420201393,
              50.02343877605942
            ],
            [
              5.3676922056222836,
              50.02347230592661
            ],
            [
              5.367439128598433,
              50.023533155310204
            ],
            [
              5.367070146147217,
              50.02364956367331
            ],
            [
              5.366720648749374,
              50.02378871108381
            ],
            [
              5.366515904843295,
              50.02388934275121
            ],
            [
              5.366254898601678,
              50.02374104036438
            ],
            [
              5.365921614323353,
              50.023586260824246
            ]
          ]
        ]
      },
      "properties": {
        "type": "buffer_union_300m",
        "buffer_m": 300
      }
    },
    {
      "type": "Feature",
      "geometry": {
        "type": "Polygon",
        "coordinates": [
          [
            [
              5.365190939116364,
              50.02239375194135
            ],
            [
              5.364657819547347,
              50.0223126433537
            ],
            [
              5.364114928871665,
              50.02226558934665
            ],
            [
              5.363567494280968,
              50.02225304297526
            ],
            [
              5.363020786688177,
              50.02227512504092
            ],
            [
              5.362480070011106,
              50.02233162292882
            ],
            [
              5.361950550523205,
              50.022421992653825
            ],
            [
              5.361437326757473,
              50.02254536409474
            ],
            [
              5.360945340444346,
              50.022700549366725
            ],
            [
              5.3609446906455505,
              50.022700808034024
            ],
            [
              5.3609423405854,
              50.0227015492966
            ],
            [
              5.360476329074193,
              50.02288705416945
            ],
            [
              5.360040779800514,
              50.023101092483444
            ],
            [
              5.359639887028777,
              50.02334160330005
            ],
            [
              5.359277511491195,
              50.0236062707487
            ],
            [
              5.358957143210057,
              50.02389254631526
            ],
            [
              5.358681867881256,
              50.02419767337101
            ],
            [
              5.358454337142961,
              50.0245187137067
            ],
            [
              5.3582767430163845,
              50.02485257581637
            ],
            [
              5.358150796765609,
              50.02519604465904
            ],
            [
              5.358077712381245,
              50.025545812612535
            ],
            [
              5.358058194848323,
              50.025898511321024
            ],
            [
              5.358092433313009,
              50.026250744130266
            ],
            [
              5.358180099215613,
              50.02659911879819
            ],
            [
              5.358320349409626,
              50.02694028016588
            ],
            [
              5.358511834238474,
              50.02727094247429
            ],
            [
              5.358752710493889,
              50.02758792101501
            ],
            [
              5.359040659132587,
              50.02788816281039
            ],
            [
              5.3593729075819905,
              50.02816877602705
            ],
            [
              5.359746256421222,
              50.028427057838776
            ],
            [
              5.360157110181236,
              50.02866052047039
            ],
            [
              5.360601511967891,
              50.02886691517101
            ],
            [
              5.361075181574684,
              50.029044253885296
            ],
            [
              5.361573556717858,
              50.02919082841331
            ],
            [
              5.362091836996234,
              50.02930522687429
            ],
            [
              5.3626250301515155,
              50.029386347314805
            ],
            [
              5.36316800018245,
              50.029433408330156
            ],
            [
              5.363715516848056,
              50.02944595659631
            ],
            [
              5.364262306081623,
              50.0294238712395
            ],
            [
              5.3648031008283,
              50.02936736500143
            ],
            [
              5.365332691814892,
              50.029276982188485
            ],
            [
              5.365845977761225,
              50.02915359342528
            ],
            [
              5.366141994520352,
              50.02906021942721
            ],
            [
              5.366529237159603,
              50.0292051752228
            ],
            [
              5.3670276306913385,
              50.02935172616772
            ],
            [
              5.3675459257560885,
              50.029466100103974
            ],
            [
              5.368079129953046,
              50.02954719531434
            ],
            [
              5.368622107174536,
              50.02959423063719
            ],
            [
              5.36916962711027,
              50.029606752995946
            ],
            [
              5.369716415662029,
              50.029584641766434
            ],
            [
              5.370257205781539,
              50.02952810993954
            ],
            [
              5.370786788240215,
              50.02943770206818
            ],
            [
              5.3708620109951815,
              50.029419615465265
            ],
            [
              5.370939643884314,
              50.029431420502284
            ],
            [
              5.3714826226039625,
              50.02947844235037
            ],
            [
              5.372030141962688,
              50.029490951121524
            ],
            [
              5.372576927867828,
              50.029468826322486
            ],
            [
              5.373117713296614,
              50.02941228107483
            ],
            [
              5.373647289065669,
              50.02932186006075
            ],
            [
              5.374160554041503,
              50.0291984342728
            ],
            [
              5.374652564306779,
              50.02904319261853
            ],
            [
              5.375118580807339,
              50.028857630461
            ],
            [
              5.375554115019805,
              50.02864353520616
            ],
            [
              5.3757360537506,
              50.02853434891951
            ],
            [
              5.375803889275046,
              50.028527254045855
            ],
            [
              5.376333450167293,
              50.02843682068805
            ],
            [
              5.376846698714592,
              50.028313382935664
            ],
            [
              5.377338691157916,
              50.02815812981149
            ],
            [
              5.377804688614833,
              50.027972556789074
            ],
            [
              5.378240202745466,
              50.02775845137898
            ],
            [
              5.378641038997996,
              50.02751787590092
            ],
            [
              5.379003337016511,
              50.027253147608405
            ],
            [
              5.379323607821548,
              50.02696681635769
            ],
            [
              5.379598767405156,
              50.026661640036764
            ],
            [
              5.379826166417155,
              50.02634055799143
            ],
            [
              5.380003615657265,
              50.02600666270516
            ],
            [
              5.380129407128441,
              50.025663170005636
            ],
            [
              5.380202330449836,
              50.02531338808567
            ],
            [
              5.380221684472693,
              50.02496068563693
            ],
            [
              5.380187283988887,
              50.02460845940374
            ],
            [
              5.380099461469142,
              50.024260101469494
            ],
            [
              5.379959063816023,
              50.02391896659096
            ],
            [
              5.379767444164603,
              50.02358833989471
            ],
            [
              5.379722994117255,
              50.02352988368543
            ],
            [
              5.379946074276289,
              50.02342019843537
            ],
            [
              5.380346865599361,
              50.02317961699443
            ],
            [
              5.3807091213225,
              50.022914883306534
            ],
            [
              5.381029352873598,
              50.02262854727986
            ],
            [
              5.381304476622721,
              50.02232336684838
            ],
            [
              5.3815318435647415,
              50.022002281397505
            ],
            [
              5.3817092648081255,
              50.02166838344343
            ],
            [
              5.38183503262532,
              50.021324888839544
            ],
            [
              5.381907936863107,
              50.02097510579699
            ],
            [
              5.3819272765563255,
              50.02062240301818
            ],
            [
              5.3818928666346375,
              50.02027017725064
            ],
            [
              5.3818050396594455,
              50.01992182057324
            ],
            [
              5.3816646425759975,
              50.01958068773067
            ],
            [
              5.381473028513667,
              50.019250063829816
            ],
            [
              5.3812320437150545,
              50.018933132709904
            ],
            [
              5.3809440097213,
              50.018632946289785
            ],
            [
              5.380611700986489,
              50.01835239518792
            ],
            [
              5.380238318137823,
              50.01809418089728
            ],
            [
              5.379827457139819,
              50.01786078978256
            ],
            [
              5.379383074660018,
              50.01765446914979
            ],
            [
              5.378909449969819,
              50.017477205617986
            ],
            [
              5.378411143747157,
              50.01733070600091
            ],
            [
              5.377892954177242,
              50.01721638088217
            ],
            [
              5.377359870773224,
              50.01713533104162
            ],
            [
              5.376817026360414,
              50.0170883368632
            ],
            [
              5.376269647685062,
              50.01707585082599
            ],
            [
              5.375723005121821,
              50.0170979931504
            ],
            [
              5.3751823619625405,
              50.01715455064146
            ],
            [
              5.374652923773023,
              50.017244978740145
            ],
            [
              5.374139788303746,
              50.01736840676318
            ],
            [
              5.37364789643526,
              50.017523646280885
            ],
            [
              5.373181984629179,
              50.01770920255288
            ],
            [
              5.372746539341356,
              50.01792328891164
            ],
            [
              5.372345753835224,
              50.018163843955996
            ],
            [
              5.3719834878103905,
              50.018428551389405
            ],
            [
              5.371663230234851,
              50.01871486231265
            ],
            [
              5.371388065738642,
              50.01902001975645
            ],
            [
              5.3711606448927816,
              50.019341085218834
            ],
            [
              5.370983158660295,
              50.01967496695172
            ],
            [
              5.3708573172662355,
              50.02001844972509
            ],
            [
              5.370785701958698,
              50.02036166836598
            ],
            [
              5.370531836908792,
              50.02044177358075
            ],
            [
              5.370065884597748,
              50.02062731723918
            ],
            [
              5.36963039880476,
              50.02084139180577
            ],
            [
              5.369229573183211,
              50.021081935992896
            ],
            [
              5.368867267818933,
              50.0213466336086
            ],
            [
              5.3685469720587005,
              50.02163293584819
            ],
            [
              5.368271770900241,
              50.02193808582607
            ],
            [
              5.368044315267637,
              50.02225914511217
            ],
            [
              5.367965651190405,
              50.022407096909674
            ],
            [
              5.367593903830668,
              50.02249648192819
            ],
            [
              5.367101937993463,
              50.02265169348171
            ],
            [
              5.367076254385114,
              50.02266191933156
            ],
            [
              5.366887642884119,
              50.02270726842932
            ],
            [
              5.366594744492379,
              50.022799673429375
            ],
            [
              5.366207475652877,
              50.02265468867989
            ],
            [
              5.365709154405169,
              50.02250813415994
            ],
            [
              5.365190939116364,
              50.02239375194135
            ]
          ]
        ]
      },
      "properties": {
        "type": "buffer_union_400m",
        "buffer_m": 400
      }
    },
    {
      "type": "Feature",
      "geometry": {
        "type": "Polygon",
        "coordinates": [
          [
            [
              5.2307,
              50.0310038
            ],
            [
              5.2314309,
              50.0325509
            ],
            [
              5.231464,
              50.0327709
            ],
            [
              5.2309882,
              50.0335636
            ],
            [
              5.2302523,
              50.0352583
            ],
            [
              5.2291581,
              50.0374511
            ],
            [
              5.2294206,
              50.0380757
            ],
            [
              5.2299196,
              50.0379673
            ],
            [
              5.2304953,
              50.0369196
            ],
            [
              5.2344646,
              50.038262
            ],
            [
              5.2326014,
              50.0404054
            ],
            [
              5.2318028,
              50.0410881
            ],
            [
              5.2320088,
              50.0421956
            ],
            [
              5.2324112,
              50.0429333
            ],
            [
              5.233,
              50.0434389
            ],
            [
              5.2335086,
              50.0440233
            ],
            [
              5.2339476,
              50.0440468
            ],
            [
              5.2343985,
              50.04444
            ],
            [
              5.2345486,
              50.0451221
            ],
            [
              5.2360766,
              50.045118
            ],
            [
              5.2365405,
              50.045464
            ],
            [
              5.2394679,
              50.0470908
            ],
            [
              5.2409651,
              50.0480585
            ],
            [
              5.2423632,
              50.0491228
            ],
            [
              5.2433307,
              50.0496643
            ],
            [
              5.2435618,
              50.0501363
            ],
            [
              5.2436397,
              50.0506126
            ],
            [
              5.2438962,
              50.0509385
            ],
            [
              5.2440059,
              50.0517642
            ],
            [
              5.2442897,
              50.0522166
            ],
            [
              5.2448328,
              50.0527506
            ],
            [
              5.2493112,
              50.0547528
            ],
            [
              5.2483816,
              50.0555003
            ],
            [
              5.248725,
              50.0560837
            ],
            [
              5.249397,
              50.056949
            ],
            [
              5.2496957,
              50.0584085
            ],
            [
              5.25021,
              50.0592784
            ],
            [
              5.2523853,
              50.0601748
            ],
            [
              5.2553383,
              50.0591933
            ],
            [
              5.2564473,
              50.059452
            ],
            [
              5.2572236,
              50.0606284
            ],
            [
              5.2577449,
              50.0608112
            ],
            [
              5.257921,
              50.0611505
            ],
            [
              5.2593693,
              50.0618352
            ],
            [
              5.2604261,
              50.061741
            ],
            [
              5.2629292,
              50.0626464
            ],
            [
              5.2651041,
              50.0627721
            ],
            [
              5.2661204,
              50.0638336
            ],
            [
              5.2668836,
              50.0650988
            ],
            [
              5.2666284,
              50.0671601
            ],
            [
              5.2672684,
              50.0678349
            ],
            [
              5.2678049,
              50.0682274
            ],
            [
              5.268749,
              50.0686613
            ],
            [
              5.2690586,
              50.0689974
            ],
            [
              5.2690665,
              50.0700933
            ],
            [
              5.2697005,
              50.0709098
            ],
            [
              5.2703218,
              50.0709643
            ],
            [
              5.2708306,
              50.0713525
            ],
            [
              5.2708781,
              50.0711893
            ],
            [
              5.2705097,
              50.0708303
            ],
            [
              5.2705664,
              50.0707013
            ],
            [
              5.2714444,
              50.0703202
            ],
            [
              5.2720465,
              50.0703104
            ],
            [
              5.2725211,
              50.0704595
            ],
            [
              5.2729786,
              50.0708607
            ],
            [
              5.2739021,
              50.0713679
            ],
            [
              5.2765046,
              50.0723061
            ],
            [
              5.2765489,
              50.0721389
            ],
            [
              5.2767259,
              50.0720183
            ],
            [
              5.2782331,
              50.0718593
            ],
            [
              5.2784237,
              50.0721681
            ],
            [
              5.2785337,
              50.0721802
            ],
            [
              5.2784952,
              50.0733262
            ],
            [
              5.2796025,
              50.0736042
            ],
            [
              5.2797911,
              50.073178
            ],
            [
              5.2809772,
              50.0735625
            ],
            [
              5.2828686,
              50.0739591
            ],
            [
              5.282844,
              50.074048
            ],
            [
              5.285486,
              50.074468
            ],
            [
              5.285465,
              50.0746559
            ],
            [
              5.2872321,
              50.0747649
            ],
            [
              5.2873803,
              50.0749922
            ],
            [
              5.2886567,
              50.0753382
            ],
            [
              5.2891113,
              50.0753771
            ],
            [
              5.2895198,
              50.0752884
            ],
            [
              5.2892225,
              50.074676
            ],
            [
              5.2896005,
              50.0746384
            ],
            [
              5.2907968,
              50.0747968
            ],
            [
              5.2924222,
              50.0748484
            ],
            [
              5.2945626,
              50.0746005
            ],
            [
              5.2950722,
              50.0748071
            ],
            [
              5.2955342,
              50.0752416
            ],
            [
              5.2953243,
              50.076136
            ],
            [
              5.2954906,
              50.077217
            ],
            [
              5.2958929,
              50.0777403
            ],
            [
              5.2974041,
              50.0792575
            ],
            [
              5.2981031,
              50.0791862
            ],
            [
              5.2984464,
              50.0787077
            ],
            [
              5.2987522,
              50.0785803
            ],
            [
              5.299826,
              50.0785608
            ],
            [
              5.3009623,
              50.0787111
            ],
            [
              5.3016329,
              50.0790313
            ],
            [
              5.3062731,
              50.0804186
            ],
            [
              5.3062463,
              50.080484
            ],
            [
              5.3075659,
              50.0808867
            ],
            [
              5.3082848,
              50.0814237
            ],
            [
              5.3096653,
              50.0818147
            ],
            [
              5.3122276,
              50.0819332
            ],
            [
              5.3128767,
              50.0821329
            ],
            [
              5.3141732,
              50.0821681
            ],
            [
              5.3151357,
              50.0820935
            ],
            [
              5.3157681,
              50.0833962
            ],
            [
              5.3158539,
              50.084267
            ],
            [
              5.3166202,
              50.0855747
            ],
            [
              5.3213288,
              50.0850576
            ],
            [
              5.3235315,
              50.0853705
            ],
            [
              5.3231272,
              50.0871597
            ],
            [
              5.3222547,
              50.0884902
            ],
            [
              5.3226046,
              50.0885815
            ],
            [
              5.3220968,
              50.0889696
            ],
            [
              5.323378,
              50.0893703
            ],
            [
              5.3235273,
              50.0892147
            ],
            [
              5.3243519,
              50.0897267
            ],
            [
              5.3262502,
              50.0897535
            ],
            [
              5.3276732,
              50.0895586
            ],
            [
              5.3282087,
              50.090155
            ],
            [
              5.3292811,
              50.0904487
            ],
            [
              5.3304291,
              50.0913022
            ],
            [
              5.3302789,
              50.0914365
            ],
            [
              5.3306168,
              50.0916189
            ],
            [
              5.3308753,
              50.0916287
            ],
            [
              5.3306877,
              50.0920126
            ],
            [
              5.3309923,
              50.0924586
            ],
            [
              5.3314859,
              50.0928544
            ],
            [
              5.3316373,
              50.0931427
            ],
            [
              5.331046,
              50.0934016
            ],
            [
              5.3313249,
              50.0937629
            ],
            [
              5.331341,
              50.0939488
            ],
            [
              5.3309285,
              50.0942287
            ],
            [
              5.3310567,
              50.0944581
            ],
            [
              5.3313181,
              50.0946675
            ],
            [
              5.3314,
              50.0945407
            ],
            [
              5.3317219,
              50.0944891
            ],
            [
              5.3324515,
              50.0941243
            ],
            [
              5.3323817,
              50.0939625
            ],
            [
              5.3325105,
              50.0937388
            ],
            [
              5.3332025,
              50.093319
            ],
            [
              5.334152,
              50.093085
            ],
            [
              5.3347474,
              50.0930333
            ],
            [
              5.3364587,
              50.0930574
            ],
            [
              5.3371174,
              50.092813
            ],
            [
              5.3391319,
              50.0923944
            ],
            [
              5.3428316,
              50.0917669
            ],
            [
              5.3442246,
              50.0920667
            ],
            [
              5.3468227,
              50.0921523
            ],
            [
              5.3492582,
              50.0925033
            ],
            [
              5.3516185,
              50.0935289
            ],
            [
              5.3537965,
              50.0942447
            ],
            [
              5.3562856,
              50.0944719
            ],
            [
              5.3590751,
              50.0955525
            ],
            [
              5.36141,
              50.0959197
            ],
            [
              5.3671923,
              50.0940771
            ],
            [
              5.3741795,
              50.0905369
            ],
            [
              5.3754258,
              50.0901149
            ],
            [
              5.3761768,
              50.0900529
            ],
            [
              5.3784299,
              50.0893577
            ],
            [
              5.3806829,
              50.0876505
            ],
            [
              5.3812945,
              50.0865904
            ],
            [
              5.3825834,
              50.0857051
            ],
            [
              5.3830325,
              50.0849727
            ],
            [
              5.3845131,
              50.0834581
            ],
            [
              5.3859186,
              50.0829969
            ],
            [
              5.3876138,
              50.080663
            ],
            [
              5.388,
              50.0798299
            ],
            [
              5.390237,
              50.078575
            ],
            [
              5.391106,
              50.0767092
            ],
            [
              5.3916183,
              50.0761636
            ],
            [
              5.3915325,
              50.0756747
            ],
            [
              5.3916049,
              50.075507
            ],
            [
              5.391615,
              50.0745063
            ],
            [
              5.3919268,
              50.0735858
            ],
            [
              5.3925185,
              50.0730693
            ],
            [
              5.3929567,
              50.0724763
            ],
            [
              5.3959072,
              50.070438
            ],
            [
              5.3969478,
              50.0698595
            ],
            [
              5.4005957,
              50.0686751
            ],
            [
              5.4011321,
              50.0673184
            ],
            [
              5.40186,
              50.066499
            ],
            [
              5.4040503,
              50.0659273
            ],
            [
              5.404737,
              50.0655967
            ],
            [
              5.4052412,
              50.0655072
            ],
            [
              5.4054612,
              50.0653074
            ],
            [
              5.4057081,
              50.0649838
            ],
            [
              5.4056919,
              50.064326
            ],
            [
              5.4054505,
              50.0631896
            ],
            [
              5.4054344,
              50.0604553
            ],
            [
              5.4066896,
              50.0592362
            ],
            [
              5.4077625,
              50.0578104
            ],
            [
              5.4078913,
              50.0577587
            ],
            [
              5.4109399,
              50.0530744
            ],
            [
              5.411866,
              50.0518318
            ],
            [
              5.4127412,
              50.0492102
            ],
            [
              5.4136399,
              50.047801
            ],
            [
              5.4144399,
              50.0479103
            ],
            [
              5.4155235,
              50.048375
            ],
            [
              5.4165629,
              50.0489676
            ],
            [
              5.4171462,
              50.0491117
            ],
            [
              5.4179191,
              50.04888
            ],
            [
              5.4177411,
              50.0484161
            ],
            [
              5.4167768,
              50.048012
            ],
            [
              5.416123,
              50.0475702
            ],
            [
              5.4154712,
              50.0472808
            ],
            [
              5.4151802,
              50.0468709
            ],
            [
              5.4147965,
              50.0466429
            ],
            [
              5.4161471,
              50.045226
            ],
            [
              5.4175794,
              50.04427
            ],
            [
              5.4193014,
              50.0432537
            ],
            [
              5.4217189,
              50.042306
            ],
            [
              5.4226434,
              50.0413278
            ],
            [
              5.4226971,
              50.0409213
            ],
            [
              5.4236466,
              50.0393244
            ],
            [
              5.4254338,
              50.0374874
            ],
            [
              5.4270369,
              50.0359754
            ],
            [
              5.4278523,
              50.0355757
            ],
            [
              5.4286516,
              50.0350278
            ],
            [
              5.4285657,
              50.0343852
            ],
            [
              5.4286127,
              50.0335235
            ],
            [
              5.4274179,
              50.0332363
            ],
            [
              5.4269725,
              50.0326141
            ],
            [
              5.4275036,
              50.0306465
            ],
            [
              5.4307636,
              50.0305826
            ],
            [
              5.4379159,
              50.0260907
            ],
            [
              5.4392087,
              50.0251223
            ],
            [
              5.4404372,
              50.024495
            ],
            [
              5.4416817,
              50.0241573
            ],
            [
              5.4433683,
              50.0232981
            ],
            [
              5.4446107,
              50.0229751
            ],
            [
              5.4478937,
              50.0233559
            ],
            [
              5.4506564,
              50.0232577
            ],
            [
              5.4529384,
              50.0237016
            ],
            [
              5.4541701,
              50.024657
            ],
            [
              5.4544325,
              50.0247685
            ],
            [
              5.4603382,
              50.0251859
            ],
            [
              5.4598349,
              50.023692
            ],
            [
              5.4597437,
              50.0225857
            ],
            [
              5.4601207,
              50.0218885
            ],
            [
              5.4590732,
              50.0219032
            ],
            [
              5.4574048,
              50.0216275
            ],
            [
              5.4554951,
              50.0217585
            ],
            [
              5.454374,
              50.0214414
            ],
            [
              5.4523247,
              50.0212966
            ],
            [
              5.4516113,
              50.0211174
            ],
            [
              5.4505223,
              50.0210278
            ],
            [
              5.4494065,
              50.0208072
            ],
            [
              5.4475735,
              50.0208026
            ],
            [
              5.4465097,
              50.0206693
            ],
            [
              5.4432743,
              50.0197755
            ],
            [
              5.4423362,
              50.0191562
            ],
            [
              5.4413652,
              50.0186909
            ],
            [
              5.4405284,
              50.0180773
            ],
            [
              5.4390746,
              50.0166986
            ],
            [
              5.4385865,
              50.0163849
            ],
            [
              5.4381309,
              50.0159149
            ],
            [
              5.436552,
              50.015012
            ],
            [
              5.4370844,
              50.0141236
            ],
            [
              5.437696,
              50.0134342
            ],
            [
              5.4382002,
              50.0125034
            ],
            [
              5.4381036,
              50.0114895
            ],
            [
              5.437181,
              50.0109521
            ],
            [
              5.4370522,
              50.0088327
            ],
            [
              5.4350137,
              50.0039465
            ],
            [
              5.4342949,
              50.0029397
            ],
            [
              5.4328638,
              50.0019536
            ],
            [
              5.4311299,
              50.0002916
            ],
            [
              5.4306686,
              50.0000778
            ],
            [
              5.4301643,
              49.9994847
            ],
            [
              5.4263985,
              49.9981261
            ],
            [
              5.4252183,
              49.9979812
            ],
            [
              5.4229009,
              49.9969881
            ],
            [
              5.4194462,
              49.9961881
            ],
            [
              5.4184055,
              49.9958363
            ],
            [
              5.4172403,
              49.9951637
            ],
            [
              5.4161203,
              49.9937879
            ],
            [
              5.4159122,
              49.9930631
            ],
            [
              5.4137385,
              49.9917118
            ],
            [
              5.4106372,
              49.9909535
            ],
            [
              5.4092302,
              49.9903412
            ],
            [
              5.4069696,
              49.9905911
            ],
            [
              5.405724,
              49.990622
            ],
            [
              5.4015612,
              49.9912841
            ],
            [
              5.4016159,
              49.9914311
            ],
            [
              5.39904,
              49.9914014
            ],
            [
              5.3992599,
              49.9924015
            ],
            [
              5.3979242,
              49.9925291
            ],
            [
              5.3976452,
              49.9929016
            ],
            [
              5.3951584,
              49.9928783
            ],
            [
              5.394727,
              49.9926947
            ],
            [
              5.3946412,
              49.9927292
            ],
            [
              5.3948799,
              49.9931413
            ],
            [
              5.3948987,
              49.9933551
            ],
            [
              5.3947967,
              49.9934723
            ],
            [
              5.3944534,
              49.9935637
            ],
            [
              5.3941047,
              49.9939465
            ],
            [
              5.3937668,
              49.9939827
            ],
            [
              5.3871578,
              49.9937224
            ],
            [
              5.382818,
              49.9934706
            ],
            [
              5.3815868,
              49.9933034
            ],
            [
              5.3804415,
              49.9935413
            ],
            [
              5.380314,
              49.9933793
            ],
            [
              5.3789932,
              49.9936155
            ],
            [
              5.3787115,
              49.9937422
            ],
            [
              5.3791031,
              49.9940914
            ],
            [
              5.3785023,
              49.9944518
            ],
            [
              5.3779685,
              49.9949035
            ],
            [
              5.3773684,
              49.9946621
            ],
            [
              5.3770512,
              49.9946897
            ],
            [
              5.3768125,
              49.9945759
            ],
            [
              5.3742843,
              49.9963068
            ],
            [
              5.371322,
              49.9978019
            ],
            [
              5.3715876,
              49.9980864
            ],
            [
              5.3688973,
              49.9991709
            ],
            [
              5.3679215,
              49.9991343
            ],
            [
              5.3665319,
              49.99954
            ],
            [
              5.3662799,
              49.9990024
            ],
            [
              5.3652515,
              49.9992749
            ],
            [
              5.3652757,
              49.9987933
            ],
            [
              5.3653961,
              49.9983938
            ],
            [
              5.3667482,
              49.9984856
            ],
            [
              5.3669205,
              49.998459
            ],
            [
              5.36695,
              49.9982985
            ],
            [
              5.364992,
              49.9962312
            ],
            [
              5.3631091,
              49.9948777
            ],
            [
              5.361029,
              49.9921737
            ],
            [
              5.3600514,
              49.9918359
            ],
            [
              5.3593004,
              49.9917532
            ],
            [
              5.3554165,
              49.9916463
            ],
            [
              5.3546897,
              49.991341
            ],
            [
              5.3541613,
              49.9907047
            ],
            [
              5.3533472,
              49.9900981
            ],
            [
              5.3526163,
              49.9885405
            ],
            [
              5.3533512,
              49.9882594
            ],
            [
              5.3513087,
              49.9865642
            ],
            [
              5.3492582,
              49.9851311
            ],
            [
              5.3457549,
              49.9834546
            ],
            [
              5.3444184,
              49.9828622
            ],
            [
              5.3434861,
              49.9833719
            ],
            [
              5.3430676,
              49.9834409
            ],
            [
              5.340879,
              49.9834409
            ],
            [
              5.3392922,
              49.9835509
            ],
            [
              5.3386688,
              49.9834064
            ],
            [
              5.3370059,
              49.9828079
            ],
            [
              5.3326821,
              49.9826062
            ],
            [
              5.3310406,
              49.9824337
            ],
            [
              5.329678,
              49.9821577
            ],
            [
              5.3290236,
              49.9819232
            ],
            [
              5.3269315,
              49.9815437
            ],
            [
              5.3249466,
              49.980702
            ],
            [
              5.3253195,
              49.9802174
            ],
            [
              5.3247026,
              49.980038
            ],
            [
              5.3242868,
              49.980138
            ],
            [
              5.3241554,
              49.9799914
            ],
            [
              5.3231764,
              49.9797465
            ],
            [
              5.3227553,
              49.980376
            ],
            [
              5.3228438,
              49.9806624
            ],
            [
              5.3228116,
              49.9808452
            ],
            [
              5.3224254,
              49.9809297
            ],
            [
              5.3222269,
              49.9812264
            ],
            [
              5.3220445,
              49.9817955
            ],
            [
              5.3219157,
              49.9818818
            ],
            [
              5.3224361,
              49.98282
            ],
            [
              5.3224254,
              49.9830201
            ],
            [
              5.3220767,
              49.983058
            ],
            [
              5.3220338,
              49.9833236
            ],
            [
              5.322141,
              49.9834788
            ],
            [
              5.3220445,
              49.9836203
            ],
            [
              5.3218299,
              49.9836444
            ],
            [
              5.3216797,
              49.9838065
            ],
            [
              5.321669,
              49.9842722
            ],
            [
              5.321449,
              49.9844309
            ],
            [
              5.3205693,
              49.986083
            ],
            [
              5.3207892,
              49.9862762
            ],
            [
              5.3209823,
              49.9863038
            ],
            [
              5.3210413,
              49.9866798
            ],
            [
              5.3211862,
              49.9867729
            ],
            [
              5.3211647,
              49.986935
            ],
            [
              5.3210574,
              49.9870178
            ],
            [
              5.3211486,
              49.9871109
            ],
            [
              5.3210574,
              49.987242
            ],
            [
              5.3208107,
              49.9873178
            ],
            [
              5.3207195,
              49.9874627
            ],
            [
              5.3207785,
              49.9876214
            ],
            [
              5.3211359,
              49.9877874
            ],
            [
              5.3202818,
              49.9888819
            ],
            [
              5.317951,
              49.9897495
            ],
            [
              5.3172149,
              49.9919973
            ],
            [
              5.3157428,
              49.9922734
            ],
            [
              5.3148227,
              49.9930226
            ],
            [
              5.3150067,
              49.9948759
            ],
            [
              5.3119398,
              49.9972418
            ],
            [
              5.3100354,
              49.9996341
            ],
            [
              5.3099925,
              50.0000065
            ],
            [
              5.3101105,
              50.0001996
            ],
            [
              5.3109938,
              50.0006416
            ],
            [
              5.3113693,
              50.0007433
            ],
            [
              5.3114176,
              50.0008226
            ],
            [
              5.3107685,
              50.002669
            ],
            [
              5.3105029,
              50.0031035
            ],
            [
              5.3093523,
              50.0030879
            ],
            [
              5.3090143,
              50.0033034
            ],
            [
              5.3088158,
              50.0033379
            ],
            [
              5.3080407,
              50.0030655
            ],
            [
              5.3074278,
              50.0030299
            ],
            [
              5.3069732,
              50.0027397
            ],
            [
              5.3064957,
              50.0027104
            ],
            [
              5.3059834,
              50.0027811
            ],
            [
              5.3050017,
              50.0030931
            ],
            [
              5.3042507,
              50.003512
            ],
            [
              5.3041021,
              50.0037247
            ],
            [
              5.3039823,
              50.0041792
            ],
            [
              5.3039782,
              50.0045774
            ],
            [
              5.3043191,
              50.0054425
            ],
            [
              5.3047161,
              50.005617
            ],
            [
              5.3047804,
              50.0059247
            ],
            [
              5.3049776,
              50.0062798
            ],
            [
              5.3049674,
              50.0069057
            ],
            [
              5.3050256,
              50.0069688
            ],
            [
              5.3048864,
              50.0073546
            ],
            [
              5.3050661,
              50.0079336
            ],
            [
              5.304709,
              50.0077663
            ],
            [
              5.3046168,
              50.007544
            ],
            [
              5.3047705,
              50.00708
            ],
            [
              5.3040664,
              50.0077342
            ],
            [
              5.3038699,
              50.0075502
            ],
            [
              5.3036535,
              50.0079108
            ],
            [
              5.303092,
              50.0077838
            ],
            [
              5.302579,
              50.0074036
            ],
            [
              5.3019493,
              50.0074895
            ],
            [
              5.3017117,
              50.0077387
            ],
            [
              5.3001044,
              50.0069371
            ],
            [
              5.2995244,
              50.0069707
            ],
            [
              5.2982525,
              50.0065935
            ],
            [
              5.2970645,
              50.0065081
            ],
            [
              5.2954642,
              50.0059108
            ],
            [
              5.2943182,
              50.0056099
            ],
            [
              5.2943531,
              50.0054976
            ],
            [
              5.293815,
              50.0053134
            ],
            [
              5.2934078,
              50.0052599
            ],
            [
              5.2929694,
              50.0047456
            ],
            [
              5.2920627,
              50.0045653
            ],
            [
              5.2901862,
              50.0037594
            ],
            [
              5.2883245,
              50.0031953
            ],
            [
              5.2897019,
              50.0042967
            ],
            [
              5.2898568,
              50.0049141
            ],
            [
              5.2899333,
              50.0058582
            ],
            [
              5.289774,
              50.0064758
            ],
            [
              5.288843,
              50.0076246
            ],
            [
              5.2886742,
              50.0071896
            ],
            [
              5.2885393,
              50.0072502
            ],
            [
              5.2870123,
              50.0066416
            ],
            [
              5.2867643,
              50.0063916
            ],
            [
              5.2867011,
              50.0065103
            ],
            [
              5.2855089,
              50.0062165
            ],
            [
              5.2842356,
              50.0060478
            ],
            [
              5.2824457,
              50.0060507
            ],
            [
              5.2802197,
              50.0065121
            ],
            [
              5.2796924,
              50.0067875
            ],
            [
              5.27975,
              50.0069059
            ],
            [
              5.2796495,
              50.0072115
            ],
            [
              5.2800089,
              50.0073667
            ],
            [
              5.279907,
              50.0076356
            ],
            [
              5.2800089,
              50.0078666
            ],
            [
              5.2801859,
              50.0080148
            ],
            [
              5.2798909,
              50.0083837
            ],
            [
              5.2799284,
              50.0086319
            ],
            [
              5.2802771,
              50.0085699
            ],
            [
              5.280363,
              50.0102178
            ],
            [
              5.2801216,
              50.0109142
            ],
            [
              5.2804166,
              50.0111176
            ],
            [
              5.2794564,
              50.0121276
            ],
            [
              5.2788688,
              50.0125228
            ],
            [
              5.2790433,
              50.0130584
            ],
            [
              5.2792249,
              50.0133004
            ],
            [
              5.2800196,
              50.0135893
            ],
            [
              5.2806312,
              50.014027
            ],
            [
              5.2815431,
              50.0143959
            ],
            [
              5.2821144,
              50.0148739
            ],
            [
              5.2813581,
              50.0152853
            ],
            [
              5.2813339,
              50.0153732
            ],
            [
              5.2815619,
              50.0154197
            ],
            [
              5.2816572,
              50.0155221
            ],
            [
              5.2820232,
              50.0161195
            ],
            [
              5.2819196,
              50.0164344
            ],
            [
              5.2819508,
              50.0170605
            ],
            [
              5.2817497,
              50.017531
            ],
            [
              5.2809923,
              50.018071
            ],
            [
              5.2806223,
              50.0180104
            ],
            [
              5.2801522,
              50.0189535
            ],
            [
              5.2802476,
              50.0193699
            ],
            [
              5.2801806,
              50.0194888
            ],
            [
              5.2803549,
              50.0201092
            ],
            [
              5.2811103,
              50.0206983
            ],
            [
              5.2811623,
              50.0211656
            ],
            [
              5.2813151,
              50.0213983
            ],
            [
              5.2812266,
              50.0219532
            ],
            [
              5.2810292,
              50.0223104
            ],
            [
              5.2799043,
              50.0225271
            ],
            [
              5.2795824,
              50.0225426
            ],
            [
              5.2789119,
              50.0223496
            ],
            [
              5.2781083,
              50.0223274
            ],
            [
              5.2767673,
              50.0224675
            ],
            [
              5.2761262,
              50.0226821
            ],
            [
              5.2756449,
              50.0232687
            ],
            [
              5.2745868,
              50.0240496
            ],
            [
              5.2743294,
              50.0246051
            ],
            [
              5.2744026,
              50.0252058
            ],
            [
              5.2752067,
              50.0271484
            ],
            [
              5.2752568,
              50.0276875
            ],
            [
              5.2755967,
              50.0281171
            ],
            [
              5.2756234,
              50.0284122
            ],
            [
              5.2754579,
              50.0291085
            ],
            [
              5.2748897,
              50.0303621
            ],
            [
              5.2747679,
              50.0304656
            ],
            [
              5.2730549,
              50.0310246
            ],
            [
              5.2725084,
              50.0309582
            ],
            [
              5.2714554,
              50.0314479
            ],
            [
              5.2707311,
              50.0319559
            ],
            [
              5.2703445,
              50.0323529
            ],
            [
              5.2703047,
              50.0325056
            ],
            [
              5.2708358,
              50.0330948
            ],
            [
              5.2710478,
              50.0335101
            ],
            [
              5.2712569,
              50.0351502
            ],
            [
              5.2714517,
              50.0355556
            ],
            [
              5.2701907,
              50.03595
            ],
            [
              5.2515828,
              50.0375616
            ],
            [
              5.2470553,
              50.0373519
            ],
            [
              5.2398831,
              50.0378618
            ],
            [
              5.2385366,
              50.0377602
            ],
            [
              5.2375004,
              50.0378015
            ],
            [
              5.2374369,
              50.0373812
            ],
            [
              5.2364391,
              50.0369402
            ],
            [
              5.2364337,
              50.0368333
            ],
            [
              5.2359509,
              50.0366714
            ],
            [
              5.236018,
              50.036127
            ],
            [
              5.2354253,
              50.0359271
            ],
            [
              5.2356103,
              50.0356274
            ],
            [
              5.2364498,
              50.0347401
            ],
            [
              5.2376528,
              50.0340674
            ],
            [
              5.2379559,
              50.0333463
            ],
            [
              5.238432,
              50.0332309
            ],
            [
              5.2385547,
              50.0331171
            ],
            [
              5.2307,
              50.0310038
            ]
          ]
        ]
      },
      "properties": {
        "type": "boundary",
        "gemeente": "Saint-Hubert"
      }
    }
  ]
}