{
  "type": "FeatureCollection",
  "metadata": {
    "gemeente": "Schelle",
    "slug": "schelle",
    "generated_at": "2026-09-25T22:11:43.816796Z",
    "total_points": 18,
    "providers": [
      "bpost",
      "DHL",
      "GLS",
      "Amazon"
    ],
    "bounds": [
      4.33164,
      51.118097,
      4.340112,
      51.1300215
    ]
  },
  "features": [
    {
      "type": "Feature",
      "geometry": {
        "type": "Point",
        "coordinates": [
          4.33631,
          51.12977
        ]
      },
      "properties": {
        "type": "pakketpunt",
        "locatieNaam": "Bbox 24/7 Delhaize Schelle",
        "straatNaam": "Provinciale Steenweg",
        "straatNr": "3",
        "vervoerder": "bpost",
        "puntType": "automaat",
        "bezettingsgraad": 50,
        "latitude": 51.12977,
        "longitude": 4.33631,
        "canPickup": true,
        "canDropoff": true,
        "openingstijden": null
      }
    },
    {
      "type": "Feature",
      "geometry": {
        "type": "Point",
        "coordinates": [
          4.33801,
          51.12822
        ]
      },
      "properties": {
        "type": "pakketpunt",
        "locatieNaam": "Schelle",
        "straatNaam": "Provinciale Steenweg",
        "straatNr": "52-54",
        "vervoerder": "bpost",
        "puntType": "postkantoor",
        "bezettingsgraad": 50,
        "latitude": 51.12822,
        "longitude": 4.33801,
        "canPickup": true,
        "canDropoff": true,
        "openingstijden": null
      }
    },
    {
      "type": "Feature",
      "geometry": {
        "type": "Point",
        "coordinates": [
          4.33164,
          51.12864
        ]
      },
      "properties": {
        "type": "pakketpunt",
        "locatieNaam": "Pakjesautomaat 24/7 Sportcomplex",
        "straatNaam": "Parklaan",
        "straatNr": "3",
        "vervoerder": "bpost",
        "puntType": "automaat",
        "bezettingsgraad": 50,
        "latitude": 51.12864,
        "longitude": 4.33164,
        "canPickup": true,
        "canDropoff": true,
        "openingstijden": null
      }
    },
    {
      "type": "Feature",
      "geometry": {
        "type": "Point",
        "coordinates": [
          4.34011,
          51.12571
        ]
      },
      "properties": {
        "type": "pakketpunt",
        "locatieNaam": "Pakjesautomaat 24/7 Station Schelle",
        "straatNaam": "Steenwinkelstraat",
        "straatNr": "11-13",
        "vervoerder": "bpost",
        "puntType": "automaat",
        "bezettingsgraad": 50,
        "latitude": 51.12571,
        "longitude": 4.34011,
        "canPickup": true,
        "canDropoff": true,
        "openingstijden": null
      }
    },
    {
      "type": "Feature",
      "geometry": {
        "type": "Point",
        "coordinates": [
          4.33495,
          51.12524
        ]
      },
      "properties": {
        "type": "pakketpunt",
        "locatieNaam": "Pakjesautomaat 24/7 Gza Heide Velden",
        "straatNaam": "Fabiolalaan",
        "straatNr": "66",
        "vervoerder": "bpost",
        "puntType": "automaat",
        "bezettingsgraad": 50,
        "latitude": 51.12524,
        "longitude": 4.33495,
        "canPickup": true,
        "canDropoff": true,
        "openingstijden": null
      }
    },
    {
      "type": "Feature",
      "geometry": {
        "type": "Point",
        "coordinates": [
          4.33452,
          51.1181
        ]
      },
      "properties": {
        "type": "pakketpunt",
        "locatieNaam": "Bbox 24/7 Mikman Schelle",
        "straatNaam": "Provinciale Steenweg",
        "straatNr": "399",
        "vervoerder": "bpost",
        "puntType": "automaat",
        "bezettingsgraad": 50,
        "latitude": 51.1181,
        "longitude": 4.33452,
        "canPickup": true,
        "canDropoff": true,
        "openingstijden": null
      }
    },
    {
      "type": "Feature",
      "geometry": {
        "type": "Point",
        "coordinates": [
          4.334523,
          51.118097
        ]
      },
      "properties": {
        "type": "pakketpunt",
        "locatieNaam": "BBOX 24/7 MIKMAN SCHELLE",
        "straatNaam": "PROVINCIALE STEENWEG",
        "straatNr": "399",
        "vervoerder": "DHL",
        "puntType": "packStation",
        "bezettingsgraad": 50,
        "latitude": 51.118097,
        "longitude": 4.334523,
        "canPickup": true,
        "canDropoff": true,
        "openingstijden": {
          "ma": "00:00 - 23:59",
          "di": "00:00 - 23:59",
          "wo": "00:00 - 23:59",
          "do": "00:00 - 23:59",
          "vr": "00:00 - 23:59",
          "za": "00:00 - 23:59",
          "zo": "00:00 - 23:59"
        }
      }
    },
    {
      "type": "Feature",
      "geometry": {
        "type": "Point",
        "coordinates": [
          4.33164,
          51.128635
        ]
      },
      "properties": {
        "type": "pakketpunt",
        "locatieNaam": "PARCEL LOCKER 24/7 SPORTCOMPLEX",
        "straatNaam": "PARKLAAN",
        "straatNr": "3",
        "vervoerder": "DHL",
        "puntType": "packStation",
        "bezettingsgraad": 50,
        "latitude": 51.128635,
        "longitude": 4.33164,
        "canPickup": true,
        "canDropoff": true,
        "openingstijden": {
          "ma": "00:00 - 23:59",
          "di": "00:00 - 23:59",
          "wo": "00:00 - 23:59",
          "do": "00:00 - 23:59",
          "vr": "00:00 - 23:59",
          "za": "00:00 - 23:59",
          "zo": "00:00 - 23:59"
        }
      }
    },
    {
      "type": "Feature",
      "geometry": {
        "type": "Point",
        "coordinates": [
          4.334955,
          51.125245
        ]
      },
      "properties": {
        "type": "pakketpunt",
        "locatieNaam": "PARCEL LOCKER 24/7 GZA HEIDE VELDEN",
        "straatNaam": "FABIOLALAAN",
        "straatNr": "66",
        "vervoerder": "DHL",
        "puntType": "packStation",
        "bezettingsgraad": 50,
        "latitude": 51.125245,
        "longitude": 4.334955,
        "canPickup": true,
        "canDropoff": true,
        "openingstijden": {
          "ma": "00:00 - 23:59",
          "di": "00:00 - 23:59",
          "wo": "00:00 - 23:59",
          "do": "00:00 - 23:59",
          "vr": "00:00 - 23:59",
          "za": "00:00 - 23:59",
          "zo": "00:00 - 23:59"
        }
      }
    },
    {
      "type": "Feature",
      "geometry": {
        "type": "Point",
        "coordinates": [
          4.336305,
          51.129768
        ]
      },
      "properties": {
        "type": "pakketpunt",
        "locatieNaam": "BBOX 24/7 DELHAIZE SCHELLE",
        "straatNaam": "PROVINCIALE STEENWEG",
        "straatNr": "3",
        "vervoerder": "DHL",
        "puntType": "packStation",
        "bezettingsgraad": 50,
        "latitude": 51.129768,
        "longitude": 4.336305,
        "canPickup": true,
        "canDropoff": true,
        "openingstijden": {
          "ma": "00:00 - 23:59",
          "di": "00:00 - 23:59",
          "wo": "00:00 - 23:59",
          "do": "00:00 - 23:59",
          "vr": "00:00 - 23:59",
          "za": "00:00 - 23:59",
          "zo": "00:00 - 23:59"
        }
      }
    },
    {
      "type": "Feature",
      "geometry": {
        "type": "Point",
        "coordinates": [
          4.338013,
          51.128221
        ]
      },
      "properties": {
        "type": "pakketpunt",
        "locatieNaam": "SCHELLE",
        "straatNaam": "PROVINCIALE STEENWEG",
        "straatNr": "52-54",
        "vervoerder": "DHL",
        "puntType": "postOffice",
        "bezettingsgraad": 50,
        "latitude": 51.128221,
        "longitude": 4.338013,
        "canPickup": true,
        "canDropoff": true,
        "openingstijden": {
          "ma": "09:30 - 12:30",
          "di": "15:00 - 18:00",
          "wo": "09:30 - 12:30",
          "do": "15:00 - 18:00",
          "vr": "09:30 - 12:30",
          "za": "gesloten",
          "zo": "gesloten"
        }
      }
    },
    {
      "type": "Feature",
      "geometry": {
        "type": "Point",
        "coordinates": [
          4.340112,
          51.125712
        ]
      },
      "properties": {
        "type": "pakketpunt",
        "locatieNaam": "PARCEL LOCKER 24/7 STATION SCHELLE",
        "straatNaam": "STEENWINKELSTRAAT",
        "straatNr": "11-13",
        "vervoerder": "DHL",
        "puntType": "packStation",
        "bezettingsgraad": 50,
        "latitude": 51.125712,
        "longitude": 4.340112,
        "canPickup": true,
        "canDropoff": true,
        "openingstijden": {
          "ma": "00:00 - 23:59",
          "di": "00:00 - 23:59",
          "wo": "00:00 - 23:59",
          "do": "00:00 - 23:59",
          "vr": "00:00 - 23:59",
          "za": "00:00 - 23:59",
          "zo": "00:00 - 23:59"
        }
      }
    },
    {
      "type": "Feature",
      "geometry": {
        "type": "Point",
        "coordinates": [
          4.3343169,
          51.1184402
        ]
      },
      "properties": {
        "type": "pakketpunt",
        "locatieNaam": "GLS Parcel Locker powered by bbox",
        "straatNaam": "Provinciale Steenweg",
        "straatNr": "401",
        "vervoerder": "GLS",
        "puntType": "locker",
        "bezettingsgraad": 50,
        "latitude": 51.1184402,
        "longitude": 4.3343169,
        "canPickup": true,
        "canDropoff": true,
        "openingstijden": "vr: 00:00 - 23:50; ma: 00:00 - 23:50"
      }
    },
    {
      "type": "Feature",
      "geometry": {
        "type": "Point",
        "coordinates": [
          4.3381156,
          51.1224367
        ]
      },
      "properties": {
        "type": "pakketpunt",
        "locatieNaam": "Cirkels Schelle",
        "straatNaam": "Provinciale Steenweg",
        "straatNr": "230",
        "vervoerder": "GLS",
        "puntType": "parcel_shop",
        "bezettingsgraad": 50,
        "latitude": 51.1224367,
        "longitude": 4.3381156,
        "canPickup": true,
        "canDropoff": true,
        "openingstijden": "vr: 10:00 - 18:00; za: 10:00 - 18:00"
      }
    },
    {
      "type": "Feature",
      "geometry": {
        "type": "Point",
        "coordinates": [
          4.3365303,
          51.1300215
        ]
      },
      "properties": {
        "type": "pakketpunt",
        "locatieNaam": "GLS Parcel Locker powered by bbox",
        "straatNaam": "Provinciale Steenweg",
        "straatNr": "3",
        "vervoerder": "GLS",
        "puntType": "locker",
        "bezettingsgraad": 50,
        "latitude": 51.1300215,
        "longitude": 4.3365303,
        "canPickup": true,
        "canDropoff": true,
        "openingstijden": "vr: 00:00 - 24:00; za: 00:00 - 24:00"
      }
    },
    {
      "type": "Feature",
      "geometry": {
        "type": "Point",
        "coordinates": [
          4.336305,
          51.129768
        ]
      },
      "properties": {
        "type": "pakketpunt",
        "locatieNaam": "bpost - BBOX 24/7 DELHAIZE SCHELLE",
        "straatNaam": "PROVINCIALE STEENWEG,3",
        "straatNr": "",
        "vervoerder": "Amazon",
        "puntType": "3p",
        "bezettingsgraad": 50,
        "latitude": 51.129768,
        "longitude": 4.336305,
        "canPickup": true,
        "canDropoff": false,
        "openingstijden": null
      }
    },
    {
      "type": "Feature",
      "geometry": {
        "type": "Point",
        "coordinates": [
          4.334523,
          51.118097
        ]
      },
      "properties": {
        "type": "pakketpunt",
        "locatieNaam": "bpost - BBOX 24/7 MIKMAN SCHELLE",
        "straatNaam": "PROVINCIALE STEENWEG,399",
        "straatNr": "",
        "vervoerder": "Amazon",
        "puntType": "3p",
        "bezettingsgraad": 50,
        "latitude": 51.118097,
        "longitude": 4.334523,
        "canPickup": true,
        "canDropoff": false,
        "openingstijden": null
      }
    },
    {
      "type": "Feature",
      "geometry": {
        "type": "Point",
        "coordinates": [
          4.338013,
          51.128221
        ]
      },
      "properties": {
        "type": "pakketpunt",
        "locatieNaam": "bpost - SCHELLE",
        "straatNaam": "PROVINCIALE STEENWEG,52-54",
        "straatNr": "",
        "vervoerder": "Amazon",
        "puntType": "3p",
        "bezettingsgraad": 50,
        "latitude": 51.128221,
        "longitude": 4.338013,
        "canPickup": true,
        "canDropoff": false,
        "openingstijden": null
      }
    },
    {
      "type": "Feature",
      "geometry": {
        "type": "Polygon",
        "coordinates": [
          [
            [
              4.338481886271665,
              51.117065801795626
            ],
            [
              4.338302224071083,
              51.11682654196346
            ],
            [
              4.338086168835541,
              51.1165995175682
            ],
            [
              4.337835801624351,
              51.11638691478853
            ],
            [
              4.337553533813552,
              51.11619078089886
            ],
            [
              4.337242083865245,
              51.11601300456091
            ],
            [
              4.336904451144682,
              51.11585529764312
            ],
            [
              4.336543887037353,
              51.11571917874269
            ],
            [
              4.336163863644137,
              51.11560595856855
            ],
            [
              4.3357680403557035,
              51.115516727325875
            ],
            [
              4.33536022862757,
              51.11545234422328
            ],
            [
              4.334944355294429,
              51.115413429203294
            ],
            [
              4.334524424776209,
              51.115400356976046
            ],
            [
              4.334104480538984,
              51.115413253412946
            ],
            [
              4.333688566180855,
              51.115451994335245
            ],
            [
              4.3332806865165745,
              51.11551620670923
            ],
            [
              4.33288476903466,
              51.11560527223629
            ],
            [
              4.332504626097176,
              51.11571833330353
            ],
            [
              4.332143918245351,
              51.1158543012379
            ],
            [
              4.331806118963582,
              51.116011866784184
            ],
            [
              4.331494481240548,
              51.11618951270661
            ],
            [
              4.331212006248951,
              51.11638552839268
            ],
            [
              4.33096141444523,
              51.116598026319046
            ],
            [
              4.33095914888498,
              51.11660040332812
            ],
            [
              4.33095841431283,
              51.1166010262301
            ],
            [
              4.330742119206634,
              51.11682796012651
            ],
            [
              4.330562204196268,
              51.11706714469258
            ],
            [
              4.330420402403908,
              51.11731627661716
            ],
            [
              4.330412312817622,
              51.11733656979793
            ],
            [
              4.3303590798742375,
              51.1174073380052
            ],
            [
              4.330217275966796,
              51.11765646965511
            ],
            [
              4.330114951699785,
              51.11791314959106
            ],
            [
              4.33005309312703,
              51.11817490594689
            ],
            [
              4.330032296648066,
              51.11843921792862
            ],
            [
              4.330052763238834,
              51.118703540088724
            ],
            [
              4.330114296489474,
              51.118965326839316
            ],
            [
              4.3302163044691735,
              51.11922205696831
            ],
            [
              4.33035780540111,
              51.11947125792264
            ],
            [
              4.3305374370938265,
              51.119710529623994
            ],
            [
              4.330753470039134,
              51.11993756758828
            ],
            [
              4.331003824051181,
              51.12015018512544
            ],
            [
              4.331286088287109,
              51.12034633440579
            ],
            [
              4.331597544456985,
              51.12052412618963
            ],
            [
              4.331935192999756,
              51.120681848029975
            ],
            [
              4.332295781973274,
              51.12081798077265
            ],
            [
              4.332675838380036,
              51.12093121319435
            ],
            [
              4.333071701626674,
              51.121020454637986
            ],
            [
              4.33347955879449,
              51.12108484552253
            ],
            [
              4.333895481380645,
              51.12112376562667
            ],
            [
              4.334315463155461,
              51.121136840065674
            ],
            [
              4.334365358179229,
              51.121135307975514
            ],
            [
              4.33433727072831,
              51.12116477725433
            ],
            [
              4.33415735742254,
              51.12140396692863
            ],
            [
              4.334015561637226,
              51.121653102784315
            ],
            [
              4.333913249482525,
              51.12190978564397
            ],
            [
              4.333851406895756,
              51.122171543613256
            ],
            [
              4.333830630122636,
              51.122435855882635
            ],
            [
              4.333846251448895,
              51.12263737305895
            ],
            [
              4.333707473030217,
              51.1226592178637
            ],
            [
              4.3333114958406584,
              51.12274828459343
            ],
            [
              4.332931295825739,
              51.12286134674422
            ],
            [
              4.332570534076245,
              51.12299731563259
            ],
            [
              4.332232684595546,
              51.123154881994125
            ],
            [
              4.331921000855707,
              51.12333252858524
            ],
            [
              4.3316384844725855,
              51.12352854478699
            ],
            [
              4.331387856301272,
              51.123741043071085
            ],
            [
              4.331171530230177,
              51.123967977169585
            ],
            [
              4.330991589926196,
              51.12420716177353
            ],
            [
              4.330849768755234,
              51.12445629357147
            ],
            [
              4.330747433071957,
              51.124712973425105
            ],
            [
              4.330685569040318,
              51.12497472946902
            ],
            [
              4.330664773112623,
              51.125239040912284
            ],
            [
              4.330685246259708,
              51.12550336231254
            ],
            [
              4.33074679200877,
              51.1257651480892
            ],
            [
              4.330835051844877,
              51.1259872366344
            ],
            [
              4.3308055411900535,
              51.12598998402791
            ],
            [
              4.330397565573858,
              51.126054186189066
            ],
            [
              4.330001553304112,
              51.12614324170066
            ],
            [
              4.329621317655461,
              51.12625629304627
            ],
            [
              4.32926052006175,
              51.126392251646436
            ],
            [
              4.328922634871445,
              51.126549808335874
            ],
            [
              4.328610915900424,
              51.12672744596409
            ],
            [
              4.32832836510377,
              51.126923453998494
            ],
            [
              4.328077703667943,
              51.12713594498946
            ],
            [
              4.327861345801676,
              51.12736287273927
            ],
            [
              4.327681375478062,
              51.12760205200014
            ],
            [
              4.3275395263521315,
              51.127851179512085
            ],
            [
              4.327437165047807,
              51.12810785617809
            ],
            [
              4.3273752779758485,
              51.128369610163496
            ],
            [
              4.327354461810532,
              51.128633920697176
            ],
            [
              4.327354656751637,
              51.12863643964906
            ],
            [
              4.327354461351912,
              51.128638920697156
            ],
            [
              4.327374917261253,
              51.12890324234508
            ],
            [
              4.327436448940794,
              51.129165029524735
            ],
            [
              4.3275384644751655,
              51.129421761019984
            ],
            [
              4.327679982015078,
              51.12967096426454
            ],
            [
              4.3278596392094,
              51.1299102391581
            ],
            [
              4.328075706304581,
              51.130137281185796
            ],
            [
              4.328326102786073,
              51.130349903618445
            ],
            [
              4.328608417402153,
              51.13054605857918
            ],
            [
              4.328919931377778,
              51.130723856773606
            ],
            [
              4.329257644595218,
              51.130881585693
            ],
            [
              4.329618304489427,
              51.13101772611495
            ],
            [
              4.329998437379802,
              51.13113096674221
            ],
            [
              4.330394381936244,
              51.13122021683862
            ],
            [
              4.330802324456787,
              51.13128461673981
            ],
            [
              4.331218335616357,
              51.13132354613761
            ],
            [
              4.331638408331989,
              51.13133663005779
            ],
            [
              4.332058496378901,
              51.1313237424737
            ],
            [
              4.332474553384557,
              51.13128500752084
            ],
            [
              4.332716226351869,
              51.13124697601778
            ],
            [
              4.332749960386193,
              51.13129189518161
            ],
            [
              4.3329660576363125,
              51.13151892814038
            ],
            [
              4.333216483778763,
              51.13173154008869
            ],
            [
              4.333498827276098,
              51.131927683250645
            ],
            [
              4.333810369075042,
              51.132105468445474
            ],
            [
              4.334148108789817,
              51.13226318328965
            ],
            [
              4.334508793600093,
              51.13239930869632
            ],
            [
              4.33488894958521,
              51.132512533512845
            ],
            [
              4.335284915192557,
              51.13260176715536
            ],
            [
              4.335692876517347,
              51.13266615011797
            ],
            [
              4.33610890405333,
              51.13270506225565
            ],
            [
              4.336528990559763,
              51.13271812876043
            ],
            [
              4.336949089678997,
              51.13270522377341
            ],
            [
              4.3373651549318355,
              51.1326664715977
            ],
            [
              4.33777317871405,
              51.13260224550053
            ],
            [
              4.338169230917491,
              51.132513164115984
            ],
            [
              4.3385494968028615,
              51.132400085483425
            ],
            [
              4.338910313758492,
              51.132264098778734
            ],
            [
              4.339248206590336,
              51.13210651381861
            ],
            [
              4.33955992100265,
              51.131928848438996
            ],
            [
              4.339842454946439,
              51.131732813869505
            ],
            [
              4.34009308753348,
              51.13152029824516
            ],
            [
              4.340309405237334,
              51.13129334841423
            ],
            [
              4.340489325129137,
              51.13105415021818
            ],
            [
              4.340631114924715,
              51.130805007433416
            ],
            [
              4.340733409650397,
              51.130548319578196
            ],
            [
              4.3407952247677235,
              51.13028655879881
            ],
            [
              4.340796642716155,
              51.13026848916353
            ],
            [
              4.341042564777174,
              51.13012831162477
            ],
            [
              4.341325081611558,
              51.12993227337704
            ],
            [
              4.341575697795746,
              51.12971975446446
            ],
            [
              4.341791999961277,
              51.129492801767014
            ],
            [
              4.341971905328932,
              51.129253601153735
            ],
            [
              4.342113681754397,
              51.1290044564243
            ],
            [
              4.342215964392742,
              51.1287477671157
            ],
            [
              4.3422777688218765,
              51.128486005388176
            ],
            [
              4.342298500499422,
              51.12822169221307
            ],
            [
              4.342283836364513,
              51.12803298734429
            ],
            [
              4.342491966146691,
              51.127954530056954
            ],
            [
              4.342829815731981,
              51.12779693459466
            ],
            [
              4.343141487773332,
              51.12761925947601
            ],
            [
              4.343423980629887,
              51.12742321602445
            ],
            [
              4.34367457380917,
              51.12721069246044
            ],
            [
              4.343890854164284,
              51.126983735708784
            ],
            [
              4.344070739126057,
              51.12674453167755
            ],
            [
              4.344212496746677,
              51.12649538419931
            ],
            [
              4.344314762362282,
              51.126238692837525
            ],
            [
              4.344376551714674,
              51.125976929772214
            ],
            [
              4.344397270406612,
              51.12571261598755
            ],
            [
              4.344376719600494,
              51.125448296991046
            ],
            [
              4.344315097906599,
              51.12518651829804
            ],
            [
              4.344212999443635,
              51.12492980091785
            ],
            [
              4.344071408091395,
              51.12468061707749
            ],
            [
              4.34389168799179,
              51.12444136641664
            ],
            [
              4.343675570390677,
              51.12421435288311
            ],
            [
              4.343675069255851,
              51.12421392747746
            ],
            [
              4.343673570302254,
              51.12421235294242
            ],
            [
              4.3434231368793945,
              51.123999762605855
            ],
            [
              4.343140799629479,
              51.123803642624644
            ],
            [
              4.342829277683262,
              51.12362588152655
            ],
            [
              4.34249157109925,
              51.12346819103322
            ],
            [
              4.342148347769995,
              51.12333866216735
            ],
            [
              4.3422157758609945,
              51.12322015451203
            ],
            [
              4.342318045277247,
              51.12296346457606
            ],
            [
              4.342379841484004,
              51.12270170224567
            ],
            [
              4.342400570017905,
              51.122437388497985
            ],
            [
              4.342380031946471,
              51.12217306884015
            ],
            [
              4.342318425757237,
              51.121911288793896
            ],
            [
              4.342216345419514,
              51.121654569381604
            ],
            [
              4.34207477463847,
              51.12140538284984
            ],
            [
              4.341895077357853,
              51.12116612886424
            ],
            [
              4.341678984603725,
              51.12093911140464
            ],
            [
              4.3414285777967265,
              51.12072651658289
            ],
            [
              4.341146268694201,
              51.120530391596745
            ],
            [
              4.340834776155853,
              51.12035262502222
            ],
            [
              4.340497099957021,
              51.120194928633666
            ],
            [
              4.340136491901814,
              51.1200588209269
            ],
            [
              4.3397564245142295,
              51.11994561250305
            ],
            [
              4.339360557608496,
              51.11985639345418
            ],
            [
              4.338952703060044,
              51.1197920228714
            ],
            [
              4.338536788115803,
              51.119753120576775
            ],
            [
              4.3381168175962985,
              51.119740061157835
            ],
            [
              4.338066924185293,
              51.11974159483526
            ],
            [
              4.338095008428818,
              51.11971212465345
            ],
            [
              4.338274895066405,
              51.11947292882876
            ],
            [
              4.338416661528932,
              51.11922378765834
            ],
            [
              4.338423909877424,
              51.11920559720985
            ],
            [
              4.338480970553076,
              51.11912972204263
            ],
            [
              4.338622734875806,
              51.11888058059372
            ],
            [
              4.3387250145309535,
              51.11862389336986
            ],
            [
              4.338786825124861,
              51.118362132511194
            ],
            [
              4.3388075720554715,
              51.11809781898074
            ],
            [
              4.338787056212997,
              51.117833498283524
            ],
            [
              4.338725475870776,
              51.117571715951335
            ],
            [
              4.338623424749093,
              51.11731499302854
            ],
            [
              4.338481886271665,
              51.117065801795626
            ]
          ]
        ]
      },
      "properties": {
        "type": "buffer_union_300m",
        "buffer_m": 300
      }
    },
    {
      "type": "Feature",
      "geometry": {
        "type": "Polygon",
        "coordinates": [
          [
            [
              4.339801476203762,
              51.11672203945411
            ],
            [
              4.339561919766248,
              51.11640302891922
            ],
            [
              4.339273841036904,
              51.116100332663414
            ],
            [
              4.338940014956706,
              51.11581686547868
            ],
            [
              4.338563656814,
              51.115555356941734
            ],
            [
              4.3381483912656655,
              51.11531832514078
            ],
            [
              4.337698217425001,
              51.115108052439645
            ],
            [
              4.3372174703527335,
              51.114926563512036
            ],
            [
              4.336710779321829,
              51.11477560585692
            ],
            [
              4.336183023257514,
              51.1146566329822
            ],
            [
              4.335639283780776,
              51.114570790418014
            ],
            [
              4.335084796306399,
              51.114518904694044
            ],
            [
              4.334524899665075,
              51.11450147538652
            ],
            [
              4.333964984733148,
              51.11451867031132
            ],
            [
              4.333410442562944,
              51.114570323909305
            ],
            [
              4.332866612511428,
              51.11465593883921
            ],
            [
              4.332338730864893,
              51.11477469076322
            ],
            [
              4.331831880452703,
              51.11492543627863
            ],
            [
              4.331350941733739,
              51.11510672392023
            ],
            [
              4.330900545825174,
              51.115316808127325
            ],
            [
              4.330485029924793,
              51.115553666041336
            ],
            [
              4.330108395555279,
              51.11581501697304
            ],
            [
              4.3297742700320825,
              51.116098344352096
            ],
            [
              4.329772004435675,
              51.11610072133882
            ],
            [
              4.329771269855557,
              51.1161013442335
            ],
            [
              4.329482871311309,
              51.11640391982209
            ],
            [
              4.32924297780516,
              51.116722829999354
            ],
            [
              4.329078855163299,
              51.11701116324599
            ],
            [
              4.329039845376563,
              51.1170630210827
            ],
            [
              4.3288507651801265,
              51.11739519449991
            ],
            [
              4.328714323329795,
              51.11773743284137
            ],
            [
              4.328631834928821,
              51.11808644034594
            ],
            [
              4.328604095572534,
              51.118438855992316
            ],
            [
              4.328631373640712,
              51.11879128586307
            ],
            [
              4.328713407665502,
              51.11914033582857
            ],
            [
              4.328849408802033,
              51.11948264423572
            ],
            [
              4.329038068379783,
              51.11981491428672
            ],
            [
              4.329277570463714,
              51.120133945796056
            ],
            [
              4.329565609305817,
              51.12043666601934
            ],
            [
              4.329899411520439,
              51.12072015925692
            ],
            [
              4.330275762770969,
              51.12098169494668
            ],
            [
              4.330691038711775,
              51.12121875397495
            ],
            [
              4.3311412398879,
              51.12142905295163
            ],
            [
              4.3316220302566375,
              51.12161056621515
            ],
            [
              4.332128778959789,
              51.12176154535488
            ],
            [
              4.332486927607232,
              51.12184228509353
            ],
            [
              4.332446715669217,
              51.122012466234196
            ],
            [
              4.332258440105097,
              51.122068454195485
            ],
            [
              4.331777429524021,
              51.12224974310892
            ],
            [
              4.331326966684388,
              51.122459828402846
            ],
            [
              4.3309113894284685,
              51.122696687208276
            ],
            [
              4.330534699869813,
              51.122958038827406
            ],
            [
              4.330200525855421,
              51.12324136668329
            ],
            [
              4.329912086022983,
              51.123543942541204
            ],
            [
              4.329672158789829,
              51.12386285276889
            ],
            [
              4.329483055572827,
              51.12419502638344
            ],
            [
              4.329346598497957,
              51.1245372646151
            ],
            [
              4.329264102815418,
              51.12488627170382
            ],
            [
              4.3292363641910185,
              51.12523868663226
            ],
            [
              4.329246891617396,
              51.1253746565986
            ],
            [
              4.328948469215305,
              51.1254633825976
            ],
            [
              4.328467410843525,
              51.12564465779354
            ],
            [
              4.328016900392458,
              51.125854730191335
            ],
            [
              4.327601276162741,
              51.1260915770462
            ],
            [
              4.327224540720178,
              51.12635291777543
            ],
            [
              4.326890322353567,
              51.12663623590697
            ],
            [
              4.326601840127676,
              51.12693880329976
            ],
            [
              4.326361872868099,
              51.127257706403086
            ],
            [
              4.326172732377205,
              51.1275898743027
            ],
            [
              4.326036241140012,
              51.12793210828389
            ],
            [
              4.325953714735829,
              51.128281112627604
            ],
            [
              4.3259259491264705,
              51.12863352634297
            ],
            [
              4.325926143990558,
              51.128636045297206
            ],
            [
              4.3259259485149775,
              51.128638526342954
            ],
            [
              4.325953212336495,
              51.12899095553056
            ],
            [
              4.326035244261763,
              51.129340006068
            ],
            [
              4.326171255466674,
              51.129682316296716
            ],
            [
              4.326359937184261,
              51.13001458940133
            ],
            [
              4.326599473266745,
              51.130333625166955
            ],
            [
              4.326887557639107,
              51.1306363508082
            ],
            [
              4.327221416477544,
              51.13091985057325
            ],
            [
              4.327597834900371,
              51.131181393837075
            ],
            [
              4.328013187915193,
              51.131418461413055
            ],
            [
              4.328463475324827,
              51.13162876982872
            ],
            [
              4.328944360256015,
              51.131810293331625
            ],
            [
              4.3294512109397,
              51.13196128341241
            ],
            [
              4.329979145339931,
              51.132080285657125
            ],
            [
              4.330523078200795,
              51.13216615376528
            ],
            [
              4.331077770057058,
              51.132218060598824
            ],
            [
              4.331637877735154,
              51.132235506154856
            ],
            [
              4.3320202401385215,
              51.132223776221764
            ],
            [
              4.332111824463192,
              51.132301532534896
            ],
            [
              4.332488281395708,
              51.132563060067106
            ],
            [
              4.332903671509764,
              51.13280011031027
            ],
            [
              4.333353994250721,
              51.13301039995888
            ],
            [
              4.333834912404884,
              51.13319190344122
            ],
            [
              4.33434179388306,
              51.133342872440785
            ],
            [
              4.3348697563525596,
              51.133461852746635
            ],
            [
              4.335413714286984,
              51.13354769826965
            ],
            [
              4.335968427979487,
              51.133599582089296
            ],
            [
              4.33652855404609,
              51.133617004424366
            ],
            [
              4.337088696931055,
              51.13359979745036
            ],
            [
              4.337643460916522,
              51.133548126917255
            ],
            [
              4.338187502133722,
              51.133462490551764
            ],
            [
              4.338715580073037,
              51.13334371325967
            ],
            [
              4.339222608095067,
              51.13319293917464
            ],
            [
              4.339703702454653,
              51.13301162063019
            ],
            [
              4.340154229364307,
              51.13280150416149
            ],
            [
              4.340569849642628,
              51.132564613672336
            ],
            [
              4.340946560516859,
              51.13230323092969
            ],
            [
              4.341280734176471,
              51.13201987357436
            ],
            [
              4.341569152706293,
              51.131717270859994
            ],
            [
              4.341809039062956,
              51.13139833735481
            ],
            [
              4.341998083796857,
              51.131066144859744
            ],
            [
              4.342134467263162,
              51.130723892813776
            ],
            [
              4.3421391898025945,
              51.13070389245024
            ],
            [
              4.342429162732434,
              51.13050267694021
            ],
            [
              4.342763314521403,
              51.13021931520065
            ],
            [
              4.343051712333475,
              51.12991670866437
            ],
            [
              4.3432915793247995,
              51.129597771936325
            ],
            [
              4.343480606232253,
              51.12926557684848
            ],
            [
              4.343616973582636,
              51.1289233228648
            ],
            [
              4.343699369178317,
              51.12857430625937
            ],
            [
              4.343704692399212,
              51.12850641324545
            ],
            [
              4.343735808210925,
              51.12849189853049
            ],
            [
              4.344151371993401,
              51.12825499505605
            ],
            [
              4.344528028083811,
              51.12799360047074
            ],
            [
              4.344862149199326,
              51.12771023252939
            ],
            [
              4.345150517930849,
              51.12740762058762
            ],
            [
              4.345390357714594,
              51.12708867930246
            ],
            [
              4.345579359549428,
              51.12675648054975
            ],
            [
              4.345715704203559,
              51.12641422382869
            ],
            [
              4.345798079697848,
              51.12606520543971
            ],
            [
              4.345825693898828,
              51.125712786732265
            ],
            [
              4.345798282101745,
              51.12536036172895
            ],
            [
              4.345716109532334,
              51.12501132443773
            ],
            [
              4.345579968745088,
              51.12466903616722
            ],
            [
              4.345391171944893,
              51.12433679315978
            ],
            [
              4.345151538307707,
              51.12401779485376
            ],
            [
              4.344863376424042,
              51.123715113080664
            ],
            [
              4.344862875283756,
              51.123714687679986
            ],
            [
              4.3448613763061505,
              51.12371311315973
            ],
            [
              4.3445274619442555,
              51.123429662566124
            ],
            [
              4.344151011217329,
              51.123168172574005
            ],
            [
              4.343764112282259,
              51.12294740240524
            ],
            [
              4.343801266058345,
              51.122790002073536
            ],
            [
              4.343828893383505,
              51.12243758341522
            ],
            [
              4.343801498567445,
              51.122085157529945
            ],
            [
              4.343719346672193,
              51.121736118434235
            ],
            [
              4.343583230052995,
              51.121393827454035
            ],
            [
              4.3433944606818615,
              51.121061580857884
            ],
            [
              4.343154857470502,
              51.12074257811871
            ],
            [
              4.342866728716353,
              51.12043989111066
            ],
            [
              4.3425328498421605,
              51.12015643453669
            ],
            [
              4.342156436644659,
              51.11989493787125
            ],
            [
              4.341741114310834,
              51.11965791908825
            ],
            [
              4.341290882500722,
              51.11944766042609
            ],
            [
              4.340810076833145,
              51.11926618642331
            ],
            [
              4.340303327145158,
              51.11911524443514
            ],
            [
              4.340024902948028,
              51.11905249469518
            ],
            [
              4.3401257070959,
              51.11879949121158
            ],
            [
              4.3402081109160395,
              51.1184504757644
            ],
            [
              4.340235762772239,
              51.118098057395386
            ],
            [
              4.340208397596681,
              51.11774563012395
            ],
            [
              4.340126280165725,
              51.117396587979954
            ],
            [
              4.33999020250252,
              51.11705429231882
            ],
            [
              4.339801476203762,
              51.11672203945411
            ]
          ]
        ]
      },
      "properties": {
        "type": "buffer_union_400m",
        "buffer_m": 400
      }
    },
    {
      "type": "Feature",
      "geometry": {
        "type": "Polygon",
        "coordinates": [
          [
            [
              4.3068311,
              51.1247955
            ],
            [
              4.3077534,
              51.1249846
            ],
            [
              4.3129086,
              51.1265039
            ],
            [
              4.3147119,
              51.127131
            ],
            [
              4.3188773,
              51.1287643
            ],
            [
              4.3204199,
              51.129496
            ],
            [
              4.3226239,
              51.1311808
            ],
            [
              4.3256914,
              51.1302656
            ],
            [
              4.3257944,
              51.1300501
            ],
            [
              4.3259832,
              51.1298993
            ],
            [
              4.3264381,
              51.1298077
            ],
            [
              4.3270818,
              51.1298885
            ],
            [
              4.3279573,
              51.1297539
            ],
            [
              4.3292238,
              51.1298088
            ],
            [
              4.3298437,
              51.129929
            ],
            [
              4.3303134,
              51.1299
            ],
            [
              4.3311721,
              51.1294918
            ],
            [
              4.331452,
              51.1294732
            ],
            [
              4.3322879,
              51.1296572
            ],
            [
              4.3339091,
              51.1296824
            ],
            [
              4.3349143,
              51.1299766
            ],
            [
              4.3354083,
              51.1303825
            ],
            [
              4.3381931,
              51.1309623
            ],
            [
              4.3387081,
              51.1308384
            ],
            [
              4.3396522,
              51.1309461
            ],
            [
              4.3404712,
              51.1308967
            ],
            [
              4.3456022,
              51.1325125
            ],
            [
              4.3464267,
              51.1325676
            ],
            [
              4.3477195,
              51.1330534
            ],
            [
              4.3482007,
              51.1333417
            ],
            [
              4.3485459,
              51.1334266
            ],
            [
              4.3487094,
              51.1333851
            ],
            [
              4.3487908,
              51.1331989
            ],
            [
              4.3481158,
              51.1330552
            ],
            [
              4.3480428,
              51.132976
            ],
            [
              4.3480636,
              51.1328582
            ],
            [
              4.3482688,
              51.132746
            ],
            [
              4.3487013,
              51.132672
            ],
            [
              4.3490922,
              51.1323409
            ],
            [
              4.3494832,
              51.132542
            ],
            [
              4.3500549,
              51.1324704
            ],
            [
              4.3504855,
              51.1325245
            ],
            [
              4.350545,
              51.1329702
            ],
            [
              4.350637,
              51.1329999
            ],
            [
              4.3508979,
              51.1329706
            ],
            [
              4.3513423,
              51.1326858
            ],
            [
              4.3514968,
              51.1326858
            ],
            [
              4.3515655,
              51.1327774
            ],
            [
              4.3512187,
              51.1330394
            ],
            [
              4.351219,
              51.1331386
            ],
            [
              4.3514025,
              51.1332581
            ],
            [
              4.3517132,
              51.1330947
            ],
            [
              4.3523015,
              51.1329761
            ],
            [
              4.3533124,
              51.1336702
            ],
            [
              4.3534371,
              51.133682
            ],
            [
              4.3538368,
              51.1334859
            ],
            [
              4.3539765,
              51.1335035
            ],
            [
              4.3544215,
              51.1338141
            ],
            [
              4.3550706,
              51.1335911
            ],
            [
              4.355249,
              51.13365
            ],
            [
              4.3552047,
              51.1337628
            ],
            [
              4.3547809,
              51.1338479
            ],
            [
              4.3551688,
              51.1340683
            ],
            [
              4.3544723,
              51.1345184
            ],
            [
              4.3544469,
              51.1346783
            ],
            [
              4.3547155,
              51.1347163
            ],
            [
              4.3556261,
              51.1343183
            ],
            [
              4.3556175,
              51.1341692
            ],
            [
              4.3560747,
              51.133934
            ],
            [
              4.3578232,
              51.1337645
            ],
            [
              4.3591422,
              51.1335364
            ],
            [
              4.3601943,
              51.1330586
            ],
            [
              4.3604417,
              51.1328245
            ],
            [
              4.3611489,
              51.1324084
            ],
            [
              4.3615023,
              51.1325213
            ],
            [
              4.3620165,
              51.1322676
            ],
            [
              4.3623039,
              51.1325274
            ],
            [
              4.3637631,
              51.1321342
            ],
            [
              4.3644528,
              51.1318025
            ],
            [
              4.3650362,
              51.1313621
            ],
            [
              4.3650362,
              51.1310481
            ],
            [
              4.3653681,
              51.1307607
            ],
            [
              4.3671752,
              51.1283984
            ],
            [
              4.369021,
              51.1256266
            ],
            [
              4.3696176,
              51.1238191
            ],
            [
              4.3692772,
              51.1237155
            ],
            [
              4.3692206,
              51.1226331
            ],
            [
              4.3699285,
              51.1225846
            ],
            [
              4.3719799,
              51.1211318
            ],
            [
              4.3744673,
              51.1203351
            ],
            [
              4.3764776,
              51.1171234
            ],
            [
              4.3766262,
              51.1167494
            ],
            [
              4.375803,
              51.1168224
            ],
            [
              4.3753435,
              51.1166629
            ],
            [
              4.375212,
              51.1164204
            ],
            [
              4.3747669,
              51.1163597
            ],
            [
              4.3742572,
              51.1161712
            ],
            [
              4.3731441,
              51.1161392
            ],
            [
              4.3728362,
              51.1155884
            ],
            [
              4.3725534,
              51.1155517
            ],
            [
              4.3724274,
              51.1154052
            ],
            [
              4.3713949,
              51.1154854
            ],
            [
              4.3708736,
              51.1153752
            ],
            [
              4.3708092,
              51.1154257
            ],
            [
              4.3704525,
              51.1152152
            ],
            [
              4.3704605,
              51.1151159
            ],
            [
              4.3701789,
              51.115089
            ],
            [
              4.3700555,
              51.1149576
            ],
            [
              4.3688338,
              51.1143611
            ],
            [
              4.3683939,
              51.1141709
            ],
            [
              4.3683147,
              51.114213
            ],
            [
              4.3680599,
              51.1141288
            ],
            [
              4.3679124,
              51.1139941
            ],
            [
              4.3669153,
              51.1136484
            ],
            [
              4.3661176,
              51.1131147
            ],
            [
              4.3651907,
              51.1130123
            ],
            [
              4.3647527,
              51.1127647
            ],
            [
              4.3645136,
              51.1129237
            ],
            [
              4.36368,
              51.1127039
            ],
            [
              4.3632788,
              51.1127184
            ],
            [
              4.3628389,
              51.1128614
            ],
            [
              4.3625471,
              51.11298
            ],
            [
              4.3620267,
              51.1133777
            ],
            [
              4.3615324,
              51.1134404
            ],
            [
              4.3610008,
              51.1137306
            ],
            [
              4.3592261,
              51.1140377
            ],
            [
              4.3577259,
              51.1140672
            ],
            [
              4.3573876,
              51.1142228
            ],
            [
              4.3572149,
              51.1141542
            ],
            [
              4.3570029,
              51.1141929
            ],
            [
              4.356913,
              51.1143047
            ],
            [
              4.3566275,
              51.1142943
            ],
            [
              4.3564912,
              51.114374
            ],
            [
              4.3563415,
              51.1143163
            ],
            [
              4.3561823,
              51.1144005
            ],
            [
              4.3560812,
              51.1143297
            ],
            [
              4.3559262,
              51.1143924
            ],
            [
              4.3558686,
              51.114284
            ],
            [
              4.3556915,
              51.1142923
            ],
            [
              4.3555679,
              51.1143644
            ],
            [
              4.3556008,
              51.1144507
            ],
            [
              4.3552811,
              51.114381
            ],
            [
              4.3552342,
              51.1143025
            ],
            [
              4.3550551,
              51.1143718
            ],
            [
              4.354367,
              51.1142478
            ],
            [
              4.3541194,
              51.1140409
            ],
            [
              4.353861,
              51.113966
            ],
            [
              4.3534605,
              51.1140185
            ],
            [
              4.3531956,
              51.1139245
            ],
            [
              4.3531826,
              51.1138209
            ],
            [
              4.3527784,
              51.1138819
            ],
            [
              4.3527016,
              51.1137834
            ],
            [
              4.3521388,
              51.1137652
            ],
            [
              4.3451186,
              51.1140023
            ],
            [
              4.3424231,
              51.1141663
            ],
            [
              4.3422054,
              51.1141362
            ],
            [
              4.3421234,
              51.114032
            ],
            [
              4.3416412,
              51.1140415
            ],
            [
              4.3405919,
              51.114237
            ],
            [
              4.3394906,
              51.1143305
            ],
            [
              4.3393627,
              51.1145102
            ],
            [
              4.3391137,
              51.1145801
            ],
            [
              4.3386577,
              51.1150131
            ],
            [
              4.3374463,
              51.1150638
            ],
            [
              4.3374765,
              51.1151811
            ],
            [
              4.3371972,
              51.1151979
            ],
            [
              4.3370944,
              51.1152831
            ],
            [
              4.336921,
              51.1150216
            ],
            [
              4.3368419,
              51.1150135
            ],
            [
              4.3359826,
              51.1155492
            ],
            [
              4.3355852,
              51.1154621
            ],
            [
              4.33518,
              51.1155692
            ],
            [
              4.3342262,
              51.1155801
            ],
            [
              4.3341252,
              51.1156628
            ],
            [
              4.3335433,
              51.1155833
            ],
            [
              4.3330265,
              51.1156763
            ],
            [
              4.3330213,
              51.1158018
            ],
            [
              4.3323427,
              51.1159144
            ],
            [
              4.3320139,
              51.11577
            ],
            [
              4.3312992,
              51.1160733
            ],
            [
              4.3310922,
              51.1160159
            ],
            [
              4.3305238,
              51.1160844
            ],
            [
              4.3304458,
              51.1160494
            ],
            [
              4.3304848,
              51.1159645
            ],
            [
              4.33021,
              51.1160021
            ],
            [
              4.3299947,
              51.1158912
            ],
            [
              4.3299857,
              51.1156761
            ],
            [
              4.3298913,
              51.1155711
            ],
            [
              4.3286802,
              51.1156858
            ],
            [
              4.3283693,
              51.1154287
            ],
            [
              4.3279743,
              51.115407
            ],
            [
              4.3278842,
              51.1151841
            ],
            [
              4.3275677,
              51.115193
            ],
            [
              4.3276474,
              51.1149381
            ],
            [
              4.327103,
              51.115175
            ],
            [
              4.3268471,
              51.1151096
            ],
            [
              4.3267693,
              51.1149422
            ],
            [
              4.3263887,
              51.1151081
            ],
            [
              4.3263154,
              51.1150757
            ],
            [
              4.3263609,
              51.1149743
            ],
            [
              4.3261916,
              51.1149482
            ],
            [
              4.3261295,
              51.1150744
            ],
            [
              4.3261932,
              51.1152068
            ],
            [
              4.326046,
              51.1152659
            ],
            [
              4.3258722,
              51.1151933
            ],
            [
              4.3259165,
              51.1150725
            ],
            [
              4.3257786,
              51.1149198
            ],
            [
              4.3252998,
              51.1152551
            ],
            [
              4.3247483,
              51.11496
            ],
            [
              4.3244467,
              51.1150826
            ],
            [
              4.3240023,
              51.1149412
            ],
            [
              4.3235586,
              51.115076
            ],
            [
              4.3232637,
              51.1150325
            ],
            [
              4.3232028,
              51.1149424
            ],
            [
              4.3227397,
              51.1150608
            ],
            [
              4.3226356,
              51.114875
            ],
            [
              4.3221462,
              51.1148373
            ],
            [
              4.3221488,
              51.1147225
            ],
            [
              4.3219229,
              51.1147017
            ],
            [
              4.3216894,
              51.1148589
            ],
            [
              4.3213351,
              51.1146366
            ],
            [
              4.3211021,
              51.1147268
            ],
            [
              4.321191,
              51.114888
            ],
            [
              4.3211468,
              51.1151426
            ],
            [
              4.3206722,
              51.1149505
            ],
            [
              4.3203807,
              51.1151137
            ],
            [
              4.3201292,
              51.1150522
            ],
            [
              4.3200944,
              51.1151698
            ],
            [
              4.3202163,
              51.1153737
            ],
            [
              4.3201383,
              51.1154488
            ],
            [
              4.3196891,
              51.1154306
            ],
            [
              4.3197977,
              51.1151715
            ],
            [
              4.3196428,
              51.1151367
            ],
            [
              4.3195021,
              51.1151893
            ],
            [
              4.3191935,
              51.1155773
            ],
            [
              4.3190686,
              51.115616
            ],
            [
              4.3189717,
              51.1154496
            ],
            [
              4.3190479,
              51.1152406
            ],
            [
              4.3188798,
              51.1151888
            ],
            [
              4.3186982,
              51.1153514
            ],
            [
              4.3187295,
              51.1155502
            ],
            [
              4.3179549,
              51.1156377
            ],
            [
              4.3174366,
              51.1153556
            ],
            [
              4.3171698,
              51.1154473
            ],
            [
              4.3166612,
              51.115308
            ],
            [
              4.316554,
              51.1153312
            ],
            [
              4.3165117,
              51.1154986
            ],
            [
              4.3162253,
              51.1155495
            ],
            [
              4.3159378,
              51.1154972
            ],
            [
              4.3155424,
              51.1152068
            ],
            [
              4.3154836,
              51.1150035
            ],
            [
              4.3150501,
              51.1148654
            ],
            [
              4.314801,
              51.115
            ],
            [
              4.3121327,
              51.1152451
            ],
            [
              4.3110264,
              51.1176477
            ],
            [
              4.3104384,
              51.1183383
            ],
            [
              4.3087698,
              51.1199605
            ],
            [
              4.3079801,
              51.120291
            ],
            [
              4.3072609,
              51.1208859
            ],
            [
              4.3067679,
              51.1216201
            ],
            [
              4.3065716,
              51.1222714
            ],
            [
              4.3068311,
              51.1247955
            ]
          ]
        ]
      },
      "properties": {
        "type": "boundary",
        "gemeente": "Schelle"
      }
    }
  ]
}