{
  "type": "FeatureCollection",
  "metadata": {
    "gemeente": "Sint-Joost-ten-Node (Saint-Josse-ten-Noode)",
    "slug": "sint-joost-ten-node-saint-josse-ten-noode",
    "generated_at": "2026-09-25T22:11:44.098406Z",
    "total_points": 40,
    "providers": [
      "bpost",
      "DHL",
      "GLS",
      "InPost",
      "VintedGo",
      "PostNL",
      "DPD",
      "Amazon"
    ],
    "bounds": [
      4.36019,
      50.84876,
      4.3814507,
      50.859102
    ]
  },
  "features": [
    {
      "type": "Feature",
      "geometry": {
        "type": "Point",
        "coordinates": [
          4.36951,
          50.84876
        ]
      },
      "properties": {
        "type": "pakketpunt",
        "locatieNaam": "Brussel Madou",
        "straatNaam": "Kunstlaan",
        "straatNr": "1-2",
        "vervoerder": "bpost",
        "puntType": "postkantoor",
        "bezettingsgraad": 50,
        "latitude": 50.84876,
        "longitude": 4.36951,
        "canPickup": true,
        "canDropoff": true,
        "openingstijden": null
      }
    },
    {
      "type": "Feature",
      "geometry": {
        "type": "Point",
        "coordinates": [
          4.36964,
          50.84877
        ]
      },
      "properties": {
        "type": "pakketpunt",
        "locatieNaam": "Pakjesautomaat Bpost Brussel Madou",
        "straatNaam": "Kunstlaan",
        "straatNr": "1-2",
        "vervoerder": "bpost",
        "puntType": "automaat",
        "bezettingsgraad": 50,
        "latitude": 50.84877,
        "longitude": 4.36964,
        "canPickup": true,
        "canDropoff": true,
        "openingstijden": null
      }
    },
    {
      "type": "Feature",
      "geometry": {
        "type": "Point",
        "coordinates": [
          4.36984,
          50.84883
        ]
      },
      "properties": {
        "type": "pakketpunt",
        "locatieNaam": "Press Factory",
        "straatNaam": "Madouplein",
        "straatNr": "8",
        "vervoerder": "bpost",
        "puntType": "servicepunt",
        "bezettingsgraad": 50,
        "latitude": 50.84883,
        "longitude": 4.36984,
        "canPickup": true,
        "canDropoff": true,
        "openingstijden": null
      }
    },
    {
      "type": "Feature",
      "geometry": {
        "type": "Point",
        "coordinates": [
          4.36172,
          50.85751
        ]
      },
      "properties": {
        "type": "pakketpunt",
        "locatieNaam": "R&L Service",
        "straatNaam": "Sint-Lazarusplein",
        "straatNr": "5",
        "vervoerder": "bpost",
        "puntType": "servicepunt",
        "bezettingsgraad": 50,
        "latitude": 50.85751,
        "longitude": 4.36172,
        "canPickup": true,
        "canDropoff": true,
        "openingstijden": null
      }
    },
    {
      "type": "Feature",
      "geometry": {
        "type": "Point",
        "coordinates": [
          4.36719,
          50.85491
        ]
      },
      "properties": {
        "type": "pakketpunt",
        "locatieNaam": "Le Petit Botanique",
        "straatNaam": "Haachtsesteenweg",
        "straatNr": "16",
        "vervoerder": "bpost",
        "puntType": "servicepunt",
        "bezettingsgraad": 50,
        "latitude": 50.85491,
        "longitude": 4.36719,
        "canPickup": true,
        "canDropoff": true,
        "openingstijden": null
      }
    },
    {
      "type": "Feature",
      "geometry": {
        "type": "Point",
        "coordinates": [
          4.36019,
          50.8591
        ]
      },
      "properties": {
        "type": "pakketpunt",
        "locatieNaam": "Bbox Nmbs Noord Gel.Vl",
        "straatNaam": "Vooruitgangstraat",
        "straatNr": "76",
        "vervoerder": "bpost",
        "puntType": "automaat",
        "bezettingsgraad": 50,
        "latitude": 50.8591,
        "longitude": 4.36019,
        "canPickup": true,
        "canDropoff": true,
        "openingstijden": null
      }
    },
    {
      "type": "Feature",
      "geometry": {
        "type": "Point",
        "coordinates": [
          4.37377,
          50.85312
        ]
      },
      "properties": {
        "type": "pakketpunt",
        "locatieNaam": "Houwaert Presse",
        "straatNaam": "Houwaertplein",
        "straatNr": "10",
        "vervoerder": "bpost",
        "puntType": "servicepunt",
        "bezettingsgraad": 50,
        "latitude": 50.85312,
        "longitude": 4.37377,
        "canPickup": true,
        "canDropoff": true,
        "openingstijden": null
      }
    },
    {
      "type": "Feature",
      "geometry": {
        "type": "Point",
        "coordinates": [
          4.37601,
          50.84931
        ]
      },
      "properties": {
        "type": "pakketpunt",
        "locatieNaam": "Bbox Place St-Josse Bpost",
        "straatNaam": "Willemsstraat",
        "straatNr": "18",
        "vervoerder": "bpost",
        "puntType": "automaat",
        "bezettingsgraad": 50,
        "latitude": 50.84931,
        "longitude": 4.37601,
        "canPickup": true,
        "canDropoff": true,
        "openingstijden": null
      }
    },
    {
      "type": "Feature",
      "geometry": {
        "type": "Point",
        "coordinates": [
          4.37609,
          50.84945
        ]
      },
      "properties": {
        "type": "pakketpunt",
        "locatieNaam": "St-Joost-St-Joostplein",
        "straatNaam": "Willemsstraat",
        "straatNr": "18",
        "vervoerder": "bpost",
        "puntType": "postkantoor",
        "bezettingsgraad": 50,
        "latitude": 50.84945,
        "longitude": 4.37609,
        "canPickup": true,
        "canDropoff": true,
        "openingstijden": null
      }
    },
    {
      "type": "Feature",
      "geometry": {
        "type": "Point",
        "coordinates": [
          4.38134,
          50.8507
        ]
      },
      "properties": {
        "type": "pakketpunt",
        "locatieNaam": "Librairie Oli",
        "straatNaam": "Leuvensesteenweg",
        "straatNr": "266",
        "vervoerder": "bpost",
        "puntType": "servicepunt",
        "bezettingsgraad": 50,
        "latitude": 50.8507,
        "longitude": 4.38134,
        "canPickup": true,
        "canDropoff": true,
        "openingstijden": null
      }
    },
    {
      "type": "Feature",
      "geometry": {
        "type": "Point",
        "coordinates": [
          4.367187,
          50.854906
        ]
      },
      "properties": {
        "type": "pakketpunt",
        "locatieNaam": "LE PETIT BOTANIQUE",
        "straatNaam": "CHAUSSÉE DE HAECHT",
        "straatNr": "16",
        "vervoerder": "DHL",
        "puntType": "parcelShop",
        "bezettingsgraad": 50,
        "latitude": 50.854906,
        "longitude": 4.367187,
        "canPickup": true,
        "canDropoff": true,
        "openingstijden": {
          "ma": "09:00 - 20:00",
          "di": "09:00 - 20:00",
          "wo": "09:00 - 20:00",
          "do": "09:00 - 20:00",
          "vr": "09:00 - 21:00",
          "za": "09:00 - 20:00",
          "zo": "gesloten"
        }
      }
    },
    {
      "type": "Feature",
      "geometry": {
        "type": "Point",
        "coordinates": [
          4.360194,
          50.859102
        ]
      },
      "properties": {
        "type": "pakketpunt",
        "locatieNaam": "BBOX SNCB NORTH GR. FL.",
        "straatNaam": "RUE DU PROGRÈS",
        "straatNr": "76",
        "vervoerder": "DHL",
        "puntType": "packStation",
        "bezettingsgraad": 50,
        "latitude": 50.859102,
        "longitude": 4.360194,
        "canPickup": true,
        "canDropoff": true,
        "openingstijden": {
          "ma": "06:00 - 23:00",
          "di": "06:00 - 23:00",
          "wo": "06:00 - 23:00",
          "do": "06:00 - 23:00",
          "vr": "06:00 - 23:00",
          "za": "06:00 - 23:00",
          "zo": "06:00 - 23:00"
        }
      }
    },
    {
      "type": "Feature",
      "geometry": {
        "type": "Point",
        "coordinates": [
          4.361719,
          50.857513
        ]
      },
      "properties": {
        "type": "pakketpunt",
        "locatieNaam": "R&L SERVICE",
        "straatNaam": "PLACE SAINT-LAZARE",
        "straatNr": "5",
        "vervoerder": "DHL",
        "puntType": "parcelShop",
        "bezettingsgraad": 50,
        "latitude": 50.857513,
        "longitude": 4.361719,
        "canPickup": true,
        "canDropoff": true,
        "openingstijden": {
          "ma": "08:30 - 19:00",
          "di": "08:30 - 19:00",
          "wo": "08:30 - 19:00",
          "do": "08:30 - 19:00",
          "vr": "08:30 - 19:00",
          "za": "09:00 - 19:00",
          "zo": "gesloten"
        }
      }
    },
    {
      "type": "Feature",
      "geometry": {
        "type": "Point",
        "coordinates": [
          4.373771,
          50.853116
        ]
      },
      "properties": {
        "type": "pakketpunt",
        "locatieNaam": "HOUWAERT PRESSE",
        "straatNaam": "PLACE HOUWAERT",
        "straatNr": "10",
        "vervoerder": "DHL",
        "puntType": "parcelShop",
        "bezettingsgraad": 50,
        "latitude": 50.853116,
        "longitude": 4.373771,
        "canPickup": true,
        "canDropoff": true,
        "openingstijden": {
          "ma": "00:00 - 01:30, 07:00 - 23:59",
          "di": "00:00 - 01:30, 07:00 - 23:59",
          "wo": "00:00 - 01:30, 07:00 - 23:59",
          "do": "00:00 - 01:30, 07:00 - 23:59",
          "vr": "00:00 - 03:00, 07:00 - 23:59",
          "za": "00:00 - 03:00, 07:00 - 23:59",
          "zo": "00:00 - 01:30, 08:00 - 23:59"
        }
      }
    },
    {
      "type": "Feature",
      "geometry": {
        "type": "Point",
        "coordinates": [
          4.381345,
          50.850698
        ]
      },
      "properties": {
        "type": "pakketpunt",
        "locatieNaam": "LIBRAIRIE OLI",
        "straatNaam": "CHAUSSÉE DE LOUVAIN",
        "straatNr": "266",
        "vervoerder": "DHL",
        "puntType": "parcelShop",
        "bezettingsgraad": 50,
        "latitude": 50.850698,
        "longitude": 4.381345,
        "canPickup": true,
        "canDropoff": true,
        "openingstijden": {
          "ma": "07:00 - 23:59",
          "di": "07:00 - 23:59",
          "wo": "07:00 - 23:59",
          "do": "07:00 - 23:59",
          "vr": "07:00 - 23:59",
          "za": "07:00 - 23:59",
          "zo": "07:00 - 23:59"
        }
      }
    },
    {
      "type": "Feature",
      "geometry": {
        "type": "Point",
        "coordinates": [
          4.376086,
          50.849448
        ]
      },
      "properties": {
        "type": "pakketpunt",
        "locatieNaam": "ST-JOSSE PLACE DE ST-JOSSE",
        "straatNaam": "RUE WILLEMS",
        "straatNr": "18",
        "vervoerder": "DHL",
        "puntType": "postOffice",
        "bezettingsgraad": 50,
        "latitude": 50.849448,
        "longitude": 4.376086,
        "canPickup": true,
        "canDropoff": true,
        "openingstijden": {
          "ma": "09:30 - 12:30, 13:30 - 17:00",
          "di": "09:30 - 12:30, 13:30 - 18:00",
          "wo": "09:30 - 12:30, 13:30 - 17:00",
          "do": "09:30 - 12:30, 13:30 - 18:00",
          "vr": "09:30 - 12:30, 13:30 - 17:00",
          "za": "gesloten",
          "zo": "gesloten"
        }
      }
    },
    {
      "type": "Feature",
      "geometry": {
        "type": "Point",
        "coordinates": [
          4.376006,
          50.84931
        ]
      },
      "properties": {
        "type": "pakketpunt",
        "locatieNaam": "BBOX PLACE ST-JOSSE BPOST",
        "straatNaam": "RUE WILLEMS",
        "straatNr": "18",
        "vervoerder": "DHL",
        "puntType": "packStation",
        "bezettingsgraad": 50,
        "latitude": 50.84931,
        "longitude": 4.376006,
        "canPickup": true,
        "canDropoff": true,
        "openingstijden": {
          "ma": "09:30 - 17:00",
          "di": "09:30 - 18:00",
          "wo": "09:30 - 17:00",
          "do": "09:30 - 18:00",
          "vr": "09:30 - 17:00",
          "za": "gesloten",
          "zo": "gesloten"
        }
      }
    },
    {
      "type": "Feature",
      "geometry": {
        "type": "Point",
        "coordinates": [
          4.36984,
          50.848831
        ]
      },
      "properties": {
        "type": "pakketpunt",
        "locatieNaam": "PRESS FACTORY",
        "straatNaam": "PLACE MADOU",
        "straatNr": "8",
        "vervoerder": "DHL",
        "puntType": "parcelShop",
        "bezettingsgraad": 50,
        "latitude": 50.848831,
        "longitude": 4.36984,
        "canPickup": true,
        "canDropoff": true,
        "openingstijden": {
          "ma": "07:30 - 18:30",
          "di": "07:30 - 18:30",
          "wo": "07:30 - 18:30",
          "do": "07:30 - 18:30",
          "vr": "07:30 - 18:30",
          "za": "10:00 - 17:00",
          "zo": "gesloten"
        }
      }
    },
    {
      "type": "Feature",
      "geometry": {
        "type": "Point",
        "coordinates": [
          4.369636,
          50.848766
        ]
      },
      "properties": {
        "type": "pakketpunt",
        "locatieNaam": "PARCEL LOCKER BPOST BRUSSEL MADOU",
        "straatNaam": "AVENUE DES ARTS",
        "straatNr": "1-2",
        "vervoerder": "DHL",
        "puntType": "packStation",
        "bezettingsgraad": 50,
        "latitude": 50.848766,
        "longitude": 4.369636,
        "canPickup": true,
        "canDropoff": true,
        "openingstijden": {
          "ma": "06:00 - 23:00",
          "di": "06:00 - 23:00",
          "wo": "06:00 - 23:00",
          "do": "06:00 - 23:00",
          "vr": "06:00 - 23:00",
          "za": "06:00 - 23:00",
          "zo": "06:00 - 23:00"
        }
      }
    },
    {
      "type": "Feature",
      "geometry": {
        "type": "Point",
        "coordinates": [
          4.369507,
          50.848761
        ]
      },
      "properties": {
        "type": "pakketpunt",
        "locatieNaam": "BRUXELLES MADOU",
        "straatNaam": "AVENUE DES ARTS",
        "straatNr": "1-2",
        "vervoerder": "DHL",
        "puntType": "postOffice",
        "bezettingsgraad": 50,
        "latitude": 50.848761,
        "longitude": 4.369507,
        "canPickup": true,
        "canDropoff": true,
        "openingstijden": {
          "ma": "09:30 - 17:00",
          "di": "09:30 - 18:00",
          "wo": "09:30 - 17:00",
          "do": "09:30 - 18:00",
          "vr": "09:30 - 17:00",
          "za": "gesloten",
          "zo": "gesloten"
        }
      }
    },
    {
      "type": "Feature",
      "geometry": {
        "type": "Point",
        "coordinates": [
          4.3759986,
          50.8494554
        ]
      },
      "properties": {
        "type": "pakketpunt",
        "locatieNaam": "GLS Parcel Locker powered by bbox",
        "straatNaam": "Rue Willems",
        "straatNr": "18",
        "vervoerder": "GLS",
        "puntType": "locker",
        "bezettingsgraad": 50,
        "latitude": 50.8494554,
        "longitude": 4.3759986,
        "canPickup": true,
        "canDropoff": true,
        "openingstijden": "vr: 09:30 - 17:00; ma: 09:30 - 17:00"
      }
    },
    {
      "type": "Feature",
      "geometry": {
        "type": "Point",
        "coordinates": [
          4.3814507,
          50.8507204
        ]
      },
      "properties": {
        "type": "pakketpunt",
        "locatieNaam": "Librairie Oli",
        "straatNaam": "Chaussee De Louvain",
        "straatNr": "266",
        "vervoerder": "GLS",
        "puntType": "parcel_shop",
        "bezettingsgraad": 50,
        "latitude": 50.8507204,
        "longitude": 4.3814507,
        "canPickup": true,
        "canDropoff": true,
        "openingstijden": "vr: 07:00 - 24:00; za: 07:00 - 24:00"
      }
    },
    {
      "type": "Feature",
      "geometry": {
        "type": "Point",
        "coordinates": [
          4.3780226,
          50.8515285
        ]
      },
      "properties": {
        "type": "pakketpunt",
        "locatieNaam": "Speedex",
        "straatNaam": "Rue Verbist",
        "straatNr": "61 B",
        "vervoerder": "GLS",
        "puntType": "parcel_shop",
        "bezettingsgraad": 50,
        "latitude": 50.8515285,
        "longitude": 4.3780226,
        "canPickup": true,
        "canDropoff": true,
        "openingstijden": "vr: 10:00 - 18:00; ma: 10:00 - 18:00"
      }
    },
    {
      "type": "Feature",
      "geometry": {
        "type": "Point",
        "coordinates": [
          4.36984,
          50.84889
        ]
      },
      "properties": {
        "type": "pakketpunt",
        "locatieNaam": "PRESS FACTORY SRL",
        "straatNaam": "Place Madou 8",
        "straatNr": "",
        "vervoerder": "InPost",
        "puntType": "servicepunt",
        "bezettingsgraad": 50,
        "latitude": 50.84889,
        "longitude": 4.36984,
        "canPickup": true,
        "canDropoff": true,
        "openingstijden": null
      }
    },
    {
      "type": "Feature",
      "geometry": {
        "type": "Point",
        "coordinates": [
          4.37121,
          50.84933
        ]
      },
      "properties": {
        "type": "pakketpunt",
        "locatieNaam": "MEDIA MADOU",
        "straatNaam": "Chaussée de Louvain 32",
        "straatNr": "",
        "vervoerder": "InPost",
        "puntType": "servicepunt",
        "bezettingsgraad": 50,
        "latitude": 50.84933,
        "longitude": 4.37121,
        "canPickup": true,
        "canDropoff": true,
        "openingstijden": null
      }
    },
    {
      "type": "Feature",
      "geometry": {
        "type": "Point",
        "coordinates": [
          4.3618,
          50.85757
        ]
      },
      "properties": {
        "type": "pakketpunt",
        "locatieNaam": "R&L Service",
        "straatNaam": "Sint-Lazarusplein",
        "straatNr": "5",
        "vervoerder": "VintedGo",
        "puntType": "parcel_shop",
        "bezettingsgraad": 50,
        "latitude": 50.85757,
        "longitude": 4.3618,
        "canPickup": true,
        "canDropoff": true,
        "openingstijden": null
      }
    },
    {
      "type": "Feature",
      "geometry": {
        "type": "Point",
        "coordinates": [
          4.37328,
          50.8526
        ]
      },
      "properties": {
        "type": "pakketpunt",
        "locatieNaam": "Performance",
        "straatNaam": "Rue de la Commune",
        "straatNr": "63",
        "vervoerder": "VintedGo",
        "puntType": "parcel_shop",
        "bezettingsgraad": 50,
        "latitude": 50.8526,
        "longitude": 4.37328,
        "canPickup": true,
        "canDropoff": true,
        "openingstijden": null
      }
    },
    {
      "type": "Feature",
      "geometry": {
        "type": "Point",
        "coordinates": [
          4.36984,
          50.84882
        ]
      },
      "properties": {
        "type": "pakketpunt",
        "locatieNaam": "Press Factory",
        "straatNaam": "Place Madou",
        "straatNr": "8",
        "vervoerder": "VintedGo",
        "puntType": "parcel_shop",
        "bezettingsgraad": 50,
        "latitude": 50.84882,
        "longitude": 4.36984,
        "canPickup": true,
        "canDropoff": true,
        "openingstijden": null
      }
    },
    {
      "type": "Feature",
      "geometry": {
        "type": "Point",
        "coordinates": [
          4.3712104,
          50.8493259
        ]
      },
      "properties": {
        "type": "pakketpunt",
        "locatieNaam": "Media Madou",
        "straatNaam": "Chaussée De Louvain",
        "straatNr": "32",
        "vervoerder": "VintedGo",
        "puntType": "parcel_shop",
        "bezettingsgraad": 50,
        "latitude": 50.8493259,
        "longitude": 4.3712104,
        "canPickup": true,
        "canDropoff": true,
        "openingstijden": null
      }
    },
    {
      "type": "Feature",
      "geometry": {
        "type": "Point",
        "coordinates": [
          4.3756079965729,
          50.849988520173
        ]
      },
      "properties": {
        "type": "pakketpunt",
        "locatieNaam": "Allo Telecom",
        "straatNaam": "Chaussée de Louvain",
        "straatNr": "122124",
        "vervoerder": "PostNL",
        "puntType": "servicepunt",
        "bezettingsgraad": 50,
        "latitude": 50.849988520173,
        "longitude": 4.3756079965729,
        "canPickup": true,
        "canDropoff": true,
        "openingstijden": "10:00 - 20:00"
      }
    },
    {
      "type": "Feature",
      "geometry": {
        "type": "Point",
        "coordinates": [
          4.376535,
          50.850829
        ]
      },
      "properties": {
        "type": "pakketpunt",
        "locatieNaam": "DOUZE DIX",
        "straatNaam": "RUE VERBIST",
        "straatNr": "33",
        "vervoerder": "DPD",
        "puntType": "pickup_point",
        "bezettingsgraad": 50,
        "latitude": 50.850829,
        "longitude": 4.376535,
        "canPickup": true,
        "canDropoff": false,
        "openingstijden": {
          "ma": "10:45 - 19:00",
          "di": "10:45 - 19:00",
          "wo": "10:45 - 19:00",
          "do": "10:45 - 19:00",
          "vr": "10:45 - 19:00",
          "za": "gesloten",
          "zo": "12:00 - 18:00"
        }
      }
    },
    {
      "type": "Feature",
      "geometry": {
        "type": "Point",
        "coordinates": [
          4.3617187,
          50.8575134
        ]
      },
      "properties": {
        "type": "pakketpunt",
        "locatieNaam": "bpost - R&L SERVICE",
        "straatNaam": "PLACE SAINT-LAZARE,5",
        "straatNr": "",
        "vervoerder": "Amazon",
        "puntType": "3p",
        "bezettingsgraad": 50,
        "latitude": 50.8575134,
        "longitude": 4.3617187,
        "canPickup": true,
        "canDropoff": false,
        "openingstijden": null
      }
    },
    {
      "type": "Feature",
      "geometry": {
        "type": "Point",
        "coordinates": [
          4.360194,
          50.859102
        ]
      },
      "properties": {
        "type": "pakketpunt",
        "locatieNaam": "bpost - BBOX SNCB NORTH GR. FL.",
        "straatNaam": "RUE DU PROGRÈS,76",
        "straatNr": "",
        "vervoerder": "Amazon",
        "puntType": "3p",
        "bezettingsgraad": 50,
        "latitude": 50.859102,
        "longitude": 4.360194,
        "canPickup": true,
        "canDropoff": false,
        "openingstijden": null
      }
    },
    {
      "type": "Feature",
      "geometry": {
        "type": "Point",
        "coordinates": [
          4.3698401,
          50.8488312
        ]
      },
      "properties": {
        "type": "pakketpunt",
        "locatieNaam": "bpost - PRESS FACTORY",
        "straatNaam": "PLACE MADOU,8",
        "straatNr": "",
        "vervoerder": "Amazon",
        "puntType": "3p",
        "bezettingsgraad": 50,
        "latitude": 50.8488312,
        "longitude": 4.3698401,
        "canPickup": true,
        "canDropoff": false,
        "openingstijden": null
      }
    },
    {
      "type": "Feature",
      "geometry": {
        "type": "Point",
        "coordinates": [
          4.367187,
          50.854906
        ]
      },
      "properties": {
        "type": "pakketpunt",
        "locatieNaam": "bpost - LE PETIT BOTANIQUE",
        "straatNaam": "CHAUSSÉE DE HAECHT,16",
        "straatNr": "",
        "vervoerder": "Amazon",
        "puntType": "3p",
        "bezettingsgraad": 50,
        "latitude": 50.854906,
        "longitude": 4.367187,
        "canPickup": true,
        "canDropoff": false,
        "openingstijden": null
      }
    },
    {
      "type": "Feature",
      "geometry": {
        "type": "Point",
        "coordinates": [
          4.369507,
          50.848761
        ]
      },
      "properties": {
        "type": "pakketpunt",
        "locatieNaam": "bpost - BRUXELLES MADOU",
        "straatNaam": "AVENUE DES ARTS,1-2",
        "straatNr": "",
        "vervoerder": "Amazon",
        "puntType": "3p",
        "bezettingsgraad": 50,
        "latitude": 50.848761,
        "longitude": 4.369507,
        "canPickup": true,
        "canDropoff": false,
        "openingstijden": null
      }
    },
    {
      "type": "Feature",
      "geometry": {
        "type": "Point",
        "coordinates": [
          4.373771,
          50.853116
        ]
      },
      "properties": {
        "type": "pakketpunt",
        "locatieNaam": "bpost - HOUWAERT PRESSE",
        "straatNaam": "PLACE HOUWAERT,10",
        "straatNr": "",
        "vervoerder": "Amazon",
        "puntType": "3p",
        "bezettingsgraad": 50,
        "latitude": 50.853116,
        "longitude": 4.373771,
        "canPickup": true,
        "canDropoff": false,
        "openingstijden": null
      }
    },
    {
      "type": "Feature",
      "geometry": {
        "type": "Point",
        "coordinates": [
          4.376006,
          50.84931
        ]
      },
      "properties": {
        "type": "pakketpunt",
        "locatieNaam": "bpost - BBOX PLACE ST-JOSSE BPOST",
        "straatNaam": "RUE WILLEMS,18",
        "straatNr": "",
        "vervoerder": "Amazon",
        "puntType": "3p",
        "bezettingsgraad": 50,
        "latitude": 50.84931,
        "longitude": 4.376006,
        "canPickup": true,
        "canDropoff": false,
        "openingstijden": null
      }
    },
    {
      "type": "Feature",
      "geometry": {
        "type": "Point",
        "coordinates": [
          4.376086,
          50.849448
        ]
      },
      "properties": {
        "type": "pakketpunt",
        "locatieNaam": "bpost - ST-JOSSE PLACE DE ST-JOSSE",
        "straatNaam": "RUE WILLEMS,18",
        "straatNr": "",
        "vervoerder": "Amazon",
        "puntType": "3p",
        "bezettingsgraad": 50,
        "latitude": 50.849448,
        "longitude": 4.376086,
        "canPickup": true,
        "canDropoff": false,
        "openingstijden": null
      }
    },
    {
      "type": "Feature",
      "geometry": {
        "type": "Point",
        "coordinates": [
          4.381345,
          50.850698
        ]
      },
      "properties": {
        "type": "pakketpunt",
        "locatieNaam": "bpost - LIBRAIRIE OLI",
        "straatNaam": "CHAUSSÉE DE LOUVAIN,266",
        "straatNr": "",
        "vervoerder": "Amazon",
        "puntType": "3p",
        "bezettingsgraad": 50,
        "latitude": 50.850698,
        "longitude": 4.381345,
        "canPickup": true,
        "canDropoff": false,
        "openingstijden": null
      }
    },
    {
      "type": "Feature",
      "geometry": {
        "type": "Polygon",
        "coordinates": [
          [
            [
              4.368678378599248,
              50.84611501493134
            ],
            [
              4.368272883818616,
              50.846179353799805
            ],
            [
              4.367879301187307,
              50.846268544410584
            ],
            [
              4.367501420588077,
              50.84638172794609
            ],
            [
              4.367500153446183,
              50.846382208903094
            ],
            [
              4.3674984206971255,
              50.84638272789539
            ],
            [
              4.367139880872902,
              50.846518814493706
            ],
            [
              4.366804134448391,
              50.84667649376631
            ],
            [
              4.366494414645075,
              50.84685424738182
            ],
            [
              4.366213704166476,
              50.847050363690244
            ],
            [
              4.365964706475682,
              50.84726295419879
            ],
            [
              4.365749819756926,
              50.84748997175088
            ],
            [
              4.365571113812068,
              50.84772923023342
            ],
            [
              4.36543031011477,
              50.84797842562299
            ],
            [
              4.36532876521495,
              50.84823515816848
            ],
            [
              4.365267457653972,
              50.84849695549668
            ],
            [
              4.365246978517376,
              50.848761296418736
            ],
            [
              4.3652675257170435,
              50.849025635208136
            ],
            [
              4.365328902058792,
              50.84928742611669
            ],
            [
              4.365430517115098,
              50.84954414789221
            ],
            [
              4.365571392885849,
              50.84979332806204
            ],
            [
              4.365750173193643,
              50.85003256674817
            ],
            [
              4.365965136724013,
              50.85025955978461
            ],
            [
              4.36621421358581,
              50.85047212091426
            ],
            [
              4.366495005232882,
              50.85066820285096
            ],
            [
              4.366804807555692,
              50.850845917003966
            ],
            [
              4.367140636920763,
              50.85100355167433
            ],
            [
              4.367443825466571,
              50.85111856098119
            ],
            [
              4.367473646313655,
              50.851132558312074
            ],
            [
              4.367832270248255,
              50.85126859416247
            ],
            [
              4.368210232643947,
              50.85138172186234
            ],
            [
              4.368603893078387,
              50.851470851763494
            ],
            [
              4.368638687543643,
              50.851476365998536
            ],
            [
              4.368843689525322,
              50.851572585676735
            ],
            [
              4.369202320782302,
              50.851708617321556
            ],
            [
              4.369255476158204,
              50.85172452642167
            ],
            [
              4.369202914331068,
              50.851817557595666
            ],
            [
              4.369101381743497,
              50.852074293132496
            ],
            [
              4.369040090187917,
              50.852336092152285
            ],
            [
              4.369029122386742,
              50.852477798321644
            ],
            [
              4.368816943801177,
              50.85241429480559
            ],
            [
              4.3684232750611285,
              50.85232516564292
            ],
            [
              4.368017702271278,
              50.852260890034195
            ],
            [
              4.367604130710699,
              50.8522220868871
            ],
            [
              4.367186542639276,
              50.852209129834655
            ],
            [
              4.366768958971731,
              50.8522221436393
            ],
            [
              4.366355400580405,
              50.852261002992115
            ],
            [
              4.365949849598437,
              50.852325333718895
            ],
            [
              4.365556211095023,
              50.85241451638124
            ],
            [
              4.36517827549083,
              50.85252769223808
            ],
            [
              4.364819682074678,
              50.85266377151067
            ],
            [
              4.364483883972008,
              50.85282144387132
            ],
            [
              4.364174114901898,
              50.85299919105524
            ],
            [
              4.363893358042275,
              50.85319530147439
            ],
            [
              4.363644317302877,
              50.85340788669269
            ],
            [
              4.36342939128253,
              50.853634899604536
            ],
            [
              4.363250650161636,
              50.85387415414151
            ],
            [
              4.363109815752703,
              50.85412334631823
            ],
            [
              4.363008244901531,
              50.854380076414536
            ],
            [
              4.3629469163995465,
              50.85464187208083
            ],
            [
              4.3629264215341275,
              50.85490621214427
            ],
            [
              4.362927854885109,
              50.854924661540174
            ],
            [
              4.3625510559702425,
              50.85486493068509
            ],
            [
              4.3621374660101875,
              50.85482610829194
            ],
            [
              4.361719856310753,
              50.85481313178727
            ],
            [
              4.361302247994887,
              50.85482612612079
            ],
            [
              4.360888662172223,
              50.854864966171135
            ],
            [
              4.360483081239973,
              50.854929277949964
            ],
            [
              4.360089410555658,
              50.85501844220126
            ],
            [
              4.359711440849739,
              50.85513160036131
            ],
            [
              4.359352811739327,
              50.85526766282174
            ],
            [
              4.3590169766934945,
              50.85542531941678
            ],
            [
              4.358707169786982,
              50.855603052033466
            ],
            [
              4.358426374561992,
              50.855799149224026
            ],
            [
              4.35817729529765,
              50.856011722679824
            ],
            [
              4.357962330963723,
              50.856238725408495
            ],
            [
              4.357783552109539,
              50.85647797143975
            ],
            [
              4.35764268091097,
              50.85672715687016
            ],
            [
              4.357541074568112,
              50.85698388204451
            ],
            [
              4.357541008705699,
              50.85698416303749
            ],
            [
              4.357539774280347,
              50.856987281998705
            ],
            [
              4.357538929278324,
              50.856990887083406
            ],
            [
              4.357486953114275,
              50.85701528509338
            ],
            [
              4.3571771299407205,
              50.85719301358994
            ],
            [
              4.356896318832193,
              50.857389107030556
            ],
            [
              4.356647224220759,
              50.85760167714266
            ],
            [
              4.356432245223973,
              50.857828676966136
            ],
            [
              4.356253452532374,
              50.858067920558696
            ],
            [
              4.356112568455099,
              50.858317104040346
            ],
            [
              4.356010950316296,
              50.85857382777471
            ],
            [
              4.355949577362845,
              50.85883561947347
            ],
            [
              4.355929041310294,
              50.859099958002076
            ],
            [
              4.355949540618938,
              50.859364297657095
            ],
            [
              4.356010878556132,
              50.859626092682056
            ],
            [
              4.35611246506455,
              50.8598828217852
            ],
            [
              4.356253322419362,
              50.860132012423314
            ],
            [
              4.356432094620863,
              50.8603712646176
            ],
            [
              4.3566470604329846,
              50.86059827407205
            ],
            [
              4.356896149942896,
              50.860810854371394
            ],
            [
              4.357176964482892,
              50.861006958044904
            ],
            [
              4.357486799723166,
              50.86118469629246
            ],
            [
              4.357489625387725,
              50.86118602268955
            ],
            [
              4.3574907997855625,
              50.86118669638345
            ],
            [
              4.357826671803482,
              50.86134435726255
            ],
            [
              4.358185345739251,
              50.86148042221708
            ],
            [
              4.358563367041419,
              50.86159358067709
            ],
            [
              4.3589570947202905,
              50.86168274269807
            ],
            [
              4.359362736429475,
              50.861747049464334
            ],
            [
              4.35977638500876,
              50.8617858815649
            ],
            [
              4.360194056135611,
              50.86179886496287
            ],
            [
              4.360611726721753,
              50.86178587459988
            ],
            [
              4.361025373684121,
              50.86174703560139
            ],
            [
              4.361431012715763,
              50.861682722070746
            ],
            [
              4.3618247366822684,
              50.86159355348403
            ],
            [
              4.362202753273024,
              50.86148038872025
            ],
            [
              4.362561421543735,
              50.86134431778456
            ],
            [
              4.3628972869975415,
              50.86118665130456
            ],
            [
              4.3632071148662135,
              50.86100890790097
            ],
            [
              4.363487921270432,
              50.86081279955439
            ],
            [
              4.363737001958778,
              50.86060021510994
            ],
            [
              4.3639519583485376,
              50.86037320207829
            ],
            [
              4.364130720617655,
              50.86013394690913
            ],
            [
              4.364271567625745,
              50.85988475392712
            ],
            [
              4.36433053794601,
              50.85973570805106
            ],
            [
              4.36450327011149,
              50.85965461519691
            ],
            [
              4.364813081805706,
              50.85947686747547
            ],
            [
              4.365093872354089,
              50.85928075520043
            ],
            [
              4.365342937657946,
              50.85906816725474
            ],
            [
              4.36555787928274,
              50.85884115118279
            ],
            [
              4.365736627548613,
              50.85860189346353
            ],
            [
              4.365877461450034,
              50.85835269844617
            ],
            [
              4.365979025213174,
              50.85809596615167
            ],
            [
              4.366040341332245,
              50.85783416915398
            ],
            [
              4.366060819960015,
              50.85756982876379
            ],
            [
              4.3660559373698815,
              50.8575070399681
            ],
            [
              4.366359204319683,
              50.85755510214136
            ],
            [
              4.366772821782332,
              50.85759390961979
            ],
            [
              4.367190457585405,
              50.85760686812547
            ],
            [
              4.367608088980924,
              50.85759385283984
            ],
            [
              4.368021693263387,
              50.857554989128374
            ],
            [
              4.368427286537028,
              50.85749065133249
            ],
            [
              4.368820962108283,
              50.857401459161984
            ],
            [
              4.369198928132787,
              50.85728827172299
            ],
            [
              4.369557544153406,
              50.8571521792391
            ],
            [
              4.3698933561766475,
              50.85699449254543
            ],
            [
              4.370203129949008,
              50.85681673045734
            ],
            [
              4.370483882112288,
              50.856620605135426
            ],
            [
              4.3707329089375575,
              50.85640800558825
            ],
            [
              4.370947812360918,
              50.856180979471915
            ],
            [
              4.371126523070469,
              50.8559417133621
            ],
            [
              4.371267320422392,
              50.855692511688815
            ],
            [
              4.371368848994854,
              50.85543577453706
            ],
            [
              4.37138771679972,
              50.85535517139666
            ],
            [
              4.371403620858924,
              50.85536263494718
            ],
            [
              4.371762288445065,
              50.855498658620775
            ],
            [
              4.372140294317372,
              50.8556117735229
            ],
            [
              4.372533997634663,
              50.85570089012862
            ],
            [
              4.37293960628514,
              50.85576515005968
            ],
            [
              4.373353213427,
              50.85580393435623
            ],
            [
              4.373770835136868,
              50.85581686944181
            ],
            [
              4.3741884488025295,
              50.855803830723424
            ],
            [
              4.3746020318892995,
              50.855764943792266
            ],
            [
              4.37500760070562,
              50.85570058321343
            ],
            [
              4.375401248793569,
              50.855611368916136
            ],
            [
              4.37577918457358,
              50.85549816021963
            ],
            [
              4.376137767879916,
              50.85536204755227
            ],
            [
              4.376473545034277,
              50.85520434194355
            ],
            [
              4.376783282119097,
              50.85502656239102
            ],
            [
              4.377063996129622,
              50.85483042122343
            ],
            [
              4.377312983704472,
              50.85461780760197
            ],
            [
              4.377527847157856,
              50.854390769318286
            ],
            [
              4.377659759629293,
              50.854214111774624
            ],
            [
              4.378023679119998,
              50.85422537060748
            ],
            [
              4.378441277464217,
              50.854212316743165
            ],
            [
              4.378854843027057,
              50.8541734148008
            ],
            [
              4.379260392285795,
              50.854109039490005
            ],
            [
              4.379654018970936,
              50.85401981088193
            ],
            [
              4.380031931709123,
              50.853906588433695
            ],
            [
              4.380390490556613,
              50.853770462706045
            ],
            [
              4.38072624207075,
              50.853612744854324
            ],
            [
              4.381035952580988,
              50.853434953993926
            ],
            [
              4.3810778058330655,
              50.853405705966445
            ],
            [
              4.381451975800198,
              50.853417271181776
            ],
            [
              4.38186956601198,
              50.85340420510981
            ],
            [
              4.38228312162627,
              50.85336529107185
            ],
            [
              4.382688659216196,
              50.853300903894066
            ],
            [
              4.383082272624692,
              50.853211663761854
            ],
            [
              4.383460170606319,
              50.85309843024337
            ],
            [
              4.3838187133595135,
              50.852962294005984
            ],
            [
              4.384154447596685,
              50.852804566306226
            ],
            [
              4.384464139813737,
              50.8526267663544
            ],
            [
              4.384744807438172,
              50.85243060667573
            ],
            [
              4.384993747555463,
              50.85221797660964
            ],
            [
              4.385208562936978,
              50.851990924106126
            ],
            [
              4.385387185118881,
              50.85175163599494
            ],
            [
              4.3855278943100515,
              50.85150241691792
            ],
            [
              4.385629335937764,
              50.851245667127614
            ],
            [
              4.385690533672456,
              50.850983859366345
            ],
            [
              4.3857108988069164,
              50.850719515048404
            ],
            [
              4.3856902359004675,
              50.85045517997505
            ],
            [
              4.385628744634792,
              50.85019339981626
            ],
            [
              4.385527017864485,
              50.84993669559536
            ],
            [
              4.38538603588219,
              50.84968753941259
            ],
            [
              4.3852071569544675,
              50.849448330641394
            ],
            [
              4.384992104220468,
              50.84922137282627
            ],
            [
              4.384742949080362,
              50.84900885150493
            ],
            [
              4.384462091234146,
              50.848812813167584
            ],
            [
              4.38415223556354,
              50.848635145556095
            ],
            [
              4.383816366079937,
              50.84847755949224
            ],
            [
              4.3834577171893505,
              50.848341572409744
            ],
            [
              4.3830797425510335,
              50.84822849374856
            ],
            [
              4.382686081829371,
              50.84813941235153
            ],
            [
              4.38266371939465,
              50.848135870940105
            ],
            [
              4.382580387044319,
              50.84811701344871
            ],
            [
              4.382174831211353,
              50.84805278671587
            ],
            [
              4.381761284994963,
              50.8480140334396
            ],
            [
              4.381343730410992,
              50.848001126772715
            ],
            [
              4.3809261880517605,
              50.84801419099247
            ],
            [
              4.380512678391936,
              50.84805310030455
            ],
            [
              4.38010718309554,
              50.84811748005367
            ],
            [
              4.379866611819224,
              50.8481720217361
            ],
            [
              4.3797664914747765,
              50.84803810439099
            ],
            [
              4.379551471461367,
              50.847811136512
            ],
            [
              4.379302348393893,
              50.84759860355057
            ],
            [
              4.379021521663557,
              50.84740255210904
            ],
            [
              4.378711695852514,
              50.84722487005545
            ],
            [
              4.378375854684698,
              50.847067268350685
            ],
            [
              4.378017232293534,
              50.846931264579084
            ],
            [
              4.37763928208318,
              50.84681816834132
            ],
            [
              4.377245643482869,
              50.84672906864945
            ],
            [
              4.376840106914038,
              50.8466648234456
            ],
            [
              4.376426577307004,
              50.84662605134467
            ],
            [
              4.37600903651772,
              50.846613125680754
            ],
            [
              4.376007045861045,
              50.8466131878798
            ],
            [
              4.376005036747201,
              50.84661312568072
            ],
            [
              4.375587505234076,
              50.846626170899754
            ],
            [
              4.375174003366257,
              50.84666506140461
            ],
            [
              4.374768512732733,
              50.84672942272109
            ],
            [
              4.374374937821735,
              50.84681863511625
            ],
            [
              4.373997068441732,
              50.84693183956271
            ],
            [
              4.373638543243998,
              50.84706794600642
            ],
            [
              4.373591213145418,
              50.84709017794385
            ],
            [
              4.373576484469662,
              50.847083265177524
            ],
            [
              4.373217875842802,
              50.84694724673177
            ],
            [
              4.372839937051495,
              50.84683413502878
            ],
            [
              4.37263312409086,
              50.84678731380637
            ],
            [
              4.372541941366203,
              50.84673501190022
            ],
            [
              4.3722061243841654,
              50.84657739250773
            ],
            [
              4.371847523581583,
              50.84644136985292
            ],
            [
              4.371469592154812,
              50.846328253718234
            ],
            [
              4.371372760829114,
              50.84630633022487
            ],
            [
              4.371265601096133,
              50.846274256515215
            ],
            [
              4.370871979132482,
              50.84618513541838
            ],
            [
              4.370466455968279,
              50.84612086816664
            ],
            [
              4.370052936404816,
              50.846082073587255
            ],
            [
              4.369960259305739,
              50.84607919966156
            ],
            [
              4.3699269435454395,
              50.84607607403067
            ],
            [
              4.36950940942999,
              50.846063125225555
            ],
            [
              4.3690918810010775,
              50.84607614732202
            ],
            [
              4.368678378599248,
              50.84611501493134
            ]
          ]
        ]
      },
      "properties": {
        "type": "buffer_union_300m",
        "buffer_m": 300
      }
    },
    {
      "type": "Feature",
      "geometry": {
        "type": "Polygon",
        "coordinates": [
          [
            [
              4.3684011922615955,
              50.8452333515
            ],
            [
              4.3678605419416545,
              50.84531913508934
            ],
            [
              4.36733577332772,
              50.845438053793075
            ],
            [
              4.3668319392806465,
              50.8455889626022
            ],
            [
              4.366830672153272,
              50.84558944355208
            ],
            [
              4.366828939426044,
              50.845589962534596
            ],
            [
              4.366350891343615,
              50.8457714083987
            ],
            [
              4.365903232532648,
              50.84598164424579
            ],
            [
              4.365490273836414,
              50.846218645756345
            ],
            [
              4.365115992152877,
              50.84648013085758
            ],
            [
              4.364783992139606,
              50.84676358168626
            ],
            [
              4.364497471494351,
              50.84706626882262
            ],
            [
              4.364259190145779,
              50.8473852775619
            ],
            [
              4.364071443651647,
              50.84771753597166
            ],
            [
              4.363936041061435,
              50.84805984446483
            ],
            [
              4.363854287457788,
              50.848408906604035
            ],
            [
              4.3638269713462945,
              50.84876136084123
            ],
            [
              4.36385435701664,
              50.84911381288692
            ],
            [
              4.363936181950463,
              50.84946286839764
            ],
            [
              4.3640716593026285,
              50.849805165666716
            ],
            [
              4.364259485433864,
              50.850137408003626
            ],
            [
              4.364497852423962,
              50.85045639548994
            ],
            [
              4.36478446544657,
              50.85075905580555
            ],
            [
              4.3651165648397265,
              50.85104247382817
            ],
            [
              4.365490952660674,
              50.85130391972066
            ],
            [
              4.36572115685693,
              50.85143597540963
            ],
            [
              4.365537496319818,
              50.85146510831223
            ],
            [
              4.365012653212317,
              50.85158401641813
            ],
            [
              4.364508745827575,
              50.851734914989045
            ],
            [
              4.364030626291139,
              50.8519163510855
            ],
            [
              4.363582898577405,
              50.85212657771658
            ],
            [
              4.363169874193047,
              50.85236357065158
            ],
            [
              4.362795530668533,
              50.852625047900275
            ],
            [
              4.362463473256953,
              50.852908491675116
            ],
            [
              4.362176900208849,
              50.853211172624256
            ],
            [
              4.361938571957643,
              50.85353017610254
            ],
            [
              4.361750784512935,
              50.853862430228254
            ],
            [
              4.361730183530677,
              50.85391449767663
            ],
            [
              4.361719808418002,
              50.85391417526346
            ],
            [
              4.361163007928605,
              50.85393150071527
            ],
            [
              4.360611570356109,
              50.853983286483356
            ],
            [
              4.360070805171894,
              50.85406903395369
            ],
            [
              4.359545919158431,
              50.85418791751189
            ],
            [
              4.359041966306681,
              50.85433879248736
            ],
            [
              4.358563799179838,
              50.85452020616776
            ],
            [
              4.358116022210397,
              50.854730411778135
            ],
            [
              4.357702947379178,
              50.854967385290124
            ],
            [
              4.357328552702288,
              50.85522884490061
            ],
            [
              4.356996443925273,
              50.85551227299189
            ],
            [
              4.356709819793222,
              50.85581494036319
            ],
            [
              4.356471441231428,
              50.85613393250018
            ],
            [
              4.356283604733953,
              50.856466177630374
            ],
            [
              4.356269446518803,
              50.85650194829304
            ],
            [
              4.356172894254507,
              50.856557334031834
            ],
            [
              4.355798478399931,
              50.856818788642315
            ],
            [
              4.355466349160339,
              50.857102212275294
            ],
            [
              4.355179705477859,
              50.85740487577291
            ],
            [
              4.354941308466057,
              50.85772386465816
            ],
            [
              4.354753454796699,
              50.858056107189896
            ],
            [
              4.354617954551637,
              50.85839840393405
            ],
            [
              4.354536113754319,
              50.85874745856649
            ],
            [
              4.354508721750483,
              50.85909990961153
            ],
            [
              4.354536043561207,
              50.8594523628106
            ],
            [
              4.354617817283699,
              50.85980142380913
            ],
            [
              4.35475325656662,
              50.860143730847724
            ],
            [
              4.354941058137953,
              50.86047598714186
            ],
            [
              4.355179414314623,
              50.860794992638716
            ],
            [
              4.355466030374999,
              50.8610976748448
            ],
            [
              4.3557981466283895,
              50.861381118427005
            ],
            [
              4.356172564970118,
              50.86164259330206
            ],
            [
              4.356585679667315,
              50.86187958094255
            ],
            [
              4.356588505348222,
              50.86188090736108
            ],
            [
              4.356589679750508,
              50.86188158106387
            ],
            [
              4.357037512199609,
              50.86209179875255
            ],
            [
              4.357515749135421,
              50.86227322162564
            ],
            [
              4.358019784296375,
              50.86242410214374
            ],
            [
              4.358544762769819,
              50.86254298694872
            ],
            [
              4.359085627777398,
              50.862628730871805
            ],
            [
              4.359637169411059,
              50.86268050797149
            ],
            [
              4.360194074848913,
              50.86269781949476
            ],
            [
              4.360750979565767,
              50.86268049868464
            ],
            [
              4.361302519043374,
              50.86262871238755
            ],
            [
              4.361843380480631,
              50.8625429594451
            ],
            [
              4.362368354003899,
              50.862424065885705
            ],
            [
              4.3628723828825375,
              50.86227317696245
            ],
            [
              4.363350612264443,
              50.862091746114416
            ],
            [
              4.363798435960857,
              50.861881520957816
            ],
            [
              4.364211540828694,
              50.861644526442575
            ],
            [
              4.364585948322159,
              50.861383045336794
            ],
            [
              4.364918052812928,
              50.861099596227824
            ],
            [
              4.36520465630966,
              50.86079690925223
            ],
            [
              4.365442999242719,
              50.860477899788975
            ],
            [
              4.3655689319160365,
              50.8602550833011
            ],
            [
              4.365817496744475,
              50.86011247254211
            ],
            [
              4.366191883096437,
              50.85985098619843
            ],
            [
              4.366523967074313,
              50.85956753242122
            ],
            [
              4.366810550884345,
              50.859264841391976
            ],
            [
              4.367048875146495,
              50.85894582852872
            ],
            [
              4.367236645446529,
              50.85861356639585
            ],
            [
              4.367280372220231,
              50.85850302650039
            ],
            [
              4.367747462586145,
              50.85848846967268
            ],
            [
              4.3682989451548115,
              50.85843665042439
            ],
            [
              4.3688397455787795,
              50.858350865127804
            ],
            [
              4.369364654572303,
              50.85823194012292
            ],
            [
              4.3698686160265146,
              50.85808102096574
            ],
            [
              4.370346775738964,
              50.85789956138654
            ],
            [
              4.370794528192152,
              50.85768930927828
            ],
            [
              4.371207560929392,
              50.85745228985042
            ],
            [
              4.371581896099797,
              50.857190786111005
            ],
            [
              4.371913928771757,
              50.856907316865346
            ],
            [
              4.372200461645753,
              50.856604612443874
            ],
            [
              4.37222116061806,
              50.85657689889126
            ],
            [
              4.3726627876086015,
              50.85664686500431
            ],
            [
              4.373214273990897,
              50.856698578364096
            ],
            [
              4.373771113537122,
              50.856715825469614
            ],
            [
              4.374327942356922,
              50.85669844018442
            ],
            [
              4.374879396663339,
              50.85664658997601
            ],
            [
              4.37542016447594,
              50.85656077430163
            ],
            [
              4.3759450368232296,
              50.85644181979393
            ],
            [
              4.376448957949476,
              50.85629087229307
            ],
            [
              4.376927074040836,
              50.856109385802334
            ],
            [
              4.3773747800001415,
              50.85589910847387
            ],
            [
              4.377787763818701,
              50.85566206576007
            ],
            [
              4.378162048116968,
              50.8554005408932
            ],
            [
              4.378494028453467,
              50.85511705288204
            ],
            [
              4.378501261821759,
              50.85510940949744
            ],
            [
              4.378580847244556,
              50.85510692154449
            ],
            [
              4.379132278184687,
              50.85505505132075
            ],
            [
              4.379673019919299,
              50.85496921600347
            ],
            [
              4.380197863728182,
              50.85485024241447
            ],
            [
              4.3807017541305955,
              50.85469927657774
            ],
            [
              4.3811798376087445,
              50.85451777267315
            ],
            [
              4.381620051420973,
              50.85431098242352
            ],
            [
              4.382009198646127,
              50.85429880603344
            ],
            [
              4.382560616320888,
              50.85424691968197
            ],
            [
              4.383101342496297,
              50.85416106854174
            ],
            [
              4.3836261686020785,
              50.854042079587025
            ],
            [
              4.384130039328086,
              50.85389109898978
            ],
            [
              4.384608101346135,
              50.85370958107206
            ],
            [
              4.385055750080095,
              50.85349927428873
            ],
            [
              4.385468674072668,
              50.85326220437586
            ],
            [
              4.385842896520728,
              50.85300065482765
            ],
            [
              4.386174813578691,
              50.85271714489056
            ],
            [
              4.386461229060847,
              50.852414405286886
            ],
            [
              4.386699385208652,
              50.85209535190229
            ],
            [
              4.386886989227178,
              50.85176305769134
            ],
            [
              4.3870222353360395,
              50.851420723071804
            ],
            [
              4.387103822123567,
              50.85107164509357
            ],
            [
              4.387130965038509,
              50.85071918567939
            ],
            [
              4.387103403900578,
              50.85036673924334
            ],
            [
              4.387021405359196,
              50.85001769999948
            ],
            [
              4.386885760278619,
              50.84967542927503
            ],
            [
              4.386697776076393,
              50.84934322314329
            ],
            [
              4.386459264090651,
              50.84902428068768
            ],
            [
              4.386172522099546,
              50.84872167320202
            ],
            [
              4.38584031216253,
              50.84843831462383
            ],
            [
              4.38546583399803,
              50.84817693348437
            ],
            [
              4.385052694154781,
              50.84794004664561
            ],
            [
              4.384604871274207,
              50.84772993507603
            ],
            [
              4.384126677778603,
              50.847548621898376
            ],
            [
              4.383622718353854,
              50.84739785291987
            ],
            [
              4.383097845626048,
              50.847279079832205
            ],
            [
              4.383075483569584,
              50.847275538498444
            ],
            [
              4.382992152579212,
              50.8472566812951
            ],
            [
              4.382451420861315,
              50.84717104721738
            ],
            [
              4.3819000360962805,
              50.84711937714591
            ],
            [
              4.381343307247029,
              50.84710216858075
            ],
            [
              4.380786594696185,
              50.84711958721246
            ],
            [
              4.3805347426306485,
              50.847143285637834
            ],
            [
              4.380399744585315,
              50.84702811734982
            ],
            [
              4.380025307907166,
              50.84676671873801
            ],
            [
              4.379612207875051,
              50.846529812643155
            ],
            [
              4.3791644227471815,
              50.846319680219125
            ],
            [
              4.378686264582464,
              50.84613834478952
            ],
            [
              4.378182337726719,
              50.84598755237584
            ],
            [
              4.377657494492569,
              50.84586875489544
            ],
            [
              4.37711678845891,
              50.84578309619012
            ],
            [
              4.3765654258386375,
              50.845731401019556
            ],
            [
              4.376008715381527,
              50.84571416712549
            ],
            [
              4.376006724762918,
              50.84571422932456
            ],
            [
              4.376004715687495,
              50.84571416712545
            ],
            [
              4.375448017597653,
              50.84573156042333
            ],
            [
              4.374896691960204,
              50.84578341346292
            ],
            [
              4.374356047169083,
              50.84586922698245
            ],
            [
              4.373831288847907,
              50.845988174731566
            ],
            [
              4.37358163644468,
              50.84606296726308
            ],
            [
              4.37338307767948,
              50.846003541290884
            ],
            [
              4.373347871181986,
              50.8459955708232
            ],
            [
              4.372994782344059,
              50.84582984575953
            ],
            [
              4.372516652962452,
              50.845648485152545
            ],
            [
              4.372012751149978,
              50.845497666209994
            ],
            [
              4.37191592128184,
              50.84547574316005
            ],
            [
              4.371808763071616,
              50.84544366993925
            ],
            [
              4.371283942018328,
              50.84532484391934
            ],
            [
              4.370743253856428,
              50.845239155817346
            ],
            [
              4.370191904626819,
              50.845187430676035
            ],
            [
              4.37009922928298,
              50.845184556859444
            ],
            [
              4.370065914147472,
              50.845181431267264
            ],
            [
              4.369509212588378,
              50.84516416651884
            ],
            [
              4.368952518610754,
              50.845181528987226
            ],
            [
              4.3684011922615955,
              50.8452333515
            ]
          ]
        ]
      },
      "properties": {
        "type": "buffer_union_400m",
        "buffer_m": 400
      }
    },
    {
      "type": "Feature",
      "geometry": {
        "type": "Polygon",
        "coordinates": [
          [
            [
              4.3571864,
              50.860314
            ],
            [
              4.356685,
              50.8593506
            ],
            [
              4.3565816,
              50.8577011
            ],
            [
              4.3558087,
              50.8569708
            ],
            [
              4.3552484,
              50.8562056
            ],
            [
              4.3683811,
              50.8525504
            ],
            [
              4.3697233,
              50.8474197
            ],
            [
              4.369566,
              50.84712
            ],
            [
              4.3732167,
              50.8472879
            ],
            [
              4.3738643,
              50.8477817
            ],
            [
              4.3738815,
              50.8479114
            ],
            [
              4.3752615,
              50.8476249
            ],
            [
              4.375713,
              50.8484705
            ],
            [
              4.377367,
              50.8490307
            ],
            [
              4.377587,
              50.848756
            ],
            [
              4.3786537,
              50.8490268
            ],
            [
              4.378709,
              50.8489741
            ],
            [
              4.3789774,
              50.8490338
            ],
            [
              4.3789652,
              50.8498937
            ],
            [
              4.3795995,
              50.8500199
            ],
            [
              4.3809895,
              50.8505959
            ],
            [
              4.384052,
              50.8514185
            ],
            [
              4.3822313,
              50.8518181
            ],
            [
              4.3725553,
              50.8567384
            ],
            [
              4.3696863,
              50.8574655
            ],
            [
              4.3695256,
              50.8571818
            ],
            [
              4.3679408,
              50.8575185
            ],
            [
              4.3680463,
              50.857723
            ],
            [
              4.3571864,
              50.860314
            ]
          ]
        ]
      },
      "properties": {
        "type": "boundary",
        "gemeente": "Sint-Joost-ten-Node (Saint-Josse-ten-Noode)"
      }
    }
  ]
}