{
  "type": "FeatureCollection",
  "metadata": {
    "gemeente": "Sint-Martens-Latem",
    "slug": "sint-martens-latem",
    "generated_at": "2026-09-25T22:11:44.194186Z",
    "total_points": 9,
    "providers": [
      "bpost",
      "DHL",
      "InPost",
      "Amazon"
    ],
    "bounds": [
      3.63141,
      51.00927,
      3.64176,
      51.01662
    ]
  },
  "features": [
    {
      "type": "Feature",
      "geometry": {
        "type": "Point",
        "coordinates": [
          3.64176,
          51.01576
        ]
      },
      "properties": {
        "type": "pakketpunt",
        "locatieNaam": "Pakjesautomaat 24/7 Simonnet St-M-Latem",
        "straatNaam": "Karel Lodewijk Maenhoutstraat",
        "straatNr": "68",
        "vervoerder": "bpost",
        "puntType": "automaat",
        "bezettingsgraad": 50,
        "latitude": 51.01576,
        "longitude": 3.64176,
        "canPickup": true,
        "canDropoff": true,
        "openingstijden": null
      }
    },
    {
      "type": "Feature",
      "geometry": {
        "type": "Point",
        "coordinates": [
          3.6326,
          51.01662
        ]
      },
      "properties": {
        "type": "pakketpunt",
        "locatieNaam": "St-Martens-Latem",
        "straatNaam": "Latemstraat",
        "straatNr": "64",
        "vervoerder": "bpost",
        "puntType": "postkantoor",
        "bezettingsgraad": 50,
        "latitude": 51.01662,
        "longitude": 3.6326,
        "canPickup": true,
        "canDropoff": true,
        "openingstijden": null
      }
    },
    {
      "type": "Feature",
      "geometry": {
        "type": "Point",
        "coordinates": [
          3.63336,
          51.00927
        ]
      },
      "properties": {
        "type": "pakketpunt",
        "locatieNaam": "Bbox 24/7 Q8 Sint-Martens-Latem",
        "straatNaam": "Kortrijksesteenweg",
        "straatNr": "132",
        "vervoerder": "bpost",
        "puntType": "automaat",
        "bezettingsgraad": 50,
        "latitude": 51.00927,
        "longitude": 3.63336,
        "canPickup": true,
        "canDropoff": true,
        "openingstijden": null
      }
    },
    {
      "type": "Feature",
      "geometry": {
        "type": "Point",
        "coordinates": [
          3.63336,
          51.009272
        ]
      },
      "properties": {
        "type": "pakketpunt",
        "locatieNaam": "BBOX 24/7 Q8 SINT-MARTENS-LATEM",
        "straatNaam": "KORTRIJKSESTEENWEG",
        "straatNr": "132",
        "vervoerder": "DHL",
        "puntType": "packStation",
        "bezettingsgraad": 50,
        "latitude": 51.009272,
        "longitude": 3.63336,
        "canPickup": true,
        "canDropoff": true,
        "openingstijden": {
          "ma": "00:00 - 23:59",
          "di": "00:00 - 23:59",
          "wo": "00:00 - 23:59",
          "do": "00:00 - 23:59",
          "vr": "00:00 - 23:59",
          "za": "00:00 - 23:59",
          "zo": "00:00 - 23:59"
        }
      }
    },
    {
      "type": "Feature",
      "geometry": {
        "type": "Point",
        "coordinates": [
          3.6326,
          51.01662
        ]
      },
      "properties": {
        "type": "pakketpunt",
        "locatieNaam": "ST-MARTENS-LATEM",
        "straatNaam": "LATEMSTRAAT",
        "straatNr": "64",
        "vervoerder": "DHL",
        "puntType": "postOffice",
        "bezettingsgraad": 50,
        "latitude": 51.01662,
        "longitude": 3.6326,
        "canPickup": true,
        "canDropoff": true,
        "openingstijden": {
          "ma": "09:30 - 12:30, 13:30 - 17:00",
          "di": "09:30 - 12:30, 13:30 - 18:00",
          "wo": "09:30 - 12:30, 13:30 - 17:00",
          "do": "09:30 - 12:30, 13:30 - 18:00",
          "vr": "09:30 - 12:30, 13:30 - 17:00",
          "za": "09:30 - 13:00",
          "zo": "gesloten"
        }
      }
    },
    {
      "type": "Feature",
      "geometry": {
        "type": "Point",
        "coordinates": [
          3.641758,
          51.015762
        ]
      },
      "properties": {
        "type": "pakketpunt",
        "locatieNaam": "PARCEL LOCKER 24/7 SIMONNET ST-M-LA",
        "straatNaam": "KAREL LODEWIJK MAENHOUTSTRAAT",
        "straatNr": "68",
        "vervoerder": "DHL",
        "puntType": "packStation",
        "bezettingsgraad": 50,
        "latitude": 51.015762,
        "longitude": 3.641758,
        "canPickup": true,
        "canDropoff": true,
        "openingstijden": {
          "ma": "00:00 - 23:59",
          "di": "00:00 - 23:59",
          "wo": "00:00 - 23:59",
          "do": "00:00 - 23:59",
          "vr": "00:00 - 23:59",
          "za": "00:00 - 23:59",
          "zo": "00:00 - 23:59"
        }
      }
    },
    {
      "type": "Feature",
      "geometry": {
        "type": "Point",
        "coordinates": [
          3.63141,
          51.01077
        ]
      },
      "properties": {
        "type": "pakketpunt",
        "locatieNaam": "DBH UP 2 DATE",
        "straatNaam": "GOLFLAAN 57",
        "straatNr": "",
        "vervoerder": "InPost",
        "puntType": "servicepunt",
        "bezettingsgraad": 50,
        "latitude": 51.01077,
        "longitude": 3.63141,
        "canPickup": true,
        "canDropoff": true,
        "openingstijden": null
      }
    },
    {
      "type": "Feature",
      "geometry": {
        "type": "Point",
        "coordinates": [
          3.6326,
          51.01662
        ]
      },
      "properties": {
        "type": "pakketpunt",
        "locatieNaam": "bpost - ST-MARTENS-LATEM",
        "straatNaam": "LATEMSTRAAT,64",
        "straatNr": "",
        "vervoerder": "Amazon",
        "puntType": "3p",
        "bezettingsgraad": 50,
        "latitude": 51.01662,
        "longitude": 3.6326,
        "canPickup": true,
        "canDropoff": false,
        "openingstijden": null
      }
    },
    {
      "type": "Feature",
      "geometry": {
        "type": "Point",
        "coordinates": [
          3.63336,
          51.009272
        ]
      },
      "properties": {
        "type": "pakketpunt",
        "locatieNaam": "bpost - BBOX 24/7 Q8 SINT-MARTENS-LATEM",
        "straatNaam": "KORTRIJKSESTEENWEG,132",
        "straatNr": "",
        "vervoerder": "Amazon",
        "puntType": "3p",
        "bezettingsgraad": 50,
        "latitude": 51.009272,
        "longitude": 3.63336,
        "canPickup": true,
        "canDropoff": false,
        "openingstijden": null
      }
    },
    {
      "type": "Feature",
      "geometry": {
        "type": "MultiPolygon",
        "coordinates": [
          [
            [
              [
                3.6374624225951737,
                51.008512369448475
              ],
              [
                3.637324949104046,
                51.00826233877333
              ],
              [
                3.6371492934419085,
                51.00802201284039
              ],
              [
                3.6369371477198027,
                51.007793705955685
              ],
              [
                3.636690555356269,
                51.00757961665105
              ],
              [
                3.636411891385073,
                51.007381806518346
              ],
              [
                3.636103839574089,
                51.007202180363024
              ],
              [
                3.635769366576031,
                51.007042467868054
              ],
              [
                3.635411693360063,
                51.006904206944455
              ],
              [
                3.635034264199353,
                51.00678872892829
              ],
              [
                3.634640713512969,
                51.00669714576655
              ],
              [
                3.63423483088095,
                51.006630339315095
              ],
              [
                3.6338205245688946,
                51.00658895285111
              ],
              [
                3.633401783912494,
                51.00657338488227
              ],
              [
                3.632982640923439,
                51.006583785311285
              ],
              [
                3.632567131485445,
                51.006620053993274
              ],
              [
                3.6321592565130807,
                51.00668184169955
              ],
              [
                3.6317629434464695,
                51.006768553478736
              ],
              [
                3.631382008451662,
                51.00687935438252
              ],
              [
                3.6310201196898317,
                51.00701317750172
              ],
              [
                3.630680762008212,
                51.00716873423475
              ],
              [
                3.6303672033921535,
                51.007344526690474
              ],
              [
                3.630082463500888,
                51.00753886210565
              ],
              [
                3.629829284589697,
                51.00774986913909
              ],
              [
                3.629610105098411,
                51.00797551588536
              ],
              [
                3.6294270361606578,
                51.0082136294352
              ],
              [
                3.6293020276860815,
                51.008427397608635
              ],
              [
                3.6290701387116933,
                51.00851313984183
              ],
              [
                3.628730763688502,
                51.00866869087587
              ],
              [
                3.6284171877145064,
                51.00884447805008
              ],
              [
                3.628132430616066,
                51.00903880865208
              ],
              [
                3.627879234814143,
                51.00924981138708
              ],
              [
                3.6276600389112104,
                51.00947545439102
              ],
              [
                3.627476954198939,
                51.009713564790665
              ],
              [
                3.627331744313186,
                51.00996184962216
              ],
              [
                3.6272258082327022,
                51.01021791790696
              ],
              [
                3.6271601667859072,
                51.010479303672945
              ],
              [
                3.6271354527964683,
                51.010743489698996
              ],
              [
                3.6271519049634793,
                51.01100793175461
              ],
              [
                3.627209365536138,
                51.01127008310133
              ],
              [
                3.627307281806369,
                51.011527419019835
              ],
              [
                3.627444711405999,
                51.011777461126584
              ],
              [
                3.6276203313584894,
                51.01201780124587
              ],
              [
                3.627832450798946,
                51.012246124606854
              ],
              [
                3.62807902724073,
                51.01246023214254
              ],
              [
                3.628357686232665,
                51.01265806167507
              ],
              [
                3.6286657442180505,
                51.01283770778364
              ],
              [
                3.6290002343756234,
                51.01299744016291
              ],
              [
                3.6293579351937635,
                51.01313572029508
              ],
              [
                3.6297354015026575,
                51.01325121627461
              ],
              [
                3.6301289976652864,
                51.0133428156426
              ],
              [
                3.630534932607129,
                51.013409636106985
              ],
              [
                3.6309492963465804,
                51.01345103404471
              ],
              [
                3.6313680976735236,
                51.01346661070429
              ],
              [
                3.631787302612254,
                51.01345621604867
              ],
              [
                3.632202873297394,
                51.01341995020098
              ],
              [
                3.6326108068873695,
                51.01335816247974
              ],
              [
                3.6330071741396592,
                51.01327144803246
              ],
              [
                3.6333881572753524,
                51.013160642100274
              ],
              [
                3.633750086767404,
                51.01302681196894
              ],
              [
                3.6340894766975333,
                51.01287124668411
              ],
              [
                3.634403058340566,
                51.012695444629685
              ],
              [
                3.6346878116522854,
                51.01250109908985
              ],
              [
                3.63494099435725,
                51.01229008193353
              ],
              [
                3.6351601683562955,
                51.012064425578934
              ],
              [
                3.6353432231995066,
                51.01182630341236
              ],
              [
                3.635466721212724,
                51.01161508082316
              ],
              [
                3.635700105879924,
                51.01152877430771
              ],
              [
                3.636039478479607,
                51.01137320332387
              ],
              [
                3.636353042775211,
                51.011197395988106
              ],
              [
                3.6366377788896282,
                51.011003045635455
              ],
              [
                3.63689094471307,
                51.01079202418118
              ],
              [
                3.637110102308972,
                51.01056636408489
              ],
              [
                3.6372931413854017,
                51.010328238768906
              ],
              [
                3.637438299606197,
                51.01007994167962
              ],
              [
                3.637544179546687,
                51.00982386419384
              ],
              [
                3.637609762131345,
                51.00956247258313
              ],
              [
                3.6376344164247487,
                51.00929828425823
              ],
              [
                3.6376343415348007,
                51.00929708480636
              ],
              [
                3.637634416242249,
                51.00929628425824
              ],
              [
                3.637617905500639,
                51.009031843522294
              ],
              [
                3.637560389425028,
                51.00876969706736
              ],
              [
                3.6374624225951737,
                51.008512369448475
              ]
            ]
          ],
          [
            [
              [
                3.645862855127452,
                51.01500207826777
              ],
              [
                3.645725317746099,
                51.01475205793842
              ],
              [
                3.645549594644771,
                51.01451174505562
              ],
              [
                3.64533737858399,
                51.01428345379973
              ],
              [
                3.645090713659654,
                51.014069382552
              ],
              [
                3.6448119756042385,
                51.01387159273038
              ],
              [
                3.6445038488989545,
                51.01369198894472
              ],
              [
                3.6441693009176204,
                51.013532300662526
              ],
              [
                3.643811553351323,
                51.01339406556166
              ],
              [
                3.6434340511890393,
                51.01327861472949
              ],
              [
                3.643040429552639,
                51.01318705985123
              ],
              [
                3.642634478705201,
                51.01312028251041
              ],
              [
                3.64222010756903,
                51.013078925703894
              ],
              [
                3.6418013061038774,
                51.01306338765379
              ],
              [
                3.641382106906846,
                51.01307381797467
              ],
              [
                3.6409665464027854,
                51.01311011623391
              ],
              [
                3.6405586259979157,
                51.01317193291796
              ],
              [
                3.640162273569801,
                51.013258672796454
              ],
              [
                3.639781305663509,
                51.0133695006505
              ],
              [
                3.6394193907571646,
                51.01350334931142
              ],
              [
                3.6390800139498296,
                51.01365892993168
              ],
              [
                3.6387664434111358,
                51.01383474439009
              ],
              [
                3.638481698915271,
                51.01402909971155
              ],
              [
                3.6382285227620326,
                51.014240124363184
              ],
              [
                3.6382268255734393,
                51.014241871838
              ],
              [
                3.6382265226761383,
                51.01424212430419
              ],
              [
                3.6380073532600052,
                51.014467786206986
              ],
              [
                3.6378243016376244,
                51.01470591231015
              ],
              [
                3.6376791311264243,
                51.01495420949852
              ],
              [
                3.6375732403261947,
                51.01521028667454
              ],
              [
                3.6375076496295082,
                51.0154716777804
              ],
              [
                3.6374829913714786,
                51.01573586554349
              ],
              [
                3.637499503714647,
                51.016000305716545
              ],
              [
                3.6375570283288132,
                51.01626245157918
              ],
              [
                3.6376550118892386,
                51.016519778464804
              ],
              [
                3.637792511379753,
                51.01676980807681
              ],
              [
                3.637968203150723,
                51.017010132359786
              ],
              [
                3.638180395645556,
                51.01723843669537
              ],
              [
                3.638427045673961,
                51.01745252219971
              ],
              [
                3.6387057780759466,
                51.01765032690715
              ],
              [
                3.6390139085876556,
                51.01782994563593
              ],
              [
                3.639348469689152,
                51.017989648344376
              ],
              [
                3.6397062391853616,
                51.01812789680045
              ],
              [
                3.640083771244824,
                51.01824335940371
              ],
              [
                3.6404774295970608,
                51.01833492401673
              ],
              [
                3.6408834225683933,
                51.018401708682134
              ],
              [
                3.6412978396181384,
                51.01844307012171
              ],
              [
                3.6417166890225703,
                51.018458609935564
              ],
              [
                3.642135936342801,
                51.01844817844149
              ],
              [
                3.6425515433051636,
                51.01841187611749
              ],
              [
                3.642959506718626,
                51.018350052633394
              ],
              [
                3.6433558970534055,
                51.01826330348122
              ],
              [
                3.6437368963082974,
                51.018152464236366
              ],
              [
                3.6440988348010728,
                51.01801860250546
              ],
              [
                3.6444382265268644,
                51.01786300763849
              ],
              [
                3.6447518027433436,
                51.01768717830429
              ],
              [
                3.645036543458728,
                51.017492808049816
              ],
              [
                3.645289706519094,
                51.017281768981945
              ],
              [
                3.645291403554314,
                51.01728002140705
              ],
              [
                3.6452917064331767,
                51.017279768922926
              ],
              [
                3.645510853909777,
                51.017054093667035
              ],
              [
                3.6456938756281843,
                51.016815955795884
              ],
              [
                3.645839009419647,
                51.01656764887674
              ],
              [
                3.645944858095009,
                51.016311564381034
              ],
              [
                3.6460104028800897,
                51.01605016864783
              ],
              [
                3.6460350132037282,
                51.01578597912751
              ],
              [
                3.6460184527451216,
                51.01552154013487
              ],
              [
                3.6459608816832128,
                51.015259398344924
              ],
              [
                3.645862855127452,
                51.01500207826777
              ]
            ]
          ],
          [
            [
              [
                3.6367030786743246,
                51.015862397755306
              ],
              [
                3.6365655876634255,
                51.01561236679608
              ],
              [
                3.6363899083325597,
                51.015372040309146
              ],
              [
                3.6361777330208644,
                51.01514373260584
              ],
              [
                3.6359311054319616,
                51.01492964222592
              ],
              [
                3.635652400938937,
                51.01473183077155
              ],
              [
                3.635344303699953,
                51.0145522030609
              ],
              [
                3.635009780805216,
                51.01439248879197
              ],
              [
                3.634652053704379,
                51.01425422589278
              ],
              [
                3.6342745671894625,
                51.014138745718434
              ],
              [
                3.633880956231763,
                51.01404716023669
              ],
              [
                3.633475010991609,
                51.01398035132574
              ],
              [
                3.6330606403373675,
                51.01393896228648
              ],
              [
                3.632641834224175,
                51.01392339165133
              ],
              [
                3.632222625293895,
                51.013933789348705
              ],
              [
                3.6318070500650714,
                51.013970055259996
              ],
              [
                3.631399110085663,
                51.01403184018326
              ],
              [
                3.631002733421646,
                51.01411854919384
              ],
              [
                3.6306217368513667,
                51.01422934737015
              ],
              [
                3.630259789128853,
                51.01436316782925
              ],
              [
                3.629920375669044,
                51.014518721995216
              ],
              [
                3.629606764994382,
                51.01469451200159
              ],
              [
                3.629321977265414,
                51.014888845108764
              ],
              [
                3.6290687551981256,
                51.01509984999779
              ],
              [
                3.6288495376480094,
                51.0153254947839
              ],
              [
                3.6286664361153087,
                51.015563606576684
              ],
              [
                3.628521214397996,
                51.01581189239885
              ],
              [
                3.6284152715889113,
                51.01606796126235
              ],
              [
                3.628349628581439,
                51.01632934718948
              ],
              [
                3.6283249182144464,
                51.01659353295756
              ],
              [
                3.628341379152317,
                51.01685797433856
              ],
              [
                3.628398853559951,
                51.01712012460052
              ],
              [
                3.628496788596197,
                51.01737745903456
              ],
              [
                3.6286342417122994,
                51.01762749927144
              ],
              [
                3.6288098897053627,
                51.01786783715341
              ],
              [
                3.6290220414405465,
                51.01809615793119
              ],
              [
                3.6292686541202577,
                51.01831026256264
              ],
              [
                3.629547352944365,
                51.018508088897875
              ],
              [
                3.629855453972558,
                51.01868773154688
              ],
              [
                3.630189989969012,
                51.0188474602376
              ],
              [
                3.6305477389805865,
                51.018985736487764
              ],
              [
                3.6309252553732403,
                51.01910122842921
              ],
              [
                3.6313189030274935,
                51.01919282364196
              ],
              [
                3.6317248903727877,
                51.0192596398739
              ],
              [
                3.6321393069226806,
                51.01930103354276
              ],
              [
                3.632558160958291,
                51.01931660593822
              ],
              [
                3.632977417996126,
                51.019306207064226
              ],
              [
                3.633393039668892,
                51.019269937084594
              ],
              [
                3.633801022643817,
                51.0192081453576
              ],
              [
                3.6341974372026313,
                51.01912142706939
              ],
              [
                3.634578465110713,
                51.019010617498054
              ],
              [
                3.634940436409738,
                51.01887678396446
              ],
              [
                3.6352798647787385,
                51.01872121554697
              ],
              [
                3.6355934811223176,
                51.01854541065973
              ],
              [
                3.6358782650620762,
                51.01835106261417
              ],
              [
                3.6361314740276462,
                51.01814004330338
              ],
              [
                3.636350669667025,
                51.01791438516631
              ],
              [
                3.6365337413219883,
                51.01767626160643
              ],
              [
                3.636678926342749,
                51.01742796605325
              ],
              [
                3.636784827046692,
                51.01717188986875
              ],
              [
                3.636850424158513,
                51.016910499312026
              ],
              [
                3.6368750866030877,
                51.016646311783646
              ],
              [
                3.636858577557664,
                51.016381871579256
              ],
              [
                3.6368010567060867,
                51.01611972538563
              ],
              [
                3.6367030786743246,
                51.015862397755306
              ]
            ]
          ]
        ]
      },
      "properties": {
        "type": "buffer_union_300m",
        "buffer_m": 300
      }
    },
    {
      "type": "Feature",
      "geometry": {
        "type": "Polygon",
        "coordinates": [
          [
            [
              3.638829867303221,
              51.00825979411341
            ],
            [
              3.638646560897974,
              51.007926421941846
            ],
            [
              3.638412346388237,
              51.007605989896966
            ],
            [
              3.6381294801894777,
              51.007301583622855
            ],
            [
              3.637800687060894,
              51.007016134383626
            ],
            [
              3.6374291338413305,
              51.006752390846714
            ],
            [
              3.6370183989362417,
              51.006512892625665
            ],
            [
              3.6365724378501465,
              51.006299945836915
            ],
            [
              3.636095545096689,
              51.00611560090533
            ],
            [
              3.6355923128530203,
              51.00596163283167
            ],
            [
              3.6350675867561764,
              51.0058395241115
            ],
            [
              3.6345264192663196,
              51.00575045046948
            ],
            [
              3.6339740210448657,
              51.00569526954611
            ],
            [
              3.6334157108143605,
              51.00567451264537
            ],
            [
              3.632856864181391,
              51.00568837962256
            ],
            [
              3.6323028619136593,
              51.005736736961175
            ],
            [
              3.6317590381675426,
              51.005819119057755
            ],
            [
              3.6312306291629075,
              51.00593473270183
            ],
            [
              3.6307227227977106,
              51.00608246470824
            ],
            [
              3.6302402096860216,
              51.00626089262868
            ],
            [
              3.6297877360895447,
              51.006468298439344
            ],
            [
              3.6293696591947677,
              51.00670268507367
            ],
            [
              3.628990005165541,
              51.00696179564113
            ],
            [
              3.6286524303745,
              51.007243135147675
            ],
            [
              3.6283601861864985,
              51.0075439945092
            ],
            [
              3.628140800024314,
              51.00782933514857
            ],
            [
              3.6278377383327363,
              51.007968240627484
            ],
            [
              3.627419638294685,
              51.00820262021979
            ],
            [
              3.627039961323064,
              51.00846172436965
            ],
            [
              3.626702364011403,
              51.00874305814484
            ],
            [
              3.6264100979413967,
              51.00904391251647
            ],
            [
              3.626165978355537,
              51.009361390434236
            ],
            [
              3.6259723570232585,
              51.00969243471348
            ],
            [
              3.6258310995627476,
              51.01003385746594
            ],
            [
              3.625743567437959,
              51.010382370791305
            ],
            [
              3.625710604805569,
              51.01073461843432
            ],
            [
              3.6257325303401546,
              51.01108720810271
            ],
            [
              3.6258091341180676,
              51.01143674413519
            ],
            [
              3.625939679591781,
              51.0117798602046
            ],
            [
              3.6261229106375676,
              51.0121132517415
            ],
            [
              3.6263570636103593,
              51.01243370776567
            ],
            [
              3.626639884291314,
              51.012738141818794
            ],
            [
              3.6269686495663396,
              51.013023621699794
            ],
            [
              3.627340193627956,
              51.013287397716574
            ],
            [
              3.627750938449074,
              51.01352692918091
            ],
            [
              3.628196928235748,
              51.01373990889148
            ],
            [
              3.6286738675273518,
              51.01392428536799
            ],
            [
              3.628780112418959,
              51.01395679424039
            ],
            [
              3.6286090746815454,
              51.014052665484385
            ],
            [
              3.6282293568686685,
              51.01431177297433
            ],
            [
              3.6278917245354623,
              51.01459310962147
            ],
            [
              3.627599429601023,
              51.01489396636924
            ],
            [
              3.627355287585997,
              51.01521144614448
            ],
            [
              3.6271616504760447,
              51.01554249174463
            ],
            [
              3.6270203840415634,
              51.01588391526872
            ],
            [
              3.626932849833217,
              51.01623242880901
            ],
            [
              3.6268998920280553,
              51.016584676108145
            ],
            [
              3.6269218292544774,
              51.01693726487718
            ],
            [
              3.6269984514765397,
              51.01728679946346
            ],
            [
              3.6271290219693757,
              51.01762991355373
            ],
            [
              3.6273122843685672,
              51.01796330259762
            ],
            [
              3.6275464747273123,
              51.01828375563888
            ],
            [
              3.6278293384668925,
              51.01858818624789
            ],
            [
              3.628158152058654,
              51.01887366225675
            ],
            [
              3.628529749229859,
              51.01913743401062
            ],
            [
              3.6289405514419397,
              51.019376960862324
            ],
            [
              3.62938660234818,
              51.019589935654935
            ],
            [
              3.6298636058992186,
              51.019774306955505
            ],
            [
              3.6303669677292296,
              51.019928298825846
            ],
            [
              3.6308918394237266,
              51.02005042793879
            ],
            [
              3.6314331652418526,
              51.02013951787506
            ],
            [
              3.6319857308420262,
              51.020194710462434
            ],
            [
              3.632544213540349,
              51.02021547404758
            ],
            [
              3.633103233616122,
              51.02020160862078
            ],
            [
              3.633657406168672,
              51.02015324774377
            ],
            [
              3.6342013930242234,
              51.020070857262404
            ],
            [
              3.6347299541911515,
              51.019955230816265
            ],
            [
              3.6352379983662724,
              51.019807482188746
            ],
            [
              3.635720632004169,
              51.019629034571686
            ],
            [
              3.636173206475545,
              51.019421606847885
            ],
            [
              3.6365913628592534,
              51.01918719702461
            ],
            [
              3.6369710739357584,
              51.01892806297756
            ],
            [
              3.637308682977019,
              51.018646700691704
            ],
            [
              3.6376009389590376,
              51.018345820208864
            ],
            [
              3.6376646458243727,
              51.01826295343353
            ],
            [
              3.637688316073708,
              51.018279751361014
            ],
            [
              3.6380991575997492,
              51.018519246319016
            ],
            [
              3.6385452419818196,
              51.018732186468334
            ],
            [
              3.6390222728478836,
              51.018916520709766
            ],
            [
              3.6395256555688067,
              51.01907047346198
            ],
            [
              3.6400505415287014,
              51.019192561774645
            ],
            [
              3.6405918748491626,
              51.01928160962149
            ],
            [
              3.641144441116248,
              51.01933675923568
            ],
            [
              3.6417029176395848,
              51.01935747937789
            ],
            [
              3.6422619247579537,
              51.01934357045681
            ],
            [
              3.6428160776955347,
              51.01929516645319
            ],
            [
              3.643360038467585,
              51.019212733628294
            ],
            [
              3.6438885673338532,
              51.01909706602957
            ],
            [
              3.6443965733024553,
              51.01894927783684
            ],
            [
              3.6448791631961837,
              51.018770792622995
            ],
            [
              3.645331688807311,
              51.01856332963298
            ],
            [
              3.645749791685545,
              51.01832888721372
            ],
            [
              3.646129445126944,
              51.018069723554824
            ],
            [
              3.6464669929588274,
              51.01778833492645
            ],
            [
              3.646468689968473,
              51.01778658733487
            ],
            [
              3.6464689928442664,
              51.01778633484776
            ],
            [
              3.6467611846070676,
              51.01748543154023
            ],
            [
              3.6470052069222083,
              51.01716791176453
            ],
            [
              3.647198710486696,
              51.01683683371081
            ],
            [
              3.647339832695203,
              51.01649538609076
            ],
            [
              3.6474272155418506,
              51.016146857418896
            ],
            [
              3.6474600186571036,
              51.01579460433522
            ],
            [
              3.647437927355832,
              51.01544201927441
            ],
            [
              3.6473611556207515,
              51.0150924977931
            ],
            [
              3.6472304439943293,
              51.01474940586996
            ],
            [
              3.647047052401286,
              51.014416047493455
            ],
            [
              3.6468127479725454,
              51.01409563284939
            ],
            [
              3.6465297879895515,
              51.01379124741418
            ],
            [
              3.6462008981146212,
              51.013505822251204
            ],
            [
              3.6458292461181587,
              51.013242105795975
            ],
            [
              3.6454184113566575,
              51.01300263740122
            ],
            [
              3.644972350296,
              51.01278972289611
            ],
            [
              3.6444953584122812,
              51.01260541239462
            ],
            [
              3.6439920288369247,
              51.012451480565936
            ],
            [
              3.643467208143894,
              51.0123294095566
            ],
            [
              3.6429259497039213,
              51.01224037472817
            ],
            [
              3.6423734650538875,
              51.012185233347424
            ],
            [
              3.6418150737482815,
              51.01216451633759
            ],
            [
              3.6412561521741136,
              51.012178423169864
            ],
            [
              3.6407020818204927,
              51.01222681994403
            ],
            [
              3.640158197499249,
              51.01230924067692
            ],
            [
              3.6396297360134375,
              51.012424891786054
            ],
            [
              3.6391217857663465,
              51.012572659725556
            ],
            [
              3.638639237794641,
              51.01275112170111
            ],
            [
              3.6381867386958215,
              51.012958559361024
            ],
            [
              3.6377686459021388,
              51.013192975332046
            ],
            [
              3.637388985730794,
              51.013452112441136
            ],
            [
              3.6370514146138815,
              51.01373347543865
            ],
            [
              3.6370497173997314,
              51.01373522289679
            ],
            [
              3.637049414499362,
              51.013735475359994
            ],
            [
              3.6367571837413872,
              51.014036354930425
            ],
            [
              3.636693481019334,
              51.014119221330006
            ],
            [
              3.6366698132293434,
              51.01410242317947
            ],
            [
              3.6362590177536345,
              51.013862922884854
            ],
            [
              3.6358129901393372,
              51.013649973730956
            ],
            [
              3.6353360255407194,
              51.01346562616544
            ],
            [
              3.6352297772134827,
              51.01343312320536
            ],
            [
              3.6354007991365567,
              51.01333724232199
            ],
            [
              3.6357804693762272,
              51.013078111616025
            ],
            [
              3.6361180434044074,
              51.01279675220291
            ],
            [
              3.636410270534171,
              51.012495874096764
            ],
            [
              3.636627254125528,
              51.01221360683072
            ],
            [
              3.636932691393512,
              51.012073590554365
            ],
            [
              3.6373507783793086,
              51.011839177466555
            ],
            [
              3.637730425688736,
              51.01158004034356
            ],
            [
              3.638067977207862,
              51.0112986751999
            ],
            [
              3.6383601824665766,
              51.01099779210495
            ],
            [
              3.638604227929492,
              51.01068028906912
            ],
            [
              3.6387977640702576,
              51.01034922412144
            ],
            [
              3.6389389279693796,
              51.01000778584735
            ],
            [
              3.639026361219037,
              51.00965926267146
            ],
            [
              3.639059222963877,
              51.00930701118094
            ],
            [
              3.639059148037432,
              51.009305811729995
            ],
            [
              3.6390592227205456,
              51.00930501118097
            ],
            [
              3.639037197711373,
              51.00895242379501
            ],
            [
              3.6389604992935545,
              51.008602896092945
            ],
            [
              3.638829867303221,
              51.00825979411341
            ]
          ]
        ]
      },
      "properties": {
        "type": "buffer_union_400m",
        "buffer_m": 400
      }
    },
    {
      "type": "Feature",
      "geometry": {
        "type": "Polygon",
        "coordinates": [
          [
            [
              3.5914367,
              51.0094151
            ],
            [
              3.5933997,
              51.011103
            ],
            [
              3.594994,
              51.0119291
            ],
            [
              3.6002482,
              51.0151569
            ],
            [
              3.6064473,
              51.0165407
            ],
            [
              3.606531,
              51.017288
            ],
            [
              3.608082,
              51.01773
            ],
            [
              3.608909,
              51.018287
            ],
            [
              3.609164,
              51.018959
            ],
            [
              3.609193,
              51.019485
            ],
            [
              3.610055,
              51.02021
            ],
            [
              3.611025,
              51.021297
            ],
            [
              3.610937,
              51.0219663
            ],
            [
              3.610468,
              51.0227793
            ],
            [
              3.6103391,
              51.0231611
            ],
            [
              3.610382,
              51.0242543
            ],
            [
              3.6101567,
              51.0251249
            ],
            [
              3.6097248,
              51.0255053
            ],
            [
              3.6093295,
              51.0256471
            ],
            [
              3.6081732,
              51.0257494
            ],
            [
              3.6076998,
              51.0259684
            ],
            [
              3.6074363,
              51.0262522
            ],
            [
              3.6065824,
              51.0274758
            ],
            [
              3.6063465,
              51.0280265
            ],
            [
              3.6062192,
              51.0288283
            ],
            [
              3.6063411,
              51.0292789
            ],
            [
              3.606619,
              51.029696
            ],
            [
              3.6080646,
              51.0312923
            ],
            [
              3.6087297,
              51.0319468
            ],
            [
              3.6094943,
              51.032437
            ],
            [
              3.610674,
              51.033088
            ],
            [
              3.6136294,
              51.0343985
            ],
            [
              3.6152119,
              51.0349547
            ],
            [
              3.6162187,
              51.0351584
            ],
            [
              3.6182845,
              51.0353784
            ],
            [
              3.6195981,
              51.0353473
            ],
            [
              3.6199628,
              51.0352259
            ],
            [
              3.6201667,
              51.0350167
            ],
            [
              3.6202304,
              51.0346781
            ],
            [
              3.6201472,
              51.0343955
            ],
            [
              3.6202257,
              51.0341544
            ],
            [
              3.6205422,
              51.0339102
            ],
            [
              3.6247822,
              51.0330413
            ],
            [
              3.626582,
              51.0324875
            ],
            [
              3.6272592,
              51.0321249
            ],
            [
              3.627375,
              51.0319318
            ],
            [
              3.6273908,
              51.0316385
            ],
            [
              3.6275526,
              51.0313838
            ],
            [
              3.6278943,
              51.0310985
            ],
            [
              3.6287969,
              51.0305714
            ],
            [
              3.6299041,
              51.0301071
            ],
            [
              3.6304653,
              51.0299151
            ],
            [
              3.6308977,
              51.0299815
            ],
            [
              3.6316408,
              51.0303868
            ],
            [
              3.6321365,
              51.0304426
            ],
            [
              3.6327626,
              51.0303617
            ],
            [
              3.6338866,
              51.0299331
            ],
            [
              3.6354022,
              51.0289756
            ],
            [
              3.635614,
              51.0287089
            ],
            [
              3.636059,
              51.027792
            ],
            [
              3.638413,
              51.0260472
            ],
            [
              3.639255,
              51.0252307
            ],
            [
              3.639911,
              51.0243504
            ],
            [
              3.6402722,
              51.023494
            ],
            [
              3.6402542,
              51.02299
            ],
            [
              3.6399302,
              51.0224536
            ],
            [
              3.6399824,
              51.0222521
            ],
            [
              3.640162,
              51.0220635
            ],
            [
              3.6405944,
              51.0219126
            ],
            [
              3.6410839,
              51.0218675
            ],
            [
              3.6435291,
              51.0224302
            ],
            [
              3.6441432,
              51.0227563
            ],
            [
              3.6444706,
              51.0231196
            ],
            [
              3.6446627,
              51.023582
            ],
            [
              3.6446306,
              51.0239823
            ],
            [
              3.6444685,
              51.0245041
            ],
            [
              3.6445278,
              51.0248882
            ],
            [
              3.6449641,
              51.0253594
            ],
            [
              3.6462969,
              51.0243594
            ],
            [
              3.6485171,
              51.0229316
            ],
            [
              3.6501216,
              51.0217846
            ],
            [
              3.6513273,
              51.0207565
            ],
            [
              3.652065,
              51.0199443
            ],
            [
              3.6521649,
              51.0197363
            ],
            [
              3.6527767,
              51.019174
            ],
            [
              3.6534532,
              51.0189264
            ],
            [
              3.6541222,
              51.0192513
            ],
            [
              3.6550956,
              51.0185543
            ],
            [
              3.6533781,
              51.0172792
            ],
            [
              3.6507638,
              51.0155101
            ],
            [
              3.6504681,
              51.0149665
            ],
            [
              3.6504409,
              51.0146241
            ],
            [
              3.6505284,
              51.0143715
            ],
            [
              3.6504315,
              51.0140634
            ],
            [
              3.6501235,
              51.0132518
            ],
            [
              3.6497159,
              51.0125546
            ],
            [
              3.6529512,
              51.0066035
            ],
            [
              3.6414906,
              51.0011872
            ],
            [
              3.6397195,
              51.0004865
            ],
            [
              3.6361483,
              50.9988925
            ],
            [
              3.6302912,
              50.992904
            ],
            [
              3.6294344,
              50.9919754
            ],
            [
              3.6292179,
              50.9915795
            ],
            [
              3.626054,
              50.989616
            ],
            [
              3.62455,
              50.988746
            ],
            [
              3.623081,
              50.988014
            ],
            [
              3.6189651,
              50.9853189
            ],
            [
              3.6186576,
              50.9852182
            ],
            [
              3.6190326,
              50.984723
            ],
            [
              3.614094,
              50.982776
            ],
            [
              3.610466,
              50.981746
            ],
            [
              3.609766,
              50.982746
            ],
            [
              3.609349,
              50.982696
            ],
            [
              3.609009,
              50.9835398
            ],
            [
              3.607513,
              50.9830871
            ],
            [
              3.6065517,
              50.9848972
            ],
            [
              3.6084525,
              50.9866339
            ],
            [
              3.6054253,
              50.988551
            ],
            [
              3.604551,
              50.9891887
            ],
            [
              3.6007851,
              50.9913148
            ],
            [
              3.6006134,
              50.9916254
            ],
            [
              3.5986608,
              50.9928544
            ],
            [
              3.5982692,
              50.993298
            ],
            [
              3.5979581,
              50.993298
            ],
            [
              3.5978056,
              50.9934693
            ],
            [
              3.5960169,
              50.9923957
            ],
            [
              3.5945084,
              50.9932407
            ],
            [
              3.5970297,
              50.9950335
            ],
            [
              3.597137,
              50.9953981
            ],
            [
              3.5969653,
              50.9960329
            ],
            [
              3.5970511,
              50.996384
            ],
            [
              3.5974159,
              50.9966929
            ],
            [
              3.5992827,
              50.9975184
            ],
            [
              3.5999479,
              50.9981126
            ],
            [
              3.6005273,
              50.9984907
            ],
            [
              3.6006775,
              50.9988148
            ],
            [
              3.6006775,
              50.9991254
            ],
            [
              3.6002698,
              50.9993415
            ],
            [
              3.5995617,
              50.9993685
            ],
            [
              3.598639,
              50.9988418
            ],
            [
              3.5982528,
              50.9988148
            ],
            [
              3.5980597,
              50.9991524
            ],
            [
              3.5985961,
              50.9999356
            ],
            [
              3.5993042,
              51.0007323
            ],
            [
              3.6002054,
              51.0020827
            ],
            [
              3.6009779,
              51.003541
            ],
            [
              3.6016645,
              51.0056592
            ],
            [
              3.6014285,
              51.0059309
            ],
            [
              3.6010423,
              51.0061604
            ],
            [
              3.5997334,
              51.0060659
            ],
            [
              3.5993471,
              51.00639
            ],
            [
              3.5992827,
              51.0070786
            ],
            [
              3.5990896,
              51.0075781
            ],
            [
              3.5986176,
              51.0078617
            ],
            [
              3.5979309,
              51.0080102
            ],
            [
              3.5965147,
              51.0088068
            ],
            [
              3.5959568,
              51.0087257
            ],
            [
              3.5955276,
              51.0085232
            ],
            [
              3.5952916,
              51.0081992
            ],
            [
              3.5954204,
              51.0079157
            ],
            [
              3.5961928,
              51.0071191
            ],
            [
              3.596107,
              51.0059714
            ],
            [
              3.5955062,
              51.0053773
            ],
            [
              3.5949483,
              51.0049588
            ],
            [
              3.5932317,
              51.0051208
            ],
            [
              3.5919657,
              51.0056609
            ],
            [
              3.5915151,
              51.0060524
            ],
            [
              3.5911717,
              51.0065655
            ],
            [
              3.5911288,
              51.0071326
            ],
            [
              3.5914078,
              51.0076051
            ],
            [
              3.5917511,
              51.0079427
            ],
            [
              3.5925021,
              51.0079292
            ],
            [
              3.5929313,
              51.0080372
            ],
            [
              3.5929742,
              51.0083882
            ],
            [
              3.5926094,
              51.0087122
            ],
            [
              3.5914367,
              51.0094151
            ]
          ]
        ]
      },
      "properties": {
        "type": "boundary",
        "gemeente": "Sint-Martens-Latem"
      }
    }
  ]
}