{
  "type": "FeatureCollection",
  "metadata": {
    "gemeente": "Sint-Lievens-Houtem",
    "slug": "sint-lievens-houtem",
    "generated_at": "2026-09-25T22:11:44.180849Z",
    "total_points": 6,
    "providers": [
      "bpost",
      "DHL",
      "Amazon"
    ],
    "bounds": [
      3.854786,
      50.9195,
      3.8604,
      50.92071
    ]
  },
  "features": [
    {
      "type": "Feature",
      "geometry": {
        "type": "Point",
        "coordinates": [
          3.85479,
          50.92071
        ]
      },
      "properties": {
        "type": "pakketpunt",
        "locatieNaam": "St-Lievens-Houtem",
        "straatNaam": "Marktplein",
        "straatNr": "82",
        "vervoerder": "bpost",
        "puntType": "postkantoor",
        "bezettingsgraad": 50,
        "latitude": 50.92071,
        "longitude": 3.85479,
        "canPickup": true,
        "canDropoff": true,
        "openingstijden": null
      }
    },
    {
      "type": "Feature",
      "geometry": {
        "type": "Point",
        "coordinates": [
          3.8604,
          50.9195
        ]
      },
      "properties": {
        "type": "pakketpunt",
        "locatieNaam": "Bbox 24/7 Proxy Delhaize Houtem",
        "straatNaam": "Edgard Tinelstraat",
        "straatNr": "16",
        "vervoerder": "bpost",
        "puntType": "automaat",
        "bezettingsgraad": 50,
        "latitude": 50.9195,
        "longitude": 3.8604,
        "canPickup": true,
        "canDropoff": true,
        "openingstijden": null
      }
    },
    {
      "type": "Feature",
      "geometry": {
        "type": "Point",
        "coordinates": [
          3.854786,
          50.920708
        ]
      },
      "properties": {
        "type": "pakketpunt",
        "locatieNaam": "ST-LIEVENS-HOUTEM",
        "straatNaam": "MARKTPLEIN",
        "straatNr": "82",
        "vervoerder": "DHL",
        "puntType": "postOffice",
        "bezettingsgraad": 50,
        "latitude": 50.920708,
        "longitude": 3.854786,
        "canPickup": true,
        "canDropoff": true,
        "openingstijden": {
          "ma": "09:30 - 12:30, 13:45 - 17:00",
          "di": "09:30 - 12:30, 13:45 - 18:00",
          "wo": "09:30 - 12:30, 13:45 - 17:00",
          "do": "09:30 - 12:30, 13:45 - 18:00",
          "vr": "09:30 - 12:30, 13:45 - 17:00",
          "za": "09:30 - 13:00",
          "zo": "gesloten"
        }
      }
    },
    {
      "type": "Feature",
      "geometry": {
        "type": "Point",
        "coordinates": [
          3.8604,
          50.9195
        ]
      },
      "properties": {
        "type": "pakketpunt",
        "locatieNaam": "BBOX 24/7 PROXY DELHAIZE HOUTEM",
        "straatNaam": "EDGARD TINELSTRAAT",
        "straatNr": "16",
        "vervoerder": "DHL",
        "puntType": "packStation",
        "bezettingsgraad": 50,
        "latitude": 50.9195,
        "longitude": 3.8604,
        "canPickup": true,
        "canDropoff": true,
        "openingstijden": {
          "ma": "00:00 - 23:59",
          "di": "00:00 - 23:59",
          "wo": "00:00 - 23:59",
          "do": "00:00 - 23:59",
          "vr": "00:00 - 23:59",
          "za": "00:00 - 23:59",
          "zo": "00:00 - 23:59"
        }
      }
    },
    {
      "type": "Feature",
      "geometry": {
        "type": "Point",
        "coordinates": [
          3.8604,
          50.9195
        ]
      },
      "properties": {
        "type": "pakketpunt",
        "locatieNaam": "bpost - BBOX 24/7 PROXY DELHAIZE HOUTEM",
        "straatNaam": "EDGARD TINELSTRAAT,16",
        "straatNr": "",
        "vervoerder": "Amazon",
        "puntType": "3p",
        "bezettingsgraad": 50,
        "latitude": 50.9195,
        "longitude": 3.8604,
        "canPickup": true,
        "canDropoff": false,
        "openingstijden": null
      }
    },
    {
      "type": "Feature",
      "geometry": {
        "type": "Point",
        "coordinates": [
          3.854786,
          50.920708
        ]
      },
      "properties": {
        "type": "pakketpunt",
        "locatieNaam": "bpost - ST-LIEVENS-HOUTEM",
        "straatNaam": "MARKTPLEIN,82",
        "straatNr": "",
        "vervoerder": "Amazon",
        "puntType": "3p",
        "bezettingsgraad": 50,
        "latitude": 50.920708,
        "longitude": 3.854786,
        "canPickup": true,
        "canDropoff": false,
        "openingstijden": null
      }
    },
    {
      "type": "Feature",
      "geometry": {
        "type": "Polygon",
        "coordinates": [
          [
            [
              3.86458991531556,
              50.918991582600434
            ],
            [
              3.8644908915911653,
              50.91873443792579
            ],
            [
              3.8643524722662073,
              50.91848466657675
            ],
            [
              3.864175990935132,
              50.918244673853394
            ],
            [
              3.8639631476556744,
              50.918016770852006
            ],
            [
              3.8637159925592375,
              50.91780315221426
            ],
            [
              3.863436906094164,
              50.91760587499898
            ],
            [
              3.8631285760926612,
              50.91742683887928
            ],
            [
              3.8627939718825632,
              50.91726776785605
            ],
            [
              3.8624363156933272,
              50.91713019366306
            ],
            [
              3.8620590516315882,
              50.917015441023466
            ],
            [
              3.86166581252475,
              50.91692461489945
            ],
            [
              3.8612603849514526,
              50.91685858985722
            ],
            [
              3.860846672795089,
              50.916818001649865
            ],
            [
              3.8604286596705366,
              50.916803241098656
            ],
            [
              3.860010370585109,
              50.91681445033174
            ],
            [
              3.859595833201953,
              50.91685152141633
            ],
            [
              3.8591890390779344,
              50.916914097397445
            ],
            [
              3.858793905248314,
              50.91700157573321
            ],
            [
              3.8584142365271563,
              50.917113114094
            ],
            [
              3.8580536888856805,
              50.91724763846919
            ],
            [
              3.8577157342603914,
              50.91740385350432
            ],
            [
              3.857403627129287,
              50.917580254968634
            ],
            [
              3.857120373177522,
              50.91777514423389
            ],
            [
              3.856868700353977,
              50.91798664462478
            ],
            [
              3.856651032597384,
              50.91821271948406
            ],
            [
              3.856605681257791,
              50.91827228502838
            ],
            [
              3.856445391506084,
              50.918223521218124
            ],
            [
              3.856052153141938,
              50.91813267633379
            ],
            [
              3.8556467230315463,
              50.918066631939666
            ],
            [
              3.855233005082754,
              50.91802602397518
            ],
            [
              3.85481498296622,
              50.918011243451836
            ],
            [
              3.8543966817758344,
              50.9180224326901
            ],
            [
              3.8539821292912744,
              50.91805948394973
            ],
            [
              3.8535753172147786,
              50.91812204046659
            ],
            [
              3.85318016275442,
              50.91820949988631
            ],
            [
              3.852800470922856,
              50.91832102006131
            ],
            [
              3.852439897913767,
              50.91845552715618
            ],
            [
              3.852101915907854,
              50.91861172598279
            ],
            [
              3.851789779646695,
              50.91878811246653
            ],
            [
              3.851506495095875,
              50.91898298812341
            ],
            [
              3.851254790498859,
              50.919194476409146
            ],
            [
              3.8510370901002857,
              50.91942054078313
            ],
            [
              3.8508554907917922,
              50.91965900431338
            ],
            [
              3.8507117419056014,
              50.91990757063427
            ],
            [
              3.8506072283509085,
              50.920163846055324
            ],
            [
              3.850542957256134,
              50.92042536260836
            ],
            [
              3.850519548246448,
              50.920689601811425
            ],
            [
              3.8505372274511074,
              50.92095401892061
            ],
            [
              3.8505958252992745,
              50.92121606743643
            ],
            [
              3.850694778126583,
              50.92147322362864
            ],
            [
              3.8508331335779755,
              50.92172301084349
            ],
            [
              3.8510095597557723,
              50.92196302335905
            ],
            [
              3.8512223580257854,
              50.922190949558804
            ],
            [
              3.851469479358936,
              50.922404594200074
            ],
            [
              3.8517485440516586,
              50.92260189956268
            ],
            [
              3.852056864635681,
              50.92278096527382
            ],
            [
              3.8520599329039333,
              50.922782424204826
            ],
            [
              3.8520608646960546,
              50.92278296536552
            ],
            [
              3.852395471845023,
              50.92294206669818
            ],
            [
              3.852753142888944,
              50.92307967122292
            ],
            [
              3.8531304329422507,
              50.923194453541434
            ],
            [
              3.853523708063745,
              50.92328530806869
            ],
            [
              3.8539291802700406,
              50.92335135968684
            ],
            [
              3.8543429440362282,
              50.923391972178486
            ],
            [
              3.854761013931521,
              50.92340675435773
            ],
            [
              3.855179363026468,
              50.923395563840046
            ],
            [
              3.8555939617009303,
              50.92335850841443
            ],
            [
              3.8560008164780366,
              50.92329594500474
            ],
            [
              3.856396008509099,
              50.923208476229824
            ],
            [
              3.8567757313379083,
              50.92309694459637
            ],
            [
              3.8571363275797705,
              50.92296242437977
            ],
            [
              3.857474324161275,
              50.92280621127208
            ],
            [
              3.857786465780742,
              50.92262980989636
            ],
            [
              3.85806974626662,
              50.92243491930864
            ],
            [
              3.858321437531528,
              50.92222341662665
            ],
            [
              3.858539115842963,
              50.92199733894405
            ],
            [
              3.8585849524331333,
              50.92193713689268
            ],
            [
              3.858740772710618,
              50.92198453369224
            ],
            [
              3.859134048553096,
              50.92207536947079
            ],
            [
              3.859539518200733,
              50.92214140174886
            ],
            [
              3.859953276153243,
              50.92218199449528
            ],
            [
              3.8603713370358297,
              50.92219675671437
            ],
            [
              3.8607896740058636,
              50.92218554621386
            ],
            [
              3.86120425756002,
              50.922148470975245
            ],
            [
              3.8616110943671074,
              50.92208588811317
            ],
            [
              3.862006265751578,
              50.9219984004339
            ],
            [
              3.862385965456156,
              50.921886850626166
            ],
            [
              3.8627465363189475,
              50.92175231314046
            ],
            [
              3.863084505511065,
              50.92159608383509
            ],
            [
              3.8633966179947152,
              50.9214196674892
            ],
            [
              3.8636798678790467,
              50.92122476330293
            ],
            [
              3.8639315273714896,
              50.92101324852499
            ],
            [
              3.8641491730456194,
              50.920787160365514
            ],
            [
              3.864330709172695,
              50.92054867636858
            ],
            [
              3.8644743878924492,
              50.920300093433944
            ],
            [
              3.8645788260293314,
              50.92004380569018
            ],
            [
              3.8646430183929117,
              50.91978228143252
            ],
            [
              3.864666347435127,
              50.919518039347864
            ],
            [
              3.864648589172249,
              50.91925362425598
            ],
            [
              3.86458991531556,
              50.918991582600434
            ]
          ]
        ]
      },
      "properties": {
        "type": "buffer_union_300m",
        "buffer_m": 300
      }
    },
    {
      "type": "Feature",
      "geometry": {
        "type": "Polygon",
        "coordinates": [
          [
            [
              3.8659865335806503,
              50.91882207690616
            ],
            [
              3.8658544924639355,
              50.918479218869464
            ],
            [
              3.865669925019681,
              50.91814619248073
            ],
            [
              3.8654346096944217,
              50.917826204726914
            ],
            [
              3.8651508134962813,
              50.917522336971984
            ],
            [
              3.86482127013198,
              50.91723751529292
            ],
            [
              3.8644491536569245,
              50.91697448231287
            ],
            [
              3.8640380478930023,
              50.916735770802326
            ],
            [
              3.8635919119091797,
              50.91652367930168
            ],
            [
              3.863115041897512,
              50.916340249999784
            ],
            [
              3.862612029811588,
              50.916187249080664
            ],
            [
              3.862087719165234,
              50.91606614972727
            ],
            [
              3.861547158416319,
              50.91597811794548
            ],
            [
              3.860995552383476,
              50.91592400134425
            ],
            [
              3.8604382121622276,
              50.91590432097991
            ],
            [
              3.859880504021265,
              50.915919266342414
            ],
            [
              3.8593277977693083,
              50.915968693532164
            ],
            [
              3.858785415087999,
              50.91605212664466
            ],
            [
              3.8582585783266,
              50.916168762349514
            ],
            [
              3.857752360249887,
              50.916317477620275
            ],
            [
              3.857271635221587,
              50.91649684054059
            ],
            [
              3.85682103229206,
              50.91670512408305
            ],
            [
              3.856404890640871,
              50.91694032272855
            ],
            [
              3.85602721780244,
              50.91720017176647
            ],
            [
              3.8560259706001854,
              50.91720121987519
            ],
            [
              3.855933609181102,
              50.91718617405377
            ],
            [
              3.855381995425055,
              50.9171320311102
            ],
            [
              3.854824643214866,
              50.91711232411685
            ],
            [
              3.854266918934642,
              50.91712724282008
            ],
            [
              3.853714192548456,
              50.91717664357702
            ],
            [
              3.8531717859317407,
              50.91726005073763
            ],
            [
              3.8526449216641283,
              50.91737666122145
            ],
            [
              3.8521386727751277,
              50.91752535224482
            ],
            [
              3.851657913925022,
              50.91770469212491
            ],
            [
              3.8512072744897035,
              50.91791295405617
            ],
            [
              3.850791094000107,
              50.91814813272759
            ],
            [
              3.8504133803644987,
              50.918407963620915
            ],
            [
              3.8500777712754113,
              50.91868994480456
            ],
            [
              3.849787499172706,
              50.918991361013866
            ],
            [
              3.849545360100315,
              50.919309309786485
            ],
            [
              3.8493536867571136,
              50.919640729401515
            ],
            [
              3.849214326002283,
              50.91998242835412
            ],
            [
              3.8491286210329303,
              50.92033111608191
            ],
            [
              3.8490973984069927,
              50.92068343464775
            ],
            [
              3.8491209600379817,
              50.92103599107404
            ],
            [
              3.849199080240424,
              50.92138539001735
            ],
            [
              3.849331007856209,
              50.92172826646858
            ],
            [
              3.8495154734432266,
              50.92206131816404
            ],
            [
              3.849750701458783,
              50.9223813373947
            ],
            [
              3.850034427322067,
              50.92268524190743
            ],
            [
              3.8503639191928007,
              50.92297010460008
            ],
            [
              3.85073600425748,
              50.92323318172389
            ],
            [
              3.851147099270946,
              50.923471939321345
            ],
            [
              3.8511501675560913,
              50.92347339827581
            ],
            [
              3.851151099351441,
              50.9234739394436
            ],
            [
              3.8515972451772926,
              50.92368607775122
            ],
            [
              3.8520741448084546,
              50.92386955340692
            ],
            [
              3.852577204875644,
              50.92402259909926
            ],
            [
              3.8531015798678707,
              50.92414374061493
            ],
            [
              3.8536422188268586,
              50.924231811047704
            ],
            [
              3.8541939140266797,
              50.92428596204581
            ],
            [
              3.8547513511684075,
              50.9243056719893
            ],
            [
              3.8553091606047953,
              50.92429075101787
            ],
            [
              3.855861969099916,
              50.92424134286102
            ],
            [
              3.856404451623492,
              50.924157923452626
            ],
            [
              3.856931382679295,
              50.92404129634331
            ],
            [
              3.8574376866715427,
              50.92389258495505
            ],
            [
              3.857918486822623,
              50.92371322175286
            ],
            [
              3.858369152169618,
              50.92350493443809
            ],
            [
              3.858785342185866,
              50.923269729296734
            ],
            [
              3.859163048596928,
              50.923009871863904
            ],
            [
              3.859165639976203,
              50.92300769423368
            ],
            [
              3.8592526694097864,
              50.923021867132
            ],
            [
              3.859804356858002,
              50.92307599180267
            ],
            [
              3.860361781982422,
              50.92309567513214
            ],
            [
              3.8609195752515744,
              50.923080727516435
            ],
            [
              3.8614723635853103,
              50.92303129294176
            ],
            [
              3.86201482214763,
              50.92294784759643
            ],
            [
              3.8625417256732075,
              50.92283119528091
            ],
            [
              3.863047998831558,
              50.922682459659995
            ],
            [
              3.863528765142197,
              50.9225030734321
            ],
            [
              3.863979393968305,
              50.922294764520316
            ],
            [
              3.8643955451351304,
              50.92205953941868
            ],
            [
              3.8647732107425696,
              50.92179966385452
            ],
            [
              3.865108753768692,
              50.921517640953546
            ],
            [
              3.865398943092224,
              50.9212161871188
            ],
            [
              3.8656409845968853,
              50.92089820585595
            ],
            [
              3.8658325480585076,
              50.920566759797964
            ],
            [
              3.865971789556852,
              50.920225041198655
            ],
            [
              3.866057369197403,
              50.91987634118017
            ],
            [
              3.866088463973886,
              50.91952401803045
            ],
            [
              3.866064775649208,
              50.91917146485668
            ],
            [
              3.8659865335806503,
              50.91882207690616
            ]
          ]
        ]
      },
      "properties": {
        "type": "buffer_union_400m",
        "buffer_m": 400
      }
    },
    {
      "type": "Feature",
      "geometry": {
        "type": "Polygon",
        "coordinates": [
          [
            [
              3.8274191,
              50.9322981
            ],
            [
              3.8284265,
              50.9289575
            ],
            [
              3.828969,
              50.9290606
            ],
            [
              3.8295118,
              50.927005
            ],
            [
              3.8296307,
              50.9270441
            ],
            [
              3.8310613,
              50.9263131
            ],
            [
              3.8320667,
              50.925515
            ],
            [
              3.8311512,
              50.9249246
            ],
            [
              3.8308177,
              50.9248311
            ],
            [
              3.830618,
              50.9246016
            ],
            [
              3.8305123,
              50.924306
            ],
            [
              3.8299494,
              50.9238971
            ],
            [
              3.829723,
              50.923633
            ],
            [
              3.8281822,
              50.9229698
            ],
            [
              3.8276195,
              50.9225893
            ],
            [
              3.827825,
              50.9223244
            ],
            [
              3.8268885,
              50.9219317
            ],
            [
              3.8260724,
              50.9214629
            ],
            [
              3.8258824,
              50.9207632
            ],
            [
              3.8259495,
              50.9207084
            ],
            [
              3.8256983,
              50.9204553
            ],
            [
              3.8256311,
              50.919941
            ],
            [
              3.8254153,
              50.9195155
            ],
            [
              3.8245043,
              50.9183836
            ],
            [
              3.8244204,
              50.9184163
            ],
            [
              3.8238947,
              50.9179548
            ],
            [
              3.8242759,
              50.9177991
            ],
            [
              3.8234794,
              50.9167315
            ],
            [
              3.8243231,
              50.9164319
            ],
            [
              3.8252314,
              50.9158112
            ],
            [
              3.8282585,
              50.9140457
            ],
            [
              3.8292338,
              50.9129974
            ],
            [
              3.8289331,
              50.912855
            ],
            [
              3.8298219,
              50.9119057
            ],
            [
              3.8331644,
              50.9095044
            ],
            [
              3.8334619,
              50.9090878
            ],
            [
              3.8343091,
              50.9083105
            ],
            [
              3.8343292,
              50.9081322
            ],
            [
              3.8346917,
              50.9075889
            ],
            [
              3.8362867,
              50.9080546
            ],
            [
              3.8366965,
              50.9082534
            ],
            [
              3.8371989,
              50.908129
            ],
            [
              3.8375968,
              50.907892
            ],
            [
              3.8379459,
              50.907843
            ],
            [
              3.8390267,
              50.9074007
            ],
            [
              3.8392071,
              50.9072083
            ],
            [
              3.8400856,
              50.9068404
            ],
            [
              3.8424065,
              50.9061397
            ],
            [
              3.8436476,
              50.9059233
            ],
            [
              3.8439461,
              50.9060863
            ],
            [
              3.8445209,
              50.9062059
            ],
            [
              3.8479328,
              50.9025323
            ],
            [
              3.8485476,
              50.9028564
            ],
            [
              3.8472553,
              50.9042502
            ],
            [
              3.8491572,
              50.9049434
            ],
            [
              3.8492127,
              50.9046804
            ],
            [
              3.8495442,
              50.9041413
            ],
            [
              3.8499585,
              50.904348
            ],
            [
              3.8501264,
              50.9046385
            ],
            [
              3.8501264,
              50.9050423
            ],
            [
              3.8506976,
              50.9053893
            ],
            [
              3.8524643,
              50.9038582
            ],
            [
              3.8534409,
              50.9044778
            ],
            [
              3.8542269,
              50.9039358
            ],
            [
              3.8546853,
              50.9041916
            ],
            [
              3.8558304,
              50.9032629
            ],
            [
              3.8585503,
              50.9045868
            ],
            [
              3.8594267,
              50.9055036
            ],
            [
              3.861549,
              50.90495
            ],
            [
              3.8623529,
              50.9041226
            ],
            [
              3.8637286,
              50.9046166
            ],
            [
              3.8643636,
              50.9043032
            ],
            [
              3.8652465,
              50.9044081
            ],
            [
              3.8678182,
              50.9051793
            ],
            [
              3.8687086,
              50.9054031
            ],
            [
              3.8692778,
              50.905462
            ],
            [
              3.868282,
              50.9062535
            ],
            [
              3.864841,
              50.908496
            ],
            [
              3.867401,
              50.909767
            ],
            [
              3.86846,
              50.910568
            ],
            [
              3.875084,
              50.912921
            ],
            [
              3.878703,
              50.916244
            ],
            [
              3.880171,
              50.915145
            ],
            [
              3.882459,
              50.914108
            ],
            [
              3.88461,
              50.914474
            ],
            [
              3.883654,
              50.916049
            ],
            [
              3.886727,
              50.917152
            ],
            [
              3.8884401,
              50.9171986
            ],
            [
              3.8886948,
              50.9170023
            ],
            [
              3.8890814,
              50.9172201
            ],
            [
              3.8927333,
              50.9181466
            ],
            [
              3.893348,
              50.9184175
            ],
            [
              3.8944794,
              50.9185592
            ],
            [
              3.8954985,
              50.9189212
            ],
            [
              3.8957977,
              50.9189542
            ],
            [
              3.898453,
              50.9201799
            ],
            [
              3.899767,
              50.9206061
            ],
            [
              3.9000118,
              50.9203996
            ],
            [
              3.90115,
              50.9207475
            ],
            [
              3.9012731,
              50.920163
            ],
            [
              3.9011828,
              50.919857
            ],
            [
              3.9017336,
              50.9200522
            ],
            [
              3.9018554,
              50.9204264
            ],
            [
              3.9020409,
              50.920445
            ],
            [
              3.902082,
              50.9203694
            ],
            [
              3.9021651,
              50.920146
            ],
            [
              3.9020894,
              50.9192864
            ],
            [
              3.9019452,
              50.9188935
            ],
            [
              3.9021032,
              50.918644
            ],
            [
              3.9064732,
              50.9199896
            ],
            [
              3.9067315,
              50.9203729
            ],
            [
              3.9090594,
              50.920855
            ],
            [
              3.912392,
              50.922023
            ],
            [
              3.912959,
              50.92229
            ],
            [
              3.915342,
              50.922969
            ],
            [
              3.9161766,
              50.9230149
            ],
            [
              3.9165944,
              50.9228766
            ],
            [
              3.9172799,
              50.9228435
            ],
            [
              3.9183271,
              50.9229706
            ],
            [
              3.9194821,
              50.9236115
            ],
            [
              3.9197753,
              50.923425
            ],
            [
              3.9213683,
              50.9249
            ],
            [
              3.924099,
              50.9249643
            ],
            [
              3.9247212,
              50.925054
            ],
            [
              3.925656,
              50.9253418
            ],
            [
              3.9275804,
              50.9263032
            ],
            [
              3.9301186,
              50.9267567
            ],
            [
              3.9305716,
              50.926775
            ],
            [
              3.930122,
              50.9275679
            ],
            [
              3.9269948,
              50.9315158
            ],
            [
              3.9267364,
              50.9314603
            ],
            [
              3.9261093,
              50.9323026
            ],
            [
              3.9249614,
              50.9322182
            ],
            [
              3.9246962,
              50.9326859
            ],
            [
              3.925153,
              50.9328311
            ],
            [
              3.9233616,
              50.9336495
            ],
            [
              3.9233527,
              50.9337703
            ],
            [
              3.9201025,
              50.9368612
            ],
            [
              3.9203126,
              50.9369536
            ],
            [
              3.9195925,
              50.9377503
            ],
            [
              3.9200682,
              50.9378992
            ],
            [
              3.9209581,
              50.9384521
            ],
            [
              3.923453,
              50.939304
            ],
            [
              3.9247652,
              50.9396717
            ],
            [
              3.9261459,
              50.9399843
            ],
            [
              3.9266205,
              50.9399637
            ],
            [
              3.9267984,
              50.9395154
            ],
            [
              3.9276049,
              50.9395516
            ],
            [
              3.9283734,
              50.9397448
            ],
            [
              3.928602,
              50.94033
            ],
            [
              3.9312377,
              50.9408811
            ],
            [
              3.930425,
              50.9418106
            ],
            [
              3.9303101,
              50.9418583
            ],
            [
              3.929473,
              50.9431993
            ],
            [
              3.9313531,
              50.9437648
            ],
            [
              3.9312266,
              50.9439016
            ],
            [
              3.9315023,
              50.9448246
            ],
            [
              3.9321291,
              50.9449817
            ],
            [
              3.9314929,
              50.9461728
            ],
            [
              3.9313292,
              50.9461689
            ],
            [
              3.9312052,
              50.946637
            ],
            [
              3.9316223,
              50.9466777
            ],
            [
              3.9309579,
              50.9483653
            ],
            [
              3.9311081,
              50.9483999
            ],
            [
              3.9309296,
              50.94891
            ],
            [
              3.9317251,
              50.9489811
            ],
            [
              3.9324773,
              50.9488801
            ],
            [
              3.932676,
              50.9487192
            ],
            [
              3.933245,
              50.9487259
            ],
            [
              3.933641,
              50.9490396
            ],
            [
              3.9342909,
              50.9492534
            ],
            [
              3.9357414,
              50.9493516
            ],
            [
              3.9359149,
              50.9492113
            ],
            [
              3.9368998,
              50.9493491
            ],
            [
              3.9371992,
              50.9495946
            ],
            [
              3.9377746,
              50.9498637
            ],
            [
              3.9192939,
              50.9533587
            ],
            [
              3.9185218,
              50.9526958
            ],
            [
              3.9173532,
              50.9522766
            ],
            [
              3.9166819,
              50.9518986
            ],
            [
              3.9153793,
              50.9516914
            ],
            [
              3.9134096,
              50.9509793
            ],
            [
              3.911442,
              50.9505351
            ],
            [
              3.9109359,
              50.95037
            ],
            [
              3.9108019,
              50.9502562
            ],
            [
              3.909699,
              50.9499408
            ],
            [
              3.9084028,
              50.9497629
            ],
            [
              3.9074779,
              50.9492886
            ],
            [
              3.9073811,
              50.9493591
            ],
            [
              3.9068392,
              50.9492934
            ],
            [
              3.9062565,
              50.9491258
            ],
            [
              3.9055635,
              50.9488507
            ],
            [
              3.9056982,
              50.9486563
            ],
            [
              3.9045796,
              50.9479607
            ],
            [
              3.9039101,
              50.9485375
            ],
            [
              3.9014041,
              50.9499451
            ],
            [
              3.8997485,
              50.9487824
            ],
            [
              3.8972611,
              50.9477144
            ],
            [
              3.8956278,
              50.9483935
            ],
            [
              3.8937776,
              50.9475498
            ],
            [
              3.8929034,
              50.9482202
            ],
            [
              3.8930348,
              50.9483858
            ],
            [
              3.8925529,
              50.9487759
            ],
            [
              3.8922842,
              50.9486011
            ],
            [
              3.8911183,
              50.9492138
            ],
            [
              3.8909702,
              50.9490886
            ],
            [
              3.8900568,
              50.949634
            ],
            [
              3.8903481,
              50.9498664
            ],
            [
              3.8892609,
              50.9504124
            ],
            [
              3.8862537,
              50.9492479
            ],
            [
              3.885652,
              50.9500049
            ],
            [
              3.8841639,
              50.9510147
            ],
            [
              3.8823356,
              50.9526149
            ],
            [
              3.8809092,
              50.9534343
            ],
            [
              3.879898,
              50.9541926
            ],
            [
              3.8794077,
              50.9539425
            ],
            [
              3.8778372,
              50.9535364
            ],
            [
              3.8752209,
              50.951233
            ],
            [
              3.874703,
              50.950641
            ],
            [
              3.873418,
              50.951084
            ],
            [
              3.8715843,
              50.9515578
            ],
            [
              3.8714938,
              50.9517528
            ],
            [
              3.8717245,
              50.9519275
            ],
            [
              3.8713332,
              50.9522366
            ],
            [
              3.8713262,
              50.9524313
            ],
            [
              3.8709535,
              50.9528472
            ],
            [
              3.8712368,
              50.9531657
            ],
            [
              3.8700862,
              50.9537268
            ],
            [
              3.8699589,
              50.9539151
            ],
            [
              3.8691868,
              50.9538191
            ],
            [
              3.868905,
              50.9542611
            ],
            [
              3.8680196,
              50.9542604
            ],
            [
              3.868036,
              50.9540984
            ],
            [
              3.867021,
              50.953575
            ],
            [
              3.8670709,
              50.9534211
            ],
            [
              3.8669905,
              50.9532356
            ],
            [
              3.8668095,
              50.9531142
            ],
            [
              3.8669409,
              50.9530792
            ],
            [
              3.8669528,
              50.9529454
            ],
            [
              3.8654942,
              50.953178
            ],
            [
              3.8651536,
              50.9528603
            ],
            [
              3.8649784,
              50.9528235
            ],
            [
              3.8629072,
              50.9529371
            ],
            [
              3.8629188,
              50.9519669
            ],
            [
              3.8625205,
              50.951883
            ],
            [
              3.8612059,
              50.9518278
            ],
            [
              3.8611067,
              50.9515418
            ],
            [
              3.8601872,
              50.9514964
            ],
            [
              3.8590714,
              50.9512139
            ],
            [
              3.8589331,
              50.9525457
            ],
            [
              3.8586557,
              50.9531142
            ],
            [
              3.8588604,
              50.9533184
            ],
            [
              3.857103,
              50.9539591
            ],
            [
              3.85637,
              50.952865
            ],
            [
              3.855919,
              50.952522
            ],
            [
              3.8539671,
              50.9531188
            ],
            [
              3.8548395,
              50.9540798
            ],
            [
              3.8525217,
              50.9548297
            ],
            [
              3.8517022,
              50.9535763
            ],
            [
              3.8521159,
              50.9528751
            ],
            [
              3.8519386,
              50.9527349
            ],
            [
              3.847693,
              50.952804
            ],
            [
              3.847669,
              50.952446
            ],
            [
              3.847252,
              50.951652
            ],
            [
              3.846458,
              50.95145
            ],
            [
              3.84618,
              50.950855
            ],
            [
              3.845699,
              50.950622
            ],
            [
              3.845166,
              50.950042
            ],
            [
              3.844713,
              50.949825
            ],
            [
              3.845115,
              50.949558
            ],
            [
              3.844778,
              50.949214
            ],
            [
              3.844756,
              50.948638
            ],
            [
              3.845562,
              50.947906
            ],
            [
              3.846906,
              50.947338
            ],
            [
              3.847761,
              50.947231
            ],
            [
              3.849513,
              50.945838
            ],
            [
              3.8486161,
              50.9451901
            ],
            [
              3.848583,
              50.945079
            ],
            [
              3.8488879,
              50.9446139
            ],
            [
              3.8492044,
              50.9437008
            ],
            [
              3.849143,
              50.943519
            ],
            [
              3.850013,
              50.942104
            ],
            [
              3.850444,
              50.94178
            ],
            [
              3.849965,
              50.941383
            ],
            [
              3.850414,
              50.939586
            ],
            [
              3.847299,
              50.938369
            ],
            [
              3.845739,
              50.937946
            ],
            [
              3.844694,
              50.937347
            ],
            [
              3.843824,
              50.936355
            ],
            [
              3.84254,
              50.936603
            ],
            [
              3.842139,
              50.936817
            ],
            [
              3.841089,
              50.936649
            ],
            [
              3.840835,
              50.93645
            ],
            [
              3.840578,
              50.936519
            ],
            [
              3.84021,
              50.936355
            ],
            [
              3.839526,
              50.936496
            ],
            [
              3.838758,
              50.936439
            ],
            [
              3.832828,
              50.9351
            ],
            [
              3.831357,
              50.934356
            ],
            [
              3.830281,
              50.933956
            ],
            [
              3.828815,
              50.932868
            ],
            [
              3.827965,
              50.932594
            ],
            [
              3.827797,
              50.932361
            ],
            [
              3.8274191,
              50.9322981
            ]
          ]
        ]
      },
      "properties": {
        "type": "boundary",
        "gemeente": "Sint-Lievens-Houtem"
      }
    }
  ]
}