{"type":"FeatureCollection","metadata":{"gemeente":"Soumagne","slug":"soumagne","generated_at":"2026-09-26T12:42:23.367907Z","total_points":16,"providers":["bpost","DHL","GLS","InPost","VintedGo","PostNL","DPD","Amazon","FedEx"],"bounds":[5.7310385,50.6300086,5.74073,50.63389]},"features":[{"type":"Feature","geometry":{"type":"Point","coordinates":[5.73104,50.63001]},"properties":{"type":"pakketpunt","locatieNaam":"Soumagne Micheroux","straatNaam":"Avenue De La Résistance","straatNr":"172","vervoerder":"bpost","puntType":"postkantoor","bezettingsgraad":50,"latitude":50.63001,"longitude":5.73104,"canPickup":true,"canDropoff":true,"openingstijden":null}},{"type":"Feature","geometry":{"type":"Point","coordinates":[5.74012,50.63389]},"properties":{"type":"pakketpunt","locatieNaam":"Bbox 24/7 Vibio Soumagne","straatNaam":"Avenue De La Résistance","straatNr":"360","vervoerder":"bpost","puntType":"automaat","bezettingsgraad":50,"latitude":50.63389,"longitude":5.74012,"canPickup":true,"canDropoff":true,"openingstijden":null}},{"type":"Feature","geometry":{"type":"Point","coordinates":[5.74073,50.63178]},"properties":{"type":"pakketpunt","locatieNaam":"Bbox Carrefour Market Soumagne","straatNaam":"Avenue De La Résistance","straatNr":"355","vervoerder":"bpost","puntType":"automaat","bezettingsgraad":50,"latitude":50.63178,"longitude":5.74073,"canPickup":true,"canDropoff":true,"openingstijden":null}},{"type":"Feature","geometry":{"type":"Point","coordinates":[5.740725,50.631776]},"properties":{"type":"pakketpunt","locatieNaam":"BBOX CARREFOUR MARKET SOUMAGNE","straatNaam":"AVENUE DE LA RÉSISTANCE","straatNr":"355","vervoerder":"DHL","puntType":"packStation","bezettingsgraad":50,"latitude":50.631776,"longitude":5.740725,"canPickup":true,"canDropoff":true,"openingstijden":{"ma":"00:00 - 23:59","di":"00:00 - 23:59","wo":"00:00 - 23:59","do":"00:00 - 23:59","vr":"00:00 - 23:59","za":"00:00 - 23:59","zo":"00:00 - 23:59"}}},{"type":"Feature","geometry":{"type":"Point","coordinates":[5.731039,50.630009]},"properties":{"type":"pakketpunt","locatieNaam":"SOUMAGNE MICHEROUX","straatNaam":"AVENUE DE LA RÉSISTANCE","straatNr":"172","vervoerder":"DHL","puntType":"postOffice","bezettingsgraad":50,"latitude":50.630009,"longitude":5.731039,"canPickup":true,"canDropoff":true,"openingstijden":{"ma":"09:30 - 12:30, 13:45 - 17:00","di":"09:30 - 12:30, 13:45 - 18:00","wo":"09:30 - 12:30, 13:45 - 17:00","do":"09:30 - 12:30, 13:45 - 18:00","vr":"09:30 - 12:30, 13:45 - 17:00","za":"09:30 - 13:00","zo":"gesloten"}}},{"type":"Feature","geometry":{"type":"Point","coordinates":[5.740118,50.633886]},"properties":{"type":"pakketpunt","locatieNaam":"BBOX 24/7 VIBIO SOUMAGNE","straatNaam":"AVENUE DE LA RÉSISTANCE","straatNr":"360","vervoerder":"DHL","puntType":"packStation","bezettingsgraad":50,"latitude":50.633886,"longitude":5.740118,"canPickup":true,"canDropoff":true,"openingstijden":{"ma":"00:00 - 23:59","di":"00:00 - 23:59","wo":"00:00 - 23:59","do":"00:00 - 23:59","vr":"00:00 - 23:59","za":"00:00 - 23:59","zo":"00:00 - 23:59"}}},{"type":"Feature","geometry":{"type":"Point","coordinates":[5.7349045,50.6330765]},"properties":{"type":"pakketpunt","locatieNaam":"Librairie du Papyrus","straatNaam":"Avenue Jean Jaures","straatNr":"1 B","vervoerder":"GLS","puntType":"parcel_shop","bezettingsgraad":50,"latitude":50.6330765,"longitude":5.7349045,"canPickup":true,"canDropoff":true,"openingstijden":"vr: 06:30 - 16:00; za: 06:30 - 16:00"}},{"type":"Feature","geometry":{"type":"Point","coordinates":[5.73616,50.63316]},"properties":{"type":"pakketpunt","locatieNaam":"LIBRAIRIE AUX PAPYRUS","straatNaam":"AVENUE JEAN JAURES 1B1","straatNr":"","vervoerder":"InPost","puntType":"servicepunt","bezettingsgraad":50,"latitude":50.63316,"longitude":5.73616,"canPickup":true,"canDropoff":true,"openingstijden":null}},{"type":"Feature","geometry":{"type":"Point","coordinates":[5.74016,50.63176]},"properties":{"type":"pakketpunt","locatieNaam":"","straatNaam":"Avenue de la Résistance","straatNr":"355","vervoerder":"InPost","puntType":"automaat","bezettingsgraad":50,"latitude":50.63176,"longitude":5.74016,"canPickup":true,"canDropoff":true,"openingstijden":"24/7"}},{"type":"Feature","geometry":{"type":"Point","coordinates":[5.73494052,50.63291435]},"properties":{"type":"pakketpunt","locatieNaam":"Librairie Aux papyrus","straatNaam":"Avenue Jean Jaures 1B1","straatNr":"","vervoerder":"VintedGo","puntType":"parcel_shop","bezettingsgraad":50,"latitude":50.63291435,"longitude":5.73494052,"canPickup":true,"canDropoff":true,"openingstijden":null}},{"type":"Feature","geometry":{"type":"Point","coordinates":[5.734926,50.632954]},"properties":{"type":"pakketpunt","locatieNaam":"Librairie Aux Papyrus","straatNaam":"Avenue Jean Jaurès","straatNr":"1B1","vervoerder":"PostNL","puntType":"servicepunt","bezettingsgraad":50,"latitude":50.632954,"longitude":5.734926,"canPickup":true,"canDropoff":true,"openingstijden":"06:30 - 18:30"}},{"type":"Feature","geometry":{"type":"Point","coordinates":[5.73471,50.63281]},"properties":{"type":"pakketpunt","locatieNaam":"LIBRAIRIE AUX PAPYRUS","straatNaam":"AVENUE JEAN JAURES","straatNr":"1","vervoerder":"DPD","puntType":"pickup_point","bezettingsgraad":50,"latitude":50.63281,"longitude":5.73471,"canPickup":true,"canDropoff":true,"openingstijden":{"ma":"06:30 - 18:30","di":"06:30 - 18:30","wo":"06:30 - 18:30","do":"06:30 - 18:30","vr":"06:30 - 18:30","za":"06:30 - 18:30","zo":"10:00 - 15:00"}}},{"type":"Feature","geometry":{"type":"Point","coordinates":[5.740725,50.631776]},"properties":{"type":"pakketpunt","locatieNaam":"bpost - BBOX CARREFOUR MARKET SOUMAGNE","straatNaam":"AVENUE DE LA RÉSISTANCE,355","straatNr":"","vervoerder":"Amazon","puntType":"3p","bezettingsgraad":50,"latitude":50.631776,"longitude":5.740725,"canPickup":true,"canDropoff":false,"openingstijden":null}},{"type":"Feature","geometry":{"type":"Point","coordinates":[5.7310385,50.6300086]},"properties":{"type":"pakketpunt","locatieNaam":"bpost - SOUMAGNE MICHEROUX","straatNaam":"AVENUE DE LA RÉSISTANCE,172","straatNr":"","vervoerder":"Amazon","puntType":"3p","bezettingsgraad":50,"latitude":50.6300086,"longitude":5.7310385,"canPickup":true,"canDropoff":false,"openingstijden":null}},{"type":"Feature","geometry":{"type":"Point","coordinates":[5.740118,50.633886]},"properties":{"type":"pakketpunt","locatieNaam":"bpost - BBOX 24/7 VIBIO SOUMAGNE","straatNaam":"AVENUE DE LA RÉSISTANCE,360","straatNr":"","vervoerder":"Amazon","puntType":"3p","bezettingsgraad":50,"latitude":50.633886,"longitude":5.740118,"canPickup":true,"canDropoff":false,"openingstijden":null}},{"type":"Feature","geometry":{"type":"Point","coordinates":[5.736156,50.633156]},"properties":{"type":"pakketpunt","locatieNaam":"FedEx OnSite","straatNaam":"AVENUE JEAN JAURES 1B1","straatNr":"","vervoerder":"FedEx","puntType":"servicepunt","bezettingsgraad":50,"latitude":50.633156,"longitude":5.736156,"canPickup":true,"canDropoff":true,"openingstijden":{"ma":"06:30 - 18:00","di":"06:30 - 18:30","wo":"06:30 - 18:30","do":"06:30 - 18:30","vr":"06:30 - 18:30","za":"07:00 - 18:30","zo":"10:00 - 15:00"}}},{"type":"Feature","geometry":{"type":"Polygon","coordinates":[[[5.6961629,50.6598742],[5.6921123,50.6606362],[5.6909401,50.6600117],[5.6900328,50.6596805],[5.6892727,50.6596273],[5.6893864,50.659417],[5.6894273,50.6589683],[5.6897271,50.6588865],[5.6896399,50.6587436],[5.6898424,50.6587487],[5.6903024,50.6582565],[5.690529,50.6581961],[5.69047,50.6579598],[5.6906843,50.6575129],[5.6905559,50.6574764],[5.6903038,50.6570216],[5.69025,50.6566607],[5.6904009,50.6564528],[5.6898715,50.6560699],[5.6905398,50.6556565],[5.6907336,50.6553109],[5.6909518,50.6551722],[5.6903236,50.654373],[5.6917906,50.6540201],[5.692484,50.6506504],[5.6927372,50.6497513],[5.6927378,50.6494511],[5.6925643,50.6489773],[5.6926694,50.648929],[5.6924533,50.6476801],[5.6919106,50.6473168],[5.6905845,50.6457273],[5.6950593,50.6440443],[5.6963813,50.6434407],[5.6967491,50.6430484],[5.6972377,50.6421986],[5.6978984,50.6413585],[5.6990661,50.6402956],[5.7007402,50.6391634],[5.7013811,50.6389062],[5.702162,50.6388036],[5.7030831,50.6379981],[5.7042405,50.6373151],[5.7062894,50.6357244],[5.7104612,50.6329242],[5.7119596,50.6316267],[5.7129974,50.6312704],[5.7143083,50.6306247],[5.7099751,50.6238632],[5.7098426,50.6238249],[5.7105029,50.6229487],[5.7101511,50.622845],[5.7103397,50.6213169],[5.71095,50.620362],[5.711119,50.6202642],[5.7115998,50.6194643],[5.7117567,50.6194763],[5.7125553,50.618456],[5.7124306,50.6184135],[5.7128353,50.6183063],[5.7149238,50.6181234],[5.7142434,50.6175688],[5.7128081,50.6174806],[5.710028,50.6167226],[5.7082745,50.6164419],[5.7081968,50.6164895],[5.7068334,50.6160427],[5.70335,50.6162428],[5.7018659,50.6141165],[5.702693,50.6133093],[5.7039815,50.6126095],[5.7029091,50.6115828],[5.7023281,50.6117121],[5.7014968,50.6120544],[5.7001453,50.6132989],[5.699489,50.6133852],[5.6986454,50.6129512],[5.6977635,50.612288],[5.6977174,50.6121632],[5.6973089,50.6118346],[5.6971595,50.61145],[5.6968349,50.6113002],[5.6961013,50.6103688],[5.6962019,50.6099402],[5.69602,50.6096953],[5.6952059,50.609389],[5.6950714,50.6093011],[5.6950578,50.6091169],[5.694323,50.6091173],[5.6935924,50.6088286],[5.6936359,50.6086576],[5.6934703,50.6084577],[5.6935578,50.6083552],[5.6929909,50.6080791],[5.6928787,50.6078917],[5.6929725,50.6074568],[5.6931796,50.6072143],[5.6929699,50.6069776],[5.6930409,50.6068627],[5.6930181,50.6066218],[5.6927942,50.6065129],[5.6925181,50.6062157],[5.6925293,50.6059507],[5.6924244,50.6057952],[5.6925514,50.6057345],[5.6926398,50.6055416],[5.6927912,50.6055122],[5.6928572,50.6053358],[5.6927476,50.6049167],[5.6932756,50.6043255],[5.6929229,50.6041229],[5.6929475,50.6040394],[5.6931724,50.6039322],[5.6936485,50.6038914],[5.6936163,50.6037433],[5.6938549,50.6034361],[5.6938376,50.6033168],[5.6933392,50.6032127],[5.693285,50.6031636],[5.693336,50.6030564],[5.6936793,50.6029202],[5.6938148,50.6026589],[5.693753,50.6025022],[5.6943323,50.602015],[5.6955271,50.6015872],[5.6963486,50.6015613],[5.69665,50.601329],[5.6967659,50.601102],[5.6966256,50.6008335],[5.6962585,50.6006024],[5.6969366,50.6007069],[5.6973315,50.6012356],[5.6973336,50.6018177],[5.6974639,50.6018902],[5.6974793,50.6021686],[5.6979306,50.6025848],[5.6978407,50.6026461],[5.6978032,50.6028393],[5.6978625,50.6030671],[5.698007,50.6031857],[5.6979641,50.6033287],[5.6984603,50.6041671],[5.6989807,50.6045417],[5.6994501,50.604608],[5.6998712,50.6050336],[5.7000348,50.6053094],[5.7002306,50.6054277],[5.7003124,50.6055367],[5.7003111,50.6057358],[5.7005893,50.6059275],[5.7017078,50.6062318],[5.7023592,50.6075217],[5.7040507,50.6097926],[5.7068268,50.6101019],[5.7073008,50.6100869],[5.7073865,50.6101622],[5.7096929,50.6104003],[5.7114275,50.6101347],[5.7127015,50.6087053],[5.7177266,50.605746],[5.7231286,50.6039382],[5.7241331,50.603533],[5.7250679,50.6033253],[5.7264291,50.6026648],[5.7268537,50.6023698],[5.7274121,50.6024444],[5.7282874,50.6027941],[5.7284461,50.6027214],[5.7293192,50.602801],[5.7355955,50.602898],[5.7366329,50.6026762],[5.742179,50.6005266],[5.7445283,50.5994233],[5.7452099,50.5992838],[5.7489923,50.5994725],[5.7513481,50.5999205],[5.7529039,50.5998259],[5.752928,50.6001648],[5.7540129,50.6005436],[5.7570991,50.6009571],[5.7637608,50.6022357],[5.7624592,50.6031849],[5.7621038,50.6032875],[5.7622701,50.6037186],[5.7625832,50.60398],[5.7624793,50.6043263],[5.7623425,50.6043399],[5.7622164,50.6044727],[5.7622111,50.604757],[5.7615218,50.6053664],[5.7611275,50.6055469],[5.7604569,50.6068508],[5.7605427,50.6069938],[5.7602061,50.6070968],[5.7601833,50.607221],[5.759836,50.6072815],[5.7593894,50.607484],[5.759293,50.6077894],[5.7600732,50.607903],[5.7606191,50.6078738],[5.7618085,50.6089812],[5.762581,50.6092605],[5.7650634,50.6096105],[5.7686492,50.6096149],[5.7689024,50.6102964],[5.7686736,50.6107298],[5.768238,50.6110875],[5.7679188,50.6115564],[5.7681536,50.6114722],[5.7682669,50.6128307],[5.7676648,50.6130759],[5.7672402,50.6134141],[5.7664712,50.6147802],[5.7657087,50.6150706],[5.7650899,50.6156707],[5.7647057,50.6158441],[5.7648999,50.6161889],[5.7646807,50.6165078],[5.7648782,50.6166491],[5.7647927,50.6170895],[5.7645674,50.6172137],[5.7646884,50.6172348],[5.7642623,50.6173783],[5.7637587,50.6177225],[5.7636434,50.6177625],[5.7634905,50.617643],[5.7634543,50.6178217],[5.7635489,50.6181108],[5.7633785,50.6181644],[5.7633886,50.6183361],[5.7632571,50.6186271],[5.7628541,50.6192001],[5.7625484,50.6192761],[5.7624692,50.6194227],[5.7619926,50.6195422],[5.7619489,50.6196358],[5.7620542,50.6196477],[5.7618604,50.6198592],[5.7619328,50.6199285],[5.7619053,50.6202829],[5.7615814,50.6205715],[5.760826,50.6210115],[5.7600128,50.6217298],[5.759544,50.6219141],[5.7588691,50.6219914],[5.7583246,50.6221556],[5.7580684,50.6223973],[5.7579316,50.6223488],[5.7577385,50.6224126],[5.7575641,50.6226958],[5.7575778,50.6229795],[5.7576674,50.6239891],[5.7590926,50.6262802],[5.7592533,50.6265275],[5.7602321,50.6271911],[5.7605878,50.6291658],[5.7613805,50.6306546],[5.7623325,50.6313797],[5.7618993,50.6314255],[5.7620043,50.6315344],[5.7624806,50.6315433],[5.7626079,50.6316533],[5.7641846,50.6334742],[5.7631928,50.6346826],[5.7629254,50.6351507],[5.7624163,50.6364637],[5.7621582,50.636777],[5.7624122,50.6382805],[5.7626282,50.63875],[5.7632164,50.639611],[5.7643273,50.6407828],[5.7666397,50.6425256],[5.7666787,50.6426949],[5.7659052,50.6431348],[5.765681,50.6433491],[5.7656419,50.6437694],[5.7655187,50.6439827],[5.7647249,50.6446465],[5.7647547,50.6448644],[5.7642635,50.6450829],[5.7639253,50.6453515],[5.7631022,50.6456606],[5.7622892,50.6461068],[5.7619258,50.6461411],[5.7614654,50.6463464],[5.7614942,50.6461106],[5.7600704,50.6464032],[5.7591883,50.6467875],[5.7589001,50.6470893],[5.7578955,50.6476196],[5.7574179,50.647661],[5.7568643,50.6478882],[5.7562671,50.6478597],[5.7558483,50.6482462],[5.7554558,50.6486517],[5.7554357,50.6489581],[5.7551645,50.6492046],[5.7551925,50.649464],[5.7556097,50.6498492],[5.7553366,50.650418],[5.7552172,50.6505192],[5.7552481,50.6506297],[5.7551302,50.6509481],[5.7549477,50.6509639],[5.7549562,50.6512207],[5.7548819,50.6513287],[5.7549439,50.6515239],[5.7547921,50.6517598],[5.7548042,50.651872],[5.7545124,50.6519955],[5.7545695,50.6520506],[5.7545011,50.6520846],[5.7541598,50.6521071],[5.7540257,50.6522665],[5.7537952,50.6523386],[5.7536436,50.6525886],[5.7533725,50.6527563],[5.7529105,50.6528941],[5.7527931,50.6532133],[5.7521386,50.6534676],[5.7514641,50.6540567],[5.751128,50.654432],[5.7511031,50.6545737],[5.7509564,50.6546528],[5.7506868,50.6552369],[5.7500089,50.6555841],[5.7500586,50.655765],[5.7503126,50.6558989],[5.750343,50.6562032],[5.7505133,50.6562453],[5.7504962,50.6563668],[5.7502672,50.6563984],[5.7499769,50.6566938],[5.749891,50.6570552],[5.7497167,50.657158],[5.7495699,50.6574309],[5.7494324,50.6573906],[5.7492688,50.6574981],[5.7493311,50.6576647],[5.7489355,50.6578118],[5.7489905,50.6579292],[5.7488986,50.658146],[5.7486753,50.6580996],[5.7483823,50.65837],[5.7479588,50.6585026],[5.7477305,50.6586578],[5.7475971,50.658974],[5.747358,50.6591343],[5.7473072,50.6592591],[5.7473865,50.6594331],[5.7471576,50.6595118],[5.7471235,50.6599742],[5.7473034,50.6600537],[5.7473677,50.6602671],[5.7471357,50.660251],[5.7470483,50.6603993],[5.7468612,50.6604898],[5.7468262,50.6606271],[5.7470772,50.660811],[5.7468395,50.6610527],[5.7469423,50.6612106],[5.7468871,50.6613897],[5.7473924,50.661688],[5.7474211,50.6617764],[5.747219,50.6619596],[5.7473134,50.6620476],[5.7471667,50.662135],[5.7467663,50.6621667],[5.7467634,50.6623005],[5.7466087,50.6624128],[5.7458845,50.6622811],[5.7457678,50.6623232],[5.7456639,50.6624384],[5.7457517,50.6624337],[5.7458331,50.6625653],[5.7454929,50.6627485],[5.7452117,50.6627609],[5.7451817,50.6625523],[5.7450624,50.6625268],[5.7446361,50.6626653],[5.7440887,50.6626061],[5.7440029,50.662429],[5.7433805,50.6622797],[5.7431402,50.662333],[5.742805,50.6622225],[5.7420325,50.6626265],[5.7416325,50.6625336],[5.7411236,50.6626101],[5.7409237,50.6624919],[5.7406859,50.6627236],[5.738685,50.6628294],[5.7368826,50.6632388],[5.7364136,50.663115],[5.7361383,50.6631449],[5.7360247,50.6630819],[5.7358752,50.6628077],[5.7350019,50.6628369],[5.7344966,50.6626173],[5.7335468,50.6624847],[5.7333198,50.6623562],[5.7331637,50.66243],[5.7326977,50.6623818],[5.7324857,50.6624431],[5.7321699,50.6627236],[5.7311647,50.6627153],[5.7311837,50.6625291],[5.7310277,50.6624367],[5.7311357,50.6623487],[5.7300312,50.6622696],[5.7297584,50.6623891],[5.7298073,50.6624838],[5.7296289,50.6625089],[5.7297074,50.6625956],[5.7296182,50.6626585],[5.7294271,50.6627384],[5.7292575,50.662676],[5.7290818,50.662718],[5.7287988,50.6628651],[5.728597,50.6627741],[5.7286312,50.6626964],[5.7285279,50.6625718],[5.7278671,50.6624546],[5.7276146,50.6626475],[5.7276736,50.6627121],[5.7273081,50.6628812],[5.72716,50.6628311],[5.7269864,50.6629158],[5.7264063,50.6627061],[5.7258852,50.6628941],[5.7257079,50.6627261],[5.7255493,50.6627529],[5.7255405,50.6628912],[5.7250746,50.6630198],[5.7245328,50.6629535],[5.7243571,50.6630921],[5.7238326,50.6630079],[5.723145,50.6631056],[5.7227216,50.6633233],[5.7225261,50.6632639],[5.7206868,50.6635838],[5.7206107,50.6637842],[5.719993,50.6637453],[5.719674,50.6639939],[5.7193637,50.6640588],[5.719109,50.6642444],[5.7187928,50.6641702],[5.7184708,50.6642685],[5.7182806,50.6643539],[5.7182337,50.6644949],[5.7175019,50.6645877],[5.7171097,50.6645005],[5.7168023,50.6645802],[5.7165183,50.6647009],[5.7164978,50.6650181],[5.7151185,50.6654857],[5.7148741,50.6657807],[5.7144935,50.6659793],[5.7142549,50.6662539],[5.713788,50.6663095],[5.7133592,50.6665238],[5.712557,50.6661116],[5.7129009,50.6659007],[5.7112005,50.6647078],[5.7105588,50.6644533],[5.7104222,50.6638209],[5.7098799,50.663136],[5.709973,50.6630284],[5.7090843,50.6620684],[5.709231,50.6619504],[5.7088556,50.66154],[5.7092895,50.6613559],[5.7086923,50.6606888],[5.7100489,50.6602274],[5.7097977,50.6600242],[5.7096149,50.6600813],[5.7090331,50.6597541],[5.7088048,50.6598575],[5.7085494,50.6593254],[5.7088162,50.6590491],[5.7086587,50.6587452],[5.7073653,50.6591721],[5.7072225,50.6591447],[5.7048547,50.6600206],[5.7041138,50.6601871],[5.7038543,50.6600784],[5.7038132,50.659999],[5.7047045,50.6585073],[5.7054323,50.657083],[5.7040662,50.6561371],[5.7029167,50.6549502],[5.7026714,50.6549364],[5.702156,50.6552945],[5.7014658,50.6556038],[5.6994408,50.6561119],[5.6988097,50.6564227],[5.6984201,50.6567525],[5.698341,50.6569429],[5.6982739,50.6569234],[5.6973134,50.6582343],[5.6968121,50.6590701],[5.6964586,50.6598821],[5.6961629,50.6598742]]]},"properties":{"type":"boundary","gemeente":"Soumagne"}}]}