{
  "type": "FeatureCollection",
  "metadata": {
    "gemeente": "Steenokkerzeel",
    "slug": "steenokkerzeel",
    "generated_at": "2026-09-25T22:11:44.553059Z",
    "total_points": 11,
    "providers": [
      "bpost",
      "DHL",
      "GLS",
      "PostNL",
      "Amazon"
    ],
    "bounds": [
      4.46093,
      50.90744,
      4.512234,
      50.9182043
    ]
  },
  "features": [
    {
      "type": "Feature",
      "geometry": {
        "type": "Point",
        "coordinates": [
          4.46162,
          50.90744
        ]
      },
      "properties": {
        "type": "pakketpunt",
        "locatieNaam": "Bbox 24/7 Esso Brucargo",
        "straatNaam": "Vliegveld",
        "straatNr": "708",
        "vervoerder": "bpost",
        "puntType": "automaat",
        "bezettingsgraad": 50,
        "latitude": 50.90744,
        "longitude": 4.46162,
        "canPickup": true,
        "canDropoff": true,
        "openingstijden": null
      }
    },
    {
      "type": "Feature",
      "geometry": {
        "type": "Point",
        "coordinates": [
          4.47718,
          50.9182
        ]
      },
      "properties": {
        "type": "pakketpunt",
        "locatieNaam": "Bbox Ms Center – Vanheylenstr",
        "straatNaam": "Vanheylenstraat",
        "straatNr": "16",
        "vervoerder": "bpost",
        "puntType": "automaat",
        "bezettingsgraad": 50,
        "latitude": 50.9182,
        "longitude": 4.47718,
        "canPickup": true,
        "canDropoff": true,
        "openingstijden": null
      }
    },
    {
      "type": "Feature",
      "geometry": {
        "type": "Point",
        "coordinates": [
          4.51223,
          50.90923
        ]
      },
      "properties": {
        "type": "pakketpunt",
        "locatieNaam": "Steenokkerzeel",
        "straatNaam": "Behetsstraat",
        "straatNr": "12",
        "vervoerder": "bpost",
        "puntType": "postkantoor",
        "bezettingsgraad": 50,
        "latitude": 50.90923,
        "longitude": 4.51223,
        "canPickup": true,
        "canDropoff": true,
        "openingstijden": null
      }
    },
    {
      "type": "Feature",
      "geometry": {
        "type": "Point",
        "coordinates": [
          4.461622,
          50.907442
        ]
      },
      "properties": {
        "type": "pakketpunt",
        "locatieNaam": "BBOX 24/7 ESSO BRUCARGO",
        "straatNaam": "VLIEGVELD",
        "straatNr": "708",
        "vervoerder": "DHL",
        "puntType": "packStation",
        "bezettingsgraad": 50,
        "latitude": 50.907442,
        "longitude": 4.461622,
        "canPickup": true,
        "canDropoff": true,
        "openingstijden": {
          "ma": "00:00 - 23:59",
          "di": "00:00 - 23:59",
          "wo": "00:00 - 23:59",
          "do": "00:00 - 23:59",
          "vr": "00:00 - 23:59",
          "za": "00:00 - 23:59",
          "zo": "00:00 - 23:59"
        }
      }
    },
    {
      "type": "Feature",
      "geometry": {
        "type": "Point",
        "coordinates": [
          4.512234,
          50.909226
        ]
      },
      "properties": {
        "type": "pakketpunt",
        "locatieNaam": "STEENOKKERZEEL",
        "straatNaam": "BEHETSSTRAAT",
        "straatNr": "12",
        "vervoerder": "DHL",
        "puntType": "postOffice",
        "bezettingsgraad": 50,
        "latitude": 50.909226,
        "longitude": 4.512234,
        "canPickup": true,
        "canDropoff": true,
        "openingstijden": {
          "ma": "09:30 - 12:30, 13:45 - 17:00",
          "di": "14:00 - 18:00",
          "wo": "09:30 - 12:30, 13:45 - 17:00",
          "do": "14:00 - 18:00",
          "vr": "09:30 - 12:30, 13:45 - 17:00",
          "za": "09:30 - 13:00",
          "zo": "gesloten"
        }
      }
    },
    {
      "type": "Feature",
      "geometry": {
        "type": "Point",
        "coordinates": [
          4.477183,
          50.918204
        ]
      },
      "properties": {
        "type": "pakketpunt",
        "locatieNaam": "BBOX MS CENTER – VANHEYLENSTR",
        "straatNaam": "VANHEYLENSTRAAT",
        "straatNr": "16",
        "vervoerder": "DHL",
        "puntType": "packStation",
        "bezettingsgraad": 50,
        "latitude": 50.918204,
        "longitude": 4.477183,
        "canPickup": true,
        "canDropoff": true,
        "openingstijden": {
          "ma": "00:00 - 23:59",
          "di": "00:00 - 23:59",
          "wo": "00:00 - 23:59",
          "do": "00:00 - 23:59",
          "vr": "00:00 - 23:59",
          "za": "00:00 - 23:59",
          "zo": "00:00 - 23:59"
        }
      }
    },
    {
      "type": "Feature",
      "geometry": {
        "type": "Point",
        "coordinates": [
          4.46093,
          50.90763
        ]
      },
      "properties": {
        "type": "pakketpunt",
        "locatieNaam": "GLS Parcel Locker powered by bbox",
        "straatNaam": "Vliegveld",
        "straatNr": "708",
        "vervoerder": "GLS",
        "puntType": "locker",
        "bezettingsgraad": 50,
        "latitude": 50.90763,
        "longitude": 4.46093,
        "canPickup": true,
        "canDropoff": true,
        "openingstijden": "vr: 06:00 - 24:00; za: 06:00 - 24:00"
      }
    },
    {
      "type": "Feature",
      "geometry": {
        "type": "Point",
        "coordinates": [
          4.506799,
          50.915414
        ]
      },
      "properties": {
        "type": "pakketpunt",
        "locatieNaam": "Elektro Van Cuyck BV",
        "straatNaam": "Van Frachenlaan",
        "straatNr": "81",
        "vervoerder": "PostNL",
        "puntType": "servicepunt",
        "bezettingsgraad": 50,
        "latitude": 50.915414,
        "longitude": 4.506799,
        "canPickup": true,
        "canDropoff": true,
        "openingstijden": "10:00 - 19:00"
      }
    },
    {
      "type": "Feature",
      "geometry": {
        "type": "Point",
        "coordinates": [
          4.512234,
          50.909226
        ]
      },
      "properties": {
        "type": "pakketpunt",
        "locatieNaam": "bpost - STEENOKKERZEEL",
        "straatNaam": "BEHETSSTRAAT,12",
        "straatNr": "",
        "vervoerder": "Amazon",
        "puntType": "3p",
        "bezettingsgraad": 50,
        "latitude": 50.909226,
        "longitude": 4.512234,
        "canPickup": true,
        "canDropoff": false,
        "openingstijden": null
      }
    },
    {
      "type": "Feature",
      "geometry": {
        "type": "Point",
        "coordinates": [
          4.477183,
          50.9182043
        ]
      },
      "properties": {
        "type": "pakketpunt",
        "locatieNaam": "bpost - BBOX MS CENTER – VANHEYLENSTR",
        "straatNaam": "VANHEYLENSTRAAT,16",
        "straatNr": "",
        "vervoerder": "Amazon",
        "puntType": "3p",
        "bezettingsgraad": 50,
        "latitude": 50.9182043,
        "longitude": 4.477183,
        "canPickup": true,
        "canDropoff": false,
        "openingstijden": null
      }
    },
    {
      "type": "Feature",
      "geometry": {
        "type": "Point",
        "coordinates": [
          4.461622,
          50.907442
        ]
      },
      "properties": {
        "type": "pakketpunt",
        "locatieNaam": "bpost - BBOX 24/7 ESSO BRUCARGO",
        "straatNaam": "VLIEGVELD,708",
        "straatNr": "",
        "vervoerder": "Amazon",
        "puntType": "3p",
        "bezettingsgraad": 50,
        "latitude": 50.907442,
        "longitude": 4.461622,
        "canPickup": true,
        "canDropoff": false,
        "openingstijden": null
      }
    },
    {
      "type": "Feature",
      "geometry": {
        "type": "MultiPolygon",
        "coordinates": [
          [
            [
              [
                4.464631770170488,
                50.90553038707777
              ],
              [
                4.464321236976158,
                50.905352934248896
              ],
              [
                4.463984692851235,
                50.90519558040833
              ],
              [
                4.4636253786969835,
                50.9050598407535
              ],
              [
                4.4632467545774075,
                50.904947022341595
              ],
              [
                4.462852466409539,
                50.90485821150934
              ],
              [
                4.462446310868172,
                50.904794263417294
              ],
              [
                4.462032198842411,
                50.90475579381941
              ],
              [
                4.461614117795125,
                50.90474317313699
              ],
              [
                4.461196093386956,
                50.904756522893514
              ],
              [
                4.460782150733459,
                50.90479571454527
              ],
              [
                4.46037627566746,
                50.90486037071839
              ],
              [
                4.459982376378729,
                50.90494986884071
              ],
              [
                4.459604245799365,
                50.905063347133634
              ],
              [
                4.459567228913657,
                50.905077418994004
              ],
              [
                4.459292406348494,
                50.9051398593589
              ],
              [
                4.458914272571262,
                50.90525333542373
              ],
              [
                4.458555548412498,
                50.905389699080935
              ],
              [
                4.458219688257576,
                50.90554763726436
              ],
              [
                4.457909926424394,
                50.905725629149465
              ],
              [
                4.457629246022769,
                50.90592196079167
              ],
              [
                4.457380350227995,
                50.90613474162446
              ],
              [
                4.457165636245123,
                50.90636192265826
              ],
              [
                4.456987172214791,
                50.90660131620536
              ],
              [
                4.456846677283301,
                50.90685061694137
              ],
              [
                4.4567455050294065,
                50.90710742410023
              ],
              [
                4.4566846304080165,
                50.907369264589754
              ],
              [
                4.456664640337374,
                50.90763361680493
              ],
              [
                4.4566857280212755,
                50.90789793491001
              ],
              [
                4.456747691061935,
                50.9081596733554
              ],
              [
                4.456849933382756,
                50.90841631139366
              ],
              [
                4.45699147094345,
                50.908665377358076
              ],
              [
                4.45717094119347,
                50.90890447247002
              ],
              [
                4.45738661617361,
                50.909131293945805
              ],
              [
                4.4576364191403846,
                50.909343657180216
              ],
              [
                4.457917944553723,
                50.9095395167927
              ],
              [
                4.458228481235994,
                50.90971698633347
              ],
              [
                4.458565038479572,
                50.90987435645932
              ],
              [
                4.458924374851667,
                50.910010111403736
              ],
              [
                4.459303029418881,
                50.910122943582515
              ],
              [
                4.459697355090471,
                50.910211766193754
              ],
              [
                4.460103553758761,
                50.91027572369082
              ],
              [
                4.460517712897573,
                50.91031420002693
              ],
              [
                4.460935843265497,
                50.91032682459191
              ],
              [
                4.461353917349911,
                50.91031347578374
              ],
              [
                4.46176790818061,
                50.91027428218045
              ],
              [
                4.46217382813818,
                50.91020962130105
              ],
              [
                4.462567767382371,
                50.91012011596734
              ],
              [
                4.462945931529416,
                50.9100066283018
              ],
              [
                4.462966902216342,
                50.90999865638647
              ],
              [
                4.463259797529806,
                50.909932106455585
              ],
              [
                4.463637958489319,
                50.90981861655545
              ],
              [
                4.46399670172724,
                50.90968223755199
              ],
              [
                4.46433257202573,
                50.90952428304003
              ],
              [
                4.464642334571298,
                50.90934627441435
              ],
              [
                4.464923006115464,
                50.90914992620999
              ],
              [
                4.465171883707609,
                50.908937129582014
              ],
              [
                4.465386570723163,
                50.90870993408444
              ],
              [
                4.465564999936629,
                50.90847052792398
              ],
              [
                4.46570545341749,
                50.9082212168791
              ],
              [
                4.465806579057887,
                50.90796440208778
              ],
              [
                4.4658674035735615,
                50.90770255691795
              ],
              [
                4.465887341853633,
                50.90743820314372
              ],
              [
                4.46586620257007,
                50.90717388665697
              ],
              [
                4.465804189993835,
                50.90691215294823
              ],
              [
                4.465701902001192,
                50.90665552259301
              ],
              [
                4.465560324290426,
                50.90640646697975
              ],
              [
                4.465380820865626,
                50.9061673845129
              ],
              [
                4.4651651208800915,
                50.90594057752025
              ],
              [
                4.465164608971348,
                50.905940142397554
              ],
              [
                4.465163120793116,
                50.9059385775797
              ],
              [
                4.464913301899561,
                50.90572623014178
              ],
              [
                4.464631770170488,
                50.90553038707777
              ]
            ]
          ],
          [
            [
              [
                4.48111888360673,
                50.917163948559626
              ],
              [
                4.480939259795717,
                50.91692489064448
              ],
              [
                4.480723435198997,
                50.916698112959295
              ],
              [
                4.480473488649561,
                50.91648579930663
              ],
              [
                4.480191827467976,
                50.91628999417652
              ],
              [
                4.4798811642709415,
                50.91611258306475
              ],
              [
                4.479544490844797,
                50.91595527432281
              ],
              [
                4.479185049335679,
                50.91581958271376
              ],
              [
                4.478806301033683,
                50.915706814832134
              ],
              [
                4.4784118930513594,
                50.91561805652806
              ],
              [
                4.478005623216952,
                50.91555416245629
              ],
              [
                4.477591403519856,
                50.91551574785061
              ],
              [
                4.477173222459484,
                50.91550318260276
              ],
              [
                4.476755106659319,
                50.915516587702506
              ],
              [
                4.476341082114781,
                50.9155558340732
              ],
              [
                4.475935135447135,
                50.91562054381409
              ],
              [
                4.475541175535574,
                50.915710093837234
              ],
              [
                4.475162995895965,
                50.91582362186427
              ],
              [
                4.474804238167726,
                50.9159600347253
              ],
              [
                4.4744683570596475,
                50.916118018880404
              ],
              [
                4.4741585870916145,
                50.91629605306232
              ],
              [
                4.473877911452061,
                50.91649242291917
              ],
              [
                4.473629033270752,
                50.916705237516425
              ],
              [
                4.473414349583494,
                50.916932447539295
              ],
              [
                4.4732359282395695,
                50.91717186502089
              ],
              [
                4.473095487974626,
                50.91742118440626
              ],
              [
                4.472994381841377,
                50.917678004749675
              ],
              [
                4.472933584158372,
                50.9179398528319
              ],
              [
                4.472913681103282,
                50.91820420697471
              ],
              [
                4.472934865042232,
                50.91846852132368
              ],
              [
                4.472996932650729,
                50.91873025036534
              ],
              [
                4.473099286845341,
                50.91898687344272
              ],
              [
                4.473240942508502,
                50.919235919033056
              ],
              [
                4.473243223204928,
                50.91923895504628
              ],
              [
                4.473243942213831,
                50.919240219132305
              ],
              [
                4.473423535689386,
                50.91947928864821
              ],
              [
                4.473639337802466,
                50.919706079556406
              ],
              [
                4.473889270585104,
                50.91991840754596
              ],
              [
                4.474170927246833,
                50.92011422757572
              ],
              [
                4.474481595345755,
                50.920291653577095
              ],
              [
                4.474818282908296,
                50.92044897662616
              ],
              [
                4.475177747246247,
                50.9205846814098
              ],
              [
                4.475556526193408,
                50.92069746082689
              ],
              [
                4.475950971460762,
                50.920786228583744
              ],
              [
                4.476357283788424,
                50.92085012966205
              ],
              [
                4.476771549555199,
                50.92088854855843
              ],
              [
                4.477189778492405,
                50.920901115216
              ],
              [
                4.477607942137805,
                50.920887708590485
              ],
              [
                4.478022012658393,
                50.92084845781685
              ],
              [
                4.478428001667089,
                50.92078374096475
              ],
              [
                4.4788219986585105,
                50.92069418139515
              ],
              [
                4.479200208692706,
                50.92058064175294
              ],
              [
                4.479558988962999,
                50.92044421565412
              ],
              [
                4.479894883895018,
                50.920286217147094
              ],
              [
                4.480204658438225,
                50.920108168050405
              ],
              [
                4.480485329228856,
                50.91991178328886
              ],
              [
                4.4807341933238645,
                50.91969895436959
              ],
              [
                4.48094885422904,
                50.91947173115761
              ],
              [
                4.4811272449707475,
                50.91923230212647
              ],
              [
                4.481267647989398,
                50.91898297327488
              ],
              [
                4.481368711663543,
                50.91872614591222
              ],
              [
                4.481429463306107,
                50.91846429352744
              ],
              [
                4.481449318508405,
                50.91819993796405
              ],
              [
                4.481449306849755,
                50.918199792827124
              ],
              [
                4.481449318481136,
                50.91819963796406
              ],
              [
                4.4814280867157,
                50.91793532513105
              ],
              [
                4.481365973144558,
                50.91767360048371
              ],
              [
                4.4812635766168265,
                50.917416984510155
              ],
              [
                4.481121883876184,
                50.91716794846027
              ],
              [
                4.481118899828854,
                50.91716397707144
              ],
              [
                4.48111888360673,
                50.917163948559626
              ]
            ]
          ],
          [
            [
              [
                4.516171356568194,
                50.90818877047055
              ],
              [
                4.515991588624247,
                50.90794976554595
              ],
              [
                4.515775635989605,
                50.90772305168582
              ],
              [
                4.5155255787296324,
                50.907510812078
              ],
              [
                4.515243825230398,
                50.90731509049937
              ],
              [
                4.514933088996993,
                50.90713777164107
              ],
              [
                4.514596362518517,
                50.906980562966154
              ],
              [
                4.514236888451481,
                50.90684497827408
              ],
              [
                4.513858128399084,
                50.90673232312979
              ],
              [
                4.513463729586703,
                50.90664368229786
              ],
              [
                4.513057489754064,
                50.90657990930187
              ],
              [
                4.512643320601554,
                50.90654161820979
              ],
              [
                4.5122252101418825,
                50.90652917772402
              ],
              [
                4.511807184318809,
                50.90654270763302
              ],
              [
                4.511393268261557,
                50.90658207765836
              ],
              [
                4.510987447547041,
                50.90664690870863
              ],
              [
                4.510593629842001,
                50.90673657652776
              ],
              [
                4.5102156072933965,
                50.906850217703116
              ],
              [
                4.509857020028449,
                50.906986737975245
              ],
              [
                4.509521321114993,
                50.90714482276986
              ],
              [
                4.509211743318981,
                50.90732294985054
              ],
              [
                4.508931267978801,
                50.90751940397076
              ],
              [
                4.508682596295849,
                50.90773229338444
              ],
              [
                4.508679770445328,
                50.90773528792432
              ],
              [
                4.508678596120531,
                50.90773629326525
              ],
              [
                4.508464123104828,
                50.907963567929436
              ],
              [
                4.508285914616553,
                50.90820303926333
              ],
              [
                4.508145687341769,
                50.90845240119317
              ],
              [
                4.508044792282189,
                50.9087092523634
              ],
              [
                4.507984201723676,
                50.90897111925767
              ],
              [
                4.507964499849115,
                50.909235480016406
              ],
              [
                4.507985877086952,
                50.90949978872128
              ],
              [
                4.50804812825079,
                50.909761499912946
              ],
              [
                4.508150654489013,
                50.91001809310617
              ],
              [
                4.50829246902664,
                50.91026709706579
              ],
              [
                4.508472206645114,
                50.91050611361011
              ],
              [
                4.508688136809612,
                50.910732840711944
              ],
              [
                4.508938180318262,
                50.91094509467475
              ],
              [
                4.509219929313542,
                50.911140831170286
              ],
              [
                4.509530670463657,
                50.911318164934386
              ],
              [
                4.5098674110908865,
                50.91147538793148
              ],
              [
                4.510226907995433,
                50.911610985812075
              ],
              [
                4.510605698697015,
                50.91172365250468
              ],
              [
                4.5110001347930755,
                50.91181230280138
              ],
              [
                4.511406417111848,
                50.91187608281519
              ],
              [
                4.5118206323210694,
                50.9119143782089
              ],
              [
                4.512238790639018,
                50.91192682011513
              ],
              [
                4.512656864283763,
                50.9119132886913
              ],
              [
                4.51307082628938,
                50.91187391427444
              ],
              [
                4.513476689314296,
                50.91180907612515
              ],
              [
                4.513870544066963,
                50.91171939877269
              ],
              [
                4.514248596977886,
                50.91160574599648
              ],
              [
                4.5146072067542455,
                50.91146921250211
              ],
              [
                4.514942919464321,
                50.911311113372385
              ],
              [
                4.515252501813173,
                50.91113297139495
              ],
              [
                4.515532972288648,
                50.91093650238908
              ],
              [
                4.515781629877469,
                50.91072359867323
              ],
              [
                4.515784455454835,
                50.9107206039651
              ],
              [
                4.515785629702102,
                50.91071959855402
              ],
              [
                4.516000079861732,
                50.91049231070583
              ],
              [
                4.516178257687909,
                50.91025282783002
              ],
              [
                4.516318447671873,
                50.91000345644367
              ],
              [
                4.51641930024402,
                50.90974659826565
              ],
              [
                4.516479844750378,
                50.909484727081455
              ],
              [
                4.516499498777027,
                50.90922036491548
              ],
              [
                4.516478073733595,
                50.908956057740106
              ],
              [
                4.516415776643025,
                50.90869435095591
              ],
              [
                4.516313208121381,
                50.908437764878805
              ],
              [
                4.516171356568194,
                50.90818877047055
              ]
            ]
          ],
          [
            [
              [
                4.510736995718465,
                50.91437695458646
              ],
              [
                4.510557231746054,
                50.91413794178354
              ],
              [
                4.510341276889824,
                50.91391121834793
              ],
              [
                4.51009121123671,
                50.91369896755966
              ],
              [
                4.509809443253759,
                50.91350323330328
              ],
              [
                4.509498686585667,
                50.913325900392024
              ],
              [
                4.509161933918413,
                50.91316867642432
              ],
              [
                4.508802428160764,
                50.913033075346796
              ],
              [
                4.508423631221118,
                50.91292040288224
              ],
              [
                4.508029190680058,
                50.912831743961995
              ],
              [
                4.507622904679104,
                50.91276795228378
              ],
              [
                4.507208685363154,
                50.91272964209548
              ],
              [
                4.506790521227876,
                50.91271718228336
              ],
              [
                4.506372438733779,
                50.91273069282197
              ],
              [
                4.505958463555667,
                50.91277004361941
              ],
              [
                4.5055525818396225,
                50.91283485576939
              ],
              [
                4.50515870183965,
                50.91292450519788
              ],
              [
                4.5047806163024395,
                50.91303812866929
              ],
              [
                4.504421965961634,
                50.913174632094666
              ],
              [
                4.504086204492347,
                50.913332701062
              ],
              [
                4.5037765652628305,
                50.91351081348724
              ],
              [
                4.503496030202992,
                50.913707254265056
              ],
              [
                4.503247301089278,
                50.91392013177783
              ],
              [
                4.503032773522395,
                50.914147396104816
              ],
              [
                4.50285451384855,
                50.91438685875611
              ],
              [
                4.5027142392467905,
                50.91463621374157
              ],
              [
                4.502613301174689,
                50.91489305977253
              ],
              [
                4.50255267233246,
                50.915154923382225
              ],
              [
                4.502532937271824,
                50.915419282742675
              ],
              [
                4.502554286741001,
                50.91568359194909
              ],
              [
                4.502616515821211,
                50.91594530553732
              ],
              [
                4.502719025873722,
                50.91620190299905
              ],
              [
                4.502860830279636,
                50.916450913058085
              ],
              [
                4.5030405639181765,
                50.91668993747399
              ],
              [
                4.503256496293045,
                50.916916674143756
              ],
              [
                4.503506548181253,
                50.917128939278726
              ],
              [
                4.503788311644731,
                50.91732468844304
              ],
              [
                4.504099073212462,
                50.917502036250575
              ],
              [
                4.50443584001018,
                50.91765927453043
              ],
              [
                4.504795368586089,
                50.91779488878597
              ],
              [
                4.5051741961549014,
                50.91790757278797
              ],
              [
                4.505568673958969,
                50.91799624116176
              ],
              [
                4.505975002424777,
                50.91806003984627
              ],
              [
                4.506389267775527,
                50.91809835432439
              ],
              [
                4.5068074797464615,
                50.918110815545006
              ],
              [
                4.50722561003877,
                50.91809730347942
              ],
              [
                4.5076396311407905,
                50.918057948278225
              ],
              [
                4.508045555141614,
                50.917993129016956
              ],
              [
                4.508439472162252,
                50.91790347004292
              ],
              [
                4.508817588033333,
                50.917789834958526
              ],
              [
                4.509176260855499,
                50.91765331829899
              ],
              [
                4.509512036089693,
                50.91749523498496
              ],
              [
                4.509821679838683,
                50.91731710765177
              ],
              [
                4.51010220999888,
                50.91712065197769
              ],
              [
                4.510350924982132,
                50.91690776015278
              ],
              [
                4.510565429730753,
                50.916680482647756
              ],
              [
                4.510743658775433,
                50.916441008459024
              ],
              [
                4.510883896114184,
                50.91619164402002
              ],
              [
                4.510984791721431,
                50.91593479098277
              ],
              [
                4.511045374528861,
                50.915672923083264
              ],
              [
                4.5110650617538415,
                50.915408562314305
              ],
              [
                4.511043664486453,
                50.91514425463486
              ],
              [
                4.510981389482334,
                50.914882545450396
              ],
              [
                4.510878837145046,
                50.91462595509994
              ],
              [
                4.510736995718465,
                50.91437695458646
              ]
            ]
          ]
        ]
      },
      "properties": {
        "type": "buffer_union_300m",
        "buffer_m": 300
      }
    },
    {
      "type": "Feature",
      "geometry": {
        "type": "MultiPolygon",
        "coordinates": [
          [
            [
              [
                4.46563563911538,
                50.90489383203351
              ],
              [
                4.465221595932636,
                50.90465723157208
              ],
              [
                4.464772873559833,
                50.90444742963271
              ],
              [
                4.464293793078464,
                50.9042664463563
              ],
              [
                4.463788967712833,
                50.90411602437325
              ],
              [
                4.463263258424583,
                50.9039976120339
              ],
              [
                4.462721727129044,
                50.90391234947147
              ],
              [
                4.462169587982821,
                50.903861057631346
              ],
              [
                4.4616121572103316,
                50.90384423037175
              ],
              [
                4.4610548019508975,
                50.90386202971187
              ],
              [
                4.460502888617271,
                50.90391428427295
              ],
              [
                4.4599617312611395,
                50.90400049092728
              ],
              [
                4.459436540441064,
                50.9041198196392
              ],
              [
                4.458980752047845,
                50.90425660294718
              ],
              [
                4.458746580400349,
                50.90430980699691
              ],
              [
                4.458242408779212,
                50.90446110583893
              ],
              [
                4.457764114906789,
                50.90464292110985
              ],
              [
                4.4573163044378665,
                50.90485350216775
              ],
              [
                4.456903289678268,
                50.90509082136897
              ],
              [
                4.456529048068589,
                50.90535259358141
              ],
              [
                4.456197183883781,
                50.905636298176894
              ],
              [
                4.455910893517279,
                50.90593920329156
              ],
              [
                4.45567293468416,
                50.906258392121096
              ],
              [
                4.455485599840473,
                50.90659079099825
              ],
              [
                4.455350694075573,
                50.90693319898254
              ],
              [
                4.455269517691545,
                50.90728231867764
              ],
              [
                4.455242853638856,
                50.907634787980356
              ],
              [
                4.455270959930868,
                50.907987212455204
              ],
              [
                4.455353567112001,
                50.90833619802328
              ],
              [
                4.455489880805709,
                50.908678383650525
              ],
              [
                4.455678589319585,
                50.909010473720734
              ],
              [
                4.455917876236044,
                50.909329269781
              ],
              [
                4.456205437868952,
                50.90963170135409
              ],
              [
                4.456538505419489,
                50.90991485552002
              ],
              [
                4.456913871619009,
                50.91017600498234
              ],
              [
                4.457327921603185,
                50.910412634347324
              ],
              [
                4.4577766677206005,
                50.91062246436344
              ],
              [
                4.458255787940764,
                50.91080347388641
              ],
              [
                4.45876066749146,
                50.910953919357944
              ],
              [
                4.459286443323912,
                50.9110723516103
              ],
              [
                4.459828050976686,
                50.911157629833696
              ],
              [
                4.460380273385842,
                50.91120893257244
              ],
              [
                4.460937791169857,
                50.91122576564285
              ],
              [
                4.4614952339034595,
                50.91120796689669
              ],
              [
                4.462047231884814,
                50.91115570778428
              ],
              [
                4.462588467895719,
                50.91106949170169
              ],
              [
                4.463113728454524,
                50.91095014913861
              ],
              [
                4.463535896948637,
                50.91082345544983
              ],
              [
                4.463805768651509,
                50.91076213645616
              ],
              [
                4.4643099900131755,
                50.91061081401117
              ],
              [
                4.464788319335963,
                50.91042897240087
              ],
              [
                4.4652361494704,
                50.91021836319796
              ],
              [
                4.4656491672138845,
                50.909981015051336
              ],
              [
                4.466023394862773,
                50.909719214135
              ],
              [
                4.466355228524334,
                50.90943548211627
              ],
              [
                4.46664147281941,
                50.90913255185611
              ],
              [
                4.4668793716418245,
                50.90881334107607
              ],
              [
                4.4670666346787655,
                50.90848092424607
              ],
              [
                4.467201459437662,
                50.90813850296423
              ],
              [
                4.467282548568538,
                50.90778937511441
              ],
              [
                4.467309122316456,
                50.907436903098876
              ],
              [
                4.467280925985721,
                50.90708448145228
              ],
              [
                4.467198232345697,
                50.90673550414907
              ],
              [
                4.467061838956881,
                50.90639333191912
              ],
              [
                4.466873060444792,
                50.90606125988641
              ],
              [
                4.466633715797807,
                50.905742485842126
              ],
              [
                4.466346110812884,
                50.9054400794576
              ],
              [
                4.466345598898653,
                50.90543964433999
              ],
              [
                4.466344110696924,
                50.90543807953687
              ],
              [
                4.466011015769918,
                50.90515495280652
              ],
              [
                4.46563563911538,
                50.90489383203351
              ]
            ]
          ],
          [
            [
              [
                4.482431806166074,
                50.9168185686572
              ],
              [
                4.4821923010045115,
                50.91649982734961
              ],
              [
                4.481904529872999,
                50.916197460042575
              ],
              [
                4.481571264741034,
                50.915914378359865
              ],
              [
                4.481195715487136,
                50.91565330816573
              ],
              [
                4.480781498972398,
                50.91541676332724
              ],
              [
                4.480332604203679,
                50.91520702151917
              ],
              [
                4.4798533539220795,
                50.915026102303365
              ],
              [
                4.479348362986453,
                50.914875747693316
              ],
              [
                4.478822493952218,
                50.91475740539062
              ],
              [
                4.478280810272379,
                50.91467221485411
              ],
              [
                4.477728527570347,
                50.91462099633566
              ],
              [
                4.477170963452375,
                50.91460424298747
              ],
              [
                4.476613486341361,
                50.91462211611713
              ],
              [
                4.476061463823047,
                50.914674443635384
              ],
              [
                4.4755202110002426,
                50.91476072171206
              ],
              [
                4.474994939350651,
                50.91488011962384
              ],
              [
                4.474490706579097,
                50.915031487747676
              ],
              [
                4.474012367945502,
                50.91521336862283
              ],
              [
                4.473564529535944,
                50.91542401097564
              ],
              [
                4.473151503925685,
                50.91566138657225
              ],
              [
                4.472777268660302,
                50.91592320973746
              ],
              [
                4.472445427954238,
                50.916206959352415
              ],
              [
                4.472159177975493,
                50.91650990311966
              ],
              [
                4.4719212760509235,
                50.9168291238626
              ],
              [
                4.471734014089284,
                50.917161547606554
              ],
              [
                4.471599196478808,
                50.9175039731714
              ],
              [
                4.471518122673344,
                50.91785310299144
              ],
              [
                4.471491574636159,
                50.91820557486576
              ],
              [
                4.471519809263924,
                50.91855799433397
              ],
              [
                4.471602555865611,
                50.9189069673652
              ],
              [
                4.471739018722353,
                50.919249133045966
              ],
              [
                4.471927884705452,
                50.91958119595201
              ],
              [
                4.47193016533372,
                50.91958423199041
              ],
              [
                4.471930884312546,
                50.919585496084345
              ],
              [
                4.472170335530298,
                50.919904258017695
              ],
              [
                4.472458066675666,
                50.920206648834856
              ],
              [
                4.472791307317116,
                50.92048975600832
              ],
              [
                4.473166848518685,
                50.92075085269404
              ],
              [
                4.473581073730197,
                50.92098742400656
              ],
              [
                4.4740299936121115,
                50.92119719125345
              ],
              [
                4.47450928445981,
                50.92137813389488
              ],
              [
                4.475014329857104,
                50.92152850901679
              ],
              [
                4.475540265157258,
                50.921646868128974
              ],
              [
                4.476082024362303,
                50.92173207112618
              ],
              [
                4.476634388948027,
                50.921783297277294
              ],
              [
                4.477192038162986,
                50.92180005313638
              ],
              [
                4.477749600315551,
                50.92178217729898
              ],
              [
                4.478301704553321,
                50.92172984195796
              ],
              [
                4.478843032634411,
                50.92164355124373
              ],
              [
                4.479368370190258,
                50.921524136364845
              ],
              [
                4.479872656984459,
                50.92137274759605
              ],
              [
                4.480351035682085,
                50.92119084319106
              ],
              [
                4.480798898658348,
                50.920980175327436
              ],
              [
                4.481211932394694,
                50.920742773219075
              ],
              [
                4.481586159033919,
                50.92048092355973
              ],
              [
                4.481917974693585,
                50.920197148486125
              ],
              [
                4.482204184168561,
                50.919894181273854
              ],
              [
                4.482442031688727,
                50.91957494000028
              ],
              [
                4.4826292274361,
                50.919242499428925
              ],
              [
                4.482763969566904,
                50.91890006138644
              ],
              [
                4.482844961527659,
                50.918550923917955
              ],
              [
                4.482871424499914,
                50.91819844951823
              ],
              [
                4.482871412836868,
                50.91819830438145
              ],
              [
                4.482871424463555,
                50.91819814951823
              ],
              [
                4.48284310481924,
                50.917845732744695
              ],
              [
                4.482760276515971,
                50.91749676752473
              ],
              [
                4.482623738411515,
                50.917154614471706
              ],
              [
                4.482434806525334,
                50.91682256852472
              ],
              [
                4.482431822388875,
                50.91681859716883
              ],
              [
                4.482431806166074,
                50.9168185686572
              ]
            ]
          ],
          [
            [
              [
                4.517483770093248,
                50.90784299788934
              ],
              [
                4.517244072764836,
                50.90752432723762
              ],
              [
                4.516956130926912,
                50.90722204503195
              ],
              [
                4.516622718191726,
                50.906939062076425
              ],
              [
                4.516247045858046,
                50.906678103284335
              ],
              [
                4.515832731971093,
                50.90644168144994
              ],
              [
                4.515383766474366,
                50.90623207306347
              ],
              [
                4.514904472789144,
                50.906051296401955
              ],
              [
                4.514399466191483,
                50.90590109210622
              ],
              [
                4.513873609387037,
                50.90578290643046
              ],
              [
                4.513331965710666,
                50.90569787732547
              ],
              [
                4.512779750400398,
                50.90564682348873
              ],
              [
                4.51222228041358,
                50.90563023648686
              ],
              [
                4.511664923266938,
                50.90564827602575
              ],
              [
                4.511113045391475,
                50.90570076841393
              ],
              [
                4.510571960497803,
                50.90578720823376
              ],
              [
                4.510046878447337,
                50.905906763204584
              ],
              [
                4.509542855120064,
                50.90605828219101
              ],
              [
                4.509064743760041,
                50.90624030627967
              ],
              [
                4.508617148265818,
                50.90645108281778
              ],
              [
                4.508204378874501,
                50.90668858227933
              ],
              [
                4.507830410665337,
                50.906950517796204
              ],
              [
                4.507498845281979,
                50.907234367167504
              ],
              [
                4.507496019385923,
                50.907237361679336
              ],
              [
                4.507494845048232,
                50.90723836700859
              ],
              [
                4.507208875957958,
                50.907541396965925
              ],
              [
                4.50697125783575,
                50.90786068951408
              ],
              [
                4.506784279857788,
                50.90819316998658
              ],
              [
                4.5066497436777535,
                50.908535636656694
              ],
              [
                4.5065689460392955,
                50.90888479156253
              ],
              [
                4.506542666245926,
                50.909237272261244
              ],
              [
                4.506571158610622,
                50.909589684207084
              ],
              [
                4.5066541499596235,
                50.90993863344124
              ],
              [
                4.506790842216222,
                50.91028075927916
              ],
              [
                4.506979920041509,
                50.910612766679876
              ],
              [
                4.507219563460213,
                50.910931457986266
              ],
              [
                4.507507465351623,
                50.91123376372958
              ],
              [
                4.507840853638582,
                50.91151677220144
              ],
              [
                4.508216517961974,
                50.91177775750827
              ],
              [
                4.50863041543932,
                50.91201396321451
              ],
              [
                4.508439224163603,
                50.91197098864476
              ],
              [
                4.5078975189312365,
                50.91188593463064
              ],
              [
                4.50734523673863,
                50.91183485533278
              ],
              [
                4.50678769518699,
                50.91181824256294
              ],
              [
                4.5062302624819415,
                50.911836256275116
              ],
              [
                4.505678305781818,
                50.9118887230265
              ],
              [
                4.50513713955599,
                50.91197513764633
              ],
              [
                4.504611974448779,
                50.912094668096564
              ],
              [
                4.504107867139688,
                50.912246163477946
              ],
              [
                4.5036296716812165,
                50.91242816510438
              ],
              [
                4.503181992781524,
                50.91263892053944
              ],
              [
                4.502769141480689,
                50.91287640046032
              ],
              [
                4.50239509364658,
                50.91313831818713
              ],
              [
                4.502063451689539,
                50.91342215169027
              ],
              [
                4.501777409864397,
                50.91372516786436
              ],
              [
                4.501539723494174,
                50.91404444883527
              ],
              [
                4.5013526824123815,
                50.91437692004813
              ],
              [
                4.501218088880564,
                50.914719379865424
              ],
              [
                4.501137240194904,
                50.915068530391274
              ],
              [
                4.501110916150781,
                50.91542100922512
              ],
              [
                4.501139371487638,
                50.91577342183921
              ],
              [
                4.5012223333886565,
                50.916122374268376
              ],
              [
                4.501359004061088,
                50.91646450579728
              ],
              [
                4.501548068374262,
                50.916796521330255
              ],
              [
                4.501787706483401,
                50.91711522313188
              ],
              [
                4.502075611319273,
                50.91741754163233
              ],
              [
                4.502409010776675,
                50.9177005650004
              ],
              [
                4.502784694389176,
                50.91796156719904
              ],
              [
                4.503199044234115,
                50.91819803425277
              ],
              [
                4.503648069770701,
                50.9184076884732
              ],
              [
                4.50412744627591,
                50.91858851040921
              ],
              [
                4.50463255650783,
                50.91873875830926
              ],
              [
                4.505158535194664,
                50.91885698490858
              ],
              [
                4.505700315920107,
                50.91894205137834
              ],
              [
                4.506252679952358,
                50.91899313830255
              ],
              [
                4.506810306545162,
                50.919009753576375
              ],
              [
                4.50736782422481,
                50.91899173714958
              ],
              [
                4.507919862567439,
                50.9189392625693
              ],
              [
                4.508461103966206,
                50.91885283530719
              ],
              [
                4.508986334887934,
                50.91873328788709
              ],
              [
                4.509490496123907,
                50.9185817718604
              ],
              [
                4.509968731549242,
                50.9183997467066
              ],
              [
                4.510416434919878,
                50.918188965766284
              ],
              [
                4.510829294255333,
                50.9179514593424
              ],
              [
                4.51120333337897,
                50.917689515133326
              ],
              [
                4.511534950215188,
                50.91740565618635
              ],
              [
                4.511820951474531,
                50.917102616584714
              ],
              [
                4.512058583392905,
                50.91678331510274
              ],
              [
                4.512245558229351,
                50.91645082708361
              ],
              [
                4.512380076268093,
                50.916108354810675
              ],
              [
                4.512460843114109,
                50.91575919665847
              ],
              [
                4.512487082117069,
                50.91540671532064
              ],
              [
                4.512458541805613,
                50.91505430542115
              ],
              [
                4.51237549826209,
                50.91470536082088
              ],
              [
                4.512238752416721,
                50.91436324193427
              ],
              [
                4.5120496222890285,
                50.91403124337118
              ],
              [
                4.511809930253008,
                50.91371256221486
              ],
              [
                4.511521985450272,
                50.91341026724176
              ],
              [
                4.511188561521926,
                50.91312726937895
              ],
              [
                4.510812869874805,
                50.912866293683315
              ],
              [
                4.510398953900422,
                50.912630095728154
              ],
              [
                4.510590149654708,
                50.91267306709928
              ],
              [
                4.511131868849015,
                50.9127581086743
              ],
              [
                4.511684166023646,
                50.91280917015209
              ],
              [
                4.512241721076482,
                50.91282575967293
              ],
              [
                4.512799163223085,
                50.91280771743467
              ],
              [
                4.513351122767363,
                50.91275521723306
              ],
              [
                4.513892282861702,
                50.912668764786574
              ],
              [
                4.514417430756304,
                50.91254919286161
              ],
              [
                4.514921508042414,
                50.91239765324562
              ],
              [
                4.515399659403975,
                50.91221560564527
              ],
              [
                4.5158472794068185,
                50.91200480361736
              ],
              [
                4.516260056873604,
                50.9117672776679
              ],
              [
                4.5166340164163445,
                50.911505315683314
              ],
              [
                4.51696555672599,
                50.91122144088203
              ],
              [
                4.516968382257795,
                50.91121844614589
              ],
              [
                4.516969556492157,
                50.91121744072311
              ],
              [
                4.517255484966141,
                50.91091438733092
              ],
              [
                4.517493048593768,
                50.91059507426661
              ],
              [
                4.517679960291693,
                50.91026257698479
              ],
              [
                4.517814420952061,
                50.909920097858006
              ],
              [
                4.517895136732229,
                50.90957093532671
              ],
              [
                4.517921331473403,
                50.90921845212669
              ],
              [
                4.517892754130182,
                50.90886604289978
              ],
              [
                4.517809681141209,
                50.9085171015003
              ],
              [
                4.517672913719916,
                50.908174988311835
              ],
              [
                4.517483770093248,
                50.90784299788934
              ]
            ]
          ]
        ]
      },
      "properties": {
        "type": "buffer_union_400m",
        "buffer_m": 400
      }
    },
    {
      "type": "Feature",
      "geometry": {
        "type": "Polygon",
        "coordinates": [
          [
            [
              4.4590548,
              50.9100939
            ],
            [
              4.4578319,
              50.9077857
            ],
            [
              4.4642922,
              50.9049416
            ],
            [
              4.4656044,
              50.9061958
            ],
            [
              4.4671118,
              50.9053738
            ],
            [
              4.467262,
              50.9051472
            ],
            [
              4.4697297,
              50.8987295
            ],
            [
              4.4937812,
              50.9024643
            ],
            [
              4.499214,
              50.8895345
            ],
            [
              4.4999862,
              50.8904577
            ],
            [
              4.5007845,
              50.8905552
            ],
            [
              4.5012136,
              50.8915568
            ],
            [
              4.5058914,
              50.8933001
            ],
            [
              4.509999,
              50.8905537
            ],
            [
              4.5099319,
              50.8903244
            ],
            [
              4.5096299,
              50.8902999
            ],
            [
              4.5097299,
              50.8896569
            ],
            [
              4.5102729,
              50.8897166
            ],
            [
              4.5104743,
              50.8890753
            ],
            [
              4.5175226,
              50.8905994
            ],
            [
              4.5174874,
              50.890683
            ],
            [
              4.5199085,
              50.8913481
            ],
            [
              4.5239396,
              50.8926016
            ],
            [
              4.523825,
              50.8926808
            ],
            [
              4.5307711,
              50.8953319
            ],
            [
              4.5310756,
              50.8949771
            ],
            [
              4.5341245,
              50.8963668
            ],
            [
              4.5323914,
              50.8979478
            ],
            [
              4.5326692,
              50.8980681
            ],
            [
              4.5318241,
              50.8989482
            ],
            [
              4.5312292,
              50.8994389
            ],
            [
              4.532677,
              50.9001529
            ],
            [
              4.5315773,
              50.9009468
            ],
            [
              4.5322884,
              50.901321
            ],
            [
              4.5300793,
              50.9028701
            ],
            [
              4.5307623,
              50.9033902
            ],
            [
              4.5297711,
              50.9034497
            ],
            [
              4.5322054,
              50.9063203
            ],
            [
              4.5310712,
              50.9068074
            ],
            [
              4.5311661,
              50.9069503
            ],
            [
              4.5298654,
              50.9074309
            ],
            [
              4.530482,
              50.9081836
            ],
            [
              4.5314351,
              50.9078224
            ],
            [
              4.5322109,
              50.9087761
            ],
            [
              4.5319703,
              50.909046
            ],
            [
              4.5326062,
              50.9097575
            ],
            [
              4.5319618,
              50.9099559
            ],
            [
              4.5325165,
              50.9108141
            ],
            [
              4.5328048,
              50.9107659
            ],
            [
              4.5333364,
              50.91178
            ],
            [
              4.5319394,
              50.912033
            ],
            [
              4.5320197,
              50.9122114
            ],
            [
              4.5270657,
              50.912854
            ],
            [
              4.5268931,
              50.9123449
            ],
            [
              4.5267694,
              50.9123615
            ],
            [
              4.5238469,
              50.9134335
            ],
            [
              4.5241656,
              50.9137474
            ],
            [
              4.5229802,
              50.9140864
            ],
            [
              4.5236309,
              50.9147589
            ],
            [
              4.5259966,
              50.914002
            ],
            [
              4.5323964,
              50.9132915
            ],
            [
              4.533275,
              50.915149
            ],
            [
              4.5341355,
              50.9174731
            ],
            [
              4.5304938,
              50.9177898
            ],
            [
              4.5304868,
              50.9176324
            ],
            [
              4.5289576,
              50.9177537
            ],
            [
              4.5292577,
              50.9188746
            ],
            [
              4.5274456,
              50.9184771
            ],
            [
              4.5267621,
              50.9184934
            ],
            [
              4.5272093,
              50.919478
            ],
            [
              4.5271199,
              50.9195023
            ],
            [
              4.527135,
              50.9195637
            ],
            [
              4.5252523,
              50.9200506
            ],
            [
              4.5258715,
              50.9206564
            ],
            [
              4.5252683,
              50.9208298
            ],
            [
              4.5218168,
              50.9225898
            ],
            [
              4.5219915,
              50.922744
            ],
            [
              4.5216856,
              50.9229795
            ],
            [
              4.5219791,
              50.9233179
            ],
            [
              4.5221926,
              50.9234168
            ],
            [
              4.5223987,
              50.9237081
            ],
            [
              4.521935,
              50.9238617
            ],
            [
              4.5221632,
              50.9241969
            ],
            [
              4.5218277,
              50.9244114
            ],
            [
              4.5194698,
              50.924994
            ],
            [
              4.5192775,
              50.9251964
            ],
            [
              4.519461,
              50.9253757
            ],
            [
              4.5190783,
              50.9257807
            ],
            [
              4.522157,
              50.9269592
            ],
            [
              4.5135646,
              50.9320275
            ],
            [
              4.5130855,
              50.9323748
            ],
            [
              4.5138745,
              50.9361885
            ],
            [
              4.5142427,
              50.9383684
            ],
            [
              4.5134882,
              50.9385417
            ],
            [
              4.5136358,
              50.9390108
            ],
            [
              4.5139017,
              50.9391047
            ],
            [
              4.5138284,
              50.9392563
            ],
            [
              4.5140045,
              50.9395096
            ],
            [
              4.5135261,
              50.9397463
            ],
            [
              4.5138205,
              50.9399077
            ],
            [
              4.5139608,
              50.9404535
            ],
            [
              4.5139053,
              50.9411835
            ],
            [
              4.5137254,
              50.9412095
            ],
            [
              4.5138254,
              50.9412589
            ],
            [
              4.5137311,
              50.9413622
            ],
            [
              4.514051,
              50.9418347
            ],
            [
              4.5141498,
              50.9421864
            ],
            [
              4.5143745,
              50.9422692
            ],
            [
              4.514609,
              50.9426273
            ],
            [
              4.5145268,
              50.9428399
            ],
            [
              4.5146002,
              50.942973
            ],
            [
              4.5147498,
              50.94301
            ],
            [
              4.5149641,
              50.942925
            ],
            [
              4.5160117,
              50.9431302
            ],
            [
              4.5162171,
              50.943071
            ],
            [
              4.517114,
              50.9432092
            ],
            [
              4.5178513,
              50.9437057
            ],
            [
              4.5182898,
              50.9453361
            ],
            [
              4.5186251,
              50.9454584
            ],
            [
              4.518416,
              50.9456588
            ],
            [
              4.5184894,
              50.9458254
            ],
            [
              4.518674,
              50.9458721
            ],
            [
              4.5185462,
              50.9460214
            ],
            [
              4.518707,
              50.9461304
            ],
            [
              4.5185732,
              50.9462455
            ],
            [
              4.5186086,
              50.9465772
            ],
            [
              4.5187377,
              50.9466833
            ],
            [
              4.5186154,
              50.9468042
            ],
            [
              4.518794,
              50.9468463
            ],
            [
              4.5188602,
              50.9470025
            ],
            [
              4.5185427,
              50.9472248
            ],
            [
              4.5182042,
              50.9476137
            ],
            [
              4.5175202,
              50.9478478
            ],
            [
              4.5173535,
              50.948258
            ],
            [
              4.5175587,
              50.9484993
            ],
            [
              4.5174991,
              50.9485982
            ],
            [
              4.5172713,
              50.948661
            ],
            [
              4.517197,
              50.9488607
            ],
            [
              4.5169558,
              50.9490591
            ],
            [
              4.516778,
              50.9498568
            ],
            [
              4.516598,
              50.9497978
            ],
            [
              4.5163979,
              50.9498726
            ],
            [
              4.5164522,
              50.9502577
            ],
            [
              4.5166573,
              50.950228
            ],
            [
              4.5170753,
              50.9504722
            ],
            [
              4.5168829,
              50.9506902
            ],
            [
              4.5169503,
              50.9510858
            ],
            [
              4.5167823,
              50.9512497
            ],
            [
              4.516774,
              50.9514215
            ],
            [
              4.5168821,
              50.9514466
            ],
            [
              4.5169728,
              50.9517827
            ],
            [
              4.5165739,
              50.9520699
            ],
            [
              4.516795,
              50.9524995
            ],
            [
              4.5165736,
              50.9531976
            ],
            [
              4.5168509,
              50.9538541
            ],
            [
              4.5166849,
              50.9539831
            ],
            [
              4.5169011,
              50.9539813
            ],
            [
              4.5170007,
              50.9542585
            ],
            [
              4.5170958,
              50.9542534
            ],
            [
              4.5173351,
              50.9544821
            ],
            [
              4.5172228,
              50.9548716
            ],
            [
              4.517416,
              50.9549331
            ],
            [
              4.5172622,
              50.9551106
            ],
            [
              4.5174145,
              50.9553655
            ],
            [
              4.5174301,
              50.955677
            ],
            [
              4.515587,
              50.9560595
            ],
            [
              4.5149702,
              50.9562933
            ],
            [
              4.512659,
              50.9576133
            ],
            [
              4.5110541,
              50.9588571
            ],
            [
              4.5107877,
              50.9588974
            ],
            [
              4.5092174,
              50.9582865
            ],
            [
              4.508481,
              50.9586095
            ],
            [
              4.5081225,
              50.9585438
            ],
            [
              4.5072964,
              50.9586605
            ],
            [
              4.5072182,
              50.958776
            ],
            [
              4.5066443,
              50.9590573
            ],
            [
              4.5055493,
              50.9594038
            ],
            [
              4.505221,
              50.9594142
            ],
            [
              4.5047,
              50.9592451
            ],
            [
              4.5046984,
              50.9590398
            ],
            [
              4.5045007,
              50.9588032
            ],
            [
              4.5035332,
              50.9585285
            ],
            [
              4.5035731,
              50.958324
            ],
            [
              4.5032493,
              50.9581819
            ],
            [
              4.5035087,
              50.9580908
            ],
            [
              4.503519,
              50.957987
            ],
            [
              4.5033438,
              50.9578518
            ],
            [
              4.5031334,
              50.9578575
            ],
            [
              4.5028982,
              50.9576327
            ],
            [
              4.5026499,
              50.9576133
            ],
            [
              4.5026793,
              50.9574855
            ],
            [
              4.5025473,
              50.9573866
            ],
            [
              4.502421,
              50.9574033
            ],
            [
              4.5022807,
              50.9575882
            ],
            [
              4.5018531,
              50.9575585
            ],
            [
              4.5016032,
              50.9574313
            ],
            [
              4.501089,
              50.9576696
            ],
            [
              4.50105,
              50.9578186
            ],
            [
              4.5008628,
              50.9579182
            ],
            [
              4.5008648,
              50.9580542
            ],
            [
              4.5005738,
              50.9580429
            ],
            [
              4.5001551,
              50.9581694
            ],
            [
              4.4999438,
              50.9578737
            ],
            [
              4.4994541,
              50.9580108
            ],
            [
              4.4990691,
              50.9579264
            ],
            [
              4.4988577,
              50.9580796
            ],
            [
              4.4989498,
              50.9581821
            ],
            [
              4.4988468,
              50.9582207
            ],
            [
              4.4983921,
              50.9581911
            ],
            [
              4.4983276,
              50.9580804
            ],
            [
              4.4978462,
              50.9579693
            ],
            [
              4.496437,
              50.958065
            ],
            [
              4.495664,
              50.9578869
            ],
            [
              4.4956185,
              50.9576912
            ],
            [
              4.4954735,
              50.9576054
            ],
            [
              4.4952834,
              50.9576394
            ],
            [
              4.4946065,
              50.9574165
            ],
            [
              4.4947956,
              50.9572309
            ],
            [
              4.4945194,
              50.9570844
            ],
            [
              4.4945428,
              50.956946
            ],
            [
              4.4938283,
              50.9560231
            ],
            [
              4.493651,
              50.9559021
            ],
            [
              4.4935034,
              50.9558491
            ],
            [
              4.4930999,
              50.9559231
            ],
            [
              4.4920063,
              50.9556596
            ],
            [
              4.4918559,
              50.9555844
            ],
            [
              4.4918828,
              50.955458
            ],
            [
              4.4917994,
              50.9553742
            ],
            [
              4.4907925,
              50.9556246
            ],
            [
              4.4905562,
              50.9555473
            ],
            [
              4.4901166,
              50.9556175
            ],
            [
              4.4896496,
              50.955511
            ],
            [
              4.4894981,
              50.9557005
            ],
            [
              4.489069,
              50.9558246
            ],
            [
              4.4887864,
              50.9559995
            ],
            [
              4.4881451,
              50.9561465
            ],
            [
              4.4874538,
              50.9561943
            ],
            [
              4.4867851,
              50.9560598
            ],
            [
              4.4864939,
              50.9560822
            ],
            [
              4.4863493,
              50.9560321
            ],
            [
              4.4862618,
              50.9558984
            ],
            [
              4.4860092,
              50.9559135
            ],
            [
              4.4855276,
              50.9556901
            ],
            [
              4.4851499,
              50.955639
            ],
            [
              4.4848809,
              50.9554387
            ],
            [
              4.4841444,
              50.955426
            ],
            [
              4.4841312,
              50.9550459
            ],
            [
              4.483987,
              50.9546987
            ],
            [
              4.4840535,
              50.9544343
            ],
            [
              4.4838622,
              50.9542434
            ],
            [
              4.4840794,
              50.9536981
            ],
            [
              4.4846475,
              50.9530858
            ],
            [
              4.4847321,
              50.9526859
            ],
            [
              4.484649,
              50.9524264
            ],
            [
              4.4841364,
              50.9520708
            ],
            [
              4.4840334,
              50.9518977
            ],
            [
              4.4844453,
              50.9516923
            ],
            [
              4.4846513,
              50.9514111
            ],
            [
              4.4861101,
              50.9505549
            ],
            [
              4.4860261,
              50.9498444
            ],
            [
              4.4858197,
              50.9494806
            ],
            [
              4.4858551,
              50.9491623
            ],
            [
              4.4865609,
              50.9486025
            ],
            [
              4.4865919,
              50.9483818
            ],
            [
              4.4864532,
              50.9480405
            ],
            [
              4.4864536,
              50.9474156
            ],
            [
              4.4870828,
              50.9465523
            ],
            [
              4.4869514,
              50.9459218
            ],
            [
              4.486989,
              50.9456617
            ],
            [
              4.4865442,
              50.9452561
            ],
            [
              4.4863772,
              50.944976
            ],
            [
              4.4852973,
              50.9440198
            ],
            [
              4.4850611,
              50.9436303
            ],
            [
              4.4852147,
              50.943563
            ],
            [
              4.4849261,
              50.9430346
            ],
            [
              4.4842076,
              50.9421694
            ],
            [
              4.4838958,
              50.9419208
            ],
            [
              4.4839055,
              50.9416059
            ],
            [
              4.4840688,
              50.9412608
            ],
            [
              4.4839852,
              50.9409959
            ],
            [
              4.4834595,
              50.94088
            ],
            [
              4.482531,
              50.94006
            ],
            [
              4.4821725,
              50.9400853
            ],
            [
              4.4814017,
              50.9391336
            ],
            [
              4.4801979,
              50.9383586
            ],
            [
              4.4805085,
              50.9381086
            ],
            [
              4.4797182,
              50.9373282
            ],
            [
              4.4786763,
              50.9365032
            ],
            [
              4.4773916,
              50.9351802
            ],
            [
              4.4774382,
              50.935132
            ],
            [
              4.4766893,
              50.9344985
            ],
            [
              4.4765961,
              50.9342572
            ],
            [
              4.4761195,
              50.9339403
            ],
            [
              4.4758151,
              50.9341233
            ],
            [
              4.4751568,
              50.933993
            ],
            [
              4.4753197,
              50.9333883
            ],
            [
              4.4749943,
              50.9333365
            ],
            [
              4.4751108,
              50.9327839
            ],
            [
              4.4755423,
              50.9328703
            ],
            [
              4.4759213,
              50.9321192
            ],
            [
              4.4753617,
              50.9319859
            ],
            [
              4.4754512,
              50.9314784
            ],
            [
              4.4758302,
              50.9315392
            ],
            [
              4.4760117,
              50.931087
            ],
            [
              4.4757908,
              50.9310475
            ],
            [
              4.47592,
              50.9306918
            ],
            [
              4.4761069,
              50.9307003
            ],
            [
              4.4762609,
              50.9305553
            ],
            [
              4.4775555,
              50.9306273
            ],
            [
              4.4779938,
              50.9302131
            ],
            [
              4.4783204,
              50.9291509
            ],
            [
              4.4782009,
              50.9283327
            ],
            [
              4.4784066,
              50.9277386
            ],
            [
              4.4786571,
              50.9272611
            ],
            [
              4.4788698,
              50.9270261
            ],
            [
              4.4799979,
              50.9260378
            ],
            [
              4.4791712,
              50.925659
            ],
            [
              4.479511,
              50.9252416
            ],
            [
              4.4798159,
              50.9250617
            ],
            [
              4.4743221,
              50.9237808
            ],
            [
              4.4739495,
              50.9246445
            ],
            [
              4.4715979,
              50.9238015
            ],
            [
              4.4718883,
              50.9233503
            ],
            [
              4.469631,
              50.9225604
            ],
            [
              4.468601,
              50.921673
            ],
            [
              4.468601,
              50.9213051
            ],
            [
              4.4680431,
              50.9211699
            ],
            [
              4.467202,
              50.9224143
            ],
            [
              4.465896,
              50.9214824
            ],
            [
              4.4653712,
              50.921429
            ],
            [
              4.4637388,
              50.9208886
            ],
            [
              4.4633249,
              50.9174937
            ],
            [
              4.4631431,
              50.9170328
            ],
            [
              4.4624393,
              50.9157232
            ],
            [
              4.4614436,
              50.9161129
            ],
            [
              4.4603618,
              50.9140942
            ],
            [
              4.4609879,
              50.913954
            ],
            [
              4.4602293,
              50.913178
            ],
            [
              4.4600623,
              50.9128214
            ],
            [
              4.4600109,
              50.9124399
            ],
            [
              4.4601854,
              50.9122153
            ],
            [
              4.4600532,
              50.91194
            ],
            [
              4.4602084,
              50.9115885
            ],
            [
              4.4590548,
              50.9100939
            ]
          ]
        ]
      },
      "properties": {
        "type": "boundary",
        "gemeente": "Steenokkerzeel"
      }
    }
  ]
}