{
  "type": "FeatureCollection",
  "metadata": {
    "gemeente": "Stoumont",
    "slug": "stoumont",
    "generated_at": "2026-09-25T22:11:44.586237Z",
    "total_points": 4,
    "providers": [
      "bpost",
      "DHL",
      "DPD",
      "Amazon"
    ],
    "bounds": [
      5.72278,
      50.36789,
      5.80783,
      50.4086
    ]
  },
  "features": [
    {
      "type": "Feature",
      "geometry": {
        "type": "Point",
        "coordinates": [
          5.80783,
          50.4086
        ]
      },
      "properties": {
        "type": "pakketpunt",
        "locatieNaam": "Stoumont",
        "straatNaam": "Route De L'Ambleve",
        "straatNr": "50",
        "vervoerder": "bpost",
        "puntType": "postkantoor",
        "bezettingsgraad": 50,
        "latitude": 50.4086,
        "longitude": 5.80783,
        "canPickup": true,
        "canDropoff": true,
        "openingstijden": null
      }
    },
    {
      "type": "Feature",
      "geometry": {
        "type": "Point",
        "coordinates": [
          5.807828,
          50.408599
        ]
      },
      "properties": {
        "type": "pakketpunt",
        "locatieNaam": "STOUMONT",
        "straatNaam": "ROUTE DE L'AMBLEVE",
        "straatNr": "50",
        "vervoerder": "DHL",
        "puntType": "postOffice",
        "bezettingsgraad": 50,
        "latitude": 50.408599,
        "longitude": 5.807828,
        "canPickup": true,
        "canDropoff": true,
        "openingstijden": {
          "ma": "14:30 - 17:00",
          "di": "15:30 - 18:00",
          "wo": "14:30 - 17:00",
          "do": "15:30 - 18:00",
          "vr": "14:30 - 17:00",
          "za": "gesloten",
          "zo": "gesloten"
        }
      }
    },
    {
      "type": "Feature",
      "geometry": {
        "type": "Point",
        "coordinates": [
          5.72278,
          50.36789
        ]
      },
      "properties": {
        "type": "pakketpunt",
        "locatieNaam": "Station Total/ garage André",
        "straatNaam": "NEUFMOULIN",
        "straatNr": "52",
        "vervoerder": "DPD",
        "puntType": "pickup_point",
        "bezettingsgraad": 50,
        "latitude": 50.36789,
        "longitude": 5.72278,
        "canPickup": true,
        "canDropoff": true,
        "openingstijden": {
          "ma": "07:30 - 18:00",
          "di": "07:30 - 18:00",
          "wo": "07:30 - 18:00",
          "do": "07:30 - 18:00",
          "vr": "07:30 - 18:00",
          "za": "gesloten",
          "zo": "gesloten"
        }
      }
    },
    {
      "type": "Feature",
      "geometry": {
        "type": "Point",
        "coordinates": [
          5.807828,
          50.408599
        ]
      },
      "properties": {
        "type": "pakketpunt",
        "locatieNaam": "bpost - STOUMONT",
        "straatNaam": "ROUTE DE L'AMBLEVE,50",
        "straatNr": "",
        "vervoerder": "Amazon",
        "puntType": "3p",
        "bezettingsgraad": 50,
        "latitude": 50.408599,
        "longitude": 5.807828,
        "canPickup": true,
        "canDropoff": false,
        "openingstijden": null
      }
    },
    {
      "type": "Feature",
      "geometry": {
        "type": "MultiPolygon",
        "coordinates": [
          [
            [
              [
                5.7269000051099574,
                50.36731525369847
              ],
              [
                5.726792079027177,
                50.36705972924544
              ],
              [
                5.726645516450189,
                50.3668122012707
              ],
              [
                5.726461729363102,
                50.36657505346167
              ],
              [
                5.726242488145316,
                50.36635056951045
              ],
              [
                5.7259899045060685,
                50.36614091112712
              ],
              [
                5.725706411136138,
                50.365948097228795
              ],
              [
                5.725394738273082,
                50.365773984504344
              ],
              [
                5.725057887405976,
                50.36562024954157
              ],
              [
                5.724699102372925,
                50.36548837268911
              ],
              [
                5.7243218381295815,
                50.3653796238075
              ],
              [
                5.723929727489117,
                50.36529505004704
              ],
              [
                5.723526546153443,
                50.36523546576915
              ],
              [
                5.723116176371816,
                50.36520144470878
              ],
              [
                5.722702569575984,
                50.36519331445259
              ],
              [
                5.7222897083508535,
                50.36521115328617
              ],
              [
                5.72188156810595,
                50.36525478944071
              ],
              [
                5.721482078815765,
                50.36532380274605
              ],
              [
                5.72109508719654,
                50.36541752867447
              ],
              [
                5.720724319682694,
                50.36553506473633
              ],
              [
                5.72037334655871,
                50.365675279166034
              ],
              [
                5.72004554759106,
                50.365836821815016
              ],
              [
                5.719744079490605,
                50.36601813714697
              ],
              [
                5.719471845518377,
                50.36621747921056
              ],
              [
                5.7192314675271785,
                50.3664329284456
              ],
              [
                5.7190252607082295,
                50.36666241016132
              ],
              [
                5.718855211286168,
                50.36690371450897
              ],
              [
                5.718722957377545,
                50.367154517756745
              ],
              [
                5.718629773197674,
                50.36741240466237
              ],
              [
                5.718576556768574,
                50.367674891728214
              ],
              [
                5.718563821247178,
                50.36793945111514
              ],
              [
                5.718591689958251,
                50.36820353498484
              ],
              [
                5.718659895180761,
                50.36846460003642
              ],
              [
                5.718767780700439,
                50.368720132000846
              ],
              [
                5.718914308104914,
                50.36896766985748
              ],
              [
                5.7190980667617355,
                50.36920482953915
              ],
              [
                5.719317287384066,
                50.36942932689756
              ],
              [
                5.719569859054137,
                50.36963899970731
              ],
              [
                5.71985334954114,
                50.36983182849691
              ],
              [
                5.720165028718306,
                50.37000595600528
              ],
              [
                5.720501894853912,
                50.37015970507641
              ],
              [
                5.720860703523095,
                50.37029159481955
              ],
              [
                5.721237998861877,
                50.3704003548787
              ],
              [
                5.721630146862107,
                50.37048493767411
              ],
              [
                5.722033370386159,
                50.37054452849707
              ],
              [
                5.7224437855635,
                50.37057855336116
              ],
              [
                5.722857439217851,
                50.37058668453354
              ],
              [
                5.723270346963556,
                50.37056884369337
              ],
              [
                5.723678531603336,
                50.37052520268661
              ],
              [
                5.724078061456622,
                50.370456181869876
              ],
              [
                5.724465088248362,
                50.37036244605956
              ],
              [
                5.724835884192472,
                50.37024489812505
              ],
              [
                5.725186877911912,
                50.37010467028819
              ],
              [
                5.7255146888487385,
                50.36994311321278
              ],
              [
                5.72581615983212,
                50.369761782989514
              ],
              [
                5.726088387490237,
                50.369562426142025
              ],
              [
                5.726328750212936,
                50.36934696279864
              ],
              [
                5.726534933395753,
                50.36911746819225
              ],
              [
                5.726704951722375,
                50.36887615266702
              ],
              [
                5.726837168271234,
                50.36862534038432
              ],
              [
                5.726930310262727,
                50.36836744693362
              ],
              [
                5.726983481296113,
                50.368104956064066
              ],
              [
                5.726996169958991,
                50.36784039576095
              ],
              [
                5.726968254727341,
                50.36757631389783
              ],
              [
                5.7269000051099574,
                50.36731525369847
              ]
            ]
          ],
          [
            [
              [
                5.810441187204996,
                50.40648108221079
              ],
              [
                5.810103772069612,
                50.406327594994146
              ],
              [
                5.809744443142204,
                50.406195981819046
              ],
              [
                5.809366660614507,
                50.40608751000694
              ],
              [
                5.808974062289121,
                50.40600322404
              ],
              [
                5.808570428562768,
                50.40594393550847
              ],
              [
                5.808159646039756,
                50.40591021529946
              ],
              [
                5.8077456701252395,
                50.40590238810272
              ],
              [
                5.807332486957692,
                50.40592052928578
              ],
              [
                5.806924075046177,
                50.40596446416846
              ],
              [
                5.806524366980896,
                50.40603376970417
              ],
              [
                5.806137211584791,
                50.406127778551365
              ],
              [
                5.805766336869706,
                50.40624558549608
              ],
              [
                5.805415314153059,
                50.40638605616438
              ],
              [
                5.805087523679812,
                50.40654783794018
              ],
              [
                5.804786122080226,
                50.40672937298449
              ],
              [
                5.80451401197637,
                50.40692891323009
              ],
              [
                5.804273814029817,
                50.40714453720817
              ],
              [
                5.804067841699705,
                50.407374168545005
              ],
              [
                5.8038980789543375,
                50.40761559595071
              ],
              [
                5.803766161151342,
                50.40786649450806
              ],
              [
                5.803673359271014,
                50.40812444805656
              ],
              [
                5.803620567655337,
                50.40838697245635
              ],
              [
                5.80360829537158,
                50.408651539508284
              ],
              [
                5.803636661284526,
                50.40891560129975
              ],
              [
                5.803705392885754,
                50.40917661474199
              ],
              [
                5.803813828892275,
                50.40943206606251
              ],
              [
                5.80396092559045,
                50.40967949501684
              ],
              [
                5.804145266865057,
                50.40991651858623
              ],
              [
                5.804365077817801,
                50.41014085393283
              ],
              [
                5.804618241844822,
                50.41035034039128
              ],
              [
                5.804902321009385,
                50.41054296028453
              ],
              [
                5.80521457951396,
                50.41071685836323
              ],
              [
                5.805215695122825,
                50.41071736587075
              ],
              [
                5.805216579548148,
                50.41071785840791
              ],
              [
                5.805554010093658,
                50.410871359719756
              ],
              [
                5.805913362803911,
                50.411002985765535
              ],
              [
                5.806291176573591,
                50.411111468729054
              ],
              [
                5.806683812399844,
                50.41119576369935
              ],
              [
                5.80708748844515,
                50.411255058740046
              ],
              [
                5.8074983164792275,
                50.41128878271366
              ],
              [
                5.807912339348247,
                50.41129661078555
              ],
              [
                5.80832556910956,
                50.41127846755442
              ],
              [
                5.808734025463759,
                50.41123452777885
              ],
              [
                5.8091337741129285,
                50.41116521469332
              ],
              [
                5.809520964674672,
                50.411071195929324
              ],
              [
                5.80989186778587,
                50.41095337708168
              ],
              [
                5.810242911037938,
                50.410812892981646
              ],
              [
                5.8105707133967925,
                50.41065109676119
              ],
              [
                5.810872117775418,
                50.410469546814355
              ],
              [
                5.811144221444911,
                50.41026999178086
              ],
              [
                5.811384403990891,
                50.41005435369764
              ],
              [
                5.811590352545939,
                50.4098247094804
              ],
              [
                5.811760084055261,
                50.4095832709139
              ],
              [
                5.811891964361421,
                50.409332363344156
              ],
              [
                5.811984723924884,
                50.40907440327799
              ],
              [
                5.81203747002962,
                50.40881187510565
              ],
              [
                5.812049695357037,
                50.40854730717124
              ],
              [
                5.812021282846542,
                50.40828324742128
              ],
              [
                5.811952506796935,
                50.40802223886613
              ],
              [
                5.811844030198974,
                50.40776679509045
              ],
              [
                5.81169689832583,
                50.40751937604884
              ],
              [
                5.811512528644085,
                50.4072823643792
              ],
              [
                5.811292697143309,
                50.407058042462175
              ],
              [
                5.811039521216604,
                50.40684857044712
              ],
              [
                5.810755439257596,
                50.406655965456146
              ],
              [
                5.810443187170798,
                50.40648208216612
              ],
              [
                5.810442071605614,
                50.40648157470849
              ],
              [
                5.810441187204996,
                50.40648108221079
              ]
            ]
          ]
        ]
      },
      "properties": {
        "type": "buffer_union_300m",
        "buffer_m": 300
      }
    },
    {
      "type": "Feature",
      "geometry": {
        "type": "MultiPolygon",
        "coordinates": [
          [
            [
              [
                5.728273317985232,
                50.367123639095524
              ],
              [
                5.728129407528483,
                50.36678294149437
              ],
              [
                5.727933982944273,
                50.36645290639098
              ],
              [
                5.727688927178343,
                50.366136711950865
              ],
              [
                5.727396600979232,
                50.36583740299539
              ],
              [
                5.727059820135022,
                50.365557861690206
              ],
              [
                5.726681828335525,
                50.36530077980161
              ],
              [
                5.726266265922013,
                50.36506863278753
              ],
              [
                5.725817134825931,
                50.36486365597225
              ],
              [
                5.725338760034329,
                50.36468782303338
              ],
              [
                5.724835747952893,
                50.36454282700833
              ],
              [
                5.724312942067002,
                50.36443006400197
              ],
              [
                5.723775376326894,
                50.36435061975248
              ],
              [
                5.723228226704715,
                50.36430525918386
              ],
              [
                5.72267676138857,
                50.36429441904584
              ],
              [
                5.72212629009162,
                50.364318203711406
              ],
              [
                5.721582112962728,
                50.364376384172616
              ],
              [
                5.721049469588872,
                50.364468400244
              ],
              [
                5.720533488578705,
                50.36459336595274
              ],
              [
                5.720039138211153,
                50.36475007806367
              ],
              [
                5.719571178622753,
                50.3649370276574
              ],
              [
                5.719134115992905,
                50.365152414650304
              ],
              [
                5.718732159167165,
                50.36539416511713
              ],
              [
                5.718369179135543,
                50.365659951249924
              ],
              [
                5.718048671755599,
                50.36594721376138
              ],
              [
                5.717773724079241,
                50.36625318651758
              ],
              [
                5.717546984607712,
                50.366574923163654
              ],
              [
                5.717370637761856,
                50.366909325485935
              ],
              [
                5.717246382814368,
                50.36725317323859
              ],
              [
                5.717175417488149,
                50.36760315514736
              ],
              [
                5.71715842638008,
                50.367955900792566
              ],
              [
                5.717195574323328,
                50.36830801306431
              ],
              [
                5.717286504753822,
                50.368656100877594
              ],
              [
                5.71743034309839,
                50.36899681183234
              ],
              [
                5.7176257051536865,
                50.36932686450355
              ],
              [
                5.717870710376924,
                50.36964308005062
              ],
              [
                5.718162999961891,
                50.36994241284104
              ],
              [
                5.718499759527564,
                50.37022197979322
              ],
              [
                5.718877746201856,
                50.37047908815523
              ],
              [
                5.719293319840453,
                50.370711261451774
              ],
              [
                5.719742478080536,
                50.370916263348626
              ],
              [
                5.720220894891928,
                50.37109211920421
              ],
              [
                5.720723962254143,
                50.3712371351005
              ],
              [
                5.7212468345573955,
                50.37134991416893
              ],
              [
                5.721784475299063,
                50.37142937005415
              ],
              [
                5.7223317056247325,
                50.37147473738493
              ],
              [
                5.722883254244912,
                50.37148557915172
              ],
              [
                5.72343380824511,
                50.37146179091887
              ],
              [
                5.7239780642982225,
                50.3714036018315
              ],
              [
                5.7245107797842625,
                50.37131157240655
              ],
              [
                5.725026823323342,
                50.37118658912997
              ],
              [
                5.725521224233586,
                50.371029855912084
              ],
              [
                5.72598922043613,
                50.3708428824834
              ],
              [
                5.726426304344513,
                50.37062746984353
              ],
              [
                5.726828266295457,
                50.37038569290328
              ],
              [
                5.727191235101993,
                50.370119880488
              ],
              [
                5.727511715337934,
                50.36983259289501
              ],
              [
                5.727786620994504,
                50.369526597222084
              ],
              [
                5.728013305185253,
                50.36920484070477
              ],
              [
                5.728189585613748,
                50.368870422320384
              ],
              [
                5.728313765559676,
                50.36852656293203
              ],
              [
                5.728384650182405,
                50.368176574261106
              ],
              [
                5.728401557986442,
                50.36782382698714
              ],
              [
                5.728364327339948,
                50.36747171828266
              ],
              [
                5.728273317985232,
                50.367123639095524
              ]
            ]
          ],
          [
            [
              [
                5.811312197770708,
                50.405775096410466
              ],
              [
                5.810862314345372,
                50.40557044992168
              ],
              [
                5.810383214390979,
                50.4053949685496
              ],
              [
                5.80987951129351,
                50.40525034194615
              ],
              [
                5.809356055189778,
                50.40513796265901
              ],
              [
                5.808817886288666,
                50.405058912731526
              ],
              [
                5.808270186368029,
                50.40501395329093
              ],
              [
                5.807718228912952,
                50.40500351722468
              ],
              [
                5.807167328373939,
                50.405027705015215
              ],
              [
                5.806622789032023,
                50.405086283773144
              ],
              [
                5.806089853961433,
                50.40517868947804
              ],
              [
                5.805573654579639,
                50.40530403240551
              ],
              [
                5.805079161268881,
                50.40546110568831
              ],
              [
                5.804611135543265,
                50.40564839692934
              ],
              [
                5.804174084220704,
                50.405864102755224
              ],
              [
                5.803772216039999,
                50.40610614617051
              ],
              [
                5.803409401140083,
                50.406372196546116
              ],
              [
                5.803089133791219,
                50.406659692049914
              ],
              [
                5.802814498736958,
                50.406965864304006
              ],
              [
                5.802588141471244,
                50.40728776503181
              ],
              [
                5.802412242737497,
                50.40762229443905
              ],
              [
                5.802288497496161,
                50.40796623105532
              ],
              [
                5.8022180985644445,
                50.40831626274981
              ],
              [
                5.802201725087238,
                50.40866901862255
              ],
              [
                5.80223953595181,
                50.40902110146429
              ],
              [
                5.8023311682114675,
                50.40936912047261
              ],
              [
                5.802475740535091,
                50.409709723909145
              ],
              [
                5.802671861651109,
                50.41003963138357
              ],
              [
                5.802917643706279,
                50.41035566545287
              ],
              [
                5.803210720412129,
                50.4106547822317
              ],
              [
                5.803548269805659,
                50.41093410071825
              ],
              [
                5.803927041406163,
                50.41119093055316
              ],
              [
                5.8043433875074335,
                50.411422797943345
              ],
              [
                5.804344503123579,
                50.411423305459174
              ],
              [
                5.804345387553017,
                50.411423798002915
              ],
              [
                5.804795298368098,
                50.411628469552404
              ],
              [
                5.805274440597274,
                50.411803973808475
              ],
              [
                5.805778199230472,
                50.41194862023952
              ],
              [
                5.806301721997155,
                50.41206101553568
              ],
              [
                5.8068399661270735,
                50.4121400770381
              ],
              [
                5.807387746951791,
                50.41218504317447
              ],
              [
                5.807939787877517,
                50.412195480799745
              ],
              [
                5.808490771246358,
                50.41217128937128
              ],
              [
                5.80903538959449,
                50.41211270191804
              ],
              [
                5.809568396811771,
                50.41202028279432
              ],
              [
                5.81008465870839,
                50.41189492223992
              ],
              [
                5.810579202499858,
                50.41173782779922
              ],
              [
                5.811047264732232,
                50.41155051268216
              ],
              [
                5.811484337184722,
                50.411334781179455
              ],
              [
                5.81188621030652,
                50.41109271127306
              ],
              [
                5.812249013768758,
                50.4108266346099
              ],
              [
                5.812569253740615,
                50.41053911403213
              ],
              [
                5.812843846530468,
                50.41023291888111
              ],
              [
                5.813070148268366,
                50.40991099831314
              ],
              [
                5.813245980344537,
                50.409576452884885
              ],
              [
                5.8133696503598555,
                50.40923250468235
              ],
              [
                5.813439968387657,
                50.4088824662815
              ],
              [
                5.813456258391766,
                50.40852970884
              ],
              [
                5.813418364692319,
                50.408177629627374
              ],
              [
                5.813326653418856,
                50.40782961930665
              ],
              [
                5.813182008938474,
                50.40748902928232
              ],
              [
                5.812985825295188,
                50.40715913942939
              ],
              [
                5.812739992744608,
                50.406843126513756
              ],
              [
                5.812446879515185,
                50.40654403360801
              ],
              [
                5.812109308972957,
                50.40626474079665
              ],
              [
                5.81173053241082,
                50.406007937452536
              ],
              [
                5.811314197725111,
                50.40577609635089
              ],
              [
                5.811313082167208,
                50.40577558890157
              ],
              [
                5.811312197770708,
                50.405775096410466
              ]
            ]
          ]
        ]
      },
      "properties": {
        "type": "buffer_union_400m",
        "buffer_m": 400
      }
    },
    {
      "type": "Feature",
      "geometry": {
        "type": "Polygon",
        "coordinates": [
          [
            [
              5.6756958,
              50.368526
            ],
            [
              5.6730969,
              50.3661781
            ],
            [
              5.6714493,
              50.3643105
            ],
            [
              5.6711543,
              50.3638132
            ],
            [
              5.6711761,
              50.3621199
            ],
            [
              5.6707781,
              50.3594982
            ],
            [
              5.6701611,
              50.3572504
            ],
            [
              5.672531,
              50.3565352
            ],
            [
              5.6731145,
              50.3562464
            ],
            [
              5.6737299,
              50.3563743
            ],
            [
              5.6755814,
              50.3573793
            ],
            [
              5.6771391,
              50.3578991
            ],
            [
              5.6802312,
              50.3579479
            ],
            [
              5.6824878,
              50.3578517
            ],
            [
              5.6863853,
              50.35675
            ],
            [
              5.6897116,
              50.3566444
            ],
            [
              5.6928305,
              50.3578363
            ],
            [
              5.6943739,
              50.3577464
            ],
            [
              5.6959545,
              50.3572364
            ],
            [
              5.6997352,
              50.3582324
            ],
            [
              5.7032178,
              50.359726
            ],
            [
              5.7051144,
              50.3603204
            ],
            [
              5.7055959,
              50.3607019
            ],
            [
              5.706123,
              50.3607413
            ],
            [
              5.7065789,
              50.3609347
            ],
            [
              5.7066694,
              50.3610959
            ],
            [
              5.7076706,
              50.3606746
            ],
            [
              5.7078339,
              50.3603915
            ],
            [
              5.7080947,
              50.3603919
            ],
            [
              5.7107618,
              50.3583311
            ],
            [
              5.7105875,
              50.3582439
            ],
            [
              5.7113953,
              50.3578844
            ],
            [
              5.7137069,
              50.3580967
            ],
            [
              5.716101,
              50.3578857
            ],
            [
              5.7164562,
              50.3577442
            ],
            [
              5.7171321,
              50.3576877
            ],
            [
              5.7186659,
              50.3577416
            ],
            [
              5.7196185,
              50.3581155
            ],
            [
              5.7224929,
              50.3584605
            ],
            [
              5.7229489,
              50.3586641
            ],
            [
              5.7240987,
              50.3586745
            ],
            [
              5.7239655,
              50.3587993
            ],
            [
              5.7239561,
              50.3589234
            ],
            [
              5.7242663,
              50.3594119
            ],
            [
              5.7240089,
              50.3603283
            ],
            [
              5.7241322,
              50.3607655
            ],
            [
              5.7243029,
              50.3609271
            ],
            [
              5.7251208,
              50.3612402
            ],
            [
              5.7261252,
              50.3611856
            ],
            [
              5.7263906,
              50.3616878
            ],
            [
              5.7266347,
              50.3618349
            ],
            [
              5.7291882,
              50.3616364
            ],
            [
              5.7300036,
              50.3614311
            ],
            [
              5.730768,
              50.3611043
            ],
            [
              5.7312133,
              50.3610239
            ],
            [
              5.7325329,
              50.3609931
            ],
            [
              5.735373,
              50.3606844
            ],
            [
              5.7368032,
              50.360615
            ],
            [
              5.7380487,
              50.360673
            ],
            [
              5.7382848,
              50.3605368
            ],
            [
              5.7387684,
              50.3607278
            ],
            [
              5.7402174,
              50.3610803
            ],
            [
              5.7413734,
              50.3616518
            ],
            [
              5.7426234,
              50.3621172
            ],
            [
              5.7455161,
              50.3634186
            ],
            [
              5.7468278,
              50.363703
            ],
            [
              5.7478827,
              50.3636913
            ],
            [
              5.7511593,
              50.3633329
            ],
            [
              5.7511963,
              50.3638399
            ],
            [
              5.7549718,
              50.3639788
            ],
            [
              5.755358,
              50.3640455
            ],
            [
              5.7562512,
              50.3644326
            ],
            [
              5.7602933,
              50.3647026
            ],
            [
              5.760231,
              50.3657471
            ],
            [
              5.7689474,
              50.3674383
            ],
            [
              5.7706185,
              50.3678224
            ],
            [
              5.7729118,
              50.3685137
            ],
            [
              5.7772631,
              50.3695064
            ],
            [
              5.7798595,
              50.3701976
            ],
            [
              5.784194,
              50.3715593
            ],
            [
              5.7860179,
              50.3720109
            ],
            [
              5.7881207,
              50.3723805
            ],
            [
              5.7893975,
              50.3726884
            ],
            [
              5.7909317,
              50.3733179
            ],
            [
              5.7945151,
              50.3745222
            ],
            [
              5.7954056,
              50.3745838
            ],
            [
              5.7997722,
              50.3745017
            ],
            [
              5.8061774,
              50.3746933
            ],
            [
              5.8083446,
              50.3749328
            ],
            [
              5.8125288,
              50.3757128
            ],
            [
              5.8148663,
              50.3760436
            ],
            [
              5.815188,
              50.3773435
            ],
            [
              5.8160801,
              50.3777928
            ],
            [
              5.8190841,
              50.3782444
            ],
            [
              5.8225281,
              50.3789628
            ],
            [
              5.8245344,
              50.3799822
            ],
            [
              5.8256753,
              50.3806894
            ],
            [
              5.8257333,
              50.3809175
            ],
            [
              5.826251,
              50.3810632
            ],
            [
              5.8268089,
              50.3813574
            ],
            [
              5.8287937,
              50.3820005
            ],
            [
              5.8324308,
              50.3843675
            ],
            [
              5.833611,
              50.3848669
            ],
            [
              5.8345229,
              50.3850243
            ],
            [
              5.8358211,
              50.3846275
            ],
            [
              5.8374948,
              50.3842923
            ],
            [
              5.8388252,
              50.383875
            ],
            [
              5.8428952,
              50.3881088
            ],
            [
              5.8433843,
              50.388493
            ],
            [
              5.8441689,
              50.388684
            ],
            [
              5.8454974,
              50.3887504
            ],
            [
              5.8462911,
              50.3890564
            ],
            [
              5.8469094,
              50.3897785
            ],
            [
              5.8474566,
              50.3902608
            ],
            [
              5.848111,
              50.390466
            ],
            [
              5.8494789,
              50.3907156
            ],
            [
              5.8506345,
              50.3910713
            ],
            [
              5.8510402,
              50.3910477
            ],
            [
              5.8517323,
              50.3917618
            ],
            [
              5.8517781,
              50.3931818
            ],
            [
              5.85199,
              50.3934913
            ],
            [
              5.8536047,
              50.3943206
            ],
            [
              5.8546985,
              50.394758
            ],
            [
              5.8549163,
              50.3955192
            ],
            [
              5.855222,
              50.3957107
            ],
            [
              5.8556043,
              50.3958295
            ],
            [
              5.8566034,
              50.3964049
            ],
            [
              5.857882,
              50.3968999
            ],
            [
              5.8589476,
              50.3975676
            ],
            [
              5.8620746,
              50.3988633
            ],
            [
              5.8643839,
              50.3980494
            ],
            [
              5.8651811,
              50.3979472
            ],
            [
              5.8698964,
              50.3968383
            ],
            [
              5.8737369,
              50.3962473
            ],
            [
              5.8746359,
              50.3963502
            ],
            [
              5.8772269,
              50.3969264
            ],
            [
              5.8771122,
              50.397562
            ],
            [
              5.8772685,
              50.3978967
            ],
            [
              5.877298,
              50.3983301
            ],
            [
              5.8793606,
              50.3982489
            ],
            [
              5.8801204,
              50.3982974
            ],
            [
              5.8806547,
              50.3984208
            ],
            [
              5.8829024,
              50.3993816
            ],
            [
              5.884957,
              50.400616
            ],
            [
              5.888006,
              50.4016393
            ],
            [
              5.8883748,
              50.4018778
            ],
            [
              5.8891649,
              50.4019835
            ],
            [
              5.8888162,
              50.4002935
            ],
            [
              5.890269,
              50.4000515
            ],
            [
              5.8923505,
              50.4002792
            ],
            [
              5.894621,
              50.400204
            ],
            [
              5.8956478,
              50.4002481
            ],
            [
              5.8976568,
              50.4022672
            ],
            [
              5.8980966,
              50.402433
            ],
            [
              5.8975387,
              50.4040452
            ],
            [
              5.8975414,
              50.4046692
            ],
            [
              5.8976997,
              50.405518
            ],
            [
              5.8975844,
              50.4057081
            ],
            [
              5.8975475,
              50.4059825
            ],
            [
              5.8973712,
              50.406195
            ],
            [
              5.8991098,
              50.4068203
            ],
            [
              5.9025243,
              50.4083623
            ],
            [
              5.9038062,
              50.4100449
            ],
            [
              5.9053954,
              50.4116832
            ],
            [
              5.9069002,
              50.4135685
            ],
            [
              5.908004,
              50.4151943
            ],
            [
              5.9106165,
              50.4160522
            ],
            [
              5.9119469,
              50.4161172
            ],
            [
              5.9128104,
              50.4163203
            ],
            [
              5.9131417,
              50.4166946
            ],
            [
              5.9150487,
              50.4181576
            ],
            [
              5.9187141,
              50.4212015
            ],
            [
              5.9195349,
              50.4234676
            ],
            [
              5.9201491,
              50.4246774
            ],
            [
              5.921002,
              50.4258198
            ],
            [
              5.9226918,
              50.4265332
            ],
            [
              5.9238907,
              50.4277874
            ],
            [
              5.926581,
              50.4285494
            ],
            [
              5.9262067,
              50.4309053
            ],
            [
              5.9260418,
              50.431142
            ],
            [
              5.9261854,
              50.4314589
            ],
            [
              5.9282635,
              50.4330338
            ],
            [
              5.9281984,
              50.4333164
            ],
            [
              5.9202215,
              50.4384801
            ],
            [
              5.9198901,
              50.4383559
            ],
            [
              5.9161177,
              50.4414499
            ],
            [
              5.9163618,
              50.4418001
            ],
            [
              5.9164262,
              50.4421246
            ],
            [
              5.9168929,
              50.4426883
            ],
            [
              5.9170323,
              50.4432076
            ],
            [
              5.9186309,
              50.4439353
            ],
            [
              5.9201813,
              50.4442769
            ],
            [
              5.9208089,
              50.4446834
            ],
            [
              5.9208357,
              50.4450626
            ],
            [
              5.9206855,
              50.4457971
            ],
            [
              5.9207713,
              50.4460089
            ],
            [
              5.9210235,
              50.4461729
            ],
            [
              5.9218067,
              50.4462753
            ],
            [
              5.9222895,
              50.4462207
            ],
            [
              5.9226757,
              50.4459611
            ],
            [
              5.9228882,
              50.4459625
            ],
            [
              5.9234214,
              50.4464188
            ],
            [
              5.9241402,
              50.4464496
            ],
            [
              5.9246069,
              50.4465828
            ],
            [
              5.9249717,
              50.4467877
            ],
            [
              5.9250843,
              50.446962
            ],
            [
              5.9244728,
              50.4480001
            ],
            [
              5.9244191,
              50.44841
            ],
            [
              5.9231531,
              50.449626
            ],
            [
              5.922563,
              50.450521
            ],
            [
              5.9215652,
              50.4515389
            ],
            [
              5.9211039,
              50.452584
            ],
            [
              5.9205996,
              50.453315
            ],
            [
              5.9204602,
              50.4537317
            ],
            [
              5.9229171,
              50.4541552
            ],
            [
              5.9240543,
              50.4545514
            ],
            [
              5.9268867,
              50.4556512
            ],
            [
              5.9309101,
              50.4574613
            ],
            [
              5.927457,
              50.4615751
            ],
            [
              5.9256867,
              50.4641069
            ],
            [
              5.9242755,
              50.4637262
            ],
            [
              5.9224101,
              50.4629749
            ],
            [
              5.9217302,
              50.4630202
            ],
            [
              5.9208839,
              50.462928
            ],
            [
              5.9204225,
              50.4627453
            ],
            [
              5.9184528,
              50.4625826
            ],
            [
              5.9178075,
              50.4622663
            ],
            [
              5.9156361,
              50.4615321
            ],
            [
              5.9145364,
              50.4612658
            ],
            [
              5.9133013,
              50.461112
            ],
            [
              5.9114304,
              50.4604872
            ],
            [
              5.9094309,
              50.4594319
            ],
            [
              5.9077411,
              50.4588752
            ],
            [
              5.9066212,
              50.4580129
            ],
            [
              5.9051567,
              50.4576884
            ],
            [
              5.9042355,
              50.4572393
            ],
            [
              5.9033637,
              50.4563804
            ],
            [
              5.9023927,
              50.4559501
            ],
            [
              5.9015518,
              50.4557801
            ],
            [
              5.9007955,
              50.4553839
            ],
            [
              5.8995348,
              50.4551645
            ],
            [
              5.8964061,
              50.4550091
            ],
            [
              5.8957368,
              50.4548452
            ],
            [
              5.8942133,
              50.4541732
            ],
            [
              5.892604,
              50.4539571
            ],
            [
              5.8901498,
              50.4532681
            ],
            [
              5.8839606,
              50.4518326
            ],
            [
              5.8753454,
              50.4498583
            ],
            [
              5.8726121,
              50.449334
            ],
            [
              5.8650646,
              50.4463501
            ],
            [
              5.8597799,
              50.443785
            ],
            [
              5.8497773,
              50.4419125
            ],
            [
              5.8334654,
              50.4376418
            ],
            [
              5.8325842,
              50.4378622
            ],
            [
              5.8270737,
              50.4358736
            ],
            [
              5.8240434,
              50.4344032
            ],
            [
              5.8185328,
              50.4335649
            ],
            [
              5.8140275,
              50.4342984
            ],
            [
              5.8091822,
              50.4354267
            ],
            [
              5.8035033,
              50.4351612
            ],
            [
              5.7938648,
              50.4355262
            ],
            [
              5.79275,
              50.4351531
            ],
            [
              5.7920527,
              50.4351429
            ],
            [
              5.7914921,
              50.4352548
            ],
            [
              5.7911226,
              50.4351228
            ],
            [
              5.7896756,
              50.434975
            ],
            [
              5.7886873,
              50.4346333
            ],
            [
              5.7876512,
              50.4345949
            ],
            [
              5.7874681,
              50.4345278
            ],
            [
              5.7864502,
              50.4346504
            ],
            [
              5.7861101,
              50.4345438
            ],
            [
              5.7854585,
              50.43461
            ],
            [
              5.7851161,
              50.434808
            ],
            [
              5.7848221,
              50.4348102
            ],
            [
              5.7844768,
              50.4350511
            ],
            [
              5.7839123,
              50.4350486
            ],
            [
              5.7835551,
              50.4352183
            ],
            [
              5.7827033,
              50.4350833
            ],
            [
              5.7822834,
              50.4353077
            ],
            [
              5.7811649,
              50.4355038
            ],
            [
              5.7806228,
              50.4354248
            ],
            [
              5.7801299,
              50.4355386
            ],
            [
              5.7794812,
              50.4355559
            ],
            [
              5.7793464,
              50.4354961
            ],
            [
              5.7790207,
              50.4356496
            ],
            [
              5.7782588,
              50.4358336
            ],
            [
              5.7778785,
              50.4357673
            ],
            [
              5.7776154,
              50.4359365
            ],
            [
              5.7772282,
              50.4359247
            ],
            [
              5.7769391,
              50.4362183
            ],
            [
              5.7763128,
              50.4362786
            ],
            [
              5.7759648,
              50.4362038
            ],
            [
              5.7755392,
              50.4362858
            ],
            [
              5.7749554,
              50.4360269
            ],
            [
              5.774434,
              50.4360354
            ],
            [
              5.7743132,
              50.4358959
            ],
            [
              5.7733324,
              50.4355562
            ],
            [
              5.773298,
              50.4354747
            ],
            [
              5.773409,
              50.4352785
            ],
            [
              5.773306,
              50.4351412
            ],
            [
              5.7731386,
              50.4350845
            ],
            [
              5.7714476,
              50.4349944
            ],
            [
              5.7696757,
              50.4346854
            ],
            [
              5.7680092,
              50.4351831
            ],
            [
              5.7676333,
              50.435449
            ],
            [
              5.766577,
              50.4355422
            ],
            [
              5.7651407,
              50.4355181
            ],
            [
              5.7645979,
              50.4358064
            ],
            [
              5.7643314,
              50.4362563
            ],
            [
              5.7637198,
              50.4364977
            ],
            [
              5.7631988,
              50.436863
            ],
            [
              5.7630677,
              50.4369152
            ],
            [
              5.7625816,
              50.4368438
            ],
            [
              5.7622647,
              50.4371703
            ],
            [
              5.7617223,
              50.4372071
            ],
            [
              5.7613325,
              50.4375498
            ],
            [
              5.7608572,
              50.4377563
            ],
            [
              5.7606084,
              50.4378371
            ],
            [
              5.7593817,
              50.4378423
            ],
            [
              5.7592922,
              50.4379455
            ],
            [
              5.7586632,
              50.4381385
            ],
            [
              5.7567559,
              50.4384376
            ],
            [
              5.7562027,
              50.4386866
            ],
            [
              5.7555371,
              50.4388488
            ],
            [
              5.755129,
              50.4392547
            ],
            [
              5.7545561,
              50.4394659
            ],
            [
              5.7546752,
              50.4398033
            ],
            [
              5.7547235,
              50.4407885
            ],
            [
              5.7546674,
              50.4408667
            ],
            [
              5.7540024,
              50.4410975
            ],
            [
              5.7537344,
              50.4413832
            ],
            [
              5.7533749,
              50.4420492
            ],
            [
              5.7528866,
              50.4422879
            ],
            [
              5.7528086,
              50.4424026
            ],
            [
              5.7528146,
              50.4427387
            ],
            [
              5.7524016,
              50.4430566
            ],
            [
              5.7520571,
              50.4432113
            ],
            [
              5.7514621,
              50.4430771
            ],
            [
              5.7511094,
              50.443081
            ],
            [
              5.7498182,
              50.44354
            ],
            [
              5.7490861,
              50.4433512
            ],
            [
              5.7482389,
              50.4436802
            ],
            [
              5.7476749,
              50.4436617
            ],
            [
              5.7471572,
              50.4435442
            ],
            [
              5.7467113,
              50.4436023
            ],
            [
              5.74634,
              50.4437656
            ],
            [
              5.7460322,
              50.4440261
            ],
            [
              5.7457068,
              50.4441434
            ],
            [
              5.7453863,
              50.4444233
            ],
            [
              5.7447882,
              50.4445066
            ],
            [
              5.7442454,
              50.444897
            ],
            [
              5.7437578,
              50.4450194
            ],
            [
              5.7434651,
              50.444921
            ],
            [
              5.7434765,
              50.4447057
            ],
            [
              5.7432631,
              50.4446535
            ],
            [
              5.7424941,
              50.4449064
            ],
            [
              5.7418642,
              50.4449483
            ],
            [
              5.7411866,
              50.4443304
            ],
            [
              5.7405035,
              50.444847
            ],
            [
              5.7402894,
              50.4448522
            ],
            [
              5.7395867,
              50.4446724
            ],
            [
              5.7389992,
              50.4441698
            ],
            [
              5.7383434,
              50.4437855
            ],
            [
              5.7376032,
              50.4437496
            ],
            [
              5.7374228,
              50.4437706
            ],
            [
              5.737182,
              50.4439401
            ],
            [
              5.7369261,
              50.4439496
            ],
            [
              5.7369205,
              50.443718
            ],
            [
              5.7367811,
              50.4433956
            ],
            [
              5.7358208,
              50.4421687
            ],
            [
              5.7353144,
              50.4418161
            ],
            [
              5.7352742,
              50.4416
            ],
            [
              5.734477,
              50.4403614
            ],
            [
              5.7340741,
              50.4392156
            ],
            [
              5.73395,
              50.4385302
            ],
            [
              5.7339775,
              50.4379553
            ],
            [
              5.7340888,
              50.4375814
            ],
            [
              5.7328362,
              50.4376741
            ],
            [
              5.7324532,
              50.4378671
            ],
            [
              5.732046,
              50.4377743
            ],
            [
              5.7317573,
              50.4378781
            ],
            [
              5.7310329,
              50.4378539
            ],
            [
              5.7309097,
              50.4377349
            ],
            [
              5.7305959,
              50.4376922
            ],
            [
              5.7300822,
              50.4377862
            ],
            [
              5.7296417,
              50.4377661
            ],
            [
              5.7282087,
              50.4371678
            ],
            [
              5.7279013,
              50.4371984
            ],
            [
              5.7272563,
              50.4370452
            ],
            [
              5.7267402,
              50.436818
            ],
            [
              5.7264428,
              50.4369186
            ],
            [
              5.7261649,
              50.4369042
            ],
            [
              5.7257283,
              50.4366399
            ],
            [
              5.7254132,
              50.436554
            ],
            [
              5.725006,
              50.4361591
            ],
            [
              5.7242101,
              50.4360797
            ],
            [
              5.7236701,
              50.4363375
            ],
            [
              5.7220872,
              50.4365916
            ],
            [
              5.7211213,
              50.436532
            ],
            [
              5.7208278,
              50.4367212
            ],
            [
              5.7202536,
              50.4367955
            ],
            [
              5.7198666,
              50.4366622
            ],
            [
              5.7195985,
              50.4362794
            ],
            [
              5.7195733,
              50.4360983
            ],
            [
              5.7193121,
              50.4358418
            ],
            [
              5.7184213,
              50.4353534
            ],
            [
              5.7180981,
              50.4353423
            ],
            [
              5.7173319,
              50.4349319
            ],
            [
              5.715921,
              50.4347208
            ],
            [
              5.7139581,
              50.4350442
            ],
            [
              5.7128789,
              50.4348368
            ],
            [
              5.7125849,
              50.434893
            ],
            [
              5.7118794,
              50.434486
            ],
            [
              5.7111619,
              50.4344544
            ],
            [
              5.7103904,
              50.4340697
            ],
            [
              5.7101529,
              50.4340944
            ],
            [
              5.7101521,
              50.4339995
            ],
            [
              5.7097283,
              50.4338342
            ],
            [
              5.7095204,
              50.4336095
            ],
            [
              5.7086547,
              50.4330239
            ],
            [
              5.7084074,
              50.4326978
            ],
            [
              5.7077145,
              50.4325759
            ],
            [
              5.7075577,
              50.4324388
            ],
            [
              5.707482,
              50.4320614
            ],
            [
              5.7076234,
              50.4318365
            ],
            [
              5.7076442,
              50.4316153
            ],
            [
              5.7075075,
              50.4314449
            ],
            [
              5.7074722,
              50.4311332
            ],
            [
              5.7072772,
              50.4309354
            ],
            [
              5.7070944,
              50.4304808
            ],
            [
              5.7072664,
              50.430171
            ],
            [
              5.7072972,
              50.4296072
            ],
            [
              5.7077757,
              50.428166
            ],
            [
              5.7076969,
              50.4275418
            ],
            [
              5.7077669,
              50.4271266
            ],
            [
              5.7073579,
              50.4266283
            ],
            [
              5.7075147,
              50.4260003
            ],
            [
              5.7074377,
              50.4254281
            ],
            [
              5.7076368,
              50.4236095
            ],
            [
              5.7074866,
              50.4220519
            ],
            [
              5.7073277,
              50.4213397
            ],
            [
              5.7075946,
              50.4204485
            ],
            [
              5.7071426,
              50.4189488
            ],
            [
              5.7066961,
              50.4182712
            ],
            [
              5.7064895,
              50.41725
            ],
            [
              5.7066676,
              50.4159813
            ],
            [
              5.7066196,
              50.4153102
            ],
            [
              5.7063333,
              50.4146231
            ],
            [
              5.706106,
              50.4129293
            ],
            [
              5.7053456,
              50.4094987
            ],
            [
              5.7046857,
              50.4076191
            ],
            [
              5.7034588,
              50.4051677
            ],
            [
              5.7029812,
              50.4045464
            ],
            [
              5.7028927,
              50.4042738
            ],
            [
              5.7026473,
              50.4041028
            ],
            [
              5.7025787,
              50.4039143
            ],
            [
              5.7036129,
              50.4033966
            ],
            [
              5.7065123,
              50.4025702
            ],
            [
              5.7070002,
              50.402351
            ],
            [
              5.7080799,
              50.4016179
            ],
            [
              5.7093382,
              50.4004263
            ],
            [
              5.7090336,
              50.4002023
            ],
            [
              5.7085928,
              50.4000486
            ],
            [
              5.7080323,
              50.3991623
            ],
            [
              5.7074333,
              50.397754
            ],
            [
              5.7066631,
              50.3971079
            ],
            [
              5.705606,
              50.3964397
            ],
            [
              5.7053435,
              50.3959377
            ],
            [
              5.7051532,
              50.3951676
            ],
            [
              5.7052796,
              50.3938663
            ],
            [
              5.705237,
              50.3924461
            ],
            [
              5.7048999,
              50.391283
            ],
            [
              5.7044146,
              50.3904211
            ],
            [
              5.7031683,
              50.3888953
            ],
            [
              5.7026491,
              50.3885019
            ],
            [
              5.7008347,
              50.387846
            ],
            [
              5.7006115,
              50.3875352
            ],
            [
              5.700624,
              50.3872703
            ],
            [
              5.7002816,
              50.3867981
            ],
            [
              5.6999161,
              50.3857697
            ],
            [
              5.6989367,
              50.3839211
            ],
            [
              5.6988882,
              50.3836066
            ],
            [
              5.6991148,
              50.3830174
            ],
            [
              5.6991085,
              50.3820222
            ],
            [
              5.7019951,
              50.3798001
            ],
            [
              5.7037278,
              50.3787907
            ],
            [
              5.704956,
              50.3783868
            ],
            [
              5.7057198,
              50.3786738
            ],
            [
              5.7073089,
              50.3790726
            ],
            [
              5.7079663,
              50.3793375
            ],
            [
              5.7089357,
              50.3792368
            ],
            [
              5.7089719,
              50.3791974
            ],
            [
              5.7088566,
              50.3791796
            ],
            [
              5.7088698,
              50.378844
            ],
            [
              5.7086333,
              50.3780515
            ],
            [
              5.708937,
              50.3775109
            ],
            [
              5.7088058,
              50.3772
            ],
            [
              5.7089956,
              50.37669
            ],
            [
              5.7085228,
              50.3763155
            ],
            [
              5.7083422,
              50.37597
            ],
            [
              5.7085057,
              50.3753085
            ],
            [
              5.7076951,
              50.3751509
            ],
            [
              5.7040982,
              50.3749814
            ],
            [
              5.7033908,
              50.3746934
            ],
            [
              5.7022208,
              50.3746423
            ],
            [
              5.7019511,
              50.374543
            ],
            [
              5.7016039,
              50.3745841
            ],
            [
              5.6995842,
              50.3744541
            ],
            [
              5.6991604,
              50.3745328
            ],
            [
              5.6983691,
              50.3744695
            ],
            [
              5.6983316,
              50.3745328
            ],
            [
              5.6975302,
              50.3745185
            ],
            [
              5.6960973,
              50.374283
            ],
            [
              5.6957325,
              50.3743754
            ],
            [
              5.6953704,
              50.3742796
            ],
            [
              5.694834,
              50.3744267
            ],
            [
              5.6945926,
              50.3743908
            ],
            [
              5.6937048,
              50.3745345
            ],
            [
              5.6918674,
              50.3746132
            ],
            [
              5.6914973,
              50.3745482
            ],
            [
              5.6908241,
              50.374632
            ],
            [
              5.6896748,
              50.3744096
            ],
            [
              5.6894548,
              50.3742771
            ],
            [
              5.6891987,
              50.3742916
            ],
            [
              5.6887574,
              50.3741068
            ],
            [
              5.6872179,
              50.373976
            ],
            [
              5.6867471,
              50.3740072
            ],
            [
              5.6862105,
              50.3739529
            ],
            [
              5.6858416,
              50.3737816
            ],
            [
              5.6855482,
              50.37384
            ],
            [
              5.6850171,
              50.3737793
            ],
            [
              5.6842983,
              50.3734884
            ],
            [
              5.6823376,
              50.373012
            ],
            [
              5.6785939,
              50.3727669
            ],
            [
              5.6758258,
              50.3684956
            ],
            [
              5.6756958,
              50.368526
            ]
          ]
        ]
      },
      "properties": {
        "type": "boundary",
        "gemeente": "Stoumont"
      }
    }
  ]
}