{
  "type": "FeatureCollection",
  "metadata": {
    "gemeente": "Tellin",
    "slug": "tellin",
    "generated_at": "2026-09-25T22:11:44.599940Z",
    "total_points": 8,
    "providers": [
      "bpost",
      "DHL",
      "GLS",
      "InPost",
      "Amazon"
    ],
    "bounds": [
      5.22112,
      50.0823,
      5.22259,
      50.0854
    ]
  },
  "features": [
    {
      "type": "Feature",
      "geometry": {
        "type": "Point",
        "coordinates": [
          5.22112,
          50.0823
        ]
      },
      "properties": {
        "type": "pakketpunt",
        "locatieNaam": "Tellin",
        "straatNaam": "Rue Grande",
        "straatNr": "46",
        "vervoerder": "bpost",
        "puntType": "postkantoor",
        "bezettingsgraad": 50,
        "latitude": 50.0823,
        "longitude": 5.22112,
        "canPickup": true,
        "canDropoff": true,
        "openingstijden": null
      }
    },
    {
      "type": "Feature",
      "geometry": {
        "type": "Point",
        "coordinates": [
          5.22206,
          50.08374
        ]
      },
      "properties": {
        "type": "pakketpunt",
        "locatieNaam": "Bbox 24/7 Mini Market Tellin",
        "straatNaam": "Rue De Rochefort",
        "straatNr": "29",
        "vervoerder": "bpost",
        "puntType": "automaat",
        "bezettingsgraad": 50,
        "latitude": 50.08374,
        "longitude": 5.22206,
        "canPickup": true,
        "canDropoff": true,
        "openingstijden": null
      }
    },
    {
      "type": "Feature",
      "geometry": {
        "type": "Point",
        "coordinates": [
          5.221122,
          50.082301
        ]
      },
      "properties": {
        "type": "pakketpunt",
        "locatieNaam": "TELLIN",
        "straatNaam": "RUE GRANDE",
        "straatNr": "46",
        "vervoerder": "DHL",
        "puntType": "postOffice",
        "bezettingsgraad": 50,
        "latitude": 50.082301,
        "longitude": 5.221122,
        "canPickup": true,
        "canDropoff": true,
        "openingstijden": {
          "ma": "15:00 - 17:00",
          "di": "16:00 - 18:00",
          "wo": "15:00 - 17:00",
          "do": "16:00 - 18:00",
          "vr": "15:00 - 17:00",
          "za": "gesloten",
          "zo": "gesloten"
        }
      }
    },
    {
      "type": "Feature",
      "geometry": {
        "type": "Point",
        "coordinates": [
          5.222065,
          50.083743
        ]
      },
      "properties": {
        "type": "pakketpunt",
        "locatieNaam": "BBOX 24/7 MINI MARKET TELLIN",
        "straatNaam": "RUE DE ROCHEFORT",
        "straatNr": "29",
        "vervoerder": "DHL",
        "puntType": "packStation",
        "bezettingsgraad": 50,
        "latitude": 50.083743,
        "longitude": 5.222065,
        "canPickup": true,
        "canDropoff": true,
        "openingstijden": {
          "ma": "00:00 - 23:59",
          "di": "00:00 - 23:59",
          "wo": "00:00 - 23:59",
          "do": "00:00 - 23:59",
          "vr": "00:00 - 23:59",
          "za": "00:00 - 23:59",
          "zo": "00:00 - 23:59"
        }
      }
    },
    {
      "type": "Feature",
      "geometry": {
        "type": "Point",
        "coordinates": [
          5.2213984,
          50.0838737
        ]
      },
      "properties": {
        "type": "pakketpunt",
        "locatieNaam": "GLS Parcel Locker powered by bbox",
        "straatNaam": "Rue De Rochefort",
        "straatNr": "29",
        "vervoerder": "GLS",
        "puntType": "locker",
        "bezettingsgraad": 50,
        "latitude": 50.0838737,
        "longitude": 5.2213984,
        "canPickup": true,
        "canDropoff": true,
        "openingstijden": "vr: 00:00 - 24:00; za: 00:00 - 24:00"
      }
    },
    {
      "type": "Feature",
      "geometry": {
        "type": "Point",
        "coordinates": [
          5.22259,
          50.0854
        ]
      },
      "properties": {
        "type": "pakketpunt",
        "locatieNaam": "TELLINDIS",
        "straatNaam": "RUE DE ROCHEFORT 29",
        "straatNr": "",
        "vervoerder": "InPost",
        "puntType": "servicepunt",
        "bezettingsgraad": 50,
        "latitude": 50.0854,
        "longitude": 5.22259,
        "canPickup": true,
        "canDropoff": true,
        "openingstijden": null
      }
    },
    {
      "type": "Feature",
      "geometry": {
        "type": "Point",
        "coordinates": [
          5.221122,
          50.082301
        ]
      },
      "properties": {
        "type": "pakketpunt",
        "locatieNaam": "bpost - TELLIN",
        "straatNaam": "RUE GRANDE,46",
        "straatNr": "",
        "vervoerder": "Amazon",
        "puntType": "3p",
        "bezettingsgraad": 50,
        "latitude": 50.082301,
        "longitude": 5.221122,
        "canPickup": true,
        "canDropoff": false,
        "openingstijden": null
      }
    },
    {
      "type": "Feature",
      "geometry": {
        "type": "Point",
        "coordinates": [
          5.222065,
          50.083743
        ]
      },
      "properties": {
        "type": "pakketpunt",
        "locatieNaam": "bpost - BBOX 24/7 MINI MARKET TELLIN",
        "straatNaam": "RUE DE ROCHEFORT,29",
        "straatNr": "",
        "vervoerder": "Amazon",
        "puntType": "3p",
        "bezettingsgraad": 50,
        "latitude": 50.083743,
        "longitude": 5.222065,
        "canPickup": true,
        "canDropoff": false,
        "openingstijden": null
      }
    },
    {
      "type": "Feature",
      "geometry": {
        "type": "Polygon",
        "coordinates": [
          [
            [
              5.2230528037953565,
              50.079906659757626
            ],
            [
              5.222678944761419,
              50.0797962802714
            ],
            [
              5.222290074589687,
              50.07971001181628
            ],
            [
              5.221889937786509,
              50.07964868507248
            ],
            [
              5.221482387291884,
              50.07961289055342
            ],
            [
              5.22107134739643,
              50.07960297292244
            ],
            [
              5.220660775973061,
              50.0796190276757
            ],
            [
              5.220254626386083,
              50.07966090022306
            ],
            [
              5.21985680944361,
              50.07972818737606
            ],
            [
              5.2194711557587254,
              50.079820241228
            ],
            [
              5.219101378880919,
              50.07993617538981
            ],
            [
              5.218751039552043,
              50.08007487352102
            ],
            [
              5.218423511430226,
              50.08023500007414
            ],
            [
              5.218121948611284,
              50.08041501314951
            ],
            [
              5.217849255259931,
              50.080613179336645
            ],
            [
              5.21760805764301,
              50.08082759039964
            ],
            [
              5.217400678834009,
              50.08105618164646
            ],
            [
              5.217229116332591,
              50.081296751805134
            ],
            [
              5.21709502281495,
              50.08154698421608
            ],
            [
              5.216999690200914,
              50.081804469136586
            ],
            [
              5.216944037191839,
              50.082066726942735
            ],
            [
              5.216928600400107,
              50.082331232006
            ],
            [
              5.216953529156531,
              50.0825954370141
            ],
            [
              5.217018584046617,
              50.08285679750244
            ],
            [
              5.217123139190774,
              50.083112796359636
            ],
            [
              5.217266188247497,
              50.08336096807135
            ],
            [
              5.2172783679707795,
              50.08337705454958
            ],
            [
              5.217277951597858,
              50.0833781791112
            ],
            [
              5.217222298283083,
              50.08364043703236
            ],
            [
              5.217206862523406,
              50.083904942113456
            ],
            [
              5.217231793639744,
              50.08416914704203
            ],
            [
              5.217296852194917,
              50.08443050735427
            ],
            [
              5.21740141227408,
              50.08468650594047
            ],
            [
              5.217544467488236,
              50.08493467728893
            ],
            [
              5.217724640643947,
              50.085172631233995
            ],
            [
              5.217940196986998,
              50.08539807598028
            ],
            [
              5.218189060893197,
              50.085608840180214
            ],
            [
              5.218446076702279,
              50.08578710805125
            ],
            [
              5.218488335046345,
              50.08595684966475
            ],
            [
              5.218592904850576,
              50.08621284715288
            ],
            [
              5.218735970824561,
              50.08646101700629
            ],
            [
              5.218916155671256,
              50.08669896907382
            ],
            [
              5.219131724523869,
              50.086924411578075
            ],
            [
              5.219380601637733,
              50.087135173193126
            ],
            [
              5.219660390369285,
              50.08732922396276
            ],
            [
              5.219968396250178,
              50.087504694858204
            ],
            [
              5.22030165293454,
              50.0876598957859
            ],
            [
              5.2206569507696186,
              50.08779333187236
            ],
            [
              5.221030867714511,
              50.087903717868414
            ],
            [
              5.22141980230891,
              50.08798999053402
            ],
            [
              5.221820008373888,
              50.088051318884055
            ],
            [
              5.222227631109863,
              50.08808711219634
            ],
            [
              5.222638744243356,
              50.08809702570426
            ],
            [
              5.223049387863884,
              50.08808096391922
            ],
            [
              5.223455606585681,
              50.08803908155098
            ],
            [
              5.223853487665712,
              50.08797178201667
            ],
            [
              5.224239198709921,
              50.08787971355305
            ],
            [
              5.224609024603647,
              50.08776376296963
            ],
            [
              5.224959403309665,
              50.08762504710279
            ],
            [
              5.22528696018838,
              50.08746490205359
            ],
            [
              5.2255885405090226,
              50.08728487031303
            ],
            [
              5.2258612398383,
              50.087086685898996
            ],
            [
              5.226102432013608,
              50.08687225764862
            ],
            [
              5.226309794431277,
              50.086643650826886
            ],
            [
              5.2264813304064965,
              50.086403067229135
            ],
            [
              5.2266153883898445,
              50.08615282396949
            ],
            [
              5.22671067785586,
              50.085895331159485
            ],
            [
              5.226766281711282,
              50.08563306869225
            ],
            [
              5.226781665104243,
              50.08536856235617
            ],
            [
              5.226756680550432,
              50.085104359507895
            ],
            [
              5.22669156932787,
              50.0848430045393
            ],
            [
              5.226586959127769,
              50.08458701437455
            ],
            [
              5.22644385798515,
              50.08433885423342
            ],
            [
              5.226263644548566,
              50.08410091389388
            ],
            [
              5.226223556154799,
              50.084058996070624
            ],
            [
              5.226241134308949,
              50.083976087712486
            ],
            [
              5.226256520075738,
              50.08371158142578
            ],
            [
              5.2262315392924075,
              50.083447378443246
            ],
            [
              5.226166433200618,
              50.08318602315802
            ],
            [
              5.226061829442131,
              50.082930032497366
            ],
            [
              5.225918735989894,
              50.082681871685814
            ],
            [
              5.225738531418367,
              50.0824439305078
            ],
            [
              5.225522951607645,
              50.082218500298055
            ],
            [
              5.225289908055328,
              50.08202116094305
            ],
            [
              5.225288419379059,
              50.082005412473876
            ],
            [
              5.225223320411102,
              50.08174405663906
            ],
            [
              5.225118724862507,
              50.081488065106385
            ],
            [
              5.224975640627133,
              50.081239903108795
            ],
            [
              5.224795446190657,
              50.081001960442165
            ],
            [
              5.224579877335556,
              50.08077652845555
            ],
            [
              5.224331010408757,
              50.08056577799083
            ],
            [
              5.224051242313727,
              50.080371738483564
            ],
            [
              5.223743267420097,
              50.08019627842653
            ],
            [
              5.223741926177218,
              50.08019565376358
            ],
            [
              5.223741267453336,
              50.08019527847184
            ],
            [
              5.22340805166022,
              50.08004008742266
            ],
            [
              5.2230528037953565,
              50.079906659757626
            ]
          ]
        ]
      },
      "properties": {
        "type": "buffer_union_300m",
        "buffer_m": 300
      }
    },
    {
      "type": "Feature",
      "geometry": {
        "type": "Polygon",
        "coordinates": [
          [
            [
              5.223697028699344,
              50.07910887242442
            ],
            [
              5.223198556709811,
              50.078961702284595
            ],
            [
              5.222680071264881,
              50.07884667971698
            ],
            [
              5.222146564727777,
              50.078764912216904
            ],
            [
              5.221603173998307,
              50.078717187078254
            ],
            [
              5.221055131082422,
              50.07870396381809
            ],
            [
              5.220507712749086,
              50.078725369755055
            ],
            [
              5.219966189757592,
              50.078781198784455
            ],
            [
              5.219435776142553,
              50.07887091336131
            ],
            [
              5.21892157904322,
              50.078993649672576
            ],
            [
              5.218428549558668,
              50.07914822594908
            ],
            [
              5.217961435100585,
              50.07933315383695
            ],
            [
              5.217524733701222,
              50.07954665271975
            ],
            [
              5.2171226507154564,
              50.07978666685377
            ],
            [
              5.21675905833317,
              50.08005088515177
            ],
            [
              5.2164374582913595,
              50.08033676342548
            ],
            [
              5.216160948145001,
              50.080641548872975
            ],
            [
              5.215932191421653,
              50.08096230657569
            ],
            [
              5.2157533919478185,
              50.0812959477506
            ],
            [
              5.215626272595142,
              50.08163925948576
            ],
            [
              5.215552058652301,
              50.08198893567339
            ],
            [
              5.215531465984081,
              50.08234160884282
            ],
            [
              5.215564694093247,
              50.082693882587236
            ],
            [
              5.215651424153724,
              50.0830423642718
            ],
            [
              5.215790822035763,
              50.083383697708335
            ],
            [
              5.215847414871088,
              50.08348188417288
            ],
            [
              5.215830273440837,
              50.0835626491251
            ],
            [
              5.215809682148006,
              50.08391532231833
            ],
            [
              5.2158429134030575,
              50.084267595956746
            ],
            [
              5.2159296483496975,
              50.08461607740653
            ],
            [
              5.216069052811191,
              50.084957410481785
            ],
            [
              5.216259785280576,
              50.08528830777094
            ],
            [
              5.216500009800368,
              50.08560558230361
            ],
            [
              5.21678741360921,
              50.08590617825242
            ],
            [
              5.217119229386884,
              50.08618720037379
            ],
            [
              5.217147341395656,
              50.0862066994693
            ],
            [
              5.21726050957654,
              50.08648376543089
            ],
            [
              5.217451256392079,
              50.08681466072677
            ],
            [
              5.2176914964997065,
              50.087131932756144
            ],
            [
              5.217978916987962,
              50.0874325257157
            ],
            [
              5.218310750375997,
              50.0877135443906
            ],
            [
              5.2186838012453345,
              50.08797228205013
            ],
            [
              5.219094477001254,
              50.088206246529026
            ],
            [
              5.219538822468002,
              50.088413184242974
            ],
            [
              5.220012557984816,
              50.08859110190654
            ],
            [
              5.220511120635655,
              50.08873828574336
            ],
            [
              5.221029708215014,
              50.08885331800363
            ],
            [
              5.221563325505567,
              50.08893509062882
            ],
            [
              5.222106832420786,
              50.08898281593201
            ],
            [
              5.22265499354755,
              50.08899603419027
            ],
            [
              5.22320252861002,
              50.088974618075994
            ],
            [
              5.223744163367114,
              50.08891877388425
            ],
            [
              5.2242746804516536,
              50.088829039544294
            ],
            [
              5.224788969659842,
              50.08870627943436
            ],
            [
              5.225282077205069,
              50.08855167605008
            ],
            [
              5.225749253460188,
              50.08836671860681
            ],
            [
              5.226185998727163,
              50.08815318868618
            ],
            [
              5.226588106592181,
              50.08791314306538
            ],
            [
              5.226951704447938,
              50.08764889389512
            ],
            [
              5.22727329079238,
              50.0873629864178
            ],
            [
              5.227549768944521,
              50.08705817444085
            ],
            [
              5.227778476852903,
              50.08673739380217
            ],
            [
              5.227957212710138,
              50.086403734083625
            ],
            [
              5.228084256127739,
              50.08606040884563
            ],
            [
              5.228158384668427,
              50.085710724669674
            ],
            [
              5.228178885578125,
              50.08535804930765
            ],
            [
              5.228145562606192,
              50.085005779244575
            ],
            [
              5.228058737849905,
              50.08465730698751
            ],
            [
              5.227919248607187,
              50.084315988395616
            ],
            [
              5.227728439269631,
              50.08398511036602
            ],
            [
              5.227643684476744,
              50.08387321089426
            ],
            [
              5.227653692207615,
              50.08370107473497
            ],
            [
              5.22762037426368,
              50.083348804492815
            ],
            [
              5.227533556349057,
              50.08300033181352
            ],
            [
              5.227394075695707,
              50.08265901256038
            ],
            [
              5.22720327661244,
              50.08232813363685
            ],
            [
              5.226962997498749,
              50.082010881339194
            ],
            [
              5.226675553105452,
              50.08171031068028
            ],
            [
              5.2266156098656955,
              50.081659552535406
            ],
            [
              5.22659040596554,
              50.081558376455746
            ],
            [
              5.226450936259128,
              50.081217056039804
            ],
            [
              5.226260149465311,
              50.080886175534815
            ],
            [
              5.226019883865197,
              50.080568921252265
            ],
            [
              5.2257324540794405,
              50.08026834822411
            ],
            [
              5.225400628749076,
              50.07998735079268
            ],
            [
              5.225027603851449,
              50.07972863474954
            ],
            [
              5.224616971908977,
              50.079494691291586
            ],
            [
              5.224615630674376,
              50.07949406663877
            ],
            [
              5.224614971953298,
              50.07949369135202
            ],
            [
              5.224170687450093,
              50.0792867730965
            ],
            [
              5.223697028699344,
              50.07910887242442
            ]
          ]
        ]
      },
      "properties": {
        "type": "buffer_union_400m",
        "buffer_m": 400
      }
    },
    {
      "type": "Feature",
      "geometry": {
        "type": "Polygon",
        "coordinates": [
          [
            [
              5.1527143,
              50.0944075
            ],
            [
              5.1542175,
              50.0939016
            ],
            [
              5.1604944,
              50.0922004
            ],
            [
              5.1602119,
              50.0910775
            ],
            [
              5.1607768,
              50.0894156
            ],
            [
              5.1604237,
              50.0848342
            ],
            [
              5.1585172,
              50.0836215
            ],
            [
              5.1626128,
              50.0772883
            ],
            [
              5.1639545,
              50.0765696
            ],
            [
              5.1666379,
              50.0761654
            ],
            [
              5.1675559,
              50.0748179
            ],
            [
              5.1676264,
              50.0734705
            ],
            [
              5.1694625,
              50.0726171
            ],
            [
              5.1695331,
              50.0695628
            ],
            [
              5.171016,
              50.0661492
            ],
            [
              5.1708748,
              50.0622415
            ],
            [
              5.1733463,
              50.0552795
            ],
            [
              5.1751117,
              50.0548754
            ],
            [
              5.1747586,
              50.0511923
            ],
            [
              5.1759091,
              50.0484584
            ],
            [
              5.1769333,
              50.0463819
            ],
            [
              5.1782058,
              50.0450712
            ],
            [
              5.1784766,
              50.0405423
            ],
            [
              5.1790547,
              50.0362809
            ],
            [
              5.1867914,
              50.0369057
            ],
            [
              5.197308,
              50.0382057
            ],
            [
              5.2012539,
              50.0363803
            ],
            [
              5.2066505,
              50.0357256
            ],
            [
              5.2097701,
              50.0359601
            ],
            [
              5.2120178,
              50.0328925
            ],
            [
              5.2129805,
              50.0327106
            ],
            [
              5.2139681,
              50.0323051
            ],
            [
              5.2141982,
              50.0324694
            ],
            [
              5.2168107,
              50.0319973
            ],
            [
              5.2184461,
              50.0315109
            ],
            [
              5.2193212,
              50.0309015
            ],
            [
              5.222015,
              50.0293909
            ],
            [
              5.222607,
              50.0295058
            ],
            [
              5.2230871,
              50.0293702
            ],
            [
              5.2235752,
              50.0284651
            ],
            [
              5.2240017,
              50.0280412
            ],
            [
              5.2254447,
              50.0272443
            ],
            [
              5.2272649,
              50.0265081
            ],
            [
              5.2282987,
              50.0258042
            ],
            [
              5.2296022,
              50.0281033
            ],
            [
              5.230203,
              50.0303742
            ],
            [
              5.2304224,
              50.0309235
            ],
            [
              5.2307,
              50.0310038
            ],
            [
              5.2314309,
              50.0325509
            ],
            [
              5.231464,
              50.0327709
            ],
            [
              5.2309882,
              50.0335636
            ],
            [
              5.2302523,
              50.0352583
            ],
            [
              5.2291581,
              50.0374511
            ],
            [
              5.2294206,
              50.0380757
            ],
            [
              5.2299196,
              50.0379673
            ],
            [
              5.2304953,
              50.0369196
            ],
            [
              5.2344646,
              50.038262
            ],
            [
              5.2326014,
              50.0404054
            ],
            [
              5.2318028,
              50.0410881
            ],
            [
              5.2320088,
              50.0421956
            ],
            [
              5.2324112,
              50.0429333
            ],
            [
              5.233,
              50.0434389
            ],
            [
              5.2335086,
              50.0440233
            ],
            [
              5.2339476,
              50.0440468
            ],
            [
              5.2343985,
              50.04444
            ],
            [
              5.2345486,
              50.0451221
            ],
            [
              5.2360766,
              50.045118
            ],
            [
              5.2365405,
              50.045464
            ],
            [
              5.2394679,
              50.0470908
            ],
            [
              5.2409651,
              50.0480585
            ],
            [
              5.2423632,
              50.0491228
            ],
            [
              5.2433307,
              50.0496643
            ],
            [
              5.2435618,
              50.0501363
            ],
            [
              5.2436397,
              50.0506126
            ],
            [
              5.2438962,
              50.0509385
            ],
            [
              5.2440059,
              50.0517642
            ],
            [
              5.2442897,
              50.0522166
            ],
            [
              5.2448328,
              50.0527506
            ],
            [
              5.2493112,
              50.0547528
            ],
            [
              5.2483816,
              50.0555003
            ],
            [
              5.248725,
              50.0560837
            ],
            [
              5.249397,
              50.056949
            ],
            [
              5.2496957,
              50.0584085
            ],
            [
              5.25021,
              50.0592784
            ],
            [
              5.2523853,
              50.0601748
            ],
            [
              5.2553383,
              50.0591933
            ],
            [
              5.2564473,
              50.059452
            ],
            [
              5.2572236,
              50.0606284
            ],
            [
              5.2577449,
              50.0608112
            ],
            [
              5.257921,
              50.0611505
            ],
            [
              5.2593693,
              50.0618352
            ],
            [
              5.2604261,
              50.061741
            ],
            [
              5.2629292,
              50.0626464
            ],
            [
              5.2651041,
              50.0627721
            ],
            [
              5.2661204,
              50.0638336
            ],
            [
              5.2668836,
              50.0650988
            ],
            [
              5.2666284,
              50.0671601
            ],
            [
              5.2672684,
              50.0678349
            ],
            [
              5.2678049,
              50.0682274
            ],
            [
              5.268749,
              50.0686613
            ],
            [
              5.2690586,
              50.0689974
            ],
            [
              5.2690665,
              50.0700933
            ],
            [
              5.2697005,
              50.0709098
            ],
            [
              5.2703218,
              50.0709643
            ],
            [
              5.2708306,
              50.0713525
            ],
            [
              5.2708781,
              50.0711893
            ],
            [
              5.2705097,
              50.0708303
            ],
            [
              5.2705664,
              50.0707013
            ],
            [
              5.2714444,
              50.0703202
            ],
            [
              5.2720465,
              50.0703104
            ],
            [
              5.2725211,
              50.0704595
            ],
            [
              5.2729786,
              50.0708607
            ],
            [
              5.2739021,
              50.0713679
            ],
            [
              5.2765046,
              50.0723061
            ],
            [
              5.2765489,
              50.0721389
            ],
            [
              5.2767259,
              50.0720183
            ],
            [
              5.2782331,
              50.0718593
            ],
            [
              5.2784237,
              50.0721681
            ],
            [
              5.2785337,
              50.0721802
            ],
            [
              5.2784952,
              50.0733262
            ],
            [
              5.2796025,
              50.0736042
            ],
            [
              5.2797911,
              50.073178
            ],
            [
              5.2809772,
              50.0735625
            ],
            [
              5.2828686,
              50.0739591
            ],
            [
              5.282844,
              50.074048
            ],
            [
              5.285486,
              50.074468
            ],
            [
              5.285465,
              50.0746559
            ],
            [
              5.2872321,
              50.0747649
            ],
            [
              5.2873803,
              50.0749922
            ],
            [
              5.2886567,
              50.0753382
            ],
            [
              5.2891113,
              50.0753771
            ],
            [
              5.2895198,
              50.0752884
            ],
            [
              5.2892225,
              50.074676
            ],
            [
              5.2896005,
              50.0746384
            ],
            [
              5.2907968,
              50.0747968
            ],
            [
              5.2924222,
              50.0748484
            ],
            [
              5.2945626,
              50.0746005
            ],
            [
              5.2950722,
              50.0748071
            ],
            [
              5.2955342,
              50.0752416
            ],
            [
              5.2953243,
              50.076136
            ],
            [
              5.2954906,
              50.077217
            ],
            [
              5.2958929,
              50.0777403
            ],
            [
              5.2974041,
              50.0792575
            ],
            [
              5.2981031,
              50.0791862
            ],
            [
              5.2984464,
              50.0787077
            ],
            [
              5.2987522,
              50.0785803
            ],
            [
              5.299826,
              50.0785608
            ],
            [
              5.3009623,
              50.0787111
            ],
            [
              5.3016329,
              50.0790313
            ],
            [
              5.3062731,
              50.0804186
            ],
            [
              5.3062463,
              50.080484
            ],
            [
              5.3075659,
              50.0808867
            ],
            [
              5.3082848,
              50.0814237
            ],
            [
              5.3096653,
              50.0818147
            ],
            [
              5.3122276,
              50.0819332
            ],
            [
              5.3128767,
              50.0821329
            ],
            [
              5.3141732,
              50.0821681
            ],
            [
              5.3151357,
              50.0820935
            ],
            [
              5.3157681,
              50.0833962
            ],
            [
              5.3158539,
              50.084267
            ],
            [
              5.3166202,
              50.0855747
            ],
            [
              5.3164333,
              50.0869621
            ],
            [
              5.3161151,
              50.0884121
            ],
            [
              5.3143149,
              50.0897724
            ],
            [
              5.3132039,
              50.0902181
            ],
            [
              5.3121959,
              50.0905339
            ],
            [
              5.3115946,
              50.089695
            ],
            [
              5.3111445,
              50.0883064
            ],
            [
              5.3084269,
              50.088375
            ],
            [
              5.3060179,
              50.0896038
            ],
            [
              5.3048249,
              50.0899927
            ],
            [
              5.3040281,
              50.0904126
            ],
            [
              5.3037572,
              50.0906586
            ],
            [
              5.3037319,
              50.0910101
            ],
            [
              5.303844,
              50.0911617
            ],
            [
              5.303419,
              50.091054
            ],
            [
              5.3016041,
              50.0902542
            ],
            [
              5.3002383,
              50.0920293
            ],
            [
              5.2991063,
              50.0917487
            ],
            [
              5.2987724,
              50.0923985
            ],
            [
              5.2986341,
              50.0930531
            ],
            [
              5.2983412,
              50.0933809
            ],
            [
              5.296734,
              50.0938806
            ],
            [
              5.296481,
              50.0943624
            ],
            [
              5.2959838,
              50.0948044
            ],
            [
              5.2942592,
              50.0942888
            ],
            [
              5.2938196,
              50.095065
            ],
            [
              5.2934122,
              50.0954415
            ],
            [
              5.2919133,
              50.0959619
            ],
            [
              5.2909564,
              50.0970049
            ],
            [
              5.290235,
              50.0975597
            ],
            [
              5.2899794,
              50.0978642
            ],
            [
              5.2897874,
              50.0983441
            ],
            [
              5.2896977,
              50.0983201
            ],
            [
              5.2897752,
              50.0983798
            ],
            [
              5.2897,
              50.098422
            ],
            [
              5.2897079,
              50.0985539
            ],
            [
              5.2903172,
              50.098928
            ],
            [
              5.2909414,
              50.0991845
            ],
            [
              5.2915021,
              50.0996689
            ],
            [
              5.2915243,
              50.0998778
            ],
            [
              5.2896493,
              50.1006472
            ],
            [
              5.2892936,
              50.1005018
            ],
            [
              5.2841844,
              50.1026398
            ],
            [
              5.2781968,
              50.103616
            ],
            [
              5.2633966,
              50.1085425
            ],
            [
              5.2625196,
              50.1085228
            ],
            [
              5.2624699,
              50.1086853
            ],
            [
              5.2620763,
              50.1089206
            ],
            [
              5.2619878,
              50.1091928
            ],
            [
              5.2617847,
              50.10919
            ],
            [
              5.2614715,
              50.1094716
            ],
            [
              5.2615623,
              50.109652
            ],
            [
              5.2614717,
              50.1097399
            ],
            [
              5.261244,
              50.1097159
            ],
            [
              5.2610028,
              50.1099453
            ],
            [
              5.2603121,
              50.109872
            ],
            [
              5.2597911,
              50.1101892
            ],
            [
              5.2493199,
              50.1093092
            ],
            [
              5.2364684,
              50.1101705
            ],
            [
              5.2266561,
              50.1076672
            ],
            [
              5.2268669,
              50.1021777
            ],
            [
              5.2122616,
              50.0999631
            ],
            [
              5.2074729,
              50.0991655
            ],
            [
              5.200179,
              50.0967905
            ],
            [
              5.1995829,
              50.0983333
            ],
            [
              5.1992778,
              50.0994324
            ],
            [
              5.1990283,
              50.0996956
            ],
            [
              5.1991259,
              50.0997378
            ],
            [
              5.1991925,
              50.1000468
            ],
            [
              5.1979617,
              50.0999368
            ],
            [
              5.1983356,
              50.09877
            ],
            [
              5.1982391,
              50.0985902
            ],
            [
              5.1975789,
              50.0984351
            ],
            [
              5.1974938,
              50.098136
            ],
            [
              5.1977496,
              50.0977256
            ],
            [
              5.1970656,
              50.0977841
            ],
            [
              5.1970066,
              50.0979157
            ],
            [
              5.1970642,
              50.0981182
            ],
            [
              5.1952629,
              50.0983627
            ],
            [
              5.1951492,
              50.0978816
            ],
            [
              5.1935554,
              50.097807
            ],
            [
              5.1928997,
              50.0979955
            ],
            [
              5.1929784,
              50.0981789
            ],
            [
              5.1927056,
              50.098181
            ],
            [
              5.1924752,
              50.0983729
            ],
            [
              5.1917532,
              50.0984872
            ],
            [
              5.1897671,
              50.098229
            ],
            [
              5.1882683,
              50.0977747
            ],
            [
              5.1877221,
              50.0981912
            ],
            [
              5.1888494,
              50.0991629
            ],
            [
              5.1888829,
              50.0993497
            ],
            [
              5.1886285,
              50.1008021
            ],
            [
              5.1868758,
              50.1006411
            ],
            [
              5.1847751,
              50.1006123
            ],
            [
              5.183293,
              50.1005992
            ],
            [
              5.1817969,
              50.1007319
            ],
            [
              5.1809555,
              50.1007166
            ],
            [
              5.1794859,
              50.1003834
            ],
            [
              5.1788276,
              50.1003546
            ],
            [
              5.1774463,
              50.1000791
            ],
            [
              5.1764358,
              50.1001112
            ],
            [
              5.1752222,
              50.1000371
            ],
            [
              5.1746732,
              50.0998135
            ],
            [
              5.1751329,
              50.1002745
            ],
            [
              5.1742789,
              50.1001739
            ],
            [
              5.1690079,
              50.0999939
            ],
            [
              5.1693858,
              50.0997724
            ],
            [
              5.163153,
              50.1002371
            ],
            [
              5.1609015,
              50.1003509
            ],
            [
              5.1583729,
              50.1003401
            ],
            [
              5.1586048,
              50.0978932
            ],
            [
              5.1559353,
              50.096265
            ],
            [
              5.154734,
              50.0965054
            ],
            [
              5.1524114,
              50.0966639
            ],
            [
              5.1525879,
              50.0958381
            ],
            [
              5.1527143,
              50.0944075
            ]
          ]
        ]
      },
      "properties": {
        "type": "boundary",
        "gemeente": "Tellin"
      }
    }
  ]
}