{
  "type": "FeatureCollection",
  "metadata": {
    "gemeente": "Thimister-Clermont",
    "slug": "thimister-clermont",
    "generated_at": "2026-09-25T22:11:44.735939Z",
    "total_points": 6,
    "providers": [
      "bpost",
      "DHL",
      "Amazon"
    ],
    "bounds": [
      5.865906,
      50.63769,
      5.87934,
      50.65327
    ]
  },
  "features": [
    {
      "type": "Feature",
      "geometry": {
        "type": "Point",
        "coordinates": [
          5.87934,
          50.63769
        ]
      },
      "properties": {
        "type": "pakketpunt",
        "locatieNaam": "Bbox 24/7 Thimister Mail Bpost",
        "straatNaam": "Rue Abot",
        "straatNr": "8",
        "vervoerder": "bpost",
        "puntType": "automaat",
        "bezettingsgraad": 50,
        "latitude": 50.63769,
        "longitude": 5.87934,
        "canPickup": true,
        "canDropoff": true,
        "openingstijden": null
      }
    },
    {
      "type": "Feature",
      "geometry": {
        "type": "Point",
        "coordinates": [
          5.86591,
          50.65327
        ]
      },
      "properties": {
        "type": "pakketpunt",
        "locatieNaam": "Thimister-Clermont",
        "straatNaam": "Rue De La Station",
        "straatNr": "13A",
        "vervoerder": "bpost",
        "puntType": "postkantoor",
        "bezettingsgraad": 50,
        "latitude": 50.65327,
        "longitude": 5.86591,
        "canPickup": true,
        "canDropoff": true,
        "openingstijden": null
      }
    },
    {
      "type": "Feature",
      "geometry": {
        "type": "Point",
        "coordinates": [
          5.87934,
          50.63769
        ]
      },
      "properties": {
        "type": "pakketpunt",
        "locatieNaam": "BBOX 24/7 THIMISTER MAIL BPOST",
        "straatNaam": "RUE ABOT",
        "straatNr": "8",
        "vervoerder": "DHL",
        "puntType": "packStation",
        "bezettingsgraad": 50,
        "latitude": 50.63769,
        "longitude": 5.87934,
        "canPickup": true,
        "canDropoff": true,
        "openingstijden": {
          "ma": "00:00 - 23:59",
          "di": "00:00 - 23:59",
          "wo": "00:00 - 23:59",
          "do": "00:00 - 23:59",
          "vr": "00:00 - 23:59",
          "za": "00:00 - 23:59",
          "zo": "00:00 - 23:59"
        }
      }
    },
    {
      "type": "Feature",
      "geometry": {
        "type": "Point",
        "coordinates": [
          5.865906,
          50.653266
        ]
      },
      "properties": {
        "type": "pakketpunt",
        "locatieNaam": "THIMISTER-CLERMONT",
        "straatNaam": "RUE DE LA STATION",
        "straatNr": "13A",
        "vervoerder": "DHL",
        "puntType": "postOffice",
        "bezettingsgraad": 50,
        "latitude": 50.653266,
        "longitude": 5.865906,
        "canPickup": true,
        "canDropoff": true,
        "openingstijden": {
          "ma": "13:30 - 17:00",
          "di": "09:30 - 12:30, 13:30 - 18:00",
          "wo": "13:30 - 17:00",
          "do": "09:30 - 12:30, 13:30 - 18:00",
          "vr": "13:30 - 17:00",
          "za": "gesloten",
          "zo": "gesloten"
        }
      }
    },
    {
      "type": "Feature",
      "geometry": {
        "type": "Point",
        "coordinates": [
          5.865906,
          50.653266
        ]
      },
      "properties": {
        "type": "pakketpunt",
        "locatieNaam": "bpost - THIMISTER-CLERMONT",
        "straatNaam": "RUE DE LA STATION,13A",
        "straatNr": "",
        "vervoerder": "Amazon",
        "puntType": "3p",
        "bezettingsgraad": 50,
        "latitude": 50.653266,
        "longitude": 5.865906,
        "canPickup": true,
        "canDropoff": false,
        "openingstijden": null
      }
    },
    {
      "type": "Feature",
      "geometry": {
        "type": "Point",
        "coordinates": [
          5.87934,
          50.63769
        ]
      },
      "properties": {
        "type": "pakketpunt",
        "locatieNaam": "bpost - BBOX 24/7 THIMISTER MAIL BPOST",
        "straatNaam": "RUE ABOT,8",
        "straatNr": "",
        "vervoerder": "Amazon",
        "puntType": "3p",
        "bezettingsgraad": 50,
        "latitude": 50.63769,
        "longitude": 5.87934,
        "canPickup": true,
        "canDropoff": false,
        "openingstijden": null
      }
    },
    {
      "type": "Feature",
      "geometry": {
        "type": "MultiPolygon",
        "coordinates": [
          [
            [
              [
                5.883481629797037,
                50.63710972537823
              ],
              [
                5.8833722400674695,
                50.63685435897699
              ],
              [
                5.8832240197169074,
                50.63660704076802
              ],
              [
                5.883038396698614,
                50.636370152417655
              ],
              [
                5.882817159075398,
                50.63614597511838
              ],
              [
                5.88256243778378,
                50.635936667626346
              ],
              [
                5.8822766861004805,
                50.63574424547878
              ],
              [
                5.881962656009448,
                50.63557056159131
              ],
              [
                5.881623371697252,
                50.63541728842156
              ],
              [
                5.881262100432158,
                50.63528590187079
              ],
              [
                5.880882321107207,
                50.6351776670778
              ],
              [
                5.880487690749895,
                50.635093626242174
              ],
              [
                5.880082009320477,
                50.63503458859356
              ],
              [
                5.8796691831372625,
                50.63500112260317
              ],
              [
                5.879253187280268,
                50.63499355051281
              ],
              [
                5.878838027334469,
                50.63501194523351
              ],
              [
                5.8784277008400405,
                50.63505612964396
              ],
              [
                5.878026158819875,
                50.635125678294905
              ],
              [
                5.877637267753886,
                50.635219921503975
              ],
              [
                5.877264772365318,
                50.63533795180077
              ],
              [
                5.876912259576637,
                50.635478632660785
              ],
              [
                5.876583123981321,
                50.635640609444245
              ],
              [
                5.8762805351635015,
                50.63582232243447
              ],
              [
                5.876007407179731,
                50.63602202185088
              ],
              [
                5.875766370496529,
                50.63623778469209
              ],
              [
                5.875559746653921,
                50.63646753324717
              ],
              [
                5.875389525899099,
                50.63670905509746
              ],
              [
                5.875257348005927,
                50.636960024416155
              ],
              [
                5.875164486465554,
                50.63721802436111
              ],
              [
                5.8751118362010235,
                50.637480570345474
              ],
              [
                5.875099904925015,
                50.63774513396188
              ],
              [
                5.875128808224877,
                50.63800916733043
              ],
              [
                5.875198268423201,
                50.6382701276356
              ],
              [
                5.875307617226001,
                50.638525501616144
              ],
              [
                5.875455802133929,
                50.63877282977195
              ],
              [
                5.875641396555761,
                50.63900973005441
              ],
              [
                5.875862613527633,
                50.63923392081252
              ],
              [
                5.876117322906646,
                50.63944324277291
              ],
              [
                5.876403071873871,
                50.63963567984233
              ],
              [
                5.876717108549741,
                50.63980937853172
              ],
              [
                5.877056408494634,
                50.63996266581461
              ],
              [
                5.877417703839525,
                50.64009406524741
              ],
              [
                5.877797514766003,
                50.64020231119626
              ],
              [
                5.878192183032144,
                50.64028636103282
              ],
              [
                5.878597907220875,
                50.64034540518162
              ],
              [
                5.879010779370673,
                50.640378874921595
              ],
              [
                5.879426822635049,
                50.64038644786688
              ],
              [
                5.87984202960719,
                50.64036805107352
              ],
              [
                5.880252400939725,
                50.64032386174258
              ],
              [
                5.880653983886656,
                50.64025430551233
              ],
              [
                5.88104291039528,
                50.64016005235641
              ],
              [
                5.88141543438031,
                50.64004201012752
              ],
              [
                5.881767967820335,
                50.63990131580866
              ],
              [
                5.882097115328255,
                50.639739324556864
              ],
              [
                5.882399706862148,
                50.63955759664479
              ],
              [
                5.8826728282610805,
                50.63935788242645
              ],
              [
                5.882913849311587,
                50.639142105472104
              ],
              [
                5.883120449074396,
                50.638912344034985
              ],
              [
                5.883290638227692,
                50.638670811028845
              ],
              [
                5.883422778212036,
                50.63841983270919
              ],
              [
                5.883515596993095,
                50.63816182626404
              ],
              [
                5.883568201291044,
                50.637899276530106
              ],
              [
                5.883580085159669,
                50.63763471205878
              ],
              [
                5.883551134833466,
                50.637370680762885
              ],
              [
                5.883481629797037,
                50.63710972537823
              ]
            ]
          ],
          [
            [
              [
                5.869129999984538,
                50.651513044306476
              ],
              [
                5.86884420877123,
                50.65132058993344
              ],
              [
                5.868530124488386,
                50.65114687050339
              ],
              [
                5.868190771844657,
                50.65099355881625
              ],
              [
                5.867829418766467,
                50.65086213114412
              ],
              [
                5.867449544934742,
                50.6507538530218
              ],
              [
                5.8670548082870155,
                50.65066976706612
              ],
              [
                5.866649009806969,
                50.650610682941114
              ],
              [
                5.866236056939871,
                50.65057716956552
              ],
              [
                5.865819925985401,
                50.650569549637446
              ],
              [
                5.865404623829159,
                50.65058789652855
              ],
              [
                5.8649941493804025,
                50.650632033578006
              ],
              [
                5.8645924550864015,
                50.650701535792685
              ],
              [
                5.864203408893032,
                50.650795733937315
              ],
              [
                5.8638307570169985,
                50.650913720975474
              ],
              [
                5.863478087887359,
                50.651054360799236
              ],
              [
                5.863148797602821,
                50.65121629916399
              ],
              [
                5.862846057236904,
                50.65139797672305
              ],
              [
                5.862572782305379,
                50.65159764403711
              ],
              [
                5.8623316046897695,
                50.651813378413934
              ],
              [
                5.862124847287274,
                50.652043102416826
              ],
              [
                5.861954501631351,
                50.652284603863585
              ],
              [
                5.8618222086988485,
                50.652535557123976
              ],
              [
                5.861729243089018,
                50.65279354551061
              ],
              [
                5.861676500727445,
                50.653056084548
              ],
              [
                5.8616644902141335,
                50.6533206458958
              ],
              [
                5.861693327899961,
                50.65358468169598
              ],
              [
                5.861762736739902,
                50.65384564910972
              ],
              [
                5.861872048935089,
                50.654101034807375
              ],
              [
                5.862020212339236,
                50.654348379176035
              ],
              [
                5.862205800568717,
                50.65458530001101
              ],
              [
                5.862427026719772,
                50.65480951546337
              ],
              [
                5.862427307120996,
                50.65480974590975
              ],
              [
                5.862427307121001,
                50.654809745909766
              ],
              [
                5.862431026555755,
                50.654813515581154
              ],
              [
                5.862685760436831,
                50.65502286613083
              ],
              [
                5.862971548955637,
                50.65521533541701
              ],
              [
                5.863285639851976,
                50.65538906964036
              ],
              [
                5.8636250081642345,
                50.65554239543214
              ],
              [
                5.8639863853650604,
                50.65567383597789
              ],
              [
                5.864366290847707,
                50.65578212524773
              ],
              [
                5.864761065459508,
                50.655866220196046
              ],
              [
                5.865166906759011,
                50.65592531081284
              ],
              [
                5.865579905656555,
                50.65595882792945
              ],
              [
                5.865996084084626,
                50.65596644870367
              ],
              [
                5.8664114333342745,
                50.65594809973086
              ],
              [
                5.866821952687436,
                50.65590395775147
              ],
              [
                5.867223687972088,
                50.65583444794766
              ],
              [
                5.867612769667914,
                50.65574023984593
              ],
              [
                5.867985450194589,
                50.655622240865014
              ],
              [
                5.868338140022652,
                50.65548158757143
              ],
              [
                5.868667442258481,
                50.65531963472704
              ],
              [
                5.868970185369684,
                50.65513794223467
              ],
              [
                5.869243453735287,
                50.65493826010721
              ],
              [
                5.86948461572627,
                50.65472251160591
              ],
              [
                5.869691349045942,
                50.65449277471002
              ],
              [
                5.8698616630862785,
                50.654251262097034
              ],
              [
                5.869993918085226,
                50.654000299826116
              ],
              [
                5.87008684090101,
                50.65374230493079
              ],
              [
                5.870139537252191,
                50.65347976213659
              ],
              [
                5.87015150030641,
                50.653215199928226
              ],
              [
                5.870122615535996,
                50.652951166196765
              ],
              [
                5.870053161794697,
                50.65269020370155
              ],
              [
                5.869943808606106,
                50.652434825583285
              ],
              [
                5.869795609690972,
                50.652187491163765
              ],
              [
                5.869609992796627,
                50.651950582265464
              ],
              [
                5.8693887459273695,
                50.65172638027875
              ],
              [
                5.869388465510484,
                50.65172614984894
              ],
              [
                5.8693847457634,
                50.651722380396556
              ],
              [
                5.869129999984538,
                50.651513044306476
              ]
            ]
          ]
        ]
      },
      "properties": {
        "type": "buffer_union_300m",
        "buffer_m": 300
      }
    },
    {
      "type": "Feature",
      "geometry": {
        "type": "MultiPolygon",
        "coordinates": [
          [
            [
              [
                5.884862150441185,
                50.63691626784165
              ],
              [
                5.884716288374595,
                50.6365757809913
              ],
              [
                5.8845186533656175,
                50.636246025590054
              ],
              [
                5.884271149654505,
                50.63593017710802
              ],
              [
                5.883976161569092,
                50.63563127703331
              ],
              [
                5.883636530534311,
                50.6353522035925
              ],
              [
                5.883255527687413,
                50.63509564404501
              ],
              [
                5.882836822363433,
                50.63486406881759
              ],
              [
                5.882384446754827,
                50.63465970772739
              ],
              [
                5.881902757085751,
                50.63448452852219
              ],
              [
                5.88139639167462,
                50.63434021794379
              ],
              [
                5.880870226288259,
                50.63422816549638
              ],
              [
                5.8803293272166774,
                50.63414945007592
              ],
              [
                5.879778902519217,
                50.63410482958855
              ],
              [
                5.879224251910135,
                50.63409473365803
              ],
              [
                5.878670715764661,
                50.634119259491776
              ],
              [
                5.878123623734883,
                50.63417817094565
              ],
              [
                5.87758824346852,
                50.6342709007961
              ],
              [
                5.877069729922695,
                50.63439655619796
              ],
              [
                5.876573075759117,
                50.63455392727562
              ],
              [
                5.876103063296885,
                50.63474149876494
              ],
              [
                5.875664218484261,
                50.63495746459448
              ],
              [
                5.875260767331644,
                50.63519974526554
              ],
              [
                5.874896595224497,
                50.63546600786479
              ],
              [
                5.874575209507642,
                50.63575368851672
              ],
              [
                5.874299705701169,
                50.63606001706066
              ],
              [
                5.874072737673515,
                50.63638204371505
              ],
              [
                5.873896492059593,
                50.63671666747276
              ],
              [
                5.873772667171236,
                50.637060665954515
              ],
              [
                5.873702456604251,
                50.63741072643333
              ],
              [
                5.873686537701391,
                50.63776347773146
              ],
              [
                5.873725064983948,
                50.638115522683
              ],
              [
                5.873817668617015,
                50.63846347084959
              ],
              [
                5.873963457924909,
                50.63880397117427
              ],
              [
                5.874161029924758,
                50.63913374425878
              ],
              [
                5.874408482797717,
                50.63944961395343
              ],
              [
                5.874703434169629,
                50.639748537954965
              ],
              [
                5.875043044026445,
                50.640027637117285
              ],
              [
                5.875424042044768,
                50.64028422319251
              ],
              [
                5.875842759075126,
                50.640515824734436
              ],
              [
                5.8762951624751905,
                50.64072021091468
              ],
              [
                5.876776894952796,
                50.64089541302127
              ],
              [
                5.877283316544419,
                50.64103974343231
              ],
              [
                5.877809549324254,
                50.64115181188142
              ],
              [
                5.878350524412393,
                50.64123053885774
              ],
              [
                5.8789010308282235,
                50.64127516601104
              ],
              [
                5.879455765717095,
                50.641285263461405
              ],
              [
                5.880009385464954,
                50.64126073394298
              ],
              [
                5.880556557206921,
                50.64120181374151
              ],
              [
                5.8810920102319795,
                50.64110907041674
              ],
              [
                5.881610586786932,
                50.64098339733162
              ],
              [
                5.882107291788666,
                50.64082600504135
              ],
              [
                5.8825773409643975,
                50.6406384096252
              ],
              [
                5.883016206954984,
                50.64042241807415
              ],
              [
                5.883419662936174,
                50.64018011087535
              ],
              [
                5.8837838233369455,
                50.6399138219616
              ],
              [
                5.884105181262341,
                50.63962611621961
              ],
              [
                5.884380642260284,
                50.6393197647743
              ],
              [
                5.884607554107443,
                50.63899771828729
              ],
              [
                5.884783732327893,
                50.638663078527856
              ],
              [
                5.8849074811996935,
                50.63831906849022
              ],
              [
                5.88497761004831,
                50.63796900134547
              ],
              [
                5.884993444671381,
                50.637616248527515
              ],
              [
                5.884954833786439,
                50.63726420726066
              ],
              [
                5.884862150441185,
                50.63691626784165
              ]
            ]
          ],
          [
            [
              [
                5.870204613436575,
                50.650928705816916
              ],
              [
                5.869823557878785,
                50.650672103302426
              ],
              [
                5.8694047802962395,
                50.650440480685425
              ],
              [
                5.868952313577611,
                50.65023606823941
              ],
              [
                5.8684705148246445,
                50.650060834206656
              ],
              [
                5.867964023406267,
                50.64991646585686
              ],
              [
                5.867437716302613,
                50.649804353250516
              ],
              [
                5.866896661168134,
                50.64972557586277
              ],
              [
                5.866346067564611,
                50.64968089219642
              ],
              [
                5.865791236832294,
                50.64967073248349
              ],
              [
                5.865237511080321,
                50.64969519454555
              ],
              [
                5.86469022178594,
                50.6497540428525
              ],
              [
                5.864154638495734,
                50.64984671078877
              ],
              [
                5.86363591812114,
                50.649972306105376
              ],
              [
                5.863139055314852,
                50.65012961950529
              ],
              [
                5.862668834404477,
                50.65031713627982
              ],
              [
                5.862229783345004,
                50.65053305088437
              ],
              [
                5.861826130132471,
                50.650775284313625
              ],
              [
                5.861461762097801,
                50.65104150410921
              ],
              [
                5.861140188472388,
                50.65132914680792
              ],
              [
                5.860864506585826,
                50.65163544261469
              ],
              [
                5.860637372021591,
                50.651957442063306
              ],
              [
                5.860460973018638,
                50.652292044408796
              ],
              [
                5.860337009366395,
                50.65263602747822
              ],
              [
                5.860266675997574,
                50.65298607869317
              ],
              [
                5.86025065143824,
                50.65333882696525
              ],
              [
                5.860289091227993,
                50.65369087515784
              ],
              [
                5.860381626375382,
                50.654038832801504
              ],
              [
                5.860527366865183,
                50.65437934874813
              ],
              [
                5.860724910185584,
                50.65470914344912
              ],
              [
                5.860972354794829,
                50.655025040546676
              ],
              [
                5.8612673183991815,
                50.65532399747366
              ],
              [
                5.8612675987978,
                50.6553242279228
              ],
              [
                5.861267598797805,
                50.655324227922804
              ],
              [
                5.861271318180481,
                50.65532799763071
              ],
              [
                5.861610960701268,
                50.6556071349121
              ],
              [
                5.861992011450819,
                50.655863763943294
              ],
              [
                5.862410800772317,
                50.656095412864346
              ],
              [
                5.862863295327554,
                50.65629985039051
              ],
              [
                5.863345136946644,
                50.65647510731525
              ],
              [
                5.863851684614945,
                50.656619495488656
              ],
              [
                5.864378059192252,
                50.65673162408795
              ],
              [
                5.8649191904327,
                50.656810413022825
              ],
              [
                5.865469865851313,
                50.65685510334622
              ],
              [
                5.866024780965183,
                50.656865264569724
              ],
              [
                5.866578590423814,
                50.656840798813185
              ],
              [
                5.867125959534454,
                50.65678194174812
              ],
              [
                5.8676616156844155,
                50.65668926032614
              ],
              [
                5.86818039916338,
                50.656563647313945
              ],
              [
                5.868677312894554,
                50.6564063126881
              ],
              [
                5.869147570594138,
                50.6562187719725
              ],
              [
                5.869586642894048,
                50.656002831631326
              ],
              [
                5.869990300982532,
                50.655760571658504
              ],
              [
                5.870354657341679,
                50.655494325532075
              ],
              [
                5.870676203189022,
                50.65520665772677
              ],
              [
                5.8709518422625395,
                50.654900339002175
              ],
              [
                5.871178920623968,
                50.654578319704974
              ],
              [
                5.871355252193959,
                50.65424370134268
              ],
              [
                5.871479139774112,
                50.65389970670356
              ],
              [
                5.871549391354586,
                50.653549648810575
              ],
              [
                5.871565331551712,
                50.65319689900868
              ],
              [
                5.87152680806706,
                50.65284485449326
              ],
              [
                5.871434193107476,
                50.652496905592486
              ],
              [
                5.871288379754248,
                50.6521564031186
              ],
              [
                5.871090773318102,
                50.6518266261026
              ],
              [
                5.870843277765008,
                50.651510750222855
              ],
              [
                5.8705482773450735,
                50.651211817231356
              ],
              [
                5.870547996925583,
                50.6512115868043
              ],
              [
                5.8705442771264575,
                50.65120781738843
              ],
              [
                5.870204613436575,
                50.650928705816916
              ]
            ]
          ]
        ]
      },
      "properties": {
        "type": "buffer_union_400m",
        "buffer_m": 400
      }
    },
    {
      "type": "Feature",
      "geometry": {
        "type": "Polygon",
        "coordinates": [
          [
            [
              5.8254572,
              50.6678934
            ],
            [
              5.8250394,
              50.6683249
            ],
            [
              5.8260646,
              50.6689768
            ],
            [
              5.8264057,
              50.6694087
            ],
            [
              5.8283469,
              50.6710601
            ],
            [
              5.8287166,
              50.6711922
            ],
            [
              5.8301317,
              50.6712735
            ],
            [
              5.8307999,
              50.6711085
            ],
            [
              5.8314598,
              50.6708024
            ],
            [
              5.8314503,
              50.6705282
            ],
            [
              5.8315871,
              50.6704011
            ],
            [
              5.8319593,
              50.6703439
            ],
            [
              5.8323817,
              50.6699923
            ],
            [
              5.8332283,
              50.6697112
            ],
            [
              5.8337456,
              50.6699595
            ],
            [
              5.8347018,
              50.6700666
            ],
            [
              5.835135,
              50.6702443
            ],
            [
              5.8378776,
              50.6723544
            ],
            [
              5.8382893,
              50.672404
            ],
            [
              5.8384207,
              50.6725213
            ],
            [
              5.8399381,
              50.672873
            ],
            [
              5.8400354,
              50.6730176
            ],
            [
              5.8400015,
              50.673401
            ],
            [
              5.8413282,
              50.6738293
            ],
            [
              5.8428708,
              50.674203
            ],
            [
              5.8436465,
              50.6741292
            ],
            [
              5.845939,
              50.675028
            ],
            [
              5.8464747,
              50.6753646
            ],
            [
              5.8470498,
              50.6751255
            ],
            [
              5.8466806,
              50.6757042
            ],
            [
              5.8468495,
              50.6759782
            ],
            [
              5.8468703,
              50.6761886
            ],
            [
              5.8467919,
              50.6762379
            ],
            [
              5.8466303,
              50.6761444
            ],
            [
              5.8461059,
              50.6763887
            ],
            [
              5.8459973,
              50.6765143
            ],
            [
              5.8462635,
              50.676639
            ],
            [
              5.8463473,
              50.676761
            ],
            [
              5.8461266,
              50.6771259
            ],
            [
              5.8466457,
              50.6771846
            ],
            [
              5.8464378,
              50.6777786
            ],
            [
              5.8454655,
              50.6783901
            ],
            [
              5.8426871,
              50.6795877
            ],
            [
              5.8421208,
              50.6803275
            ],
            [
              5.8416025,
              50.6803072
            ],
            [
              5.8413124,
              50.6803823
            ],
            [
              5.8411297,
              50.6805099
            ],
            [
              5.8403666,
              50.6807487
            ],
            [
              5.8400059,
              50.6810984
            ],
            [
              5.8397162,
              50.6811366
            ],
            [
              5.8393319,
              50.6810557
            ],
            [
              5.8393581,
              50.6812229
            ],
            [
              5.8392508,
              50.6813767
            ],
            [
              5.838532,
              50.6815152
            ],
            [
              5.8383622,
              50.6818464
            ],
            [
              5.8384609,
              50.6820998
            ],
            [
              5.8384207,
              50.6821908
            ],
            [
              5.8381028,
              50.6824686
            ],
            [
              5.8373498,
              50.6826998
            ],
            [
              5.8375277,
              50.6829606
            ],
            [
              5.8374135,
              50.6831119
            ],
            [
              5.8378007,
              50.6833714
            ],
            [
              5.8369844,
              50.6840007
            ],
            [
              5.8370816,
              50.6841813
            ],
            [
              5.8369774,
              50.6843439
            ],
            [
              5.8366796,
              50.6845694
            ],
            [
              5.8362351,
              50.6847472
            ],
            [
              5.8366927,
              50.6850171
            ],
            [
              5.8369321,
              50.6850416
            ],
            [
              5.8373156,
              50.6852527
            ],
            [
              5.8371346,
              50.6854184
            ],
            [
              5.8373927,
              50.6856729
            ],
            [
              5.8377307,
              50.6857035
            ],
            [
              5.8379982,
              50.6858446
            ],
            [
              5.8384334,
              50.6859333
            ],
            [
              5.8391502,
              50.6859168
            ],
            [
              5.8396763,
              50.685803
            ],
            [
              5.8400143,
              50.6854626
            ],
            [
              5.840026,
              50.6852532
            ],
            [
              5.8401561,
              50.6851809
            ],
            [
              5.8405805,
              50.6852162
            ],
            [
              5.8408878,
              50.6853432
            ],
            [
              5.8417574,
              50.6849146
            ],
            [
              5.8420135,
              50.6848627
            ],
            [
              5.8429056,
              50.6849317
            ],
            [
              5.8435625,
              50.685079
            ],
            [
              5.8437851,
              50.6850475
            ],
            [
              5.8445325,
              50.685619
            ],
            [
              5.8450216,
              50.6855497
            ],
            [
              5.8451222,
              50.6854401
            ],
            [
              5.8454568,
              50.6853516
            ],
            [
              5.8459,
              50.6854435
            ],
            [
              5.8459092,
              50.6855784
            ],
            [
              5.8470494,
              50.6857859
            ],
            [
              5.8474685,
              50.6859449
            ],
            [
              5.8479398,
              50.6858284
            ],
            [
              5.8485541,
              50.6861334
            ],
            [
              5.8485755,
              50.6862991
            ],
            [
              5.8486961,
              50.6863832
            ],
            [
              5.8493279,
              50.6863034
            ],
            [
              5.8496629,
              50.6861313
            ],
            [
              5.8501269,
              50.6861179
            ],
            [
              5.8506498,
              50.6864191
            ],
            [
              5.8509689,
              50.686429
            ],
            [
              5.8519832,
              50.6867302
            ],
            [
              5.8521885,
              50.686752
            ],
            [
              5.8523963,
              50.6866246
            ],
            [
              5.8530784,
              50.6866674
            ],
            [
              5.8532238,
              50.6867588
            ],
            [
              5.8531246,
              50.6869593
            ],
            [
              5.8534734,
              50.6871574
            ],
            [
              5.8541304,
              50.6872329
            ],
            [
              5.8559167,
              50.6876739
            ],
            [
              5.8569051,
              50.6877062
            ],
            [
              5.8573973,
              50.6881106
            ],
            [
              5.8575971,
              50.6881361
            ],
            [
              5.8579472,
              50.6880282
            ],
            [
              5.8590031,
              50.6883127
            ],
            [
              5.8595428,
              50.6886216
            ],
            [
              5.8598757,
              50.6885847
            ],
            [
              5.8599186,
              50.6886654
            ],
            [
              5.8596888,
              50.688929
            ],
            [
              5.8598789,
              50.6889889
            ],
            [
              5.8604899,
              50.689018
            ],
            [
              5.8607796,
              50.6888812
            ],
            [
              5.8609982,
              50.689024
            ],
            [
              5.86146,
              50.6889397
            ],
            [
              5.8613862,
              50.6887596
            ],
            [
              5.8614254,
              50.6885939
            ],
            [
              5.8618511,
              50.6885091
            ],
            [
              5.8623098,
              50.6887113
            ],
            [
              5.8625695,
              50.688629
            ],
            [
              5.8632924,
              50.688761
            ],
            [
              5.8643168,
              50.6885771
            ],
            [
              5.8646286,
              50.6890002
            ],
            [
              5.8648649,
              50.6890372
            ],
            [
              5.8648571,
              50.6894903
            ],
            [
              5.8649987,
              50.6895431
            ],
            [
              5.8653233,
              50.6900011
            ],
            [
              5.8655429,
              50.6899743
            ],
            [
              5.8658757,
              50.6900847
            ],
            [
              5.8660313,
              50.6900716
            ],
            [
              5.8660823,
              50.6899942
            ],
            [
              5.866352,
              50.6901013
            ],
            [
              5.8666636,
              50.6903798
            ],
            [
              5.8673818,
              50.6908103
            ],
            [
              5.8674617,
              50.690986
            ],
            [
              5.868073,
              50.6913435
            ],
            [
              5.8683488,
              50.691416
            ],
            [
              5.8683924,
              50.6914547
            ],
            [
              5.8680148,
              50.6916611
            ],
            [
              5.8681496,
              50.6918608
            ],
            [
              5.8681067,
              50.6919373
            ],
            [
              5.8682207,
              50.692035
            ],
            [
              5.8688168,
              50.6918791
            ],
            [
              5.8687424,
              50.6920813
            ],
            [
              5.8688222,
              50.6922367
            ],
            [
              5.8691749,
              50.6920069
            ],
            [
              5.8692902,
              50.6920919
            ],
            [
              5.8691829,
              50.6922898
            ],
            [
              5.8692533,
              50.6923774
            ],
            [
              5.8697838,
              50.6922949
            ],
            [
              5.869883,
              50.6924249
            ],
            [
              5.8701834,
              50.6924088
            ],
            [
              5.8699742,
              50.6925736
            ],
            [
              5.8699152,
              50.6927401
            ],
            [
              5.8706716,
              50.6928157
            ],
            [
              5.8708875,
              50.692961
            ],
            [
              5.8711343,
              50.6929839
            ],
            [
              5.8712186,
              50.6931905
            ],
            [
              5.8714392,
              50.693333
            ],
            [
              5.8719181,
              50.6933679
            ],
            [
              5.8721395,
              50.6934725
            ],
            [
              5.8720718,
              50.6936498
            ],
            [
              5.8724533,
              50.693668
            ],
            [
              5.8727707,
              50.6938859
            ],
            [
              5.872821,
              50.6941145
            ],
            [
              5.8729216,
              50.6941728
            ],
            [
              5.8728837,
              50.6942893
            ],
            [
              5.8731426,
              50.6946272
            ],
            [
              5.8733705,
              50.6945806
            ],
            [
              5.8738399,
              50.6946745
            ],
            [
              5.8738151,
              50.6949642
            ],
            [
              5.8735335,
              50.6949897
            ],
            [
              5.8738285,
              50.6953057
            ],
            [
              5.8738661,
              50.6954722
            ],
            [
              5.8736971,
              50.6954484
            ],
            [
              5.8735496,
              50.6956056
            ],
            [
              5.8735442,
              50.695914
            ],
            [
              5.8732773,
              50.6964152
            ],
            [
              5.8734628,
              50.6964978
            ],
            [
              5.8734986,
              50.696862
            ],
            [
              5.8738527,
              50.696896
            ],
            [
              5.8740404,
              50.6974702
            ],
            [
              5.8745393,
              50.6975603
            ],
            [
              5.8745152,
              50.6977387
            ],
            [
              5.8746305,
              50.6978219
            ],
            [
              5.8748397,
              50.6977438
            ],
            [
              5.8754593,
              50.697776
            ],
            [
              5.87619,
              50.6979573
            ],
            [
              5.8763444,
              50.6980716
            ],
            [
              5.8765,
              50.6980581
            ],
            [
              5.8766954,
              50.6981975
            ],
            [
              5.8779997,
              50.6982587
            ],
            [
              5.8786795,
              50.6982131
            ],
            [
              5.8791116,
              50.6977892
            ],
            [
              5.8791203,
              50.6976842
            ],
            [
              5.8789629,
              50.6976252
            ],
            [
              5.879382,
              50.6974201
            ],
            [
              5.8792694,
              50.6972816
            ],
            [
              5.8797804,
              50.6972604
            ],
            [
              5.8798595,
              50.6971653
            ],
            [
              5.8798327,
              50.6970402
            ],
            [
              5.8799494,
              50.6969648
            ],
            [
              5.8802213,
              50.6971685
            ],
            [
              5.8804502,
              50.6971688
            ],
            [
              5.880621,
              50.6968363
            ],
            [
              5.8810072,
              50.6968752
            ],
            [
              5.8813423,
              50.6967888
            ],
            [
              5.8814862,
              50.6966322
            ],
            [
              5.8813845,
              50.6963932
            ],
            [
              5.8817229,
              50.6961964
            ],
            [
              5.8816579,
              50.6961386
            ],
            [
              5.8817048,
              50.6960966
            ],
            [
              5.8819583,
              50.6961408
            ],
            [
              5.8819811,
              50.6960189
            ],
            [
              5.8822926,
              50.6959225
            ],
            [
              5.8822849,
              50.6957264
            ],
            [
              5.8824518,
              50.6955858
            ],
            [
              5.8827066,
              50.6956527
            ],
            [
              5.8829058,
              50.6954246
            ],
            [
              5.8833336,
              50.6953279
            ],
            [
              5.8836662,
              50.6950323
            ],
            [
              5.8837616,
              50.6947497
            ],
            [
              5.8836677,
              50.6945198
            ],
            [
              5.8838614,
              50.6943064
            ],
            [
              5.8844461,
              50.6941372
            ],
            [
              5.884508,
              50.6939385
            ],
            [
              5.8842525,
              50.6937226
            ],
            [
              5.8844693,
              50.6931118
            ],
            [
              5.8844616,
              50.6927807
            ],
            [
              5.8842834,
              50.6922876
            ],
            [
              5.8844035,
              50.691694
            ],
            [
              5.8841025,
              50.6913315
            ],
            [
              5.8841107,
              50.691054
            ],
            [
              5.8846885,
              50.6908129
            ],
            [
              5.8847022,
              50.6904451
            ],
            [
              5.8848445,
              50.6903428
            ],
            [
              5.8853417,
              50.6901144
            ],
            [
              5.8856205,
              50.690112
            ],
            [
              5.8862478,
              50.6901659
            ],
            [
              5.8871849,
              50.6904309
            ],
            [
              5.8877379,
              50.6903968
            ],
            [
              5.8878982,
              50.6906443
            ],
            [
              5.8878669,
              50.6909944
            ],
            [
              5.8879958,
              50.6910151
            ],
            [
              5.8891696,
              50.6910187
            ],
            [
              5.889928,
              50.6908687
            ],
            [
              5.891204,
              50.6908973
            ],
            [
              5.8914217,
              50.6908236
            ],
            [
              5.8919638,
              50.6903257
            ],
            [
              5.8925615,
              50.6900884
            ],
            [
              5.8927996,
              50.6901902
            ],
            [
              5.8930223,
              50.6901522
            ],
            [
              5.8933475,
              50.690454
            ],
            [
              5.8937367,
              50.6903718
            ],
            [
              5.8936967,
              50.6901087
            ],
            [
              5.893913,
              50.6899552
            ],
            [
              5.8939677,
              50.6898034
            ],
            [
              5.8942374,
              50.6896013
            ],
            [
              5.8948056,
              50.6893663
            ],
            [
              5.894945,
              50.689217
            ],
            [
              5.895136,
              50.6892789
            ],
            [
              5.8953203,
              50.6889605
            ],
            [
              5.8956464,
              50.6889241
            ],
            [
              5.8957761,
              50.6887107
            ],
            [
              5.8961479,
              50.6887806
            ],
            [
              5.896266,
              50.6887303
            ],
            [
              5.8963686,
              50.6885427
            ],
            [
              5.8970268,
              50.6884085
            ],
            [
              5.8973074,
              50.6884995
            ],
            [
              5.8983784,
              50.6879335
            ],
            [
              5.8983674,
              50.6877791
            ],
            [
              5.8984578,
              50.6876403
            ],
            [
              5.8992298,
              50.6871765
            ],
            [
              5.8992529,
              50.6870557
            ],
            [
              5.9000584,
              50.6869124
            ],
            [
              5.9002303,
              50.6865936
            ],
            [
              5.9004657,
              50.6864892
            ],
            [
              5.9010249,
              50.6859849
            ],
            [
              5.9015278,
              50.6857118
            ],
            [
              5.9018528,
              50.6857122
            ],
            [
              5.9020746,
              50.6855958
            ],
            [
              5.9031027,
              50.6846328
            ],
            [
              5.9030837,
              50.6844906
            ],
            [
              5.9032387,
              50.6844638
            ],
            [
              5.9032446,
              50.6843776
            ],
            [
              5.9035108,
              50.6842218
            ],
            [
              5.9035448,
              50.6841405
            ],
            [
              5.9034454,
              50.6840262
            ],
            [
              5.9036808,
              50.6839135
            ],
            [
              5.9035814,
              50.6838505
            ],
            [
              5.9039189,
              50.6837908
            ],
            [
              5.9040209,
              50.6836648
            ],
            [
              5.9044342,
              50.6835936
            ],
            [
              5.9047246,
              50.6834295
            ],
            [
              5.9051466,
              50.6827915
            ],
            [
              5.905093,
              50.682564
            ],
            [
              5.9053235,
              50.6822565
            ],
            [
              5.9052163,
              50.6821547
            ],
            [
              5.9053155,
              50.6820681
            ],
            [
              5.9052538,
              50.6820257
            ],
            [
              5.9053101,
              50.6819645
            ],
            [
              5.905554,
              50.6819781
            ],
            [
              5.9056586,
              50.6818609
            ],
            [
              5.9056157,
              50.6817607
            ],
            [
              5.9059536,
              50.6813865
            ],
            [
              5.9063551,
              50.6812319
            ],
            [
              5.9063776,
              50.6810916
            ],
            [
              5.9062725,
              50.6809656
            ],
            [
              5.9072331,
              50.6807065
            ],
            [
              5.907883,
              50.6803314
            ],
            [
              5.9080502,
              50.680323
            ],
            [
              5.9081192,
              50.6805012
            ],
            [
              5.9082678,
              50.6805096
            ],
            [
              5.9085464,
              50.6803482
            ],
            [
              5.9091274,
              50.6802372
            ],
            [
              5.9095587,
              50.6800596
            ],
            [
              5.909908,
              50.6801237
            ],
            [
              5.910287,
              50.6800832
            ],
            [
              5.9110431,
              50.6799382
            ],
            [
              5.9118499,
              50.679635
            ],
            [
              5.9147929,
              50.6792995
            ],
            [
              5.916666,
              50.6782515
            ],
            [
              5.9188088,
              50.6762498
            ],
            [
              5.9162293,
              50.6750577
            ],
            [
              5.9095006,
              50.6736406
            ],
            [
              5.9060133,
              50.6726769
            ],
            [
              5.905194,
              50.6723037
            ],
            [
              5.9046176,
              50.6718745
            ],
            [
              5.9047692,
              50.6717759
            ],
            [
              5.9038022,
              50.67062
            ],
            [
              5.9031115,
              50.6699468
            ],
            [
              5.9029449,
              50.670025
            ],
            [
              5.9020802,
              50.6692991
            ],
            [
              5.901517,
              50.6689472
            ],
            [
              5.9016538,
              50.6688588
            ],
            [
              5.8982376,
              50.6671197
            ],
            [
              5.8966256,
              50.6661235
            ],
            [
              5.8973713,
              50.6642755
            ],
            [
              5.8986658,
              50.660381
            ],
            [
              5.9002037,
              50.6583184
            ],
            [
              5.8998084,
              50.6566062
            ],
            [
              5.8981598,
              50.6536925
            ],
            [
              5.8981759,
              50.6533252
            ],
            [
              5.8987151,
              50.6512556
            ],
            [
              5.8989806,
              50.6491655
            ],
            [
              5.900995,
              50.6468635
            ],
            [
              5.9016967,
              50.6465386
            ],
            [
              5.9033807,
              50.6452404
            ],
            [
              5.9020132,
              50.6447187
            ],
            [
              5.900656,
              50.644416
            ],
            [
              5.8982098,
              50.6435247
            ],
            [
              5.8960614,
              50.6426215
            ],
            [
              5.8933265,
              50.6395181
            ],
            [
              5.8901632,
              50.6381853
            ],
            [
              5.8901149,
              50.638039
            ],
            [
              5.8869472,
              50.6361694
            ],
            [
              5.886122,
              50.6355445
            ],
            [
              5.8844183,
              50.6338453
            ],
            [
              5.8835113,
              50.6336678
            ],
            [
              5.8823876,
              50.6336409
            ],
            [
              5.8814594,
              50.6334313
            ],
            [
              5.8809796,
              50.6331021
            ],
            [
              5.8791326,
              50.6327399
            ],
            [
              5.8787236,
              50.632516
            ],
            [
              5.8782931,
              50.6320464
            ],
            [
              5.8766106,
              50.630652
            ],
            [
              5.8749598,
              50.6301915
            ],
            [
              5.8741423,
              50.6296458
            ],
            [
              5.8723634,
              50.6293723
            ],
            [
              5.8715614,
              50.6293887
            ],
            [
              5.8695099,
              50.6291972
            ],
            [
              5.8694028,
              50.6293381
            ],
            [
              5.8693274,
              50.6291802
            ],
            [
              5.8690301,
              50.6291516
            ],
            [
              5.8685271,
              50.6288742
            ],
            [
              5.8654279,
              50.6276217
            ],
            [
              5.8643979,
              50.6274212
            ],
            [
              5.8634527,
              50.6273429
            ],
            [
              5.8619477,
              50.6267903
            ],
            [
              5.8608158,
              50.626487
            ],
            [
              5.8607694,
              50.6265673
            ],
            [
              5.8605518,
              50.6264701
            ],
            [
              5.8607266,
              50.6266453
            ],
            [
              5.8607395,
              50.6267596
            ],
            [
              5.8603793,
              50.627258
            ],
            [
              5.8599588,
              50.6281184
            ],
            [
              5.859416,
              50.6297424
            ],
            [
              5.85972,
              50.6302094
            ],
            [
              5.859704,
              50.6306718
            ],
            [
              5.8592162,
              50.6311645
            ],
            [
              5.8584977,
              50.6314585
            ],
            [
              5.8583802,
              50.6317411
            ],
            [
              5.8574845,
              50.6320486
            ],
            [
              5.8573249,
              50.6326712
            ],
            [
              5.8573359,
              50.6329955
            ],
            [
              5.8571272,
              50.6336009
            ],
            [
              5.8565129,
              50.6343147
            ],
            [
              5.8563156,
              50.6346614
            ],
            [
              5.8555097,
              50.634273
            ],
            [
              5.8549523,
              50.634614
            ],
            [
              5.8545944,
              50.6344121
            ],
            [
              5.853976,
              50.634247
            ],
            [
              5.8532275,
              50.6353009
            ],
            [
              5.8526225,
              50.6350814
            ],
            [
              5.8524065,
              50.6355393
            ],
            [
              5.8514057,
              50.6353043
            ],
            [
              5.8511874,
              50.6355707
            ],
            [
              5.8507578,
              50.6354302
            ],
            [
              5.8504817,
              50.6357421
            ],
            [
              5.8509951,
              50.6366415
            ],
            [
              5.8501418,
              50.6371891
            ],
            [
              5.8493254,
              50.6373402
            ],
            [
              5.8497611,
              50.6375644
            ],
            [
              5.8502639,
              50.63805
            ],
            [
              5.8503255,
              50.6385883
            ],
            [
              5.8495438,
              50.6389405
            ],
            [
              5.8497271,
              50.6392037
            ],
            [
              5.8488446,
              50.6393342
            ],
            [
              5.8489752,
              50.6402674
            ],
            [
              5.849061,
              50.6404102
            ],
            [
              5.8486366,
              50.6403956
            ],
            [
              5.847844,
              50.6401194
            ],
            [
              5.8468873,
              50.6407707
            ],
            [
              5.8460652,
              50.6405046
            ],
            [
              5.8461146,
              50.6405905
            ],
            [
              5.8458728,
              50.6409833
            ],
            [
              5.844567,
              50.6411927
            ],
            [
              5.8436168,
              50.6421774
            ],
            [
              5.8420594,
              50.6426547
            ],
            [
              5.8421045,
              50.6431015
            ],
            [
              5.8419094,
              50.6437498
            ],
            [
              5.8412098,
              50.644213
            ],
            [
              5.84026,
              50.6442282
            ],
            [
              5.8397618,
              50.6443165
            ],
            [
              5.839633,
              50.6445563
            ],
            [
              5.8392192,
              50.6448843
            ],
            [
              5.839401,
              50.6459051
            ],
            [
              5.8395029,
              50.6460387
            ],
            [
              5.8388284,
              50.6461058
            ],
            [
              5.8373317,
              50.6470038
            ],
            [
              5.8364573,
              50.6477011
            ],
            [
              5.834878,
              50.6492876
            ],
            [
              5.8344081,
              50.6500498
            ],
            [
              5.8342802,
              50.6504247
            ],
            [
              5.8345141,
              50.6504758
            ],
            [
              5.8345878,
              50.6514571
            ],
            [
              5.8342874,
              50.6520863
            ],
            [
              5.833649,
              50.6527214
            ],
            [
              5.8332333,
              50.6530105
            ],
            [
              5.832953,
              50.6530326
            ],
            [
              5.8325933,
              50.6532696
            ],
            [
              5.8322462,
              50.6533653
            ],
            [
              5.8323897,
              50.6537894
            ],
            [
              5.8322912,
              50.6539977
            ],
            [
              5.8326244,
              50.6543846
            ],
            [
              5.8326905,
              50.654626
            ],
            [
              5.832546,
              50.655427
            ],
            [
              5.8325721,
              50.6561403
            ],
            [
              5.8320987,
              50.6573157
            ],
            [
              5.8318942,
              50.6580652
            ],
            [
              5.8314966,
              50.6586612
            ],
            [
              5.8312592,
              50.659218
            ],
            [
              5.8311197,
              50.659939
            ],
            [
              5.8292142,
              50.6618084
            ],
            [
              5.8288884,
              50.6623889
            ],
            [
              5.8286246,
              50.6636164
            ],
            [
              5.8282689,
              50.6640385
            ],
            [
              5.8275564,
              50.6652742
            ],
            [
              5.8272411,
              50.6656551
            ],
            [
              5.8267973,
              50.6661319
            ],
            [
              5.825641,
              50.6670599
            ],
            [
              5.8254401,
              50.6674163
            ],
            [
              5.8254572,
              50.6678934
            ]
          ]
        ]
      },
      "properties": {
        "type": "boundary",
        "gemeente": "Thimister-Clermont"
      }
    }
  ]
}