{"type":"FeatureCollection","metadata":{"gemeente":"Vleteren","slug":"vleteren","generated_at":"2026-09-29T08:27:17.108520Z","total_points":15,"providers":["bpost","DHL","GLS","VintedGo","PostNL","DPD","Amazon","ViaTim"],"bounds":[2.7331705,50.90124,2.788662,50.9361046]},"features":[{"type":"Feature","geometry":{"type":"Point","coordinates":[2.78866,50.90124]},"properties":{"type":"pakketpunt","locatieNaam":"Vleteren","straatNaam":"Woestendorp","straatNr":"12","vervoerder":"bpost","puntType":"postkantoor","bezettingsgraad":50,"latitude":50.90124,"longitude":2.78866,"canPickup":true,"canDropoff":true,"openingstijden":null}},{"type":"Feature","geometry":{"type":"Point","coordinates":[2.75878,50.9192]},"properties":{"type":"pakketpunt","locatieNaam":"Pakjesautomaat 24/7 Maberry Vleteren","straatNaam":"Woestenstraat","straatNr":"44","vervoerder":"bpost","puntType":"automaat","bezettingsgraad":50,"latitude":50.9192,"longitude":2.75878,"canPickup":true,"canDropoff":true,"openingstijden":null}},{"type":"Feature","geometry":{"type":"Point","coordinates":[2.7334,50.93597]},"properties":{"type":"pakketpunt","locatieNaam":"Bbox 24/7 Mabesoone Vleteren","straatNaam":"Veurnestraat","straatNr":"27","vervoerder":"bpost","puntType":"automaat","bezettingsgraad":50,"latitude":50.93597,"longitude":2.7334,"canPickup":true,"canDropoff":true,"openingstijden":null}},{"type":"Feature","geometry":{"type":"Point","coordinates":[2.758778,50.919198]},"properties":{"type":"pakketpunt","locatieNaam":"PARCEL LOCKER 24/7 MABERRY VLETEREN","straatNaam":"WOESTENSTRAAT","straatNr":"44","vervoerder":"DHL","puntType":"packStation","bezettingsgraad":50,"latitude":50.919198,"longitude":2.758778,"canPickup":true,"canDropoff":true,"openingstijden":{"ma":"00:00 - 23:59","di":"00:00 - 23:59","wo":"00:00 - 23:59","do":"00:00 - 23:59","vr":"00:00 - 23:59","za":"00:00 - 23:59","zo":"00:00 - 23:59"}}},{"type":"Feature","geometry":{"type":"Point","coordinates":[2.7334,50.935971]},"properties":{"type":"pakketpunt","locatieNaam":"BBOX 24/7 MABESOONE VLETEREN","straatNaam":"VEURNESTRAAT","straatNr":"27","vervoerder":"DHL","puntType":"packStation","bezettingsgraad":50,"latitude":50.935971,"longitude":2.7334,"canPickup":true,"canDropoff":true,"openingstijden":{"ma":"00:00 - 23:59","di":"00:00 - 23:59","wo":"00:00 - 23:59","do":"00:00 - 23:59","vr":"00:00 - 23:59","za":"00:00 - 23:59","zo":"00:00 - 23:59"}}},{"type":"Feature","geometry":{"type":"Point","coordinates":[2.788662,50.901242]},"properties":{"type":"pakketpunt","locatieNaam":"VLETEREN","straatNaam":"WOESTENDORP","straatNr":"12","vervoerder":"DHL","puntType":"postOffice","bezettingsgraad":50,"latitude":50.901242,"longitude":2.788662,"canPickup":true,"canDropoff":true,"openingstijden":{"ma":"14:30 - 17:00","di":"14:30 - 18:00","wo":"09:30 - 12:30","do":"14:30 - 18:00","vr":"14:30 - 17:00","za":"gesloten","zo":"gesloten"}}},{"type":"Feature","geometry":{"type":"Point","coordinates":[2.7425619,50.9320558]},"properties":{"type":"pakketpunt","locatieNaam":"ViaTim + Pascale","straatNaam":"Edmond Devloostraat","straatNr":"31","vervoerder":"GLS","puntType":"parcel_shop","bezettingsgraad":50,"latitude":50.9320558,"longitude":2.7425619,"canPickup":true,"canDropoff":true,"openingstijden":"di: 17:00 - 22:00; wo: 13:00 - 22:00"}},{"type":"Feature","geometry":{"type":"Point","coordinates":[2.7331705,50.9361046]},"properties":{"type":"pakketpunt","locatieNaam":"GLS Parcel Locker powered by bbox","straatNaam":"Veurnestraat","straatNr":"27","vervoerder":"GLS","puntType":"locker","bezettingsgraad":50,"latitude":50.9361046,"longitude":2.7331705,"canPickup":true,"canDropoff":true,"openingstijden":"di: 00:00 - 24:00; wo: 00:00 - 24:00"}},{"type":"Feature","geometry":{"type":"Point","coordinates":[2.7341,50.93367]},"properties":{"type":"pakketpunt","locatieNaam":"AVEVE Oostvleteren - Debruyne Agro","straatNaam":"Fleternalaan","straatNr":"2","vervoerder":"VintedGo","puntType":"parcel_shop","bezettingsgraad":50,"latitude":50.93367,"longitude":2.7341,"canPickup":true,"canDropoff":true,"openingstijden":null}},{"type":"Feature","geometry":{"type":"Point","coordinates":[2.736823,50.9317417]},"properties":{"type":"pakketpunt","locatieNaam":"AVEVE Oostvleteren","straatNaam":"Fleternalaan","straatNr":"2","vervoerder":"PostNL","puntType":"servicepunt","bezettingsgraad":50,"latitude":50.9317417,"longitude":2.736823,"canPickup":true,"canDropoff":true,"openingstijden":"09:00 - 12:00, 13:30 - 18:00"}},{"type":"Feature","geometry":{"type":"Point","coordinates":[2.7341,50.93367]},"properties":{"type":"pakketpunt","locatieNaam":"AVEVE OOSTVLETEREN - DEBRUYNE AGRO","straatNaam":"FLETERNALAAN","straatNr":"2","vervoerder":"DPD","puntType":"pickup_point","bezettingsgraad":50,"latitude":50.93367,"longitude":2.7341,"canPickup":true,"canDropoff":true,"openingstijden":{"ma":"gesloten","di":"09:00 - 12:00, 13:30 - 18:30","wo":"09:00 - 12:00, 13:30 - 18:30","do":"09:00 - 12:00, 13:30 - 18:30","vr":"09:00 - 12:00, 13:30 - 18:30","za":"09:00 - 12:00, 13:30 - 17:00","zo":"gesloten"}}},{"type":"Feature","geometry":{"type":"Point","coordinates":[2.7435895,50.9318904]},"properties":{"type":"pakketpunt","locatieNaam":"DPD BUURTPUNT VIATIM EN PASCALE","straatNaam":"EDMOND DEVLOOSTRAAT","straatNr":"31","vervoerder":"DPD","puntType":"pickup_point","bezettingsgraad":50,"latitude":50.9318904,"longitude":2.7435895,"canPickup":true,"canDropoff":false,"openingstijden":{"ma":"15:00 - 22:00","di":"17:00 - 22:00","wo":"13:00 - 22:00","do":"17:00 - 22:00","vr":"13:00 - 18:00","za":"08:00 - 12:00","zo":"gesloten"}}},{"type":"Feature","geometry":{"type":"Point","coordinates":[2.7334,50.935971]},"properties":{"type":"pakketpunt","locatieNaam":"bpost - BBOX 24/7 MABESOONE VLETEREN","straatNaam":"VEURNESTRAAT,27","straatNr":"","vervoerder":"Amazon","puntType":"3p","bezettingsgraad":50,"latitude":50.935971,"longitude":2.7334,"canPickup":true,"canDropoff":false,"openingstijden":null}},{"type":"Feature","geometry":{"type":"Point","coordinates":[2.788662,50.901242]},"properties":{"type":"pakketpunt","locatieNaam":"bpost - VLETEREN","straatNaam":"WOESTENDORP,12","straatNr":"","vervoerder":"Amazon","puntType":"3p","bezettingsgraad":50,"latitude":50.901242,"longitude":2.788662,"canPickup":true,"canDropoff":false,"openingstijden":null}},{"type":"Feature","geometry":{"type":"Point","coordinates":[2.742637,50.93188000000001]},"properties":{"type":"pakketpunt","locatieNaam":"ViaTim en Pascale","straatNaam":"Edmond Devloostraat","straatNr":"31","vervoerder":"ViaTim","puntType":"servicepunt","bezettingsgraad":50,"latitude":50.93188000000001,"longitude":2.742637,"canPickup":true,"canDropoff":true,"openingstijden":{"ma":"15:00 - 22:00","di":"17:00 - 22:00","wo":"13:00 - 22:00","do":"17:00 - 22:00","vr":"13:00 - 18:00","za":"08:00 - 12:00","zo":"gesloten"}}},{"type":"Feature","geometry":{"type":"Polygon","coordinates":[[[2.6988025,50.9271299],[2.6991435,50.9265769],[2.6970457,50.9258856],[2.6971613,50.9253949],[2.6970882,50.9240202],[2.6969873,50.9238365],[2.6974882,50.9229235],[2.6975388,50.9226521],[2.6974198,50.922147],[2.697267,50.9221434],[2.6971424,50.9215971],[2.6968861,50.9211055],[2.6967214,50.9202816],[2.6962018,50.9202133],[2.6959071,50.9197727],[2.6958675,50.9193795],[2.6959694,50.9187647],[2.6953297,50.9186049],[2.6950193,50.9183771],[2.6949213,50.9181215],[2.6944218,50.9181676],[2.6943213,50.9178871],[2.6944788,50.9174996],[2.69458,50.9167036],[2.6949401,50.9162669],[2.6949508,50.9158689],[2.6952709,50.915822],[2.6947134,50.9144971],[2.6948456,50.9141461],[2.6948496,50.9135592],[2.6951143,50.9134383],[2.6952648,50.9131483],[2.6950614,50.9130806],[2.6949575,50.9128031],[2.6951299,50.9122298],[2.6945491,50.9115014],[2.6947861,50.9112409],[2.6939919,50.9106414],[2.6940953,50.910403],[2.6939527,50.910149],[2.6914885,50.9083118],[2.6910099,50.9075707],[2.6909616,50.9068005],[2.6907594,50.9065952],[2.6904077,50.90656],[2.6902631,50.9062797],[2.690036,50.906136],[2.6902232,50.9057584],[2.6907219,50.9057259],[2.6910302,50.9052528],[2.6918612,50.9043464],[2.6930158,50.9039587],[2.6935296,50.9032905],[2.6941028,50.9029585],[2.6951448,50.9020708],[2.6951799,50.9014461],[2.6947475,50.9004322],[2.6944284,50.8993871],[2.6946652,50.8990504],[2.6943399,50.8986478],[2.694723,50.8980606],[2.694173,50.8978875],[2.6946169,50.8959208],[2.6952135,50.8941846],[2.6953937,50.8942373],[2.6956746,50.8941449],[2.695717,50.8939656],[2.6962798,50.8940144],[2.6970374,50.8939212],[2.6974603,50.8935434],[2.6978163,50.8934039],[2.6980753,50.8934217],[2.6986808,50.8925176],[2.6988231,50.8921995],[2.6973661,50.8915675],[2.7000981,50.8878351],[2.7005494,50.8873282],[2.6989363,50.8865347],[2.7011776,50.8843296],[2.7014488,50.8838812],[2.7015028,50.8821208],[2.7023485,50.8823647],[2.7038115,50.8830276],[2.7041076,50.8828152],[2.7055939,50.8835011],[2.7078171,50.8842594],[2.7091496,50.8844511],[2.7097737,50.8846843],[2.7103554,50.8847706],[2.7114806,50.8852869],[2.7117882,50.8850609],[2.7119517,50.885206],[2.7122114,50.8851924],[2.7132688,50.8854039],[2.7134599,50.8852101],[2.7142705,50.8851041],[2.714718,50.8847081],[2.7151985,50.884771],[2.7156766,50.8847021],[2.7161948,50.8849731],[2.7166696,50.8850866],[2.7184583,50.8846181],[2.7196409,50.8847905],[2.71996,50.8847147],[2.7223511,50.8848123],[2.7226731,50.88462],[2.7230264,50.8848343],[2.7235081,50.8848363],[2.7241089,50.8850347],[2.7243571,50.8853477],[2.7249864,50.885558],[2.7256957,50.8859551],[2.7272956,50.8859993],[2.7281197,50.8857336],[2.7286824,50.8860109],[2.7302679,50.8846616],[2.7313623,50.8852471],[2.7325022,50.8857421],[2.734507,50.8869962],[2.7350435,50.8872153],[2.7355593,50.8866988],[2.7355752,50.8864883],[2.735533,50.8863612],[2.7343453,50.8857007],[2.7348814,50.8853821],[2.7344753,50.8849096],[2.7360039,50.8843834],[2.7359097,50.8843106],[2.7379805,50.88335],[2.7385343,50.8842927],[2.7385985,50.8845602],[2.738998,50.8845682],[2.7395943,50.884924],[2.7396041,50.8851923],[2.7394212,50.8859313],[2.7401671,50.8864312],[2.7417347,50.8858339],[2.7423913,50.8867077],[2.7426601,50.8865377],[2.7433745,50.8870064],[2.7445693,50.8862585],[2.7447457,50.8858312],[2.7455054,50.8859791],[2.7467092,50.8863749],[2.748308,50.886553],[2.7488328,50.8866813],[2.7493116,50.8865932],[2.7507973,50.8866902],[2.7509293,50.8866034],[2.7522843,50.886773],[2.7540825,50.8878587],[2.7543752,50.8876788],[2.754923,50.8879671],[2.7558675,50.8882332],[2.7562618,50.8886877],[2.7573633,50.8890757],[2.7587157,50.8881457],[2.7608747,50.8889797],[2.7604678,50.8896309],[2.7599736,50.890045],[2.7593577,50.8907619],[2.7622615,50.8915119],[2.7650928,50.8916557],[2.7651215,50.8918812],[2.7653266,50.891904],[2.7653548,50.8917737],[2.7682684,50.8893707],[2.7687614,50.8896745],[2.7690581,50.8894809],[2.770859,50.8905319],[2.7757965,50.8930052],[2.7777516,50.8906985],[2.778335,50.8901889],[2.778708,50.8901789],[2.7797723,50.8897407],[2.7801807,50.8898945],[2.7810598,50.889714],[2.7824076,50.8888196],[2.7843525,50.8879399],[2.7879766,50.8892336],[2.7880329,50.889185],[2.7896684,50.8895899],[2.7915576,50.8898172],[2.793533,50.8898953],[2.7952075,50.8901848],[2.7982796,50.8929429],[2.8005422,50.895271],[2.8004551,50.895342],[2.8011824,50.8959306],[2.802136,50.8973736],[2.8034914,50.898924],[2.8035334,50.8991473],[2.804564,50.8999749],[2.8069606,50.9010601],[2.8075285,50.9014771],[2.8078558,50.9020585],[2.8080145,50.9027098],[2.8080765,50.9034212],[2.8079508,50.9035636],[2.8078861,50.9038193],[2.8081381,50.9043534],[2.8082809,50.9043145],[2.8099462,50.9051057],[2.809686,50.9053484],[2.8103965,50.9056825],[2.8100334,50.9059333],[2.8103623,50.906086],[2.8093424,50.9066212],[2.8090754,50.9068709],[2.8102753,50.9072743],[2.8096091,50.9090406],[2.8096725,50.9091078],[2.8091199,50.9100277],[2.8076338,50.9110858],[2.8078049,50.9111226],[2.807412,50.9115619],[2.8056319,50.9110697],[2.8046195,50.9127509],[2.8043545,50.9128974],[2.8039517,50.9129717],[2.8044078,50.9132048],[2.8037956,50.9141949],[2.8035515,50.9148392],[2.8025389,50.9164087],[2.8016205,50.9171577],[2.8010416,50.9168283],[2.8006737,50.917094],[2.8002074,50.9168811],[2.7997255,50.9169037],[2.7994261,50.9165799],[2.7960115,50.9175539],[2.7955082,50.9170948],[2.7947268,50.9175053],[2.7949122,50.9176764],[2.7943199,50.9179673],[2.7935242,50.917241],[2.793003,50.9174523],[2.790748,50.9188329],[2.7904811,50.9189147],[2.7899949,50.9186917],[2.7832022,50.9113551],[2.7810313,50.9098797],[2.7783487,50.9077513],[2.777359,50.9082297],[2.7750698,50.90957],[2.7731198,50.9108469],[2.7706204,50.912339],[2.7700675,50.9119512],[2.7689382,50.9113944],[2.7663526,50.9096199],[2.7651885,50.9086449],[2.765018,50.9081656],[2.764659,50.9080881],[2.763643,50.9075698],[2.763155,50.9074534],[2.7627558,50.9086153],[2.7624307,50.9090871],[2.7611383,50.9102956],[2.760638,50.9110568],[2.7588639,50.9122218],[2.7598249,50.9129366],[2.7609226,50.9135033],[2.7623316,50.9147136],[2.7625905,50.9149692],[2.7641514,50.9173236],[2.7660429,50.9162895],[2.7675824,50.9166254],[2.769269,50.9173697],[2.7700882,50.9178311],[2.7704389,50.9185355],[2.768507,50.9198377],[2.767252,50.9217252],[2.7668954,50.9221166],[2.7640397,50.9239767],[2.7633638,50.9247033],[2.763087,50.9253417],[2.7627933,50.9265894],[2.761823,50.9285543],[2.7618082,50.9286974],[2.761992,50.9290501],[2.7619801,50.9292828],[2.7615916,50.9299527],[2.7611216,50.9314894],[2.7602373,50.9321994],[2.7591509,50.9325461],[2.7581209,50.93318],[2.7577615,50.9334869],[2.7571146,50.9343607],[2.7568831,50.9345637],[2.7566189,50.9346553],[2.7561823,50.9345968],[2.7559351,50.9346539],[2.7555544,50.9353598],[2.7547814,50.935786],[2.7561093,50.9365021],[2.7578824,50.937144],[2.7565368,50.9384735],[2.7554174,50.9380852],[2.755083,50.9392798],[2.7540281,50.9411859],[2.7538893,50.941595],[2.7536922,50.941627],[2.7536376,50.9424888],[2.7533618,50.9431819],[2.7544927,50.9434343],[2.7505919,50.9475348],[2.7554431,50.9487762],[2.7533385,50.952719],[2.7541635,50.9528601],[2.7539641,50.9534704],[2.7526693,50.956125],[2.752462,50.9567371],[2.7431629,50.9566903],[2.7369013,50.9564411],[2.7352872,50.9563081],[2.7329712,50.9560225],[2.731374,50.9557292],[2.7290972,50.9550048],[2.728001,50.9548111],[2.7261423,50.9541428],[2.7239428,50.9536292],[2.7230425,50.9533049],[2.7224542,50.9528688],[2.72149,50.9519107],[2.7210571,50.9518356],[2.7212298,50.9516218],[2.7211399,50.9514165],[2.7211896,50.9512543],[2.7215234,50.9507321],[2.7206162,50.9500589],[2.7200134,50.9497399],[2.719015,50.9493787],[2.7177679,50.9491905],[2.7177184,50.9486852],[2.7178227,50.9480616],[2.7177684,50.9479415],[2.7175817,50.9478437],[2.7167314,50.9476871],[2.7164689,50.9474649],[2.7163252,50.9470279],[2.71644,50.9467608],[2.7181914,50.9460441],[2.7195407,50.9461538],[2.7196913,50.9460905],[2.7197243,50.9459592],[2.7186574,50.9444732],[2.7174139,50.9441209],[2.7172462,50.9439979],[2.7172303,50.9438758],[2.7173778,50.9436301],[2.7183213,50.9427328],[2.7170724,50.9422378],[2.7166627,50.9413466],[2.7158357,50.9404634],[2.716143,50.9399553],[2.7166653,50.9394039],[2.7174546,50.9387883],[2.7178935,50.9386108],[2.7128303,50.937359],[2.7148144,50.9344849],[2.7148877,50.9343395],[2.7148401,50.9342828],[2.7114887,50.9335602],[2.709785,50.9330899],[2.7096106,50.9326675],[2.7089495,50.9321093],[2.7091132,50.9308008],[2.7089779,50.9305601],[2.7076323,50.9303738],[2.7071573,50.930218],[2.7064307,50.9297727],[2.7057289,50.9292049],[2.70539,50.9290264],[2.7039939,50.9285746],[2.7025542,50.9277462],[2.7011996,50.9274808],[2.699645,50.9274723],[2.6988025,50.9271299]]]},"properties":{"type":"boundary","gemeente":"Vleteren"}}]}