{
  "type": "FeatureCollection",
  "metadata": {
    "gemeente": "Wellin",
    "slug": "wellin",
    "generated_at": "2026-09-25T22:11:45.799308Z",
    "total_points": 9,
    "providers": [
      "bpost",
      "DHL",
      "GLS",
      "InPost",
      "PostNL",
      "Amazon"
    ],
    "bounds": [
      5.113867,
      50.0782,
      5.13276,
      50.08197
    ]
  },
  "features": [
    {
      "type": "Feature",
      "geometry": {
        "type": "Point",
        "coordinates": [
          5.11387,
          50.08197
        ]
      },
      "properties": {
        "type": "pakketpunt",
        "locatieNaam": "Wellin",
        "straatNaam": "Grand Place",
        "straatNr": "11",
        "vervoerder": "bpost",
        "puntType": "postkantoor",
        "bezettingsgraad": 50,
        "latitude": 50.08197,
        "longitude": 5.11387,
        "canPickup": true,
        "canDropoff": true,
        "openingstijden": null
      }
    },
    {
      "type": "Feature",
      "geometry": {
        "type": "Point",
        "coordinates": [
          5.12849,
          50.07906
        ]
      },
      "properties": {
        "type": "pakketpunt",
        "locatieNaam": "Bbox 24/7 Bricolage Wellin",
        "straatNaam": "Rue De Wellin",
        "straatNr": "33B",
        "vervoerder": "bpost",
        "puntType": "automaat",
        "bezettingsgraad": 50,
        "latitude": 50.07906,
        "longitude": 5.12849,
        "canPickup": true,
        "canDropoff": true,
        "openingstijden": null
      }
    },
    {
      "type": "Feature",
      "geometry": {
        "type": "Point",
        "coordinates": [
          5.113867,
          50.081967
        ]
      },
      "properties": {
        "type": "pakketpunt",
        "locatieNaam": "WELLIN",
        "straatNaam": "GRAND PLACE",
        "straatNr": "11",
        "vervoerder": "DHL",
        "puntType": "postOffice",
        "bezettingsgraad": 50,
        "latitude": 50.081967,
        "longitude": 5.113867,
        "canPickup": true,
        "canDropoff": true,
        "openingstijden": {
          "ma": "09:30 - 12:30",
          "di": "09:30 - 12:30, 13:45 - 18:00",
          "wo": "09:30 - 12:30",
          "do": "09:30 - 12:30, 13:45 - 18:00",
          "vr": "09:30 - 12:30",
          "za": "09:30 - 13:00",
          "zo": "gesloten"
        }
      }
    },
    {
      "type": "Feature",
      "geometry": {
        "type": "Point",
        "coordinates": [
          5.128488,
          50.079057
        ]
      },
      "properties": {
        "type": "pakketpunt",
        "locatieNaam": "BBOX 24/7 BRICOLAGE WELLIN",
        "straatNaam": "RUE DE WELLIN",
        "straatNr": "33B",
        "vervoerder": "DHL",
        "puntType": "packStation",
        "bezettingsgraad": 50,
        "latitude": 50.079057,
        "longitude": 5.128488,
        "canPickup": true,
        "canDropoff": true,
        "openingstijden": {
          "ma": "00:00 - 23:59",
          "di": "00:00 - 23:59",
          "wo": "00:00 - 23:59",
          "do": "00:00 - 23:59",
          "vr": "00:00 - 23:59",
          "za": "00:00 - 23:59",
          "zo": "00:00 - 23:59"
        }
      }
    },
    {
      "type": "Feature",
      "geometry": {
        "type": "Point",
        "coordinates": [
          5.1324826,
          50.0783041
        ]
      },
      "properties": {
        "type": "pakketpunt",
        "locatieNaam": "GLS Parcel Locker powered by bbox",
        "straatNaam": "Rue De Wellin",
        "straatNr": "33 B",
        "vervoerder": "GLS",
        "puntType": "locker",
        "bezettingsgraad": 50,
        "latitude": 50.0783041,
        "longitude": 5.1324826,
        "canPickup": true,
        "canDropoff": true,
        "openingstijden": "vr: 00:00 - 12:30, 13:00 - 24:00; za: 00:00 - 12:30, 13:00 - 24:00"
      }
    },
    {
      "type": "Feature",
      "geometry": {
        "type": "Point",
        "coordinates": [
          5.13276,
          50.0782
        ]
      },
      "properties": {
        "type": "pakketpunt",
        "locatieNaam": "Q8 SHOP&GO WELLIN",
        "straatNaam": "Rue de Dinant 36a",
        "straatNr": "",
        "vervoerder": "InPost",
        "puntType": "servicepunt",
        "bezettingsgraad": 50,
        "latitude": 50.0782,
        "longitude": 5.13276,
        "canPickup": true,
        "canDropoff": true,
        "openingstijden": null
      }
    },
    {
      "type": "Feature",
      "geometry": {
        "type": "Point",
        "coordinates": [
          5.12782,
          50.07924
        ]
      },
      "properties": {
        "type": "pakketpunt",
        "locatieNaam": "Mr. Bricolage",
        "straatNaam": "Rue de Wellin",
        "straatNr": "33B",
        "vervoerder": "PostNL",
        "puntType": "servicepunt",
        "bezettingsgraad": 50,
        "latitude": 50.07924,
        "longitude": 5.12782,
        "canPickup": true,
        "canDropoff": true,
        "openingstijden": "09:00 - 18:30"
      }
    },
    {
      "type": "Feature",
      "geometry": {
        "type": "Point",
        "coordinates": [
          5.113867,
          50.081967
        ]
      },
      "properties": {
        "type": "pakketpunt",
        "locatieNaam": "bpost - WELLIN",
        "straatNaam": "GRAND PLACE,11",
        "straatNr": "",
        "vervoerder": "Amazon",
        "puntType": "3p",
        "bezettingsgraad": 50,
        "latitude": 50.081967,
        "longitude": 5.113867,
        "canPickup": true,
        "canDropoff": false,
        "openingstijden": null
      }
    },
    {
      "type": "Feature",
      "geometry": {
        "type": "Point",
        "coordinates": [
          5.128488,
          50.079057
        ]
      },
      "properties": {
        "type": "pakketpunt",
        "locatieNaam": "bpost - BBOX 24/7 BRICOLAGE WELLIN",
        "straatNaam": "RUE DE WELLIN,33B",
        "straatNr": "",
        "vervoerder": "Amazon",
        "puntType": "3p",
        "bezettingsgraad": 50,
        "latitude": 50.079057,
        "longitude": 5.128488,
        "canPickup": true,
        "canDropoff": false,
        "openingstijden": null
      }
    },
    {
      "type": "Feature",
      "geometry": {
        "type": "MultiPolygon",
        "coordinates": [
          [
            [
              [
                5.136757882435512,
                50.07739012601622
              ],
              [
                5.136615269469249,
                50.07714185458134
              ],
              [
                5.136435530609217,
                50.076903774055026
              ],
              [
                5.13622039725162,
                50.07667817711433
              ],
              [
                5.135971941550677,
                50.076467236189956
              ],
              [
                5.135692556451022,
                50.076272982551885
              ],
              [
                5.135384932635408,
                50.076097286755065
              ],
              [
                5.135052032609997,
                50.07594184063317
              ],
              [
                5.13469706217685,
                50.075808141013525
              ],
              [
                5.134323439568259,
                50.07569747530959
              ],
              [
                5.133934762539882,
                50.075610909129736
              ],
              [
                5.13353477373906,
                50.075549276021064
              ],
              [
                5.13312732468127,
                50.075513169447014
              ],
              [
                5.132716338680776,
                50.075502937075655
              ],
              [
                5.132305773091688,
                50.075518677433784
              ],
              [
                5.13189958122205,
                50.07556023895861
              ],
              [
                5.131501674286792,
                50.07562722145639
              ],
              [
                5.131115883765001,
                50.07571897995403
              ],
              [
                5.13074592452303,
                50.07583463090652
              ],
              [
                5.130534650880018,
                50.075918057964174
              ],
              [
                5.130468533866845,
                50.07593872607536
              ],
              [
                5.130117966834378,
                50.07607715502584
              ],
              [
                5.129790169338355,
                50.076237029908974
              ],
              [
                5.129488298067305,
                50.07641681124868
              ],
              [
                5.129460755676415,
                50.07643678000253
              ],
              [
                5.129263024611822,
                50.07640630481292
              ],
              [
                5.128855571474844,
                50.07637018315476
              ],
              [
                5.128444579018811,
                50.076359935567304
              ],
              [
                5.1280340046599875,
                50.07637566072383
              ],
              [
                5.127627801790839,
                50.076417207207925
              ],
              [
                5.127229881732185,
                50.07648417497069
              ],
              [
                5.126844076089436,
                50.07657591918093
              ],
              [
                5.126521016321038,
                50.07667689264234
              ],
              [
                5.126176104478256,
                50.07675890968428
              ],
              [
                5.125806125230017,
                50.07687454479165
              ],
              [
                5.12545553782574,
                50.07701295956968
              ],
              [
                5.125127718311195,
                50.077172821199504
              ],
              [
                5.12482582358688,
                50.07735259033267
              ],
              [
                5.124552761012269,
                50.077550535907946
              ],
              [
                5.12431116040835,
                50.07776475181411
              ],
              [
                5.124103348727978,
                50.077993175238724
              ],
              [
                5.123931327638095,
                50.07823360652633
              ],
              [
                5.1237967542300265,
                50.078483730355096
              ],
              [
                5.123700925044101,
                50.07874113802839
              ],
              [
                5.1236447635631,
                50.07900335066678
              ],
              [
                5.123628811295735,
                50.07926784307719
              ],
              [
                5.123653222536916,
                50.07953206806976
              ],
              [
                5.123717762856217,
                50.07979348098793
              ],
              [
                5.123821811330092,
                50.080049564215976
              ],
              [
                5.12396436649729,
                50.08029785142743
              ],
              [
                5.124144055981101,
                50.08053595134131
              ],
              [
                5.124359149686577,
                50.080761570756756
              ],
              [
                5.124607576446421,
                50.0809725366443
              ],
              [
                5.124886943955827,
                50.08116681708069
              ],
              [
                5.12519456180473,
                50.08134254082532
              ],
              [
                5.125527467385934,
                50.08149801534953
              ],
              [
                5.125882454429675,
                50.08163174314482
              ],
              [
                5.126256103889712,
                50.081742436152396
              ],
              [
                5.126644816883169,
                50.081829028175186
              ],
              [
                5.127044849366446,
                50.081890685152075
              ],
              [
                5.127452348212572,
                50.08192681319552
              ],
              [
                5.127863388341818,
                50.08193706431474
              ],
              [
                5.128274010547076,
                50.08192133976924
              ],
              [
                5.128680259648786,
                50.081879791020405
              ],
              [
                5.129078222610972,
                50.08181281827193
              ],
              [
                5.1294640662503195,
                50.08172106661294
              ],
              [
                5.129744318406635,
                50.08163347332968
              ],
              [
                5.129748253948873,
                50.08163281098706
              ],
              [
                5.130134094847865,
                50.081541057086895
              ],
              [
                5.1305040997559805,
                50.08142540812605
              ],
              [
                5.130854704910766,
                50.081286978035834
              ],
              [
                5.131182533490369,
                50.081127100164814
              ],
              [
                5.13148442814581,
                50.08094731443078
              ],
              [
                5.131515034268746,
                50.0809251252929
              ],
              [
                5.13170772321807,
                50.080954816583215
              ],
              [
                5.13211521760737,
                50.08099092816157
              ],
              [
                5.1325262506849265,
                50.08100116267156
              ],
              [
                5.1329368633115635,
                50.08098542153269
              ],
              [
                5.133343100400002,
                50.08094385636617
              ],
              [
                5.133741049030013,
                50.080876867533796
              ],
              [
                5.1341268761563725,
                50.08078510027965
              ],
              [
                5.134496865545579,
                50.080669438512025
              ],
              [
                5.134708153279556,
                50.08058600421699
              ],
              [
                5.134774274889476,
                50.08056533368066
              ],
              [
                5.135124861360944,
                50.08042689061067
              ],
              [
                5.135452669750501,
                50.080267000601964
              ],
              [
                5.135754542903689,
                50.08008720368921
              ],
              [
                5.136027573565482,
                50.0798892316288
              ],
              [
                5.13626913238073,
                50.07967499121271
              ],
              [
                5.136476893213225,
                50.07944654589721
              ],
              [
                5.136648855539696,
                50.0792060959225
              ],
              [
                5.136783363703367,
                50.07895595711613
              ],
              [
                5.13687912284214,
                50.07869853858411
              ],
              [
                5.136935211338639,
                50.07843631950471
              ],
              [
                5.136951089673008,
                50.07817182524895
              ],
              [
                5.136926605594058,
                50.07790760305765
              ],
              [
                5.136861995559958,
                50.077646197509466
              ],
              [
                5.136757882435512,
                50.07739012601622
              ]
            ]
          ],
          [
            [
              [
                5.116800549532085,
                50.08004046312146
              ],
              [
                5.116492970938673,
                50.079864716990066
              ],
              [
                5.116160106136932,
                50.079709216390704
              ],
              [
                5.115805160589991,
                50.07957545867526
              ],
              [
                5.115431552290721,
                50.07946473181669
              ],
              [
                5.115042878857161,
                50.0793781020122
              ],
              [
                5.114642882902163,
                50.079316403421565
              ],
              [
                5.114235416010159,
                50.07928023013873
              ],
              [
                5.1138244016671575,
                50.07926993047413
              ],
              [
                5.113413797500144,
                50.079285603602514
              ],
              [
                5.113007557188545,
                50.07932709860839
              ],
              [
                5.112609592413606,
                50.079394015938604
              ],
              [
                5.112223735211186,
                50.07948571124756
              ],
              [
                5.111853701089506,
                50.07960130159866
              ],
              [
                5.111503053266308,
                50.07973967396209
              ],
              [
                5.111175168368972,
                50.07989949592748
              ],
              [
                5.110873203927404,
                50.08007922852831
              ],
              [
                5.110600067972237,
                50.08027714105517
              ],
              [
                5.110358391030917,
                50.08049132771512
              ],
              [
                5.110150500791251,
                50.08071972597745
              ],
              [
                5.109978399676571,
                50.08096013642905
              ],
              [
                5.10984374554874,
                50.08121024394876
              ],
              [
                5.109747835725371,
                50.081467639997136
              ],
              [
                5.109691594465782,
                50.081729845806734
              ],
              [
                5.109675564046997,
                50.08199433625036
              ],
              [
                5.109699899516627,
                50.082258564157165
              ],
              [
                5.109764367174074,
                50.08251998484259
              ],
              [
                5.109868346795711,
                50.08277608061619
              ],
              [
                5.110010837583565,
                50.083024385030754
              ],
              [
                5.110190467781153,
                50.08326250663966
              ],
              [
                5.110405507864732,
                50.08348815203318
              ],
              [
                5.1104062471327145,
                50.08348878003794
              ],
              [
                5.110408507742893,
                50.08349115212296
              ],
              [
                5.110656887090676,
                50.083702148014986
              ],
              [
                5.1109362138270535,
                50.08389646219893
              ],
              [
                5.1112437979348835,
                50.0840722231092
              ],
              [
                5.1115766771321525,
                50.084227737859216
              ],
              [
                5.111931645403406,
                50.08436150855299
              ],
              [
                5.112305283883373,
                50.08447224671862
              ],
              [
                5.112693993795062,
                50.08455888572403
              ],
              [
                5.113094031124649,
                50.08462059105559
              ],
              [
                5.113501542698534,
                50.084656768360006
              ],
              [
                5.113912603314408,
                50.084667069172
              ],
              [
                5.114323253567812,
                50.084651394272434
              ],
              [
                5.114729538008957,
                50.08460989464452
              ],
              [
                5.11512754326138,
                50.08454297001877
              ],
              [
                5.1155134357343,
                50.08445126502081
              ],
              [
                5.115883498564597,
                50.08433566295931
              ],
              [
                5.116234167431736,
                50.08419727731383
              ],
              [
                5.116562064900013,
                50.08403744100492
              ],
              [
                5.116864032956734,
                50.08385769355001
              ],
              [
                5.117137163432554,
                50.0836597662292
              ],
              [
                5.117378826010737,
                50.08344556540367
              ],
              [
                5.117586693555487,
                50.083217154148386
              ],
              [
                5.117758764515592,
                50.082976732375606
              ],
              [
                5.117893382187887,
                50.082726615641384
              ],
              [
                5.117989250655517,
                50.082469212839186
              ],
              [
                5.11804544724815,
                50.08220700299598
              ],
              [
                5.118061431404915,
                50.08194251139388
              ],
              [
                5.118037049855574,
                50.081678285248266
              ],
              [
                5.117972538071023,
                50.08141686917601
              ],
              [
                5.117868517970078,
                50.08116078069039
              ],
              [
                5.117725991905657,
                50.080912485958535
              ],
              [
                5.117546332989198,
                50.080674376055136
              ],
              [
                5.117331271847337,
                50.08044874394018
              ],
              [
                5.117330532535372,
                50.080448115979685
              ],
              [
                5.11732827172553,
                50.08044574402995
              ],
              [
                5.117079879846201,
                50.080234762466475
              ],
              [
                5.116800549532085,
                50.08004046312146
              ]
            ]
          ]
        ]
      },
      "properties": {
        "type": "buffer_union_300m",
        "buffer_m": 300
      }
    },
    {
      "type": "Feature",
      "geometry": {
        "type": "MultiPolygon",
        "coordinates": [
          [
            [
              [
                5.138090479797462,
                50.077120137232676
              ],
              [
                5.137900321347825,
                50.07678911080525
              ],
              [
                5.137660663164758,
                50.076471672704876
              ],
              [
                5.137373814021257,
                50.07617087973432
              ],
              [
                5.137042536968883,
                50.07588962835447
              ],
              [
                5.136670022707431,
                50.075630626802905
              ],
              [
                5.136259858844417,
                50.07539636902609
              ],
              [
                5.13581599534096,
                50.07518911067602
              ],
              [
                5.135342706476927,
                50.075010847401565
              ],
              [
                5.134844549701427,
                50.074863295643155
              ],
              [
                5.134326321764441,
                50.07474787611539
              ],
              [
                5.133793012551153,
                50.074665700135824
              ],
              [
                5.133249757062492,
                50.0746175589314
              ],
              [
                5.132701786002925,
                50.07460391602525
              ],
              [
                5.132154375449814,
                50.07462490277657
              ],
              [
                5.131612796087393,
                50.074680317116716
              ],
              [
                5.13108226249247,
                50.0747696254935
              ],
              [
                5.130567882958557,
                50.074891968005105
              ],
              [
                5.130074610339991,
                50.07504616667409
              ],
              [
                5.129863339010982,
                50.075129592505384
              ],
              [
                5.129797222798392,
                50.0751502602326
              ],
              [
                5.129329804756692,
                50.0753348292165
              ],
              [
                5.129033245948744,
                50.07547946737346
              ],
              [
                5.128978086114305,
                50.075474577207636
              ],
              [
                5.128430106447628,
                50.07546091401373
              ],
              [
                5.127882684202046,
                50.075481880496625
              ],
              [
                5.1273410901743315,
                50.07553727478284
              ],
              [
                5.126810539082448,
                50.07562656351327
              ],
              [
                5.126296139388311,
                50.07574888697525
              ],
              [
                5.125973084053393,
                50.075849858906174
              ],
              [
                5.125628177239707,
                50.07593187431319
              ],
              [
                5.125134877947471,
                50.07608605185561
              ],
              [
                5.124667432744692,
                50.07627060194306
              ],
              [
                5.12423034284628,
                50.076483747597116
              ],
              [
                5.123827817345741,
                50.07672343647556
              ],
              [
                5.123463732691649,
                50.0769873606235
              ],
              [
                5.123141595358869,
                50.07727297868555
              ],
              [
                5.122864508073899,
                50.07757754036609
              ],
              [
                5.122635139919785,
                50.07789811290202
              ],
              [
                5.122455700609078,
                50.07823160929417
              ],
              [
                5.122327919173438,
                50.07857481802571
              ],
              [
                5.12225302727628,
                50.07892443398162
              ],
              [
                5.122231747310509,
                50.079277090272306
              ],
              [
                5.122264285397561,
                50.07962939065442
              ],
              [
                5.122350329356858,
                50.079977942237534
              ],
              [
                5.122489051666962,
                50.080319388161215
              ],
              [
                5.122679117391671,
                50.08065043992798
              ],
              [
                5.12291869699639,
                50.0809679090805
              ],
              [
                5.123205483932856,
                50.08126873791767
              ],
              [
                5.123536716824239,
                50.08155002895353
              ],
              [
                5.12390920603801,
                50.0818090728346
              ],
              [
                5.124319364391496,
                50.08204337444663
              ],
              [
                5.12476324169486,
                50.08225067695846
              ],
              [
                5.125236562798987,
                50.082428983571134
              ],
              [
                5.125734768781647,
                50.082576576762044
              ],
              [
                5.126253060874746,
                50.082692034838466
              ],
              [
                5.126786446708763,
                50.082774245640266
              ],
              [
                5.127329788427871,
                50.08282241725978
              ],
              [
                5.127877852210986,
                50.08283608567484
              ],
              [
                5.128425358720278,
                50.082815119221685
              ],
              [
                5.128967033989588,
                50.0827597198639
              ],
              [
                5.129497660260933,
                50.0826704212458
              ],
              [
                5.130012126277762,
                50.08254808354855
              ],
              [
                5.130288723118283,
                50.082461632622916
              ],
              [
                5.130682164408194,
                50.082368070847025
              ],
              [
                5.131175510658146,
                50.08221386963148
              ],
              [
                5.131642988867033,
                50.082029293227606
              ],
              [
                5.131944478275469,
                50.08188225975951
              ],
              [
                5.131992747627797,
                50.08188653721534
              ],
              [
                5.132540802008358,
                50.08190018348436
              ],
              [
                5.133088295745599,
                50.08187919490629
              ],
              [
                5.1336299549964295,
                50.08182377365785
              ],
              [
                5.134160562157221,
                50.08173445359423
              ],
              [
                5.134675006155583,
                50.081612095103125
              ],
              [
                5.135168331712584,
                50.08145787681167
              ],
              [
                5.135379621760599,
                50.08137444129012
              ],
              [
                5.135445744171131,
                50.08135377036978
              ],
              [
                5.135913197467703,
                50.08116917665939
              ],
              [
                5.136350278105659,
                50.08095598679507
              ],
              [
                5.1367527764387075,
                50.0807162542788
              ],
              [
                5.137116816096289,
                50.08045228824584
              ],
              [
                5.137438891318657,
                50.0801666312119
              ],
              [
                5.137715900713822,
                50.07986203457282
              ],
              [
                5.137945177111488,
                50.07954143209309
              ],
              [
                5.138124513226992,
                50.07920791163939
              ],
              [
                5.138252182888975,
                50.07886468543165
              ],
              [
                5.138326957627465,
                50.07851505909846
              ],
              [
                5.13834811846403,
                50.07816239983554
              ],
              [
                5.138315462792001,
                50.077810103973775
              ],
              [
                5.1382293062821764,
                50.07746156426963
              ],
              [
                5.138090479797462,
                50.077120137232676
              ]
            ]
          ],
          [
            [
              [
                5.117778346806675,
                50.07939826755153
              ],
              [
                5.117368243234913,
                50.07916394266223
              ],
              [
                5.116924426691868,
                50.078956611676126
              ],
              [
                5.116451171005666,
                50.078778270941505
              ],
              [
                5.115953033306333,
                50.07863063764473
              ],
              [
                5.115434810160472,
                50.0785151332855
              ],
              [
                5.114901491407353,
                50.07843286999817
              ],
              [
                5.114358212139886,
                50.07838463985036
              ],
              [
                5.113810203291521,
                50.07837090722156
              ],
              [
                5.113262741303413,
                50.07839180433486
              ],
              [
                5.112721097354881,
                50.0784471299847
              ],
              [
                5.112190486644366,
                50.07853635147284
              ],
              [
                5.111676018207592,
                50.07865860973404
              ],
              [
                5.11118264575454,
                50.07881272760217
              ],
              [
                5.110715119997186,
                50.078997221137364
              ],
              [
                5.110277942925766,
                50.07921031390578
              ],
              [
                5.109875324472843,
                50.07944995407447
              ],
              [
                5.109511141981718,
                50.07971383415763
              ],
              [
                5.109188902869054,
                50.07999941322433
              ],
              [
                5.108911710841162,
                50.080303941354465
              ],
              [
                5.1086822359894954,
                50.080624486108164
              ],
              [
                5.108502689053912,
                50.08095796075392
              ],
              [
                5.108374800102389,
                50.081301153984434
              ],
              [
                5.108299801833694,
                50.081650760834115
              ],
              [
                5.10827841766516,
                50.082003414501166
              ],
              [
                5.108310854721851,
                50.082355718767694
              ],
              [
                5.1083968017963555,
                50.08270428070598
              ],
              [
                5.108535432300556,
                50.083045743355996
              ],
              [
                5.108725412182727,
                50.083376818059335
              ],
              [
                5.1089649127353765,
                50.08369431613782
              ],
              [
                5.109251628171993,
                50.083995179611925
              ],
              [
                5.1092523674326555,
                50.08399580762407
              ],
              [
                5.109254628009534,
                50.08399817973164
              ],
              [
                5.109585797680788,
                50.084279510773186
              ],
              [
                5.109958232526567,
                50.08453859965096
              ],
              [
                5.110368345888248,
                50.08477295081738
              ],
              [
                5.110812188009715,
                50.084980306964034
              ],
              [
                5.111285484081056,
                50.085158670775364
              ],
              [
                5.111783675421444,
                50.085306324177864
              ],
              [
                5.11230196340405,
                50.085421844898775
              ],
              [
                5.112835355699108,
                50.08550412017462
              ],
              [
                5.113378714388649,
                50.08555235747664
              ],
              [
                5.113926805488142,
                50.08556609215
              ],
              [
                5.1144743493965885,
                50.08554519189266
              ],
              [
                5.1150160717874655,
                50.085489858030584
              ],
              [
                5.115546754448716,
                50.08540062357718
              ],
              [
                5.116061285580389,
                50.08527834809555
              ],
              [
                5.116554709063883,
                50.0851242094132
              ],
              [
                5.117022272226764,
                50.08493969226953
              ],
              [
                5.117459471641835,
                50.08472657400527
              ],
              [
                5.117862096518284,
                50.08448690743285
              ],
              [
                5.11822626926625,
                50.08422300105243
              ],
              [
                5.1185484828436785,
                50.08393739680529
              ],
              [
                5.118825634525628,
                50.08363284557894
              ],
              [
                5.119055055771067,
                50.08331228070063
              ],
              [
                5.119234537900033,
                50.08297878967506
              ],
              [
                5.11936235333475,
                50.0826355844389
              ],
              [
                5.119437272201271,
                50.08228597041896
              ],
              [
                5.119458574133148,
                50.08193331469259
              ],
              [
                5.119426055165025,
                50.081581013556786
              ],
              [
                5.119340029651429,
                50.081232459818956
              ],
              [
                5.119201327194063,
                50.08089101012406
              ],
              [
                5.119011284608902,
                50.08055995263279
              ],
              [
                5.118771733012138,
                50.08024247536196
              ],
              [
                5.118484980150871,
                50.07994163549171
              ],
              [
                5.118484240831592,
                50.0799410075386
              ],
              [
                5.118481979988472,
                50.07993863561141
              ],
              [
                5.118150788026094,
                50.07965733004573
              ],
              [
                5.117778346806675,
                50.07939826755153
              ]
            ]
          ]
        ]
      },
      "properties": {
        "type": "buffer_union_400m",
        "buffer_m": 400
      }
    },
    {
      "type": "Feature",
      "geometry": {
        "type": "Polygon",
        "coordinates": [
          [
            [
              5.0109738,
              50.0379762
            ],
            [
              5.0117765,
              50.0387632
            ],
            [
              5.0126239,
              50.0390507
            ],
            [
              5.0132735,
              50.0397873
            ],
            [
              5.0151942,
              50.0412605
            ],
            [
              5.0159852,
              50.0414402
            ],
            [
              5.0163241,
              50.0417096
            ],
            [
              5.0164371,
              50.0419971
            ],
            [
              5.0180189,
              50.0422127
            ],
            [
              5.0188945,
              50.0425361
            ],
            [
              5.0194876,
              50.0425541
            ],
            [
              5.0200526,
              50.0427518
            ],
            [
              5.0233291,
              50.043111
            ],
            [
              5.0253628,
              50.0438117
            ],
            [
              5.0269728,
              50.0453388
            ],
            [
              5.027453,
              50.0453927
            ],
            [
              5.0277638,
              50.0462197
            ],
            [
              5.0283004,
              50.0462916
            ],
            [
              5.0284982,
              50.0467587
            ],
            [
              5.0289501,
              50.0473875
            ],
            [
              5.0290349,
              50.0480703
            ],
            [
              5.0283138,
              50.0494285
            ],
            [
              5.0283131,
              50.0496301
            ],
            [
              5.0285679,
              50.0497644
            ],
            [
              5.0286423,
              50.0499662
            ],
            [
              5.0306155,
              50.0499962
            ],
            [
              5.0321849,
              50.0505265
            ],
            [
              5.032819,
              50.0505701
            ],
            [
              5.0335434,
              50.0512353
            ],
            [
              5.0347289,
              50.0518157
            ],
            [
              5.0356948,
              50.0521382
            ],
            [
              5.0367983,
              50.0523289
            ],
            [
              5.0381756,
              50.0524501
            ],
            [
              5.0414649,
              50.0531193
            ],
            [
              5.0418938,
              50.0541918
            ],
            [
              5.0425141,
              50.0547713
            ],
            [
              5.0429874,
              50.055455
            ],
            [
              5.0435682,
              50.0571405
            ],
            [
              5.0435118,
              50.0575288
            ],
            [
              5.0431422,
              50.0582323
            ],
            [
              5.0428185,
              50.0585947
            ],
            [
              5.0428011,
              50.0588091
            ],
            [
              5.0423746,
              50.0591828
            ],
            [
              5.0423665,
              50.0594135
            ],
            [
              5.0421838,
              50.0597829
            ],
            [
              5.042105,
              50.0604148
            ],
            [
              5.0422539,
              50.0606464
            ],
            [
              5.0422633,
              50.0610657
            ],
            [
              5.0420876,
              50.0612538
            ],
            [
              5.0421325,
              50.061408
            ],
            [
              5.0420768,
              50.0615409
            ],
            [
              5.0422934,
              50.0617222
            ],
            [
              5.042729,
              50.0616051
            ],
            [
              5.0432315,
              50.0617334
            ],
            [
              5.0434092,
              50.0618634
            ],
            [
              5.0435873,
              50.0618033
            ],
            [
              5.0438099,
              50.0618677
            ],
            [
              5.0444577,
              50.0618305
            ],
            [
              5.0448104,
              50.0619262
            ],
            [
              5.0450229,
              50.061776
            ],
            [
              5.0454816,
              50.0617353
            ],
            [
              5.0454987,
              50.0615431
            ],
            [
              5.0457705,
              50.0612821
            ],
            [
              5.0463,
              50.0610136
            ],
            [
              5.0467488,
              50.0611411
            ],
            [
              5.0469216,
              50.0615347
            ],
            [
              5.047619,
              50.061782
            ],
            [
              5.0480944,
              50.0621066
            ],
            [
              5.048712,
              50.0630316
            ],
            [
              5.0493912,
              50.0637482
            ],
            [
              5.0503448,
              50.0642776
            ],
            [
              5.0508246,
              50.0642988
            ],
            [
              5.0511379,
              50.0646751
            ],
            [
              5.051427,
              50.0653743
            ],
            [
              5.0518401,
              50.0670302
            ],
            [
              5.0528339,
              50.0671342
            ],
            [
              5.0536475,
              50.0669999
            ],
            [
              5.0537367,
              50.0671765
            ],
            [
              5.0536489,
              50.0673402
            ],
            [
              5.0538849,
              50.0677189
            ],
            [
              5.0536828,
              50.068026
            ],
            [
              5.0536425,
              50.0682843
            ],
            [
              5.0535262,
              50.0683701
            ],
            [
              5.0535345,
              50.0687594
            ],
            [
              5.0531349,
              50.0690564
            ],
            [
              5.0530395,
              50.0693238
            ],
            [
              5.0531148,
              50.0694936
            ],
            [
              5.0526448,
              50.0702529
            ],
            [
              5.0527655,
              50.0704569
            ],
            [
              5.0527775,
              50.0709828
            ],
            [
              5.0529398,
              50.0714597
            ],
            [
              5.0528486,
              50.0716542
            ],
            [
              5.0544846,
              50.073206
            ],
            [
              5.0535807,
              50.0735114
            ],
            [
              5.0536937,
              50.0739606
            ],
            [
              5.0518859,
              50.0746972
            ],
            [
              5.0521684,
              50.0750385
            ],
            [
              5.0491461,
              50.0759908
            ],
            [
              5.0489201,
              50.0756135
            ],
            [
              5.0485811,
              50.0761345
            ],
            [
              5.0485811,
              50.0767095
            ],
            [
              5.0487764,
              50.0772859
            ],
            [
              5.0491698,
              50.0778701
            ],
            [
              5.0506148,
              50.0778233
            ],
            [
              5.0538067,
              50.0773562
            ],
            [
              5.0554449,
              50.0766375
            ],
            [
              5.056942,
              50.0757752
            ],
            [
              5.0584108,
              50.0750925
            ],
            [
              5.0590322,
              50.0756494
            ],
            [
              5.0593147,
              50.0763142
            ],
            [
              5.0597384,
              50.0764939
            ],
            [
              5.0605857,
              50.0776437
            ],
            [
              5.0607834,
              50.0789376
            ],
            [
              5.0610376,
              50.0797281
            ],
            [
              5.0608682,
              50.0801234
            ],
            [
              5.0581565,
              50.0810577
            ],
            [
              5.0545693,
              50.0815966
            ],
            [
              5.0539479,
              50.0818481
            ],
            [
              5.052931,
              50.0826926
            ],
            [
              5.052705,
              50.0836627
            ],
            [
              5.0536089,
              50.0848126
            ],
            [
              5.0538914,
              50.0860164
            ],
            [
              5.0536654,
              50.0865014
            ],
            [
              5.0525921,
              50.0877415
            ],
            [
              5.0527333,
              50.0883165
            ],
            [
              5.0530722,
              50.0888554
            ],
            [
              5.0536372,
              50.0893945
            ],
            [
              5.0537502,
              50.090149
            ],
            [
              5.0545411,
              50.091263
            ],
            [
              5.0553602,
              50.0930595
            ],
            [
              5.0564618,
              50.0938142
            ],
            [
              5.056829,
              50.0943711
            ],
            [
              5.0561793,
              50.095503
            ],
            [
              5.056603,
              50.0954132
            ],
            [
              5.0566878,
              50.0959166
            ],
            [
              5.0555579,
              50.0972461
            ],
            [
              5.0553319,
              50.0985037
            ],
            [
              5.0554731,
              50.0987373
            ],
            [
              5.0549648,
              50.098917
            ],
            [
              5.0547388,
              50.0997075
            ],
            [
              5.0555014,
              50.0998333
            ],
            [
              5.0573092,
              50.1013604
            ],
            [
              5.0593994,
              50.1038577
            ],
            [
              5.0590841,
              50.107307
            ],
            [
              5.0592121,
              50.1080278
            ],
            [
              5.0596791,
              50.108778
            ],
            [
              5.0603846,
              50.1103339
            ],
            [
              5.0609199,
              50.1110764
            ],
            [
              5.0620891,
              50.1151042
            ],
            [
              5.0627983,
              50.1169458
            ],
            [
              5.0644193,
              50.1202624
            ],
            [
              5.064818,
              50.1208309
            ],
            [
              5.0652454,
              50.1211236
            ],
            [
              5.0656199,
              50.1217922
            ],
            [
              5.0657051,
              50.1227839
            ],
            [
              5.0668531,
              50.1224956
            ],
            [
              5.0684099,
              50.1223993
            ],
            [
              5.0672658,
              50.1211213
            ],
            [
              5.0662207,
              50.1195256
            ],
            [
              5.0658325,
              50.1187996
            ],
            [
              5.068147,
              50.1173544
            ],
            [
              5.0665457,
              50.1147102
            ],
            [
              5.0641662,
              50.1123311
            ],
            [
              5.0631312,
              50.1109129
            ],
            [
              5.0603231,
              50.1076373
            ],
            [
              5.0614614,
              50.1053133
            ],
            [
              5.0633821,
              50.1045228
            ],
            [
              5.0649639,
              50.1033549
            ],
            [
              5.0664045,
              50.1018278
            ],
            [
              5.067619,
              50.1000671
            ],
            [
              5.0683817,
              50.1001929
            ],
            [
              5.0687207,
              50.0996359
            ],
            [
              5.0685512,
              50.0992946
            ],
            [
              5.0688619,
              50.099061
            ],
            [
              5.0695115,
              50.0989532
            ],
            [
              5.0688054,
              50.0983783
            ],
            [
              5.0703024,
              50.0970125
            ],
            [
              5.069455,
              50.096743
            ],
            [
              5.0705001,
              50.0952877
            ],
            [
              5.0709238,
              50.0954314
            ],
            [
              5.0716864,
              50.0934552
            ],
            [
              5.0740027,
              50.0934731
            ],
            [
              5.0785503,
              50.0945332
            ],
            [
              5.0820884,
              50.0951042
            ],
            [
              5.0823838,
              50.0942089
            ],
            [
              5.0876737,
              50.0945511
            ],
            [
              5.096868,
              50.0949863
            ],
            [
              5.1157712,
              50.0987992
            ],
            [
              5.1164854,
              50.099004
            ],
            [
              5.1197845,
              50.0995029
            ],
            [
              5.1232316,
              50.099723
            ],
            [
              5.1237161,
              50.0986694
            ],
            [
              5.1250248,
              50.0981093
            ],
            [
              5.1253109,
              50.0979064
            ],
            [
              5.1258382,
              50.0979424
            ],
            [
              5.1265758,
              50.0982125
            ],
            [
              5.128271,
              50.098277
            ],
            [
              5.1285258,
              50.0982289
            ],
            [
              5.1298307,
              50.0984241
            ],
            [
              5.1305012,
              50.0983915
            ],
            [
              5.1313797,
              50.0985403
            ],
            [
              5.1323493,
              50.0988302
            ],
            [
              5.1326656,
              50.0987716
            ],
            [
              5.1330332,
              50.0982229
            ],
            [
              5.1338264,
              50.0978983
            ],
            [
              5.1339843,
              50.0977579
            ],
            [
              5.1339358,
              50.0973591
            ],
            [
              5.133791,
              50.0971346
            ],
            [
              5.1338606,
              50.0956355
            ],
            [
              5.1344305,
              50.095621
            ],
            [
              5.1345327,
              50.0954221
            ],
            [
              5.1365835,
              50.095458
            ],
            [
              5.1364745,
              50.0944035
            ],
            [
              5.1382048,
              50.0943761
            ],
            [
              5.1439681,
              50.094561
            ],
            [
              5.1443241,
              50.0944357
            ],
            [
              5.1471266,
              50.094883
            ],
            [
              5.1471591,
              50.0947747
            ],
            [
              5.1497456,
              50.0947413
            ],
            [
              5.1497852,
              50.0944753
            ],
            [
              5.151939,
              50.0945655
            ],
            [
              5.1523304,
              50.0945157
            ],
            [
              5.1542175,
              50.0939016
            ],
            [
              5.1604944,
              50.0922004
            ],
            [
              5.1602119,
              50.0910775
            ],
            [
              5.1607768,
              50.0894156
            ],
            [
              5.1604237,
              50.0848342
            ],
            [
              5.1585172,
              50.0836215
            ],
            [
              5.1626128,
              50.0772883
            ],
            [
              5.1639545,
              50.0765696
            ],
            [
              5.1666379,
              50.0761654
            ],
            [
              5.1675559,
              50.0748179
            ],
            [
              5.1676264,
              50.0734705
            ],
            [
              5.1694625,
              50.0726171
            ],
            [
              5.1695331,
              50.0695628
            ],
            [
              5.171016,
              50.0661492
            ],
            [
              5.1708748,
              50.0622415
            ],
            [
              5.1733463,
              50.0552795
            ],
            [
              5.1751117,
              50.0548754
            ],
            [
              5.1747586,
              50.0511923
            ],
            [
              5.1759091,
              50.0484584
            ],
            [
              5.1769333,
              50.0463819
            ],
            [
              5.1782058,
              50.0450712
            ],
            [
              5.1731336,
              50.0440977
            ],
            [
              5.1696682,
              50.0433226
            ],
            [
              5.167751,
              50.0426986
            ],
            [
              5.1632058,
              50.0440214
            ],
            [
              5.16296,
              50.0446541
            ],
            [
              5.1625496,
              50.0449934
            ],
            [
              5.1612822,
              50.0455244
            ],
            [
              5.1596153,
              50.0452759
            ],
            [
              5.1588562,
              50.0449073
            ],
            [
              5.1579791,
              50.0447006
            ],
            [
              5.1570794,
              50.0448366
            ],
            [
              5.1568231,
              50.0447867
            ],
            [
              5.1557703,
              50.0449848
            ],
            [
              5.1555262,
              50.0446455
            ],
            [
              5.1549828,
              50.0443882
            ],
            [
              5.1534596,
              50.0444612
            ],
            [
              5.1530425,
              50.0444147
            ],
            [
              5.1527086,
              50.0442433
            ],
            [
              5.1522369,
              50.0443726
            ],
            [
              5.1506889,
              50.0440633
            ],
            [
              5.1494371,
              50.0440887
            ],
            [
              5.1485538,
              50.0444629
            ],
            [
              5.1476,
              50.0451038
            ],
            [
              5.1458059,
              50.0457545
            ],
            [
              5.1437044,
              50.0455997
            ],
            [
              5.1430178,
              50.04571
            ],
            [
              5.1413198,
              50.0455468
            ],
            [
              5.1404149,
              50.0453354
            ],
            [
              5.1390596,
              50.0448614
            ],
            [
              5.138686,
              50.0445456
            ],
            [
              5.1381789,
              50.0444339
            ],
            [
              5.1377268,
              50.0437381
            ],
            [
              5.1379878,
              50.043696
            ],
            [
              5.1388051,
              50.0433423
            ],
            [
              5.1395417,
              50.0428457
            ],
            [
              5.1401346,
              50.0420265
            ],
            [
              5.1399316,
              50.0411516
            ],
            [
              5.1392504,
              50.0399449
            ],
            [
              5.1387628,
              50.0394031
            ],
            [
              5.1378586,
              50.0387903
            ],
            [
              5.1372434,
              50.0389279
            ],
            [
              5.1363433,
              50.0387828
            ],
            [
              5.1349606,
              50.0387401
            ],
            [
              5.1334233,
              50.0389009
            ],
            [
              5.1324662,
              50.0392837
            ],
            [
              5.131423,
              50.0395122
            ],
            [
              5.1293662,
              50.0402686
            ],
            [
              5.1285192,
              50.0403838
            ],
            [
              5.1271262,
              50.0402386
            ],
            [
              5.1260867,
              50.0398528
            ],
            [
              5.1256671,
              50.0395569
            ],
            [
              5.1254107,
              50.0392455
            ],
            [
              5.1251805,
              50.0386813
            ],
            [
              5.125254,
              50.038299
            ],
            [
              5.1256158,
              50.0376721
            ],
            [
              5.1257308,
              50.037212
            ],
            [
              5.1257387,
              50.0358464
            ],
            [
              5.125903,
              50.0351557
            ],
            [
              5.1266898,
              50.0337295
            ],
            [
              5.1266968,
              50.032937
            ],
            [
              5.1260469,
              50.0321539
            ],
            [
              5.1262388,
              50.0318883
            ],
            [
              5.1261555,
              50.0316587
            ],
            [
              5.1245115,
              50.0310755
            ],
            [
              5.1228445,
              50.0296919
            ],
            [
              5.1222518,
              50.0294585
            ],
            [
              5.1218698,
              50.0294082
            ],
            [
              5.1174794,
              50.0275449
            ],
            [
              5.1163977,
              50.0277259
            ],
            [
              5.1149816,
              50.0282225
            ],
            [
              5.1142833,
              50.0280912
            ],
            [
              5.1133579,
              50.0276897
            ],
            [
              5.1128617,
              50.0275932
            ],
            [
              5.112521,
              50.0274106
            ],
            [
              5.1121455,
              50.0266834
            ],
            [
              5.1116627,
              50.0264112
            ],
            [
              5.1115447,
              50.0261958
            ],
            [
              5.1115555,
              50.0257908
            ],
            [
              5.1113074,
              50.0253764
            ],
            [
              5.111023,
              50.0251238
            ],
            [
              5.1101714,
              50.0247121
            ],
            [
              5.1083422,
              50.024595
            ],
            [
              5.107854,
              50.0247432
            ],
            [
              5.1073873,
              50.0244054
            ],
            [
              5.1065464,
              50.0242433
            ],
            [
              5.1044583,
              50.0242675
            ],
            [
              5.1040317,
              50.0239498
            ],
            [
              5.1030703,
              50.0235782
            ],
            [
              5.1016547,
              50.0233236
            ],
            [
              5.1009084,
              50.023536
            ],
            [
              5.0973143,
              50.0241952
            ],
            [
              5.0964653,
              50.0242365
            ],
            [
              5.0941618,
              50.0237712
            ],
            [
              5.0915888,
              50.0230799
            ],
            [
              5.0908672,
              50.0231442
            ],
            [
              5.090223,
              50.0230544
            ],
            [
              5.0882864,
              50.02222
            ],
            [
              5.0873868,
              50.0216139
            ],
            [
              5.0860336,
              50.0198077
            ],
            [
              5.085904,
              50.0192716
            ],
            [
              5.0863332,
              50.0185067
            ],
            [
              5.0864344,
              50.0180399
            ],
            [
              5.0865551,
              50.0179762
            ],
            [
              5.0867553,
              50.0173288
            ],
            [
              5.0867576,
              50.0169379
            ],
            [
              5.0866079,
              50.0165222
            ],
            [
              5.0863591,
              50.016355
            ],
            [
              5.0851253,
              50.0160757
            ],
            [
              5.0837317,
              50.0159896
            ],
            [
              5.0835588,
              50.0163213
            ],
            [
              5.0833067,
              50.0165407
            ],
            [
              5.0826582,
              50.0167083
            ],
            [
              5.0806188,
              50.0175569
            ],
            [
              5.079503,
              50.0174535
            ],
            [
              5.0768852,
              50.0179084
            ],
            [
              5.0758552,
              50.0176672
            ],
            [
              5.0724542,
              50.0182462
            ],
            [
              5.0714564,
              50.0190942
            ],
            [
              5.0699625,
              50.019533
            ],
            [
              5.0682056,
              50.0195491
            ],
            [
              5.0658184,
              50.0198611
            ],
            [
              5.0649705,
              50.0202043
            ],
            [
              5.0646535,
              50.020246
            ],
            [
              5.0641785,
              50.0204782
            ],
            [
              5.0622008,
              50.0206719
            ],
            [
              5.061779,
              50.0208158
            ],
            [
              5.0612694,
              50.0205952
            ],
            [
              5.0609207,
              50.0205487
            ],
            [
              5.05918,
              50.0208692
            ],
            [
              5.0574755,
              50.0209648
            ],
            [
              5.0567285,
              50.0211117
            ],
            [
              5.0562197,
              50.0210244
            ],
            [
              5.0552371,
              50.0213038
            ],
            [
              5.0557172,
              50.0217895
            ],
            [
              5.055846,
              50.0221342
            ],
            [
              5.0554517,
              50.022913
            ],
            [
              5.0517797,
              50.0251588
            ],
            [
              5.0486727,
              50.0259673
            ],
            [
              5.0411875,
              50.0264164
            ],
            [
              5.0361032,
              50.0271351
            ],
            [
              5.0337022,
              50.0300097
            ],
            [
              5.0266407,
              50.0308182
            ],
            [
              5.0187318,
              50.0339623
            ],
            [
              5.0174607,
              50.0354894
            ],
            [
              5.0171782,
              50.0354894
            ],
            [
              5.0134784,
              50.0364917
            ],
            [
              5.0116469,
              50.0377128
            ],
            [
              5.0109738,
              50.0379762
            ]
          ]
        ]
      },
      "properties": {
        "type": "boundary",
        "gemeente": "Wellin"
      }
    }
  ]
}