{
  "type": "FeatureCollection",
  "metadata": {
    "gemeente": "Wemmel",
    "slug": "wemmel",
    "generated_at": "2026-09-25T22:11:45.816415Z",
    "total_points": 25,
    "providers": [
      "bpost",
      "DHL",
      "GLS",
      "InPost",
      "VintedGo",
      "PostNL",
      "DPD",
      "Amazon"
    ],
    "bounds": [
      4.30002,
      50.89905,
      4.32528,
      50.9171211
    ]
  },
  "features": [
    {
      "type": "Feature",
      "geometry": {
        "type": "Point",
        "coordinates": [
          4.32528,
          50.89905
        ]
      },
      "properties": {
        "type": "pakketpunt",
        "locatieNaam": "Bbox Albert Heijn Wemmel",
        "straatNaam": "Romeinsesteenweg",
        "straatNr": "868",
        "vervoerder": "bpost",
        "puntType": "automaat",
        "bezettingsgraad": 50,
        "latitude": 50.89905,
        "longitude": 4.32528,
        "canPickup": true,
        "canDropoff": true,
        "openingstijden": null
      }
    },
    {
      "type": "Feature",
      "geometry": {
        "type": "Point",
        "coordinates": [
          4.31808,
          50.90189
        ]
      },
      "properties": {
        "type": "pakketpunt",
        "locatieNaam": "Ray Librairie/Boekhandel",
        "straatNaam": "De Hene",
        "straatNr": "3",
        "vervoerder": "bpost",
        "puntType": "servicepunt",
        "bezettingsgraad": 50,
        "latitude": 50.90189,
        "longitude": 4.31808,
        "canPickup": true,
        "canDropoff": true,
        "openingstijden": null
      }
    },
    {
      "type": "Feature",
      "geometry": {
        "type": "Point",
        "coordinates": [
          4.30735,
          50.90323
        ]
      },
      "properties": {
        "type": "pakketpunt",
        "locatieNaam": "Bbox 24/7 Carrefour Wemmel",
        "straatNaam": "Vijverslaan",
        "straatNr": "34",
        "vervoerder": "bpost",
        "puntType": "automaat",
        "bezettingsgraad": 50,
        "latitude": 50.90323,
        "longitude": 4.30735,
        "canPickup": true,
        "canDropoff": true,
        "openingstijden": null
      }
    },
    {
      "type": "Feature",
      "geometry": {
        "type": "Point",
        "coordinates": [
          4.30567,
          50.90394
        ]
      },
      "properties": {
        "type": "pakketpunt",
        "locatieNaam": "Bbox 24/7 Lidl Wemmel",
        "straatNaam": "Steenweg Op Brussel",
        "straatNr": "162",
        "vervoerder": "bpost",
        "puntType": "automaat",
        "bezettingsgraad": 50,
        "latitude": 50.90394,
        "longitude": 4.30567,
        "canPickup": true,
        "canDropoff": true,
        "openingstijden": null
      }
    },
    {
      "type": "Feature",
      "geometry": {
        "type": "Point",
        "coordinates": [
          4.30847,
          50.9057
        ]
      },
      "properties": {
        "type": "pakketpunt",
        "locatieNaam": "Wemmel",
        "straatNaam": "De Limburg Stirumlaan",
        "straatNr": "22",
        "vervoerder": "bpost",
        "puntType": "postkantoor",
        "bezettingsgraad": 50,
        "latitude": 50.9057,
        "longitude": 4.30847,
        "canPickup": true,
        "canDropoff": true,
        "openingstijden": null
      }
    },
    {
      "type": "Feature",
      "geometry": {
        "type": "Point",
        "coordinates": [
          4.30321,
          50.90519
        ]
      },
      "properties": {
        "type": "pakketpunt",
        "locatieNaam": "Press Shop Wemmel 1249",
        "straatNaam": "Dokter H. Folletlaan",
        "straatNr": "175",
        "vervoerder": "bpost",
        "puntType": "servicepunt",
        "bezettingsgraad": 50,
        "latitude": 50.90519,
        "longitude": 4.30321,
        "canPickup": true,
        "canDropoff": true,
        "openingstijden": null
      }
    },
    {
      "type": "Feature",
      "geometry": {
        "type": "Point",
        "coordinates": [
          4.303209,
          50.905195
        ]
      },
      "properties": {
        "type": "pakketpunt",
        "locatieNaam": "PRESS SHOP WEMMEL 1249",
        "straatNaam": "AVENUE DOCTEUR H. FOLLET",
        "straatNr": "175",
        "vervoerder": "DHL",
        "puntType": "parcelShop",
        "bezettingsgraad": 50,
        "latitude": 50.905195,
        "longitude": 4.303209,
        "canPickup": true,
        "canDropoff": true,
        "openingstijden": {
          "ma": "05:30 - 19:30",
          "di": "05:30 - 19:30",
          "wo": "05:30 - 19:30",
          "do": "05:30 - 19:30",
          "vr": "05:30 - 19:30",
          "za": "05:30 - 18:00",
          "zo": "gesloten"
        }
      }
    },
    {
      "type": "Feature",
      "geometry": {
        "type": "Point",
        "coordinates": [
          4.305665,
          50.903941
        ]
      },
      "properties": {
        "type": "pakketpunt",
        "locatieNaam": "BBOX 24/7 LIDL WEMMEL",
        "straatNaam": "CHAUSSEE DE BRUXELLES",
        "straatNr": "162",
        "vervoerder": "DHL",
        "puntType": "packStation",
        "bezettingsgraad": 50,
        "latitude": 50.903941,
        "longitude": 4.305665,
        "canPickup": true,
        "canDropoff": true,
        "openingstijden": {
          "ma": "00:00 - 23:59",
          "di": "00:00 - 23:59",
          "wo": "00:00 - 23:59",
          "do": "00:00 - 23:59",
          "vr": "00:00 - 23:59",
          "za": "00:00 - 23:59",
          "zo": "00:00 - 23:59"
        }
      }
    },
    {
      "type": "Feature",
      "geometry": {
        "type": "Point",
        "coordinates": [
          4.307347,
          50.903234
        ]
      },
      "properties": {
        "type": "pakketpunt",
        "locatieNaam": "BBOX 24/7 CARREFOUR WEMMEL",
        "straatNaam": "AVENUE DES ETANGS",
        "straatNr": "34",
        "vervoerder": "DHL",
        "puntType": "packStation",
        "bezettingsgraad": 50,
        "latitude": 50.903234,
        "longitude": 4.307347,
        "canPickup": true,
        "canDropoff": true,
        "openingstijden": {
          "ma": "00:00 - 23:59",
          "di": "00:00 - 23:59",
          "wo": "00:00 - 23:59",
          "do": "00:00 - 23:59",
          "vr": "00:00 - 23:59",
          "za": "00:00 - 23:59",
          "zo": "00:00 - 23:59"
        }
      }
    },
    {
      "type": "Feature",
      "geometry": {
        "type": "Point",
        "coordinates": [
          4.308467,
          50.905699
        ]
      },
      "properties": {
        "type": "pakketpunt",
        "locatieNaam": "WEMMEL",
        "straatNaam": "AVENUE DE LIMBURG STIRUM",
        "straatNr": "22",
        "vervoerder": "DHL",
        "puntType": "postOffice",
        "bezettingsgraad": 50,
        "latitude": 50.905699,
        "longitude": 4.308467,
        "canPickup": true,
        "canDropoff": true,
        "openingstijden": {
          "ma": "09:30 - 12:30, 13:30 - 17:00",
          "di": "09:30 - 12:30, 13:30 - 18:00",
          "wo": "09:30 - 12:30, 13:30 - 17:00",
          "do": "09:30 - 12:30, 13:30 - 18:00",
          "vr": "09:30 - 12:30, 13:30 - 17:00",
          "za": "09:30 - 13:00",
          "zo": "gesloten"
        }
      }
    },
    {
      "type": "Feature",
      "geometry": {
        "type": "Point",
        "coordinates": [
          4.31808,
          50.901889
        ]
      },
      "properties": {
        "type": "pakketpunt",
        "locatieNaam": "RAY LIBRAIRIE/BOEKHANDEL",
        "straatNaam": "DE HENE",
        "straatNr": "3",
        "vervoerder": "DHL",
        "puntType": "parcelShop",
        "bezettingsgraad": 50,
        "latitude": 50.901889,
        "longitude": 4.31808,
        "canPickup": true,
        "canDropoff": true,
        "openingstijden": {
          "ma": "07:00 - 18:00",
          "di": "07:00 - 18:00",
          "wo": "07:00 - 18:00",
          "do": "07:00 - 18:00",
          "vr": "07:00 - 18:00",
          "za": "07:00 - 13:00",
          "zo": "gesloten"
        }
      }
    },
    {
      "type": "Feature",
      "geometry": {
        "type": "Point",
        "coordinates": [
          4.32528,
          50.89905
        ]
      },
      "properties": {
        "type": "pakketpunt",
        "locatieNaam": "BBOX ALBERT HEIJN WEMMEL",
        "straatNaam": "CHAUSSEE ROMAINE",
        "straatNr": "868",
        "vervoerder": "DHL",
        "puntType": "packStation",
        "bezettingsgraad": 50,
        "latitude": 50.89905,
        "longitude": 4.32528,
        "canPickup": true,
        "canDropoff": true,
        "openingstijden": {
          "ma": "00:00 - 23:59",
          "di": "00:00 - 23:59",
          "wo": "00:00 - 23:59",
          "do": "00:00 - 23:59",
          "vr": "00:00 - 23:59",
          "za": "00:00 - 23:59",
          "zo": "00:00 - 23:59"
        }
      }
    },
    {
      "type": "Feature",
      "geometry": {
        "type": "Point",
        "coordinates": [
          4.3070166,
          50.903227
        ]
      },
      "properties": {
        "type": "pakketpunt",
        "locatieNaam": "GLS Parcel Locker powered by bbox",
        "straatNaam": "Vijverslaan",
        "straatNr": "34",
        "vervoerder": "GLS",
        "puntType": "locker",
        "bezettingsgraad": 50,
        "latitude": 50.903227,
        "longitude": 4.3070166,
        "canPickup": true,
        "canDropoff": true,
        "openingstijden": "vr: 00:00 - 24:00; ma: 00:00 - 24:00"
      }
    },
    {
      "type": "Feature",
      "geometry": {
        "type": "Point",
        "coordinates": [
          4.3235628,
          50.9171211
        ]
      },
      "properties": {
        "type": "pakketpunt",
        "locatieNaam": "Garden center Wemmel",
        "straatNaam": "Zijp",
        "straatNr": "23",
        "vervoerder": "GLS",
        "puntType": "parcel_shop",
        "bezettingsgraad": 50,
        "latitude": 50.9171211,
        "longitude": 4.3235628,
        "canPickup": true,
        "canDropoff": true,
        "openingstijden": "vr: 08:30 - 18:00; za: 08:30 - 18:00"
      }
    },
    {
      "type": "Feature",
      "geometry": {
        "type": "Point",
        "coordinates": [
          4.32073,
          50.9004
        ]
      },
      "properties": {
        "type": "pakketpunt",
        "locatieNaam": "ESSO WEMMEL",
        "straatNaam": "277 De Limburg Stirumlaan",
        "straatNr": "",
        "vervoerder": "InPost",
        "puntType": "servicepunt",
        "bezettingsgraad": 50,
        "latitude": 50.9004,
        "longitude": 4.32073,
        "canPickup": true,
        "canDropoff": true,
        "openingstijden": null
      }
    },
    {
      "type": "Feature",
      "geometry": {
        "type": "Point",
        "coordinates": [
          4.3002056,
          50.9083245
        ]
      },
      "properties": {
        "type": "pakketpunt",
        "locatieNaam": "Movie's Shop Wemmel",
        "straatNaam": "Kaasmarkt",
        "straatNr": "59",
        "vervoerder": "VintedGo",
        "puntType": "parcel_shop",
        "bezettingsgraad": 50,
        "latitude": 50.9083245,
        "longitude": 4.3002056,
        "canPickup": true,
        "canDropoff": true,
        "openingstijden": null
      }
    },
    {
      "type": "Feature",
      "geometry": {
        "type": "Point",
        "coordinates": [
          4.302964,
          50.905124
        ]
      },
      "properties": {
        "type": "pakketpunt",
        "locatieNaam": "Press Shop Durcat Wemmel",
        "straatNaam": "Dr. H. Folletlaan",
        "straatNr": "175",
        "vervoerder": "PostNL",
        "puntType": "servicepunt",
        "bezettingsgraad": 50,
        "latitude": 50.905124,
        "longitude": 4.302964,
        "canPickup": true,
        "canDropoff": true,
        "openingstijden": "06:30 - 19:00"
      }
    },
    {
      "type": "Feature",
      "geometry": {
        "type": "Point",
        "coordinates": [
          4.31828,
          50.9019
        ]
      },
      "properties": {
        "type": "pakketpunt",
        "locatieNaam": "RAY LIBRAIRIE/ BOEKHANDEL",
        "straatNaam": "DE HENE",
        "straatNr": "3",
        "vervoerder": "DPD",
        "puntType": "pickup_point",
        "bezettingsgraad": 50,
        "latitude": 50.9019,
        "longitude": 4.31828,
        "canPickup": true,
        "canDropoff": true,
        "openingstijden": {
          "ma": "07:00 - 17:00",
          "di": "07:00 - 17:00",
          "wo": "07:00 - 17:00",
          "do": "07:00 - 17:00",
          "vr": "07:00 - 17:00",
          "za": "07:30 - 12:00",
          "zo": "gesloten"
        }
      }
    },
    {
      "type": "Feature",
      "geometry": {
        "type": "Point",
        "coordinates": [
          4.30002,
          50.90828
        ]
      },
      "properties": {
        "type": "pakketpunt",
        "locatieNaam": "MOVIE'S SHOP",
        "straatNaam": "KAASMARKT",
        "straatNr": "59",
        "vervoerder": "DPD",
        "puntType": "pickup_point",
        "bezettingsgraad": 50,
        "latitude": 50.90828,
        "longitude": 4.30002,
        "canPickup": true,
        "canDropoff": true,
        "openingstijden": {
          "ma": "12:00 - 23:59",
          "di": "12:00 - 23:59",
          "wo": "12:00 - 23:59",
          "do": "12:00 - 23:59",
          "vr": "12:00 - 23:59",
          "za": "12:00 - 23:59",
          "zo": "12:00 - 23:59"
        }
      }
    },
    {
      "type": "Feature",
      "geometry": {
        "type": "Point",
        "coordinates": [
          4.308467,
          50.905699
        ]
      },
      "properties": {
        "type": "pakketpunt",
        "locatieNaam": "bpost - WEMMEL",
        "straatNaam": "AVENUE DE LIMBURG STIRUM,22",
        "straatNr": "",
        "vervoerder": "Amazon",
        "puntType": "3p",
        "bezettingsgraad": 50,
        "latitude": 50.905699,
        "longitude": 4.308467,
        "canPickup": true,
        "canDropoff": false,
        "openingstijden": null
      }
    },
    {
      "type": "Feature",
      "geometry": {
        "type": "Point",
        "coordinates": [
          4.303209,
          50.905195
        ]
      },
      "properties": {
        "type": "pakketpunt",
        "locatieNaam": "bpost - PRESS SHOP WEMMEL 1249",
        "straatNaam": "AVENUE DOCTEUR H. FOLLET,175",
        "straatNr": "",
        "vervoerder": "Amazon",
        "puntType": "3p",
        "bezettingsgraad": 50,
        "latitude": 50.905195,
        "longitude": 4.303209,
        "canPickup": true,
        "canDropoff": false,
        "openingstijden": null
      }
    },
    {
      "type": "Feature",
      "geometry": {
        "type": "Point",
        "coordinates": [
          4.307347,
          50.903234
        ]
      },
      "properties": {
        "type": "pakketpunt",
        "locatieNaam": "bpost - BBOX 24/7 CARREFOUR WEMMEL",
        "straatNaam": "AVENUE DES ETANGS,34",
        "straatNr": "",
        "vervoerder": "Amazon",
        "puntType": "3p",
        "bezettingsgraad": 50,
        "latitude": 50.903234,
        "longitude": 4.307347,
        "canPickup": true,
        "canDropoff": false,
        "openingstijden": null
      }
    },
    {
      "type": "Feature",
      "geometry": {
        "type": "Point",
        "coordinates": [
          4.305665,
          50.903941
        ]
      },
      "properties": {
        "type": "pakketpunt",
        "locatieNaam": "bpost - BBOX 24/7 LIDL WEMMEL",
        "straatNaam": "CHAUSSEE DE BRUXELLES,162",
        "straatNr": "",
        "vervoerder": "Amazon",
        "puntType": "3p",
        "bezettingsgraad": 50,
        "latitude": 50.903941,
        "longitude": 4.305665,
        "canPickup": true,
        "canDropoff": false,
        "openingstijden": null
      }
    },
    {
      "type": "Feature",
      "geometry": {
        "type": "Point",
        "coordinates": [
          4.31808,
          50.901889
        ]
      },
      "properties": {
        "type": "pakketpunt",
        "locatieNaam": "bpost - RAY LIBRAIRIE/BOEKHANDEL",
        "straatNaam": "DE HENE,3",
        "straatNr": "",
        "vervoerder": "Amazon",
        "puntType": "3p",
        "bezettingsgraad": 50,
        "latitude": 50.901889,
        "longitude": 4.31808,
        "canPickup": true,
        "canDropoff": false,
        "openingstijden": null
      }
    },
    {
      "type": "Feature",
      "geometry": {
        "type": "Point",
        "coordinates": [
          4.32528,
          50.89905
        ]
      },
      "properties": {
        "type": "pakketpunt",
        "locatieNaam": "bpost - BBOX ALBERT HEIJN WEMMEL",
        "straatNaam": "CHAUSSEE ROMAINE,868",
        "straatNr": "",
        "vervoerder": "Amazon",
        "puntType": "3p",
        "bezettingsgraad": 50,
        "latitude": 50.89905,
        "longitude": 4.32528,
        "canPickup": true,
        "canDropoff": false,
        "openingstijden": null
      }
    },
    {
      "type": "Feature",
      "geometry": {
        "type": "MultiPolygon",
        "coordinates": [
          [
            [
              [
                4.30578148388352,
                50.90064573577449
              ],
              [
                4.305387326134709,
                50.900734715256654
              ],
              [
                4.305008856693377,
                50.90084769564645
              ],
              [
                4.304649719987719,
                50.900983589047385
              ],
              [
                4.304313374373695,
                50.90114108692173
              ],
              [
                4.304003058841733,
                50.90131867268507
              ],
              [
                4.303721761831231,
                50.90151463630395
              ],
              [
                4.303671483420754,
                50.90155743771548
              ],
              [
                4.3036572946544815,
                50.90156167303757
              ],
              [
                4.303298148575959,
                50.90169756227613
              ],
              [
                4.3029617933137025,
                50.90185505624587
              ],
              [
                4.302651467951024,
                50.90203263839998
              ],
              [
                4.302370161021971,
                50.90222859873976
              ],
              [
                4.302120581732751,
                50.902441050274604
              ],
              [
                4.302076088761097,
                50.90248790784658
              ],
              [
                4.301729056782905,
                50.90254269459515
              ],
              [
                4.301334875429952,
                50.902631660424284
              ],
              [
                4.300956380946756,
                50.90274462768898
              ],
              [
                4.300597218002584,
                50.90288050861918
              ],
              [
                4.300260845205993,
                50.90303799479719
              ],
              [
                4.299950501809107,
                50.903215569751275
              ],
              [
                4.299669176519598,
                50.903411523552045
              ],
              [
                4.299419578720446,
                50.903623969271884
              ],
              [
                4.299204112374555,
                50.90385086114879
              ],
              [
                4.299024852865595,
                50.90409001428025
              ],
              [
                4.298883526998448,
                50.90433912565775
              ],
              [
                4.298781496352306,
                50.904595796339585
              ],
              [
                4.298719744147411,
                50.904857554548734
              ],
              [
                4.298698865752698,
                50.90512187947347
              ],
              [
                4.298719062926642,
                50.90538622554171
              ],
              [
                4.298780141847774,
                50.90564804693557
              ],
              [
                4.298799246568269,
                50.905696438867864
              ],
              [
                4.298785135633965,
                50.9056986660439
              ],
              [
                4.2983909222050585,
                50.9057876219077
              ],
              [
                4.2980123951953,
                50.905900579577896
              ],
              [
                4.297653199587108,
                50.90603645137679
              ],
              [
                4.297316794303518,
                50.90619392897468
              ],
              [
                4.297006418909441,
                50.906371495982384
              ],
              [
                4.296725062420636,
                50.9065674425471
              ],
              [
                4.296475434520505,
                50.90677988181088
              ],
              [
                4.296259939461813,
                50.907006768073906
              ],
              [
                4.296080652904747,
                50.907245916487746
              ],
              [
                4.295939301914693,
                50.90749502408934
              ],
              [
                4.295837248312827,
                50.90775169197337
              ],
              [
                4.295775475540523,
                50.90801344838974
              ],
              [
                4.295754579164864,
                50.90827777254403
              ],
              [
                4.29577476111758,
                50.90854211887162
              ],
              [
                4.295835827723887,
                50.9088039415521
              ],
              [
                4.295937191541231,
                50.909060719027686
              ],
              [
                4.296077876991224,
                50.9093099782896
              ],
              [
                4.296256529731527,
                50.90954931869839
              ],
              [
                4.2964714296783315,
                50.90977643510862
              ],
              [
                4.296720507554798,
                50.909989140075126
              ],
              [
                4.297001364806749,
                50.91018538492657
              ],
              [
                4.297311296694297,
                50.91036327950319
              ],
              [
                4.297647318337304,
                50.91052111036838
              ],
              [
                4.2980061934639675,
                50.91065735731814
              ],
              [
                4.2983844655855705,
                50.910770708029546
              ],
              [
                4.298537028998457,
                50.910805308697434
              ],
              [
                4.2985700738826385,
                50.91081521058138
              ],
              [
                4.298964100320768,
                50.910904572634344
              ],
              [
                4.299370085044634,
                50.91096908588566
              ],
              [
                4.299784117589855,
                50.91100812893549
              ],
              [
                4.300202209935032,
                50.91102132571505
              ],
              [
                4.3006203349339955,
                50.911008549110605
              ],
              [
                4.30103446512589,
                50.910969922188656
              ],
              [
                4.301440611548287,
                50.91090581700986
              ],
              [
                4.301834862178523,
                50.910816851043464
              ],
              [
                4.302213419632095,
                50.91070388121688
              ],
              [
                4.302572637754125,
                50.9105679956578
              ],
              [
                4.302909056750711,
                50.91041050320843
              ],
              [
                4.303219436521218,
                50.910232920813385
              ],
              [
                4.303500787869955,
                50.91003695890279
              ],
              [
                4.30375040129642,
                50.90982450491156
              ],
              [
                4.30396587308669,
                50.90959760509421
              ],
              [
                4.304145128454818,
                50.90935844481035
              ],
              [
                4.304286441511658,
                50.909109327471114
              ],
              [
                4.30438845186928,
                50.908852652349694
              ],
              [
                4.304450177721723,
                50.90859089146977
              ],
              [
                4.304471025276894,
                50.90832656579459
              ],
              [
                4.304450794449679,
                50.90806222094636
              ],
              [
                4.304389680762433,
                50.90780040268967
              ],
              [
                4.304383909533875,
                50.907785789623226
              ],
              [
                4.304444094359644,
                50.907776287817384
              ],
              [
                4.3048383130163765,
                50.90768731168625
              ],
              [
                4.305216838006982,
                50.9075743320741
              ],
              [
                4.305339249607564,
                50.907528018864824
              ],
              [
                4.305448873607788,
                50.90760460349208
              ],
              [
                4.305758820465653,
                50.90778247591107
              ],
              [
                4.306094852034234,
                50.9079402827269
              ],
              [
                4.306453731946016,
                50.908076503967195
              ],
              [
                4.306455466035998,
                50.908077023474256
              ],
              [
                4.306456732055058,
                50.908077504017925
              ],
              [
                4.306835003790435,
                50.90819082759771
              ],
              [
                4.307229023931424,
                50.908280161991286
              ],
              [
                4.30763499731462,
                50.908344646722576
              ],
              [
                4.3080490135848555,
                50.908383660666466
              ],
              [
                4.308467084877495,
                50.908396828034476
              ],
              [
                4.3088851842491795,
                50.90838402199623
              ],
              [
                4.309299284485951,
                50.90834536590168
              ],
              [
                4.309705396913981,
                50.90828123209251
              ],
              [
                4.310099609838133,
                50.90819223831373
              ],
              [
                4.310478126237194,
                50.90807924176064
              ],
              [
                4.3108373003518246,
                50.90794333081834
              ],
              [
                4.311173672812117,
                50.9077858145735
              ],
              [
                4.311484003965773,
                50.90760821019994
              ],
              [
                4.311765305085469,
                50.907412228339425
              ],
              [
                4.312014867154584,
                50.907199756619
              ],
              [
                4.312230286953916,
                50.9069728414639
              ],
              [
                4.3124094901983225,
                50.90673366838139
              ],
              [
                4.312550751500707,
                50.906484540905886
              ],
              [
                4.312652710971599,
                50.90622785840816
              ],
              [
                4.31271438729511,
                50.905966092982815
              ],
              [
                4.312735187156109,
                50.9057017656369
              ],
              [
                4.312714910928741,
                50.90543742200862
              ],
              [
                4.312653754572499,
                50.905175607850786
              ],
              [
                4.3125523077185575,
                50.904918844514526
              ],
              [
                4.31241154796588,
                50.904669604669756
              ],
              [
                4.312232831442945,
                50.90443028849583
              ],
              [
                4.312017879726931,
                50.90420320057187
              ],
              [
                4.31176876324711,
                50.90399052768871
              ],
              [
                4.31151146720797,
                50.90381079378445
              ],
              [
                4.311532478334277,
                50.903757898688866
              ],
              [
                4.311594157658803,
                50.90349613366097
              ],
              [
                4.3116149627323095,
                50.90323180632077
              ],
              [
                4.311594693878667,
                50.9029674623064
              ],
              [
                4.311533546986283,
                50.90270564737442
              ],
              [
                4.311432111595131,
                50.902448882883384
              ],
              [
                4.311291365193723,
                50.90219964151437
              ],
              [
                4.311112663781917,
                50.90196032346143
              ],
              [
                4.310897728791331,
                50.90173323332176
              ],
              [
                4.310648630490147,
                50.90152055790755
              ],
              [
                4.310367768032738,
                50.90132434519306
              ],
              [
                4.310057846346758,
                50.90114648459947
              ],
              [
                4.3097218500805825,
                50.900988688806954
              ],
              [
                4.309363014862085,
                50.90085247726886
              ],
              [
                4.3089847961454435,
                50.90073916158649
              ],
              [
                4.308590835945739,
                50.90064983288497
              ],
              [
                4.308184927781169,
                50.90058535131155
              ],
              [
                4.307770980159925,
                50.90054633775712
              ],
              [
                4.307352978962523,
                50.900533167880674
              ],
              [
                4.307232189684746,
                50.90053686675749
              ],
              [
                4.30701959811147,
                50.900530167886785
              ],
              [
                4.30660156816579,
                50.90054296731315
              ],
              [
                4.306187534520336,
                50.90058161398448
              ],
              [
                4.30578148388352,
                50.90064573577449
              ]
            ]
          ],
          [
            [
              [
                4.329041843885566,
                50.89777974741962
              ],
              [
                4.328826841328572,
                50.897552689825716
              ],
              [
                4.328577684007806,
                50.897340052190984
              ],
              [
                4.328296771645676,
                50.897143882125825
              ],
              [
                4.327986809650101,
                50.89696606864069
              ],
              [
                4.327650783057339,
                50.896808323962055
              ],
              [
                4.327291927787041,
                50.8966721670511
              ],
              [
                4.326913699486259,
                50.896558908983046
              ],
              [
                4.326519740262193,
                50.896469640328284
              ],
              [
                4.3261138436235305,
                50.8964052206558
              ],
              [
                4.32569991796741,
                50.896366270260465
              ],
              [
                4.325281948962832,
                50.89635316419315
              ],
              [
                4.324863961191901,
                50.89636602865112
              ],
              [
                4.3244499794173255,
                50.89640473976351
              ],
              [
                4.324043989848189,
                50.89646892478356
              ],
              [
                4.323649901776007,
                50.89655796567588
              ],
              [
                4.323271509949546,
                50.89667100506459
              ],
              [
                4.322912458049867,
                50.89680695448513
              ],
              [
                4.322576203616558,
                50.89696450486027
              ],
              [
                4.3222659847622875,
                50.897142139100026
              ],
              [
                4.321984788995748,
                50.89733814670407
              ],
              [
                4.3217353244529395,
                50.89755064022662
              ],
              [
                4.3215430542039535,
                50.89775327062523
              ],
              [
                4.321150190087179,
                50.897716287600396
              ],
              [
                4.320732210336601,
                50.89770316534161
              ],
              [
                4.32031420930293,
                50.89771601359699
              ],
              [
                4.319900211876554,
                50.89775470865175
              ],
              [
                4.3194942044172295,
                50.89781887791371
              ],
              [
                4.319100096388691,
                50.897907903499195
              ],
              [
                4.318721682731809,
                50.89802092817979
              ],
              [
                4.318362607337792,
                50.89815686363249
              ],
              [
                4.318026327972401,
                50.89831440091462
              ],
              [
                4.317716082988319,
                50.89849202306225
              ],
              [
                4.317434860145795,
                50.89868801969154
              ],
              [
                4.317185367841506,
                50.898900503462386
              ],
              [
                4.316970009022655,
                50.89912742824625
              ],
              [
                4.316832946278607,
                50.89931041797508
              ],
              [
                4.316450185350742,
                50.89939686780592
              ],
              [
                4.3160717533158355,
                50.8995098838966
              ],
              [
                4.315712658863988,
                50.899645811185785
              ],
              [
                4.315376359944429,
                50.89980334080939
              ],
              [
                4.315066095098102,
                50.899980955877254
              ],
              [
                4.314784852276485,
                50.9001769460737
              ],
              [
                4.314535340068621,
                50.90038942412056
              ],
              [
                4.31431996161336,
                50.900616343944506
              ],
              [
                4.314140791448145,
                50.90085552037381
              ],
              [
                4.313999555517584,
                50.901104650175554
              ],
              [
                4.313897614534837,
                50.901361334230515
              ],
              [
                4.3138359508566895,
                50.901623100632776
              ],
              [
                4.313815158999501,
                50.90188742849166
              ],
              [
                4.31381519779386,
                50.90188793414519
              ],
              [
                4.3138151589086675,
                50.90188842849165
              ],
              [
                4.313835439797879,
                50.90215277220664
              ],
              [
                4.313896598806118,
                50.902414585982505
              ],
              [
                4.31399804760067,
                50.90267134834708
              ],
              [
                4.314138809784447,
                50.90292058643703
              ],
              [
                4.314317530275763,
                50.90315989981672
              ],
              [
                4.3145324883379494,
                50.90338698360101
              ],
              [
                4.314781614134101,
                50.90359965065886
              ],
              [
                4.315062508648168,
                50.903795852683984
              ],
              [
                4.3153724667810565,
                50.90397369992909
              ],
              [
                4.315708503399552,
                50.90413147941338
              ],
              [
                4.3160673820873665,
                50.904267671427746
              ],
              [
                4.316445646321277,
                50.904380964178394
              ],
              [
                4.316839652771825,
                50.904470266427346
              ],
              [
                4.317245606407428,
                50.904534718008165
              ],
              [
                4.317659597063107,
                50.904573698115044
              ],
              [
                4.317800362040972,
                50.90457812056264
              ],
              [
                4.317859608405794,
                50.90458369882316
              ],
              [
                4.318277648608647,
                50.90459683128147
              ],
              [
                4.318695711460574,
                50.90458399030229
              ],
              [
                4.319109770099448,
                50.90454529957222
              ],
              [
                4.319515836252217,
                50.90448113176649
              ],
              [
                4.319909998669579,
                50.90439210495756
              ],
              [
                4.320288460816934,
                50.90427907665891
              ],
              [
                4.3206475774576285,
                50.90414313556136
              ],
              [
                4.320983889775475,
                50.90398559104204
              ],
              [
                4.321294158697585,
                50.90380796054708
              ],
              [
                4.321575396096155,
                50.903611954969776
              ],
              [
                4.3218248935684,
                50.9033994621656
              ],
              [
                4.322040248517369,
                50.90317252876281
              ],
              [
                4.322219387282567,
                50.902933340444385
              ],
              [
                4.322225553609725,
                50.902922460193615
              ],
              [
                4.322360076635158,
                50.90289207204831
              ],
              [
                4.322738520792771,
                50.90277903580344
              ],
              [
                4.323097618866182,
                50.902643087153216
              ],
              [
                4.323433912218076,
                50.90248553554752
              ],
              [
                4.323744161958275,
                50.90230789850071
              ],
              [
                4.324025380143755,
                50.9021118869692
              ],
              [
                4.32427485855681,
                50.901899388865786
              ],
              [
                4.3244671339944825,
                50.90169675424057
              ],
              [
                4.324860034029036,
                50.9017337261236
              ],
              [
                4.325278050813279,
                50.90174683367212
              ],
              [
                4.3256960863724805,
                50.90173396776021
              ],
              [
                4.326110114107453,
                50.901695252314575
              ],
              [
                4.3265161460428825,
                50.901631060248526
              ],
              [
                4.326910271259138,
                50.90154200986824
              ],
              [
                4.32728869358003,
                50.901428958914174
              ],
              [
                4.327647768152612,
                50.901292996295375
              ],
              [
                4.327984036565991,
                50.90113543159625
              ],
              [
                4.3282942601702485,
                50.90095778245729
              ],
              [
                4.328575451274156,
                50.90076175995133
              ],
              [
                4.328824901920894,
                50.90054925209686
              ],
              [
                4.3290402099645675,
                50.90032230566709
              ],
              [
                4.3292193021964795,
                50.900083106470404
              ],
              [
                4.329360454298766,
                50.899833958292625
              ],
              [
                4.32946230743366,
                50.8995772607038
              ],
              [
                4.329523881309324,
                50.899315485943866
              ],
              [
                4.329544583597157,
                50.89905115510958
              ],
              [
                4.329524215610823,
                50.8987868138727
              ],
              [
                4.329462974193279,
                50.89852500796287
              ],
              [
                4.329361449794611,
                50.898268258651726
              ],
              [
                4.329220620760256,
                50.898019038474004
              ],
              [
                4.329041843885566,
                50.89777974741962
              ]
            ]
          ],
          [
            [
              [
                4.327326138654502,
                50.915850909209404
              ],
              [
                4.327111061621904,
                50.915623849687684
              ],
              [
                4.326861816149777,
                50.91541120954851
              ],
              [
                4.326580802809662,
                50.91521503642636
              ],
              [
                4.326270727982036,
                50.91503721936111
              ],
              [
                4.325934577789773,
                50.91487947061369
              ],
              [
                4.325575589342726,
                50.914743309184395
              ],
              [
                4.3251972195702955,
                50.91463004619199
              ],
              [
                4.324803111941815,
                50.914540772254206
              ],
              [
                4.324397061394795,
                50.91447634699095
              ],
              [
                4.3239829778081456,
                50.91443739075087
              ],
              [
                4.323564848371323,
                50.914424278641114
              ],
              [
                4.3231466992109535,
                50.914437136917115
              ],
              [
                4.3227325566434835,
                50.91447584176756
              ],
              [
                4.322326408426,
                50.914540020505974
              ],
              [
                4.321932165377405,
                50.91462905515748
              ],
              [
                4.32155362373854,
                50.91474208840631
              ],
              [
                4.321194428632876,
                50.914878031847046
              ],
              [
                4.320858038978878,
                50.915035576460056
              ],
              [
                4.3205476941912755,
                50.91521320521087
              ],
              [
                4.320266382991481,
                50.915409207652054
              ],
              [
                4.320016814627203,
                50.915621696387596
              ],
              [
                4.319801392778337,
                50.91584862524114
              ],
              [
                4.319622192400531,
                50.916087808954074
              ],
              [
                4.319480939729718,
                50.9163369442233
              ],
              [
                4.3193789956406885,
                50.91659363187694
              ],
              [
                4.319317342520587,
                50.91685539997443
              ],
              [
                4.319296574784554,
                50.917119727608686
              ],
              [
                4.3193168931257535,
                50.91738406918144
              ],
              [
                4.319378102556125,
                50.917645878917966
              ],
              [
                4.319479614257761,
                50.91790263538498
              ],
              [
                4.319620451228091,
                50.91815186577589
              ],
              [
                4.319799257665477,
                50.91839116972921
              ],
              [
                4.320014312005751,
                50.918618242450464
              ],
              [
                4.320263543484916,
                50.91883089691518
              ],
              [
                4.3205445520691725,
                50.919027084938314
              ],
              [
                4.320854631560809,
                50.91920491690737
              ],
              [
                4.321190795657717,
                50.91936267998866
              ],
              [
                4.321549806715693,
                50.91949885463105
              ],
              [
                4.321928206936415,
                50.919612129208026
              ],
              [
                4.3223223516804365,
                50.91970141265664
              ],
              [
                4.322728444583917,
                50.919765844991524
              ],
              [
                4.3231425741402125,
                50.919804805592214
              ],
              [
                4.323560751393279,
                50.91981791918405
              ],
              [
                4.323978948378938,
                50.919805059454596
              ],
              [
                4.324393136942847,
                50.919766350271054
              ],
              [
                4.324799327560298,
                50.919702164486395
              ],
              [
                4.325193607782981,
                50.91961312034628
              ],
              [
                4.325572179941481,
                50.91950007553112
              ],
              [
                4.325931397739468,
                50.91936411889084
              ],
              [
                4.326267801386428,
                50.9192065599523
              ],
              [
                4.326578150929889,
                50.91902891630052
              ],
              [
                4.326859457465671,
                50.918832898955515
              ],
              [
                4.327109011925305,
                50.918620395886116
              ],
              [
                4.327324411163241,
                50.91839345381945
              ],
              [
                4.327503581092757,
                50.91815425852195
              ],
              [
                4.32764479664803,
                50.917905113741895
              ],
              [
                4.327746698380597,
                50.91764841901662
              ],
              [
                4.327808305531053,
                50.917386646558526
              ],
              [
                4.327829025450843,
                50.91712231744221
              ],
              [
                4.3278086592843525,
                50.916857977322884
              ],
              [
                4.327747403857545,
                50.91659617191947
              ],
              [
                4.3276458497559425,
                50.9163394224987
              ],
              [
                4.3275049756115225,
                50.91609020159638
              ],
              [
                4.327326138654502,
                50.915850909209404
              ]
            ]
          ]
        ]
      },
      "properties": {
        "type": "buffer_union_300m",
        "buffer_m": 300
      }
    },
    {
      "type": "Feature",
      "geometry": {
        "type": "MultiPolygon",
        "coordinates": [
          [
            [
              [
                4.305369808688714,
                50.89978531104356
              ],
              [
                4.304844273281927,
                50.89990394824603
              ],
              [
                4.3043396541416,
                50.900054586196795
              ],
              [
                4.303860810244738,
                50.900235774465955
              ],
              [
                4.303412352538775,
                50.90044576844917
              ],
              [
                4.302998599557971,
                50.90068254615616
              ],
              [
                4.302740831613979,
                50.90086211608765
              ],
              [
                4.30250924836316,
                50.90094973877111
              ],
              [
                4.3020607777933515,
                50.9011597275482
              ],
              [
                4.301647011705344,
                50.90139650044289
              ],
              [
                4.30127193477034,
                50.90165777758412
              ],
              [
                4.301216383407308,
                50.901705064386036
              ],
              [
                4.30079187234115,
                50.90180087513651
              ],
              [
                4.300287219813118,
                50.901951495587355
              ],
              [
                4.299808340933003,
                50.902132667228976
              ],
              [
                4.299359846984983,
                50.902342645617146
              ],
              [
                4.298946056852192,
                50.902579408911784
              ],
              [
                4.2985709554373,
                50.902840677334304
              ],
              [
                4.298238155290434,
                50.90312393510845
              ],
              [
                4.297950861813813,
                50.90342645467396
              ],
              [
                4.297711842378341,
                50.90374532294036
              ],
              [
                4.297523399650117,
                50.90407746932862
              ],
              [
                4.297387349384615,
                50.90441969533108
              ],
              [
                4.297305002903505,
                50.90476870530547
              ],
              [
                4.297277154424285,
                50.90512113820683
              ],
              [
                4.297277992531849,
                50.90513211200439
              ],
              [
                4.296864316384135,
                50.90528859090528
              ],
              [
                4.296415779121345,
                50.905498557853264
              ],
              [
                4.2960019463266175,
                50.90573531055271
              ],
              [
                4.295626803313368,
                50.905996569327044
              ],
              [
                4.295293963032258,
                50.90627981849298
              ],
              [
                4.295006631271978,
                50.906582330573116
              ],
              [
                4.294767575772109,
                50.90690119254916
              ],
              [
                4.294579099546107,
                50.90723333390262
              ],
              [
                4.294443018672108,
                50.90757555617437
              ],
              [
                4.294360644766661,
                50.90792456375813
              ],
              [
                4.294332772311504,
                50.90827699563197
              ],
              [
                4.29435967095709,
                50.908629457722526
              ],
              [
                4.294441082878689,
                50.908978555590245
              ],
              [
                4.294576225212344,
                50.9093209271212
              ],
              [
                4.294763797549025,
                50.90965327491026
              ],
              [
                4.295001994416563,
                50.90997239802387
              ],
              [
                4.295288522630738,
                50.91027522283609
              ],
              [
                4.295620623349831,
                50.91055883264068
              ],
              [
                4.295995098621423,
                50.91082049575353
              ],
              [
                4.296408342166619,
                50.911057691834415
              ],
              [
                4.2968563741057535,
                50.91126813617384
              ],
              [
                4.297334879291349,
                50.91144980171073
              ],
              [
                4.297839248878997,
                50.91160093856833
              ],
              [
                4.29799181458826,
                50.91163553993591
              ],
              [
                4.298024859941874,
                50.91164544197083
              ],
              [
                4.298550236767321,
                50.91176459348992
              ],
              [
                4.299091559139377,
                50.911850612731705
              ],
              [
                4.299643612743986,
                50.91190267110255
              ],
              [
                4.300201079826816,
                50.911920267140054
              ],
              [
                4.300758590451356,
                50.91190323134654
              ],
              [
                4.301310774261384,
                50.91185172782302
              ],
              [
                4.301852312247481,
                50.91176625268725
              ],
              [
                4.302377988017267,
                50.91164762929173
              ],
              [
                4.302882738073834,
                50.91149700028733
              ],
              [
                4.3033617006165725,
                50.91131581660965
              ],
              [
                4.303810262393016,
                50.91110582349438
              ],
              [
                4.304224103149321,
                50.91086904365667
              ],
              [
                4.304599237250451,
                50.9106077577972
              ],
              [
                4.304932052068727,
                50.91032448262325
              ],
              [
                4.305219342770818,
                50.91002194659655
              ],
              [
                4.3054583431683815,
                50.90970306364277
              ],
              [
                4.305646752335734,
                50.90937090507576
              ],
              [
                4.30578275673909,
                50.90902867000769
              ],
              [
                4.305817887878671,
                50.908879671098425
              ],
              [
                4.306289966498474,
                50.909021097996636
              ],
              [
                4.306815334928321,
                50.90914021263596
              ],
              [
                4.307356642179556,
                50.909226193850365
              ],
              [
                4.307908674083735,
                50.90927821341254
              ],
              [
                4.308466113095564,
                50.90929577023392
              ],
              [
                4.309023589548982,
                50.909278695194594
              ],
              [
                4.309575733417016,
                50.909227152773596
              ],
              [
                4.310117226075121,
                50.909141639463385
              ],
              [
                4.3106428515677,
                50.90902297898414
              ],
              [
                4.311147546882323,
                50.90887231434395
              ],
              [
                4.311626450745873,
                50.9086910968217
              ],
              [
                4.312074950471303,
                50.908481071978976
              ],
              [
                4.312488726402656,
                50.90824426283654
              ],
              [
                4.312863793529483,
                50.907982950377324
              ],
              [
                4.313196539869361,
                50.9076996515647
              ],
              [
                4.313483761248668,
                50.907397095088065
              ],
              [
                4.313722692146852,
                50.90707819506997
              ],
              [
                4.313911032307675,
                50.90674602298854
              ],
              [
                4.3140469688619865,
                50.90640377808605
              ],
              [
                4.314129193750147,
                50.90605475654912
              ],
              [
                4.314156916277699,
                50.90570231975765
              ],
              [
                4.314129870684992,
                50.90534986190868
              ],
              [
                4.314048318659561,
                50.90500077732685
              ],
              [
                4.313913046768923,
                50.90465842777674
              ],
              [
                4.313725358840272,
                50.90432611009137
              ],
              [
                4.313487063362218,
                50.90400702442896
              ],
              [
                4.3134673025249795,
                50.90398614860988
              ],
              [
                4.313682098798228,
                50.904169513431114
              ],
              [
                4.3140566237580975,
                50.90443111944222
              ],
              [
                4.314469902301968,
                50.90466825241412
              ],
              [
                4.314917954212555,
                50.90487862824509
              ],
              [
                4.315396464149569,
                50.905060220533926
              ],
              [
                4.315900823222472,
                50.90521128010936
              ],
              [
                4.316426173398817,
                50.905330351888466
              ],
              [
                4.3169674543197045,
                50.90541628890143
              ],
              [
                4.317519452070293,
                50.90546826334673
              ],
              [
                4.317660219717101,
                50.90547268596115
              ],
              [
                4.3177194671941574,
                50.9054782642909
              ],
              [
                4.318276864751499,
                50.905495774565104
              ],
              [
                4.318834292509913,
                50.90547865293705
              ],
              [
                4.319386380911616,
                50.9054270643345
              ],
              [
                4.319927811866518,
                50.905341505694814
              ],
              [
                4.320453370013588,
                50.90522280117476
              ],
              [
                4.320957992989326,
                50.90507209420666
              ],
              [
                4.32143682021766,
                50.90489083647706
              ],
              [
                4.32188523974996,
                50.90468077393486
              ],
              [
                4.3222989327029415,
                50.90444392996387
              ],
              [
                4.322673914865626,
                50.90418258588246
              ],
              [
                4.323006575074147,
                50.90389925895851
              ],
              [
                4.3232811016727615,
                50.90360996480217
              ],
              [
                4.323408072956219,
                50.90357203973259
              ],
              [
                4.323886875427231,
                50.903390771932685
              ],
              [
                4.324335269670722,
                50.90318069994194
              ],
              [
                4.324748937047053,
                50.90294384723517
              ],
              [
                4.325123893591652,
                50.902682495214876
              ],
              [
                4.325170919900554,
                50.902642439083216
              ],
              [
                4.325277401034613,
                50.90264577775406
              ],
              [
                4.325834792401242,
                50.902628622881714
              ],
              [
                4.326386839595919,
                50.90257700132452
              ],
              [
                4.326928224925614,
                50.90249141033721
              ],
              [
                4.327453733468929,
                50.90237267438823
              ],
              [
                4.327958303340342,
                50.90222193721257
              ],
              [
                4.328437074475473,
                50.90204065078773
              ],
              [
                4.328885435466179,
                50.90183056133901
              ],
              [
                4.329299067993227,
                50.90159369250936
              ],
              [
                4.329673988427819,
                50.90133232585653
              ],
              [
                4.3300065862007795,
                50.90104897886577
              ],
              [
                4.330293658569698,
                50.90074638069039
              ],
              [
                4.3305324414494,
                50.90042744585444
              ],
              [
                4.3307206360093575,
                50.900095246171254
              ],
              [
                4.330856430782723,
                50.89975298114873
              ],
              [
                4.3309385190752385,
                50.899403947167116
              ],
              [
                4.330966111507766,
                50.89905150572603
              ],
              [
                4.330938943573248,
                50.89869905106706
              ],
              [
                4.330857278137041,
                50.89834997748399
              ],
              [
                4.330721902858374,
                50.89800764663527
              ],
              [
                4.330534122559554,
                50.89767535517373
              ],
              [
                4.330295746618144,
                50.89735630300486
              ],
              [
                4.330009071505156,
                50.897053562479414
              ],
              [
                4.329676858638796,
                50.89677004881628
              ],
              [
                4.329302307768216,
                50.89650849204032
              ],
              [
                4.328889026144441,
                50.89627141070493
              ],
              [
                4.328440993775924,
                50.896061087651496
              ],
              [
                4.327962525103484,
                50.8958795480392
              ],
              [
                4.327458227463559,
                50.89572853985559
              ],
              [
                4.3269329567392685,
                50.895609517095515
              ],
              [
                4.3263917706255315,
                50.89552362576989
              ],
              [
                4.325839879957175,
                50.895471692878154
              ],
              [
                4.325282598567364,
                50.89545421845086
              ],
              [
                4.324725292157661,
                50.89547137073839
              ],
              [
                4.324173326670356,
                50.89552298459205
              ],
              [
                4.323632016658514,
                50.89560856305313
              ],
              [
                4.323106574149109,
                50.8957272821346
              ],
              [
                4.322602058490017,
                50.895877998749654
              ],
              [
                4.322123327662269,
                50.89605926171093
              ],
              [
                4.321674991525018,
                50.8962693256948
              ],
              [
                4.3212613674423945,
                50.89650616803694
              ],
              [
                4.320886438718678,
                50.89676750819749
              ],
              [
                4.320839414638602,
                50.89680756268236
              ],
              [
                4.320732947059049,
                50.896804219981455
              ],
              [
                4.320175622966429,
                50.89682135066597
              ],
              [
                4.319623636611024,
                50.89687294310982
              ],
              [
                4.319082302746755,
                50.896958500560466
              ],
              [
                4.318556833630176,
                50.89707719923314
              ],
              [
                4.318052288865257,
                50.89722789623759
              ],
              [
                4.317573526713168,
                50.89740914057524
              ],
              [
                4.317125157334569,
                50.897619187101846
              ],
              [
                4.316711498413558,
                50.89785601332118
              ],
              [
                4.316336533589771,
                50.89811733884865
              ],
              [
                4.316003874098453,
                50.898400647358
              ],
              [
                4.315823009584424,
                50.89859122066039
              ],
              [
                4.315402382977998,
                50.89871683719354
              ],
              [
                4.314923595416459,
                50.89889807064659
              ],
              [
                4.314475199966563,
                50.89910810696187
              ],
              [
                4.314061514563383,
                50.89934492374149
              ],
              [
                4.313686523101499,
                50.89960624069178
              ],
              [
                4.313353837072612,
                50.89988954156909
              ],
              [
                4.313066660780358,
                50.90019209839801
              ],
              [
                4.312827760467446,
                50.900510997729135
              ],
              [
                4.312639437653044,
                50.90084316868413
              ],
              [
                4.312503506937977,
                50.901185412518636
              ],
              [
                4.312421278492667,
                50.90153443341852
              ],
              [
                4.312415900987443,
                50.90160277207261
              ],
              [
                4.312366839819853,
                50.901537071051
              ],
              [
                4.312080254789969,
                50.90123428713053
              ],
              [
                4.311748120610902,
                50.90095072309437
              ],
              [
                4.311373636274634,
                50.90068910945257
              ],
              [
                4.3109604083920425,
                50.90045196530617
              ],
              [
                4.310512416454592,
                50.900241574101436
              ],
              [
                4.310033974514233,
                50.900059961653795
              ],
              [
                4.309529689650379,
                50.89990887665216
              ],
              [
                4.30900441762343,
                50.899789773831095
              ],
              [
                4.308463216141058,
                50.89970379997233
              ],
              [
                4.307911296186186,
                50.899651782869995
              ],
              [
                4.307353971873988,
                50.89963422336547
              ],
              [
                4.307233184908797,
                50.89963792224428
              ],
              [
                4.307020597405428,
                50.899631223373625
              ],
              [
                4.306463234765123,
                50.89964828895398
              ],
              [
                4.305911200119983,
                50.899699816887775
              ],
              [
                4.305369808688714,
                50.89978531104356
              ]
            ],
            [
              [
                4.313014193247531,
                50.90351737696143
              ],
              [
                4.313063328473109,
                50.90358317285947
              ],
              [
                4.313083088961119,
                50.90360404874902
              ],
              [
                4.313012139479793,
                50.9035434798506
              ],
              [
                4.313014193247531,
                50.90351737696143
              ]
            ]
          ],
          [
            [
              [
                4.32858053960996,
                50.91542748537845
              ],
              [
                4.328293765191852,
                50.91512474228287
              ],
              [
                4.32796143478748,
                50.91484122528082
              ],
              [
                4.327586749278283,
                50.91457966442927
              ],
              [
                4.3271733172120825,
                50.9143425783208
              ],
              [
                4.3267251200461345,
                50.914132249842744
              ],
              [
                4.32624647380813,
                50.91395070420644
              ],
              [
                4.325741987544164,
                50.91379968945742
              ],
              [
                4.325216518953353,
                50.91368065965374
              ],
              [
                4.3246751276354845,
                50.91359476087406
              ],
              [
                4.324123026400804,
                50.91354282018958
              ],
              [
                4.323565531109462,
                50.91352533770589
              ],
              [
                4.323008009522065,
                50.91354248175092
              ],
              [
                4.322455829652242,
                50.913594087255355
              ],
              [
                4.321914308116753,
                50.91367965734088
              ],
              [
                4.321388658978798,
                50.913798368101126
              ],
              [
                4.320883943575435,
                50.913949076529455
              ],
              [
                4.320405021810692,
                50.91413033151734
              ],
              [
                4.319956505382053,
                50.914340387818044
              ],
              [
                4.319542713389623,
                50.91457722284122
              ],
              [
                4.319167630754596,
                50.91483855611753
              ],
              [
                4.318834869846983,
                50.91512187124619
              ],
              [
                4.318547635691937,
                50.915424440114535
              ],
              [
                4.318308695089961,
                50.915743349157204
              ],
              [
                4.318120349948874,
                50.91607552740235
              ],
              [
                4.317984415085248,
                50.91641777603537
              ],
              [
                4.317902200710247,
                50.91676679919589
              ],
              [
                4.317874499769917,
                50.917119235711766
              ],
              [
                4.317901580263466,
                50.91747169146466
              ],
              [
                4.317983182615255,
                50.917820772075856
              ],
              [
                4.318118522127599,
                50.91816311559732
              ],
              [
                4.318306296492572,
                50.9184954248935
              ],
              [
                4.318544698292227,
                50.9188144994013
              ],
              [
                4.318831432368426,
                50.919117265962726
              ],
              [
                4.319163737896419,
                50.91940080843239
              ],
              [
                4.319538414950756,
                50.91966239577457
              ],
              [
                4.319951855308532,
                50.919899508378684
              ],
              [
                4.320400077193847,
                50.92010986233918
              ],
              [
                4.320878763629061,
                50.92029143146546
              ],
              [
                4.321383304023321,
                50.92044246680927
              ],
              [
                4.321908838597316,
                50.92056151352111
              ],
              [
                4.322450305215559,
                50.92064742487255
              ],
              [
                4.323002488174055,
                50.92069937330924
              ],
              [
                4.323560068472055,
                50.920716858427724
              ],
              [
                4.3241176750821895,
                50.9206997117988
              ],
              [
                4.324669936723457,
                50.92064809859106
              ],
              [
                4.325211533636665,
                50.92056251597888
              ],
              [
                4.32573724886189,
                50.92044378834999
              ],
              [
                4.326242018522379,
                50.92029305935931
              ],
              [
                4.326720980629033,
                50.920111780905565
              ],
              [
                4.327169521934048,
                50.919901699137256
              ],
              [
                4.327583322381336,
                50.91966483762345
              ],
              [
                4.327958396724787,
                50.91940347785149
              ],
              [
                4.328291132913034,
                50.91912013724038
              ],
              [
                4.328578326870868,
                50.91881754488207
              ],
              [
                4.32881721334255,
                50.918498615244616
              ],
              [
                4.329005492500454,
                50.91816642009132
              ],
              [
                4.329141352063705,
                50.917824158886546
              ],
              [
                4.329223484714891,
                50.917475127973795
              ],
              [
                4.329251100648566,
                50.917122688823135
              ],
              [
                4.32922393513228,
                50.91677023565414
              ],
              [
                4.329142251009046,
                50.91642116274626
              ],
              [
                4.3290068361189835,
                50.91607883175143
              ],
              [
                4.328818995666741,
                50.9157465393239
              ],
              [
                4.32858053960996,
                50.91542748537845
              ]
            ]
          ]
        ]
      },
      "properties": {
        "type": "buffer_union_400m",
        "buffer_m": 400
      }
    },
    {
      "type": "Feature",
      "geometry": {
        "type": "Polygon",
        "coordinates": [
          [
            [
              4.2778089,
              50.9128929
            ],
            [
              4.2784502,
              50.9123909
            ],
            [
              4.2795296,
              50.9119781
            ],
            [
              4.2811168,
              50.9118306
            ],
            [
              4.2838207,
              50.909789
            ],
            [
              4.2882958,
              50.9079116
            ],
            [
              4.2884247,
              50.9079634
            ],
            [
              4.2886781,
              50.9077971
            ],
            [
              4.2902404,
              50.9058375
            ],
            [
              4.2916844,
              50.9043782
            ],
            [
              4.2921823,
              50.9041834
            ],
            [
              4.2940309,
              50.9012894
            ],
            [
              4.29422,
              50.9002393
            ],
            [
              4.2938664,
              50.9001337
            ],
            [
              4.2932011,
              50.899665
            ],
            [
              4.2932368,
              50.8992397
            ],
            [
              4.2927158,
              50.8993005
            ],
            [
              4.2924815,
              50.8991933
            ],
            [
              4.2924661,
              50.8991179
            ],
            [
              4.2933424,
              50.8978983
            ],
            [
              4.2936632,
              50.8979867
            ],
            [
              4.2937677,
              50.8976863
            ],
            [
              4.2937015,
              50.8969786
            ],
            [
              4.2943023,
              50.8960583
            ],
            [
              4.2945169,
              50.8961503
            ],
            [
              4.2947873,
              50.8954604
            ],
            [
              4.2956487,
              50.8943571
            ],
            [
              4.2957627,
              50.8943767
            ],
            [
              4.2991325,
              50.8922072
            ],
            [
              4.3000624,
              50.8923198
            ],
            [
              4.3011415,
              50.8911709
            ],
            [
              4.3007045,
              50.8908775
            ],
            [
              4.3009376,
              50.8905635
            ],
            [
              4.3011579,
              50.8904202
            ],
            [
              4.3019804,
              50.8903971
            ],
            [
              4.3037672,
              50.8905766
            ],
            [
              4.3057759,
              50.8909458
            ],
            [
              4.3072441,
              50.890959
            ],
            [
              4.3146138,
              50.8936101
            ],
            [
              4.3181449,
              50.894535
            ],
            [
              4.3190674,
              50.8948488
            ],
            [
              4.3203541,
              50.8955579
            ],
            [
              4.3225603,
              50.8974663
            ],
            [
              4.3236917,
              50.8981935
            ],
            [
              4.3295472,
              50.9004766
            ],
            [
              4.3309172,
              50.9009164
            ],
            [
              4.3306333,
              50.9014345
            ],
            [
              4.3301117,
              50.9016567
            ],
            [
              4.3274173,
              50.902094
            ],
            [
              4.3278228,
              50.9022663
            ],
            [
              4.3254826,
              50.9038706
            ],
            [
              4.3251951,
              50.9037433
            ],
            [
              4.3239887,
              50.9054071
            ],
            [
              4.3238149,
              50.9053854
            ],
            [
              4.3233886,
              50.9059194
            ],
            [
              4.3237143,
              50.9061512
            ],
            [
              4.3229419,
              50.9078148
            ],
            [
              4.3228757,
              50.9081278
            ],
            [
              4.3223248,
              50.9084003
            ],
            [
              4.3218498,
              50.9084332
            ],
            [
              4.3215557,
              50.9085935
            ],
            [
              4.3210353,
              50.9089102
            ],
            [
              4.3207109,
              50.9093505
            ],
            [
              4.320104,
              50.9097378
            ],
            [
              4.3199196,
              50.9099548
            ],
            [
              4.3192021,
              50.9103868
            ],
            [
              4.3189834,
              50.9103639
            ],
            [
              4.318929,
              50.9104771
            ],
            [
              4.3184975,
              50.9106744
            ],
            [
              4.3183434,
              50.9110068
            ],
            [
              4.3184439,
              50.9110822
            ],
            [
              4.3185729,
              50.9114483
            ],
            [
              4.3187308,
              50.9116304
            ],
            [
              4.3188823,
              50.9116766
            ],
            [
              4.3184247,
              50.9119786
            ],
            [
              4.318846,
              50.9121305
            ],
            [
              4.3190015,
              50.9122909
            ],
            [
              4.3194986,
              50.9125247
            ],
            [
              4.3201704,
              50.9125172
            ],
            [
              4.3204535,
              50.9124698
            ],
            [
              4.3207078,
              50.9123241
            ],
            [
              4.3213139,
              50.9125334
            ],
            [
              4.3216689,
              50.9125661
            ],
            [
              4.3223903,
              50.9129609
            ],
            [
              4.3226146,
              50.9129827
            ],
            [
              4.3227496,
              50.9131334
            ],
            [
              4.3234131,
              50.913476
            ],
            [
              4.323547,
              50.9136437
            ],
            [
              4.3247986,
              50.9141276
            ],
            [
              4.3255578,
              50.91453
            ],
            [
              4.3261725,
              50.914689
            ],
            [
              4.3263587,
              50.914793
            ],
            [
              4.3263883,
              50.9149308
            ],
            [
              4.3266909,
              50.9149661
            ],
            [
              4.3268645,
              50.9151465
            ],
            [
              4.3270257,
              50.9151339
            ],
            [
              4.3284697,
              50.9157008
            ],
            [
              4.3287495,
              50.9159173
            ],
            [
              4.3301712,
              50.9166449
            ],
            [
              4.3315598,
              50.9170273
            ],
            [
              4.3319348,
              50.9173486
            ],
            [
              4.3329698,
              50.9179043
            ],
            [
              4.333239,
              50.9181436
            ],
            [
              4.3332539,
              50.9182617
            ],
            [
              4.3335699,
              50.918274
            ],
            [
              4.3351761,
              50.9189604
            ],
            [
              4.3354038,
              50.919111
            ],
            [
              4.3355877,
              50.919398
            ],
            [
              4.3360553,
              50.9195192
            ],
            [
              4.337344,
              50.9200921
            ],
            [
              4.3381145,
              50.9201985
            ],
            [
              4.3384647,
              50.9200725
            ],
            [
              4.3389637,
              50.9207343
            ],
            [
              4.338503,
              50.9208678
            ],
            [
              4.336909,
              50.9209021
            ],
            [
              4.3362671,
              50.921631
            ],
            [
              4.3321321,
              50.9249888
            ],
            [
              4.3290685,
              50.9269465
            ],
            [
              4.3289744,
              50.9270941
            ],
            [
              4.3289062,
              50.9270824
            ],
            [
              4.3287129,
              50.9274593
            ],
            [
              4.3279483,
              50.9272958
            ],
            [
              4.3273545,
              50.9280801
            ],
            [
              4.3267986,
              50.9280304
            ],
            [
              4.3260052,
              50.9278904
            ],
            [
              4.3256726,
              50.9277377
            ],
            [
              4.3255218,
              50.9278062
            ],
            [
              4.3255067,
              50.9276686
            ],
            [
              4.325062,
              50.9273951
            ],
            [
              4.3248369,
              50.9275195
            ],
            [
              4.3245874,
              50.9271568
            ],
            [
              4.3237531,
              50.926932
            ],
            [
              4.3235005,
              50.9270265
            ],
            [
              4.323273,
              50.9266502
            ],
            [
              4.3233352,
              50.9265138
            ],
            [
              4.3232826,
              50.9264823
            ],
            [
              4.3221943,
              50.9262666
            ],
            [
              4.3220397,
              50.9261575
            ],
            [
              4.3216209,
              50.9261562
            ],
            [
              4.3215164,
              50.9259882
            ],
            [
              4.3212,
              50.9260002
            ],
            [
              4.3209462,
              50.9258233
            ],
            [
              4.3199029,
              50.9255337
            ],
            [
              4.3197983,
              50.9254612
            ],
            [
              4.3198117,
              50.9251752
            ],
            [
              4.319704,
              50.9250386
            ],
            [
              4.3183288,
              50.9245013
            ],
            [
              4.3178659,
              50.9241087
            ],
            [
              4.3175206,
              50.9239756
            ],
            [
              4.3162122,
              50.9240341
            ],
            [
              4.3160696,
              50.9241
            ],
            [
              4.316083,
              50.924278
            ],
            [
              4.3159738,
              50.9243207
            ],
            [
              4.3142366,
              50.9240951
            ],
            [
              4.3139973,
              50.9240014
            ],
            [
              4.3138325,
              50.9241424
            ],
            [
              4.31381,
              50.9243515
            ],
            [
              4.3136535,
              50.9243922
            ],
            [
              4.3134581,
              50.9242089
            ],
            [
              4.3130398,
              50.9242227
            ],
            [
              4.3113743,
              50.9240126
            ],
            [
              4.3095899,
              50.9234698
            ],
            [
              4.3086025,
              50.9232283
            ],
            [
              4.3079251,
              50.9232188
            ],
            [
              4.3069621,
              50.9229862
            ],
            [
              4.3067253,
              50.9228408
            ],
            [
              4.3061568,
              50.9228409
            ],
            [
              4.3020444,
              50.9223832
            ],
            [
              4.3018583,
              50.922302
            ],
            [
              4.301415,
              50.9223025
            ],
            [
              4.300997,
              50.9221274
            ],
            [
              4.3005732,
              50.9217914
            ],
            [
              4.3003642,
              50.9217421
            ],
            [
              4.3001946,
              50.9215537
            ],
            [
              4.2998958,
              50.921457
            ],
            [
              4.2995323,
              50.921087
            ],
            [
              4.299395,
              50.9210921
            ],
            [
              4.2993761,
              50.9209885
            ],
            [
              4.2985711,
              50.9205914
            ],
            [
              4.2985702,
              50.920509
            ],
            [
              4.298458,
              50.9205065
            ],
            [
              4.2983399,
              50.9203868
            ],
            [
              4.2982263,
              50.9204306
            ],
            [
              4.2979531,
              50.9203563
            ],
            [
              4.2978045,
              50.9201654
            ],
            [
              4.2976605,
              50.9201762
            ],
            [
              4.297005,
              50.9197814
            ],
            [
              4.29698,
              50.9196999
            ],
            [
              4.29681,
              50.9196954
            ],
            [
              4.2966224,
              50.919497
            ],
            [
              4.2960472,
              50.919158
            ],
            [
              4.2960364,
              50.9190692
            ],
            [
              4.2946606,
              50.9183653
            ],
            [
              4.2939882,
              50.9178207
            ],
            [
              4.293491,
              50.9175757
            ],
            [
              4.2931232,
              50.9172615
            ],
            [
              4.2924018,
              50.9168486
            ],
            [
              4.2919632,
              50.9167862
            ],
            [
              4.2917561,
              50.9166513
            ],
            [
              4.2900771,
              50.916212
            ],
            [
              4.2870251,
              50.9155141
            ],
            [
              4.2869506,
              50.9154702
            ],
            [
              4.2871071,
              50.9152558
            ],
            [
              4.2867317,
              50.9150206
            ],
            [
              4.2855423,
              50.9151677
            ],
            [
              4.2846167,
              50.9150933
            ],
            [
              4.2839911,
              50.9147989
            ],
            [
              4.2827466,
              50.9145118
            ],
            [
              4.2822107,
              50.9142612
            ],
            [
              4.2811947,
              50.9139968
            ],
            [
              4.2804762,
              50.913926
            ],
            [
              4.2793436,
              50.9134225
            ],
            [
              4.278976,
              50.9134162
            ],
            [
              4.2787215,
              50.9132881
            ],
            [
              4.2786727,
              50.9131865
            ],
            [
              4.2785129,
              50.9132027
            ],
            [
              4.2780003,
              50.9129214
            ],
            [
              4.2778089,
              50.9128929
            ]
          ]
        ]
      },
      "properties": {
        "type": "boundary",
        "gemeente": "Wemmel"
      }
    }
  ]
}