{
  "type": "FeatureCollection",
  "metadata": {
    "gemeente": "Wijnegem",
    "slug": "wijnegem",
    "generated_at": "2026-09-25T22:11:45.980763Z",
    "total_points": 23,
    "providers": [
      "bpost",
      "DHL",
      "GLS",
      "InPost",
      "VintedGo",
      "PostNL",
      "DPD",
      "Amazon"
    ],
    "bounds": [
      4.485148,
      51.221967,
      4.529146,
      51.236531
    ]
  },
  "features": [
    {
      "type": "Feature",
      "geometry": {
        "type": "Point",
        "coordinates": [
          4.48515,
          51.23653
        ]
      },
      "properties": {
        "type": "pakketpunt",
        "locatieNaam": "Bbox 24/7 Thiry Paints Wijnegem",
        "straatNaam": "Merksemsebaan",
        "straatNr": "300",
        "vervoerder": "bpost",
        "puntType": "automaat",
        "bezettingsgraad": 50,
        "latitude": 51.23653,
        "longitude": 4.48515,
        "canPickup": true,
        "canDropoff": true,
        "openingstijden": null
      }
    },
    {
      "type": "Feature",
      "geometry": {
        "type": "Point",
        "coordinates": [
          4.49999,
          51.22197
        ]
      },
      "properties": {
        "type": "pakketpunt",
        "locatieNaam": "Bbox Shopping Center Wijnegem",
        "straatNaam": "Turnhoutsebaan",
        "straatNr": "5",
        "vervoerder": "bpost",
        "puntType": "automaat",
        "bezettingsgraad": 50,
        "latitude": 51.22197,
        "longitude": 4.49999,
        "canPickup": true,
        "canDropoff": true,
        "openingstijden": null
      }
    },
    {
      "type": "Feature",
      "geometry": {
        "type": "Point",
        "coordinates": [
          4.52396,
          51.22714
        ]
      },
      "properties": {
        "type": "pakketpunt",
        "locatieNaam": "Bbox 24/7 Kiosk Marktplein Wijnegem",
        "straatNaam": "Marktplein",
        "straatNr": "13",
        "vervoerder": "bpost",
        "puntType": "automaat",
        "bezettingsgraad": 50,
        "latitude": 51.22714,
        "longitude": 4.52396,
        "canPickup": true,
        "canDropoff": true,
        "openingstijden": null
      }
    },
    {
      "type": "Feature",
      "geometry": {
        "type": "Point",
        "coordinates": [
          4.52748,
          51.22833
        ]
      },
      "properties": {
        "type": "pakketpunt",
        "locatieNaam": "Wijnegem",
        "straatNaam": "Turnhoutsebaan",
        "straatNr": "468",
        "vervoerder": "bpost",
        "puntType": "postkantoor",
        "bezettingsgraad": 50,
        "latitude": 51.22833,
        "longitude": 4.52748,
        "canPickup": true,
        "canDropoff": true,
        "openingstijden": null
      }
    },
    {
      "type": "Feature",
      "geometry": {
        "type": "Point",
        "coordinates": [
          4.5275,
          51.22844
        ]
      },
      "properties": {
        "type": "pakketpunt",
        "locatieNaam": "Bbox Wijnegem Bpost",
        "straatNaam": "Turnhoutsebaan",
        "straatNr": "468",
        "vervoerder": "bpost",
        "puntType": "automaat",
        "bezettingsgraad": 50,
        "latitude": 51.22844,
        "longitude": 4.5275,
        "canPickup": true,
        "canDropoff": true,
        "openingstijden": null
      }
    },
    {
      "type": "Feature",
      "geometry": {
        "type": "Point",
        "coordinates": [
          4.527483,
          51.22833
        ]
      },
      "properties": {
        "type": "pakketpunt",
        "locatieNaam": "WIJNEGEM",
        "straatNaam": "TURNHOUTSEBAAN",
        "straatNr": "468",
        "vervoerder": "DHL",
        "puntType": "postOffice",
        "bezettingsgraad": 50,
        "latitude": 51.22833,
        "longitude": 4.527483,
        "canPickup": true,
        "canDropoff": true,
        "openingstijden": {
          "ma": "09:30 - 12:30, 13:30 - 17:00",
          "di": "09:30 - 12:30, 13:30 - 18:00",
          "wo": "09:30 - 12:30",
          "do": "09:30 - 12:30, 13:30 - 18:00",
          "vr": "09:30 - 12:30, 13:30 - 17:00",
          "za": "09:30 - 13:00",
          "zo": "gesloten"
        }
      }
    },
    {
      "type": "Feature",
      "geometry": {
        "type": "Point",
        "coordinates": [
          4.527496,
          51.228438
        ]
      },
      "properties": {
        "type": "pakketpunt",
        "locatieNaam": "BBOX WIJNEGEM BPOST",
        "straatNaam": "TURNHOUTSEBAAN",
        "straatNr": "468",
        "vervoerder": "DHL",
        "puntType": "packStation",
        "bezettingsgraad": 50,
        "latitude": 51.228438,
        "longitude": 4.527496,
        "canPickup": true,
        "canDropoff": true,
        "openingstijden": {
          "ma": "06:00 - 23:00",
          "di": "06:00 - 23:00",
          "wo": "06:00 - 23:00",
          "do": "06:00 - 23:00",
          "vr": "06:00 - 23:00",
          "za": "06:00 - 23:00",
          "zo": "06:00 - 23:00"
        }
      }
    },
    {
      "type": "Feature",
      "geometry": {
        "type": "Point",
        "coordinates": [
          4.523959,
          51.227138
        ]
      },
      "properties": {
        "type": "pakketpunt",
        "locatieNaam": "BBOX 24/7 KIOSK MARKTPLEIN WIJNEGEM",
        "straatNaam": "MARKTPLEIN",
        "straatNr": "13",
        "vervoerder": "DHL",
        "puntType": "packStation",
        "bezettingsgraad": 50,
        "latitude": 51.227138,
        "longitude": 4.523959,
        "canPickup": true,
        "canDropoff": true,
        "openingstijden": {
          "ma": "00:00 - 23:59",
          "di": "00:00 - 23:59",
          "wo": "00:00 - 23:59",
          "do": "00:00 - 23:59",
          "vr": "00:00 - 23:59",
          "za": "00:00 - 23:59",
          "zo": "00:00 - 23:59"
        }
      }
    },
    {
      "type": "Feature",
      "geometry": {
        "type": "Point",
        "coordinates": [
          4.499992,
          51.221967
        ]
      },
      "properties": {
        "type": "pakketpunt",
        "locatieNaam": "BBOX SHOPPING CENTER WIJNEGEM",
        "straatNaam": "TURNHOUTSEBAAN",
        "straatNr": "5",
        "vervoerder": "DHL",
        "puntType": "packStation",
        "bezettingsgraad": 50,
        "latitude": 51.221967,
        "longitude": 4.499992,
        "canPickup": true,
        "canDropoff": true,
        "openingstijden": {
          "ma": "10:00 - 20:00",
          "di": "10:00 - 20:00",
          "wo": "10:00 - 20:00",
          "do": "10:00 - 20:00",
          "vr": "10:00 - 20:00",
          "za": "10:00 - 20:00",
          "zo": "gesloten"
        }
      }
    },
    {
      "type": "Feature",
      "geometry": {
        "type": "Point",
        "coordinates": [
          4.485148,
          51.236531
        ]
      },
      "properties": {
        "type": "pakketpunt",
        "locatieNaam": "BBOX 24/7 THIRY PAINTS WIJNEGEM",
        "straatNaam": "MERKSEMSEBAAN",
        "straatNr": "300",
        "vervoerder": "DHL",
        "puntType": "packStation",
        "bezettingsgraad": 50,
        "latitude": 51.236531,
        "longitude": 4.485148,
        "canPickup": true,
        "canDropoff": true,
        "openingstijden": {
          "ma": "00:00 - 23:59",
          "di": "00:00 - 23:59",
          "wo": "00:00 - 23:59",
          "do": "00:00 - 23:59",
          "vr": "00:00 - 23:59",
          "za": "00:00 - 23:59",
          "zo": "00:00 - 23:59"
        }
      }
    },
    {
      "type": "Feature",
      "geometry": {
        "type": "Point",
        "coordinates": [
          4.517715,
          51.226872
        ]
      },
      "properties": {
        "type": "pakketpunt",
        "locatieNaam": "Wijnegemse Krantenwinkel",
        "straatNaam": "Turnhoutsebaan",
        "straatNr": "273",
        "vervoerder": "GLS",
        "puntType": "parcel_shop",
        "bezettingsgraad": 50,
        "latitude": 51.226872,
        "longitude": 4.517715,
        "canPickup": true,
        "canDropoff": true,
        "openingstijden": "vr: 08:00 - 12:30, 13:00 - 16:30; za: 00:10 - 12:30, 13:00 - 18:00"
      }
    },
    {
      "type": "Feature",
      "geometry": {
        "type": "Point",
        "coordinates": [
          4.5242279,
          51.2271788
        ]
      },
      "properties": {
        "type": "pakketpunt",
        "locatieNaam": "GLS Parcel Locker powered by bbox",
        "straatNaam": "Marktplein",
        "straatNr": "13",
        "vervoerder": "GLS",
        "puntType": "locker",
        "bezettingsgraad": 50,
        "latitude": 51.2271788,
        "longitude": 4.5242279,
        "canPickup": true,
        "canDropoff": true,
        "openingstijden": "vr: 00:00 - 24:00; ma: 00:00 - 24:00"
      }
    },
    {
      "type": "Feature",
      "geometry": {
        "type": "Point",
        "coordinates": [
          4.5273975,
          51.2287026
        ]
      },
      "properties": {
        "type": "pakketpunt",
        "locatieNaam": "GLS Parcel Locker powered by bbox",
        "straatNaam": "Turnhoutsebaan",
        "straatNr": "468",
        "vervoerder": "GLS",
        "puntType": "locker",
        "bezettingsgraad": 50,
        "latitude": 51.2287026,
        "longitude": 4.5273975,
        "canPickup": true,
        "canDropoff": true,
        "openingstijden": "vr: 06:00 - 23:00; za: 06:00 - 23:00"
      }
    },
    {
      "type": "Feature",
      "geometry": {
        "type": "Point",
        "coordinates": [
          4.49995,
          51.22209
        ]
      },
      "properties": {
        "type": "pakketpunt",
        "locatieNaam": "",
        "straatNaam": "Turnhoutsebaan",
        "straatNr": "468",
        "vervoerder": "InPost",
        "puntType": "automaat",
        "bezettingsgraad": 50,
        "latitude": 51.22209,
        "longitude": 4.49995,
        "canPickup": true,
        "canDropoff": true,
        "openingstijden": "MON|10:00-20:00|-;TUE|10:00-20:00|-;WED|10:00-20:00|-;THU|10:00-20:00|-;FRI|10:00-20:00|-;SAT|10:00-20:00|-;SUN|-|-;"
      }
    },
    {
      "type": "Feature",
      "geometry": {
        "type": "Point",
        "coordinates": [
          4.52902668,
          51.22856134
        ]
      },
      "properties": {
        "type": "pakketpunt",
        "locatieNaam": "Phantasia MediaStore",
        "straatNaam": "Turnhoutsebaan",
        "straatNr": "494",
        "vervoerder": "VintedGo",
        "puntType": "parcel_shop",
        "bezettingsgraad": 50,
        "latitude": 51.22856134,
        "longitude": 4.52902668,
        "canPickup": true,
        "canDropoff": true,
        "openingstijden": null
      }
    },
    {
      "type": "Feature",
      "geometry": {
        "type": "Point",
        "coordinates": [
          4.529027,
          51.228561
        ]
      },
      "properties": {
        "type": "pakketpunt",
        "locatieNaam": "Phantasia MediaStore",
        "straatNaam": "Turnhoutsebaan",
        "straatNr": "494",
        "vervoerder": "PostNL",
        "puntType": "servicepunt",
        "bezettingsgraad": 50,
        "latitude": 51.228561,
        "longitude": 4.529027,
        "canPickup": true,
        "canDropoff": true,
        "openingstijden": "07:00 - 18:00"
      }
    },
    {
      "type": "Feature",
      "geometry": {
        "type": "Point",
        "coordinates": [
          4.51599,
          51.22675
        ]
      },
      "properties": {
        "type": "pakketpunt",
        "locatieNaam": "GIFT SHOP MARI",
        "straatNaam": "TURNHOUTSEBAAN",
        "straatNr": "294",
        "vervoerder": "DPD",
        "puntType": "pickup_point",
        "bezettingsgraad": 50,
        "latitude": 51.22675,
        "longitude": 4.51599,
        "canPickup": true,
        "canDropoff": true,
        "openingstijden": {
          "ma": "gesloten",
          "di": "09:00 - 18:00",
          "wo": "09:00 - 18:00",
          "do": "09:00 - 18:00",
          "vr": "09:00 - 18:00",
          "za": "09:00 - 18:00",
          "zo": "09:00 - 15:00"
        }
      }
    },
    {
      "type": "Feature",
      "geometry": {
        "type": "Point",
        "coordinates": [
          4.529146,
          51.228657
        ]
      },
      "properties": {
        "type": "pakketpunt",
        "locatieNaam": "PHANTASIA MEDIASTORE",
        "straatNaam": "TURNHOUTSEBAAN",
        "straatNr": "494",
        "vervoerder": "DPD",
        "puntType": "pickup_point",
        "bezettingsgraad": 50,
        "latitude": 51.228657,
        "longitude": 4.529146,
        "canPickup": true,
        "canDropoff": false,
        "openingstijden": {
          "ma": "07:00 - 18:00",
          "di": "07:00 - 18:00",
          "wo": "07:00 - 18:00",
          "do": "07:00 - 18:00",
          "vr": "07:00 - 18:00",
          "za": "08:00 - 12:00",
          "zo": "10:00 - 17:00"
        }
      }
    },
    {
      "type": "Feature",
      "geometry": {
        "type": "Point",
        "coordinates": [
          4.527496,
          51.228438
        ]
      },
      "properties": {
        "type": "pakketpunt",
        "locatieNaam": "bpost - BBOX WIJNEGEM BPOST",
        "straatNaam": "TURNHOUTSEBAAN,468",
        "straatNr": "",
        "vervoerder": "Amazon",
        "puntType": "3p",
        "bezettingsgraad": 50,
        "latitude": 51.228438,
        "longitude": 4.527496,
        "canPickup": true,
        "canDropoff": false,
        "openingstijden": null
      }
    },
    {
      "type": "Feature",
      "geometry": {
        "type": "Point",
        "coordinates": [
          4.527483,
          51.22833
        ]
      },
      "properties": {
        "type": "pakketpunt",
        "locatieNaam": "bpost - WIJNEGEM",
        "straatNaam": "TURNHOUTSEBAAN,468",
        "straatNr": "",
        "vervoerder": "Amazon",
        "puntType": "3p",
        "bezettingsgraad": 50,
        "latitude": 51.22833,
        "longitude": 4.527483,
        "canPickup": true,
        "canDropoff": false,
        "openingstijden": null
      }
    },
    {
      "type": "Feature",
      "geometry": {
        "type": "Point",
        "coordinates": [
          4.523959,
          51.227138
        ]
      },
      "properties": {
        "type": "pakketpunt",
        "locatieNaam": "bpost - BBOX 24/7 KIOSK MARKTPLEIN WIJNEGEM",
        "straatNaam": "MARKTPLEIN,13",
        "straatNr": "",
        "vervoerder": "Amazon",
        "puntType": "3p",
        "bezettingsgraad": 50,
        "latitude": 51.227138,
        "longitude": 4.523959,
        "canPickup": true,
        "canDropoff": false,
        "openingstijden": null
      }
    },
    {
      "type": "Feature",
      "geometry": {
        "type": "Point",
        "coordinates": [
          4.485148,
          51.236531
        ]
      },
      "properties": {
        "type": "pakketpunt",
        "locatieNaam": "bpost - BBOX 24/7 THIRY PAINTS WIJNEGEM",
        "straatNaam": "MERKSEMSEBAAN,300",
        "straatNr": "",
        "vervoerder": "Amazon",
        "puntType": "3p",
        "bezettingsgraad": 50,
        "latitude": 51.236531,
        "longitude": 4.485148,
        "canPickup": true,
        "canDropoff": false,
        "openingstijden": null
      }
    },
    {
      "type": "Feature",
      "geometry": {
        "type": "Point",
        "coordinates": [
          4.499992,
          51.221967
        ]
      },
      "properties": {
        "type": "pakketpunt",
        "locatieNaam": "bpost - BBOX SHOPPING CENTER WIJNEGEM",
        "straatNaam": "TURNHOUTSEBAAN,5",
        "straatNr": "",
        "vervoerder": "Amazon",
        "puntType": "3p",
        "bezettingsgraad": 50,
        "latitude": 51.221967,
        "longitude": 4.499992,
        "canPickup": true,
        "canDropoff": false,
        "openingstijden": null
      }
    },
    {
      "type": "Feature",
      "geometry": {
        "type": "MultiPolygon",
        "coordinates": [
          [
            [
              [
                4.50395603565413,
                51.22093029210222
              ],
              [
                4.5037751246658315,
                51.22069129420312
              ],
              [
                4.503557783099742,
                51.22046458227471
              ],
              [
                4.5033061044019504,
                51.22025233948584
              ],
              [
                4.5030225125767425,
                51.2200566096436
              ],
              [
                4.502709738834398,
                51.21987927751827
              ],
              [
                4.50237079528562,
                51.21972205070019
              ],
              [
                4.502008945935997,
                51.219586443163095
              ],
              [
                4.50162767525978,
                51.21947376069152
              ],
              [
                4.50123065465527,
                51.219385088312784
              ],
              [
                4.500821707104409,
                51.21932127985396
              ],
              [
                4.500404770376274,
                51.21928294972423
              ],
              [
                4.499983859127989,
                51.21927046700181
              ],
              [
                4.499563026267194,
                51.219283951881735
              ],
              [
                4.499146323947137,
                51.21932327451926
              ],
              [
                4.498737764569007,
                51.21938805627939
              ],
              [
                4.498341282166068,
                51.21947767338091
              ],
              [
                4.4979606945404615,
                51.21959126289984
              ],
              [
                4.497599666516446,
                51.219727731074556
              ],
              [
                4.4972616746631395,
                51.219885763832835
              ],
              [
                4.496949973825876,
                51.220063839439845
              ],
              [
                4.496667565787982,
                51.220260243145226
              ],
              [
                4.496417170364509,
                51.22047308368885
              ],
              [
                4.496201199206197,
                51.2207003115065
              ],
              [
                4.496021732566047,
                51.220939738460224
              ],
              [
                4.496020963912352,
                51.22094109537926
              ],
              [
                4.496019732354669,
                51.220942738394264
              ],
              [
                4.495878499021407,
                51.22119205883542
              ],
              [
                4.495776859714529,
                51.22144887181165
              ],
              [
                4.495766124660133,
                51.22149490080094
              ],
              [
                4.495736849318777,
                51.221568870410756
              ],
              [
                4.4956757831179415,
                51.22183070274089
              ],
              [
                4.495655879277522,
                51.22209503294488
              ],
              [
                4.495677330180257,
                51.222359315398734
              ],
              [
                4.495739929939602,
                51.222621004896
              ],
              [
                4.495843076355747,
                51.22287758116025
              ],
              [
                4.495985776689367,
                51.22312657311924
              ],
              [
                4.496166657198526,
                51.22336558270662
              ],
              [
                4.496383976347804,
                51.22359230796182
              ],
              [
                4.496635641563205,
                51.22380456520579
              ],
              [
                4.496919229372176,
                51.224000310078225
              ],
              [
                4.497232008735248,
                51.22417765723384
              ],
              [
                4.49757096734488,
                51.22433489850764
              ],
              [
                4.497932840638369,
                51.224470519373654
              ],
              [
                4.498314143245292,
                51.224583213538594
              ],
              [
                4.4987112025663105,
                51.22467189552953
              ],
              [
                4.499120194159491,
                51.22473571115397
              ],
              [
                4.499537178592648,
                51.22477404573139
              ],
              [
                4.499958139406067,
                51.22478653001692
              ],
              [
                4.500379021818996,
                51.224773043759704
              ],
              [
                4.500795771806253,
                51.22473371686176
              ],
              [
                4.501204375167502,
                51.22466892812614
              ],
              [
                4.501600896211954,
                51.22457930160638
              ],
              [
                4.501981515684944,
                51.22446570059256
              ],
              [
                4.502342567570198,
                51.224329219292116
              ],
              [
                4.502680574412587,
                51.22417117228556
              ],
              [
                4.502992280820538,
                51.223993081858964
              ],
              [
                4.503274684824944,
                51.223796663335634
              ],
              [
                4.503525066792308,
                51.22358380854829
              ],
              [
                4.503741015613545,
                51.22335656761141
              ],
              [
                4.503920451916356,
                51.22311712916962
              ],
              [
                4.504061648077922,
                51.22286779931251
              ],
              [
                4.504163244845681,
                51.222610979359324
              ],
              [
                4.504172806331479,
                51.22256995095633
              ],
              [
                4.504205234200458,
                51.22248797788813
              ],
              [
                4.5042662533647855,
                51.22222614122223
              ],
              [
                4.504286108448695,
                51.221961809584236
              ],
              [
                4.50426460893477,
                51.22169752865267
              ],
              [
                4.504201962572428,
                51.22143584357536
              ],
              [
                4.504098773350376,
                51.221179274459125
              ],
              [
                4.50395603565413,
                51.22093029210222
              ]
            ]
          ],
          [
            [
              [
                4.516818884399261,
                51.22410417262733
              ],
              [
                4.516401891759215,
                51.224065898981316
              ],
              [
                4.5159809330592084,
                51.22405347323107
              ],
              [
                4.515560061663698,
                51.224067015023124
              ],
              [
                4.515143330096927,
                51.22410639396468
              ],
              [
                4.5147347510417,
                51.22417123087859
              ],
              [
                4.514338258720799,
                51.22426090145258
              ],
              [
                4.51395767103196,
                51.22437454224777
              ],
              [
                4.513596652800195,
                51.2245110590088
              ],
              [
                4.51325868050052,
                51.22466913719557
              ],
              [
                4.512947008790202,
                51.22484725463576
              ],
              [
                4.512664639172348,
                51.22504369617617
              ],
              [
                4.512414291092316,
                51.22525657019232
              ],
              [
                4.5121983757452355,
                51.225483826797564
              ],
              [
                4.512018972846949,
                51.2257232775767
              ],
              [
                4.51187781059242,
                51.22597261665427
              ],
              [
                4.511776248995101,
                51.22622944289507
              ],
              [
                4.511715266768368,
                51.226491283023016
              ],
              [
                4.511695451876161,
                51.22675561543649
              ],
              [
                4.511716995844762,
                51.22701989449007
              ],
              [
                4.511779691891465,
                51.227281575009954
              ],
              [
                4.5118829368892035,
                51.227538136806125
              ],
              [
                4.512025737149235,
                51.22778710894555
              ],
              [
                4.512206717967197,
                51.2280260935527
              ],
              [
                4.51242413684149,
                51.22825278890752
              ],
              [
                4.512675900237511,
                51.22846501161883
              ],
              [
                4.512959583736927,
                51.22866071765886
              ],
              [
                4.513272455378425,
                51.22883802205636
              ],
              [
                4.513611501965458,
                51.228995217058035
              ],
              [
                4.513973458087722,
                51.229130788583596
              ],
              [
                4.514354837576776,
                51.22924343081497
              ],
              [
                4.514751967092539,
                51.229332058779434
              ],
              [
                4.515161021516765,
                51.22939581880484
              ],
              [
                4.515578060811907,
                51.22943409674623
              ],
              [
                4.515999067989674,
                51.22944652390425
              ],
              [
                4.516387244092747,
                51.22943403417975
              ],
              [
                4.5164770593931545,
                51.22945407671382
              ],
              [
                4.516886117247224,
                51.22951783076924
              ],
              [
                4.517303159050125,
                51.22955610262538
              ],
              [
                4.517724167789405,
                51.22956852364153
              ],
              [
                4.518145088222589,
                51.22955497417622
              ],
              [
                4.518561865958228,
                51.22951558474033
              ],
              [
                4.5189704865287155,
                51.22945073473926
              ],
              [
                4.51936701407756,
                51.22936104881666
              ],
              [
                4.519747629287559,
                51.22924739083479
              ],
              [
                4.5201086661836625,
                51.22911085554982
              ],
              [
                4.520446647455327,
                51.228952758062164
              ],
              [
                4.520634490613757,
                51.22884539557784
              ],
              [
                4.520646165716163,
                51.22885523470414
              ],
              [
                4.5209298850467885,
                51.22905092159368
              ],
              [
                4.521242789617776,
                51.2292282048764
              ],
              [
                4.521581865915295,
                51.22938537700244
              ],
              [
                4.52194384824277,
                51.22952092411176
              ],
              [
                4.522325250179245,
                51.2296335406215
              ],
              [
                4.52272239816834,
                51.22972214180665
              ],
              [
                4.523131466913796,
                51.22978587425301
              ],
              [
                4.523177317326794,
                51.22979007951512
              ],
              [
                4.523399381428891,
                51.22982467608947
              ],
              [
                4.5235047286665715,
                51.22983433794196
              ],
              [
                4.523614371792478,
                51.22997905750721
              ],
              [
                4.5238318552447945,
                51.23020573171159
              ],
              [
                4.52408368111619,
                51.23041792997075
              ],
              [
                4.524367424386468,
                51.23061360849237
              ],
              [
                4.524680352518482,
                51.23079088257018
              ],
              [
                4.52501945177143,
                51.23094804474295
              ],
              [
                4.525381456227584,
                51.23108358124651
              ],
              [
                4.525762879252801,
                51.23119618660014
              ],
              [
                4.526160047087521,
                51.23128477618627
              ],
              [
                4.526569134244285,
                51.23134849670244
              ],
              [
                4.52698620037016,
                51.23138673438423
              ],
              [
                4.527407228218343,
                51.231399120920045
              ],
              [
                4.527828162362259,
                51.23138553700061
              ],
              [
                4.52824494827838,
                51.231346113468604
              ],
              [
                4.5284440939324,
                51.231314492234844
              ],
              [
                4.528734801447065,
                51.231341140512946
              ],
              [
                4.529155829347934,
                51.23135352082403
              ],
              [
                4.529576762570434,
                51.23133993068073
              ],
              [
                4.529993546599916,
                51.23130050098579
              ],
              [
                4.530402166908173,
                51.231235611532355
              ],
              [
                4.530798687641295,
                51.23114588734409
              ],
              [
                4.531179289547815,
                51.231032192651845
              ],
              [
                4.5315403067809354,
                51.23089562256534
              ],
              [
                4.531878262219645,
                51.23073749252022
              ],
              [
                4.532189900967885,
                51.23055932560234
              ],
              [
                4.53247222170868,
                51.23036283787165
              ],
              [
                4.532722505610976,
                51.23014992182739
              ],
              [
                4.532938342510693,
                51.22992262817394
              ],
              [
                4.533117654113976,
                51.22968314606353
              ],
              [
                4.533258713999483,
                51.229433782006204
              ],
              [
                4.533360164227563,
                51.22917693765047
              ],
              [
                4.533421028397048,
                51.228915086648826
              ],
              [
                4.533440721024692,
                51.22865075083134
              ],
              [
                4.533419053157871,
                51.22838647591661
              ],
              [
                4.533356234167479,
                51.22812480699434
              ],
              [
                4.533252869704755,
                51.22786826401562
              ],
              [
                4.533109955842795,
                51.227619317526816
              ],
              [
                4.532928869460113,
                51.22738036488085
              ],
              [
                4.532711354959818,
                51.22715370715466
              ],
              [
                4.532459507453055,
                51.22694152699505
              ],
              [
                4.532431638452436,
                51.22692231040152
              ],
              [
                4.5323405050089365,
                51.22684553026447
              ],
              [
                4.532056751208921,
                51.22664987058233
              ],
              [
                4.531743822825156,
                51.226472615733705
              ],
              [
                4.53140473345706,
                51.22631547256475
              ],
              [
                4.531042748513962,
                51.22617995424364
              ],
              [
                4.530661353775374,
                51.22606736569576
              ],
              [
                4.530264221833835,
                51.225978791044035
              ],
              [
                4.529855176743026,
                51.22591508317446
              ],
              [
                4.529438157210954,
                51.22587685552767
              ],
              [
                4.529234191835802,
                51.22587085789126
              ],
              [
                4.529117428258372,
                51.22583638680757
              ],
              [
                4.52872030121753,
                51.22574780696281
              ],
              [
                4.528311260263015,
                51.225684093746935
              ],
              [
                4.5278942440630185,
                51.22564586065204
              ],
              [
                4.527753011716661,
                51.22564170585966
              ],
              [
                4.527541483353078,
                51.22546346380091
              ],
              [
                4.527257758104385,
                51.225267792497455
              ],
              [
                4.526944857242271,
                51.22509052485358
              ],
              [
                4.5266057941012,
                51.22493336783864
              ],
              [
                4.52624383383802,
                51.22479783475416
              ],
              [
                4.5258624619946595,
                51.22468523066772
              ],
              [
                4.5254653509432625,
                51.224596639851825
              ],
              [
                4.525056324536416,
                51.224532915348114
              ],
              [
                4.525039255834441,
                51.22453134995747
              ],
              [
                4.524787439071219,
                51.224492117189385
              ],
              [
                4.524370436422528,
                51.22445387164988
              ],
              [
                4.523949472098276,
                51.224441474269334
              ],
              [
                4.523528599517056,
                51.224455044421035
              ],
              [
                4.52311187121454,
                51.224494451439185
              ],
              [
                4.522703299842122,
                51.22455931587625
              ],
              [
                4.522306819548659,
                51.22464901315495
              ],
              [
                4.521926248116144,
                51.22476267957927
              ],
              [
                4.521565250213141,
                51.22489922064701
              ],
              [
                4.521227302119015,
                51.22505732158406
              ],
              [
                4.521038657321157,
                51.22516515289795
              ],
              [
                4.521028801157936,
                51.2251568460948
              ],
              [
                4.520745105108577,
                51.224961159142396
              ],
              [
                4.520432231066968,
                51.22478387424488
              ],
              [
                4.5200931921094,
                51.2246266985378
              ],
              [
                4.519731253159939,
                51.22449114550263
              ],
              [
                4.519349899555365,
                51.22437852039911
              ],
              [
                4.518952803492274,
                51.2242899077021
              ],
              [
                4.518543788678989,
                51.22422616066398
              ],
              [
                4.518126793532075,
                51.22418789310256
              ],
              [
                4.517705833271022,
                51.2241754734935
              ],
              [
                4.5173177013014465,
                51.22418796757203
              ],
              [
                4.517227895783986,
                51.22416792563482
              ],
              [
                4.516818884399261,
                51.22410417262733
              ]
            ]
          ],
          [
            [
              [
                4.488934712716056,
                51.23525477639892
              ],
              [
                4.488717375428593,
                51.23502803849785
              ],
              [
                4.4884656856759575,
                51.234815765342894
              ],
              [
                4.488182067569291,
                51.23462000103358
              ],
              [
                4.4878692525723,
                51.23444263067213
              ],
              [
                4.487530253193224,
                51.23428536221709
              ],
              [
                4.487168333975473,
                51.23414971004311
              ],
              [
                4.4867869800661975,
                51.23403698036459
              ],
              [
                4.486389863665219,
                51.23394825866336
              ],
              [
                4.485980808676891,
                51.23388439924143
              ],
              [
                4.485563753904714,
                51.233846016998704
              ],
              [
                4.485142715142302,
                51.23383348151515
              ],
              [
                4.484721746524915,
                51.2338469134939
              ],
              [
                4.484304901512749,
                51.23388618359956
              ],
              [
                4.483896193880693,
                51.23395091370294
              ],
              [
                4.48349955908926,
                51.23404048052029
              ],
              [
                4.483118816407659,
                51.23415402161181
              ],
              [
                4.482757632152929,
                51.23429044368223
              ],
              [
                4.482419484398324,
                51.23444843310332
              ],
              [
                4.482418852299966,
                51.23444879396539
              ],
              [
                4.482417484429059,
                51.23444943305798
              ],
              [
                4.482105629506604,
                51.23462746850691
              ],
              [
                4.481823070697261,
                51.23482383562585
              ],
              [
                4.48157252926786,
                51.23503664350711
              ],
              [
                4.481356418275117,
                51.235263842900984
              ],
              [
                4.481176819318676,
                51.23550324594336
              ],
              [
                4.481035462481387,
                51.23575254721866
              ],
              [
                4.480933709650502,
                51.23600934595585
              ],
              [
                4.480872541381067,
                51.236271169143926
              ],
              [
                4.480852547428829,
                51.23653549534452
              ],
              [
                4.480873921044757,
                51.23679977897229
              ],
              [
                4.480936457087083,
                51.23706147480953
              ],
              [
                4.481039553970123,
                51.23731806251888
              ],
              [
                4.481182219432097,
                51.23756707091793
              ],
              [
                4.4813630800674185,
                51.237806101782006
              ],
              [
                4.48158039453255,
                51.238032852945736
              ],
              [
                4.481832070299061,
                51.23824514048054
              ],
              [
                4.482115683793176,
                51.23844091973437
              ],
              [
                4.482428503728384,
                51.23861830503088
              ],
              [
                4.4827675174066455,
                51.2387755878377
              ],
              [
                4.483129459735058,
                51.23891125322883
              ],
              [
                4.483510844678393,
                51.23902399448211
              ],
              [
                4.483907998844306,
                51.23911272567106
              ],
              [
                4.4843170968772945,
                51.23917659212929
              ],
              [
                4.484734198319851,
                51.23921497868667
              ],
              [
                4.485155285585052,
                51.23922751559763
              ],
              [
                4.485576302673949,
                51.23921408210439
              ],
              [
                4.48599319426389,
                51.239174807600754
              ],
              [
                4.486401944790333,
                51.239110070385124
              ],
              [
                4.48679861714469,
                51.239020494014774
              ],
              [
                4.487179390614588,
                51.23890694129679
              ],
              [
                4.4875405977001845,
                51.238770505973456
              ],
              [
                4.487878759451241,
                51.238612502182484
              ],
              [
                4.487879391563791,
                51.23861214129181
              ],
              [
                4.487880759481967,
                51.23861150213712
              ],
              [
                4.488192619000327,
                51.23843345174304
              ],
              [
                4.488475172856065,
                51.23823706968938
              ],
              [
                4.488725699972298,
                51.23802424745771
              ],
              [
                4.4889417878419415,
                51.237797034849
              ],
              [
                4.489121355753542,
                51.23755762023515
              ],
              [
                4.489262674816879,
                51.23730830947631
              ],
              [
                4.489364384595937,
                51.2370515037079
              ],
              [
                4.4894255061897494,
                51.236789676211075
              ],
              [
                4.489445451635924,
                51.23652534858975
              ],
              [
                4.489424029547214,
                51.23626106648385
              ],
              [
                4.489361446927856,
                51.23599937505259
              ],
              [
                4.489258307153178,
                51.23574279446407
              ],
              [
                4.4891156041330085,
                51.235493795627114
              ],
              [
                4.488934712716056,
                51.23525477639892
              ]
            ]
          ]
        ]
      },
      "properties": {
        "type": "buffer_union_300m",
        "buffer_m": 300
      }
    },
    {
      "type": "Feature",
      "geometry": {
        "type": "MultiPolygon",
        "coordinates": [
          [
            [
              [
                4.505277341700257,
                51.2205846931778
              ],
              [
                4.505036120219287,
                51.220266031898255
              ],
              [
                4.504746326402442,
                51.219963752273976
              ],
              [
                4.504410751705635,
                51.21968076508355
              ],
              [
                4.504032628253637,
                51.21941979528029
              ],
              [
                4.503615597699239,
                51.2191833557637
              ],
              [
                4.503163676147646,
                51.21897372319345
              ],
              [
                4.502681215484084,
                51.2187929160787
              ],
              [
                4.50217286147684,
                51.21864267535274
              ],
              [
                4.501643509058719,
                51.21852444761993
              ],
              [
                4.50109825521668,
                51.21843937123543
              ],
              [
                4.500542349942181,
                51.21838826535159
              ],
              [
                4.499981145713214,
                51.21837162203592
              ],
              [
                4.499420045992862,
                51.218389601536416
              ],
              [
                4.498864453238659,
                51.218442030739816
              ],
              [
                4.4983197169215945,
                51.218528404837045
              ],
              [
                4.497791082053537,
                51.218647892180705
              ],
              [
                4.497283638717036,
                51.218799342287106
              ],
              [
                4.496802273081942,
                51.21898129690674
              ],
              [
                4.496351620379152,
                51.21919200405661
              ],
              [
                4.495936020283226,
                51.21942943487962
              ],
              [
                4.495559475132677,
                51.219691303169526
              ],
              [
                4.495225611389791,
                51.21997508737366
              ],
              [
                4.4949376447109595,
                51.22027805486216
              ],
              [
                4.494698348964096,
                51.22059728823057
              ],
              [
                4.494697580277536,
                51.220598645141195
              ],
              [
                4.494696348682266,
                51.22060028814263
              ],
              [
                4.494508029183845,
                51.22093271329155
              ],
              [
                4.494372500548788,
                51.221275129032065
              ],
              [
                4.494361764148071,
                51.22132115789697
              ],
              [
                4.494332486687948,
                51.221395127164115
              ],
              [
                4.49425105472306,
                51.221744235981326
              ],
              [
                4.494224505499132,
                51.222096675938595
              ],
              [
                4.49425309594035,
                51.222449052882716
              ],
              [
                4.4943365519449365,
                51.222797973192044
              ],
              [
                4.494474070977243,
                51.22314007646037
              ],
              [
                4.494664329750825,
                51.22347206786394
              ],
              [
                4.494905496930254,
                51.22379074989921
              ],
              [
                4.4951952507309505,
                51.22409305318613
              ],
              [
                4.495530801248968,
                51.22437606603937
              ],
              [
                4.495908917306864,
                51.22463706252237
              ],
              [
                4.496325957557958,
                51.2248735287139
              ],
              [
                4.496777905549952,
                51.225083186933084
              ],
              [
                4.497260408410427,
                51.225264017689454
              ],
              [
                4.497768818781455,
                51.22541427914586
              ],
              [
                4.498298239598925,
                51.225532523906274
              ],
              [
                4.498843571284484,
                51.225617612966396
              ],
              [
                4.499399560894404,
                51.225668726692255
              ],
              [
                4.499960852750645,
                51.2256853727206
              ],
              [
                4.500522040064861,
                51.22566739070487
              ],
              [
                4.501077717056431,
                51.22561495386078
              ],
              [
                4.501622531060742,
                51.225528567296784
              ],
              [
                4.502151234124077,
                51.22540906314504
              ],
              [
                4.502658733586443,
                51.225257592540764
              ],
              [
                4.503140141163584,
                51.22507561452656
              ],
              [
                4.503590820054087,
                51.22486488198969
              ],
              [
                4.504006429616715,
                51.22462742476774
              ],
              [
                4.504382967186889,
                51.224365530086004
              ],
              [
                4.504716806629032,
                51.22408172051561
              ],
              [
                4.5050047332533385,
                51.22377872966506
              ],
              [
                4.505243974760906,
                51.223459475839924
              ],
              [
                4.505432227919727,
                51.2231270339251
              ],
              [
                4.505567680715533,
                51.22278460576048
              ],
              [
                4.505577241001115,
                51.222743577246725
              ],
              [
                4.5056096665217344,
                51.22266160379896
              ],
              [
                4.5056910150425535,
                51.22231248728898
              ],
              [
                4.505717477717372,
                51.22196004479117
              ],
              [
                4.505688800936883,
                51.22160767055563
              ],
              [
                4.5056052621138685,
                51.22125875809971
              ],
              [
                4.505467666963934,
                51.22091666752815
              ],
              [
                4.505277341700257,
                51.2205846931778
              ]
            ]
          ],
          [
            [
              [
                4.516539178473946,
                51.223171197693375
              ],
              [
                4.515977910978664,
                51.22315463033922
              ],
              [
                4.515416759880423,
                51.2231726857211
              ],
              [
                4.514861128131353,
                51.22322518999511
              ],
              [
                4.514316365577899,
                51.22331163762941
              ],
              [
                4.513787717484629,
                51.223431196268514
              ],
              [
                4.513280274061605,
                51.22358271474227
              ],
              [
                4.512798921479766,
                51.22376473414289
              ],
              [
                4.512348294844655,
                51.223975501863556
              ],
              [
                4.511932733580225,
                51.224212988463904
              ],
              [
                4.51155623965153,
                51.22447490720055
              ],
              [
                4.511222439028124,
                51.22475873603503
              ],
              [
                4.510934546759112,
                51.22506174190759
              ],
              [
                4.5106953359963935,
                51.22538100704406
              ],
              [
                4.5105071112649515,
                51.22571345704257
              ],
              [
                4.510371686238498,
                51.22605589047036
              ],
              [
                4.510290366235668,
                51.22640500968603
              ],
              [
                4.510263935606761,
                51.22675745259069
              ],
              [
                4.510292650134128,
                51.22710982500254
              ],
              [
                4.510376234521164,
                51.22745873334346
              ],
              [
                4.51051388499591,
                51.22780081732234
              ],
              [
                4.510704277006021,
                51.22813278230101
              ],
              [
                4.510945577932779,
                51.2284514310303
              ],
              [
                4.511235464703281,
                51.2287536944508
              ],
              [
                4.5115711461326535,
                51.229036661260984
              ],
              [
                4.511949389782258,
                51.22929760596772
              ],
              [
                4.5123665530761246,
                51.229534015148346
              ],
              [
                4.512818618376425,
                51.22974361167107
              ],
              [
                4.513301231680409,
                51.22992437663957
              ],
              [
                4.513809744565925,
                51.2300745688504
              ],
              [
                4.514339258981018,
                51.230192741574456
              ],
              [
                4.514884674445403,
                51.23027775650133
              ],
              [
                4.515440737208048,
                51.23032879471114
              ],
              [
                4.5160020908860155,
                51.23034536456803
              ],
              [
                4.516216456890004,
                51.23033846754269
              ],
              [
                4.51660980208828,
                51.23039977245409
              ],
              [
                4.517165868194802,
                51.23045080255009
              ],
              [
                4.51772722395489,
                51.23046736421767
              ],
              [
                4.518288461964458,
                51.23044929792287
              ],
              [
                4.5188441759544675,
                51.2303967776933
              ],
              [
                4.519389012903923,
                51.23031030944056
              ],
              [
                4.51991772463819,
                51.23019072608376
              ],
              [
                4.520425218413953,
                51.23003917952101
              ],
              [
                4.520513167304423,
                51.23000591947563
              ],
              [
                4.520789103646605,
                51.230133824933404
              ],
              [
                4.521271751892997,
                51.23031455734662
              ],
              [
                4.521780294710315,
                51.23046471526147
              ],
              [
                4.522309833758125,
                51.23058285227924
              ],
              [
                4.5225620901513475,
                51.23062215392228
              ],
              [
                4.522643255896984,
                51.23070675152646
              ],
              [
                4.522979020629781,
                51.23098968573411
              ],
              [
                4.523357343977095,
                51.23125059374976
              ],
              [
                4.52377458259505,
                51.23148696250411
              ],
              [
                4.5242267181200155,
                51.23169651525467
              ],
              [
                4.5247093958725415,
                51.23187723352675
              ],
              [
                4.525217966809414,
                51.2320273765666
              ],
              [
                4.5257475323192535,
                51.23214549811878
              ],
              [
                4.52629299142938,
                51.232230460365784
              ],
              [
                4.526849089968155,
                51.23228144489515
              ],
              [
                4.52741047120789,
                51.232297960588106
              ],
              [
                4.527971727498991,
                51.23227984835358
              ],
              [
                4.528516022722956,
                51.232228363815295
              ],
              [
                4.528597724739935,
                51.23223585306696
              ],
              [
                4.529159106049945,
                51.23225236046009
              ],
              [
                4.529720361112417,
                51.23223423992697
              ],
              [
                4.530276083494027,
                51.232181666017645
              ],
              [
                4.530820920092989,
                51.232095145160834
              ],
              [
                4.531349622738138,
                51.23197551078235
              ],
              [
                4.531857098773867,
                51.23182391527173
              ],
              [
                4.532338460142069,
                51.231641818874756
              ],
              [
                4.532789070487048,
                51.2314309756189
              ],
              [
                4.533204589828542,
                51.23119341640816
              ],
              [
                4.533581016371791,
                51.230931429450074
              ],
              [
                4.5339147250514795,
                51.23064753820443
              ],
              [
                4.5342025024381565,
                51.23034447706622
              ],
              [
                4.534441577671188,
                51.23002516501782
              ],
              [
                4.534629649120862,
                51.229692677504666
              ],
              [
                4.534764906523758,
                51.229350216805535
              ],
              [
                4.53484604837938,
                51.229001081183696
              ],
              [
                4.534872294441956,
                51.22864863311583
              ],
              [
                4.534843393188722,
                51.228296266905346
              ],
              [
                4.534759624194509,
                51.22794737599204
              ],
              [
                4.534621795391652,
                51.22760532027288
              ],
              [
                4.534431235243382,
                51.22727339374877
              ],
              [
                4.534189779907867,
                51.226954792808506
              ],
              [
                4.533899755518139,
                51.22665258545522
              ],
              [
                4.533563955749956,
                51.22636968177134
              ],
              [
                4.533536086635945,
                51.22635046543379
              ],
              [
                4.533444952491387,
                51.22627368613059
              ],
              [
                4.533066613081116,
                51.22601280987453
              ],
              [
                4.532649376346886,
                51.22577647339344
              ],
              [
                4.532197260378524,
                51.22556695235472
              ],
              [
                4.5317146189325594,
                51.22538626419349
              ],
              [
                4.531206099517287,
                51.22523614869759
              ],
              [
                4.530676598657508,
                51.225118051265525
              ],
              [
                4.530131214768865,
                51.22503310899781
              ],
              [
                4.529575199094472,
                51.224982139755426
              ],
              [
                4.529556443709183,
                51.224981588275895
              ],
              [
                4.529132704500824,
                51.224887072490276
              ],
              [
                4.528587326126933,
                51.224802123094285
              ],
              [
                4.528505201177295,
                51.224794593844244
              ],
              [
                4.528267655611641,
                51.22463077242667
              ],
              [
                4.527850455571489,
                51.224394418885254
              ],
              [
                4.527398374570968,
                51.22418487938534
              ],
              [
                4.526915766030025,
                51.2240041715398
              ],
              [
                4.526407277140239,
                51.22385403532604
              ],
              [
                4.525877804132603,
                51.22373591634206
              ],
              [
                4.525332445154686,
                51.22365095189589
              ],
              [
                4.525315376766306,
                51.22364938654455
              ],
              [
                4.525063564534092,
                51.22361015435089
              ],
              [
                4.524507571369817,
                51.22355916125198
              ],
              [
                4.5239462963759385,
                51.22354263172334
              ],
              [
                4.523385143696694,
                51.223560724917405
              ],
              [
                4.522829516299449,
                51.223613266626174
              ],
              [
                4.5222847639887975,
                51.223699750957394
              ],
              [
                4.521756131930771,
                51.223819345202216
              ],
              [
                4.521248710181158,
                51.22397089784768
              ],
              [
                4.521158947955847,
                51.224004848885286
              ],
              [
                4.520885871912159,
                51.2238782536483
              ],
              [
                4.520403291787772,
                51.22369751920212
              ],
              [
                4.519894827214815,
                51.223547354965945
              ],
              [
                4.519365374190278,
                51.22342920680762
              ],
              [
                4.518820030669432,
                51.22334421231607
              ],
              [
                4.5182640475068885,
                51.22329318985513
              ],
              [
                4.517702777930315,
                51.22327663068905
              ],
              [
                4.517488444613629,
                51.223283530427736
              ],
              [
                4.517095158294198,
                51.22322222826694
              ],
              [
                4.516539178473946,
                51.223171197693375
              ]
            ]
          ],
          [
            [
              [
                4.490196237603033,
                51.23482967481045
              ],
              [
                4.489906449484037,
                51.23452736055563
              ],
              [
                4.489570860041355,
                51.234244332877005
              ],
              [
                4.4891927015424695,
                51.23398331711788
              ],
              [
                4.48877561597826,
                51.233746826620255
              ],
              [
                4.488323619984123,
                51.23353713853478
              ],
              [
                4.487841066162455,
                51.23335627190511
              ],
              [
                4.4873326011787755,
                51.23320596823764
              ],
              [
                4.486803121034542,
                51.23308767474273
              ],
              [
                4.486257723946491,
                51.23300253040879
              ],
              [
                4.485701661285172,
                51.23295135504231
              ],
              [
                4.485140287043689,
                51.23293464137984
              ],
              [
                4.484579006321711,
                51.232952550346745
              ],
              [
                4.484023223319095,
                51.23300490950881
              ],
              [
                4.483478289338132,
                51.233091214731395
              ],
              [
                4.482949451293382,
                51.23321063503029
              ],
              [
                4.482441801223179,
                51.233362020567384
              ],
              [
                4.481960227287454,
                51.233543913714996
              ],
              [
                4.48150936672235,
                51.23375456308199
              ],
              [
                4.481508734626355,
                51.23375492393931
              ],
              [
                4.481507366763331,
                51.233755563021546
              ],
              [
                4.481091561225429,
                51.23399294030025
              ],
              [
                4.4807148150498985,
                51.234254759807776
              ],
              [
                4.480380756634591,
                51.23453850046135
              ],
              [
                4.480092603510454,
                51.234841430050565
              ],
              [
                4.479853131340898,
                51.235160631536104
              ],
              [
                4.479664647167934,
                51.23549303112928
              ],
              [
                4.4795289671635885,
                51.235835427883046
              ],
              [
                4.4794473991020505,
                51.23618452450949
              ],
              [
                4.479420729722765,
                51.236536959127534
              ],
              [
                4.479449217107801,
                51.2368893376356
              ],
              [
                4.479532588148685,
                51.23723826639708
              ],
              [
                4.479670041128902,
                51.23758038492453
              ],
              [
                4.47986025339904,
                51.237912398247325
              ],
              [
                4.480101394072438,
                51.23823110865097
              ],
              [
                4.480391141620654,
                51.23853344648224
              ],
              [
                4.480726706200759,
                51.238816499723185
              ],
              [
                4.481104856500584,
                51.23907754204827
              ],
              [
                4.481521950844247,
                51.23931405909479
              ],
              [
                4.481973972258924,
                51.239523772692046
              ],
              [
                4.482456567165346,
                51.23970466281615
              ],
              [
                4.482965087319202,
                51.2398549870581
              ],
              [
                4.483494634599004,
                51.23997329741711
              ],
              [
                4.484040108208214,
                51.24005845425698
              ],
              [
                4.484596253835849,
                51.2401096372908
              ],
              [
                4.485157714300739,
                51.240126353487724
              ],
              [
                4.485719081190018,
                51.24010844182524
              ],
              [
                4.486274946992844,
                51.24005607484141
              ],
              [
                4.486819957225363,
                51.23996975697173
              ],
              [
                4.487348862043156,
                51.23985031968671
              ],
              [
                4.487856566842313,
                51.23969891347746
              ],
              [
                4.4883381813601995,
                51.239516996766426
              ],
              [
                4.488789066801647,
                51.239306321850385
              ],
              [
                4.488789698916558,
                51.239305960954944
              ],
              [
                4.488791066842613,
                51.239305321789914
              ],
              [
                4.489206880557382,
                51.23906791794441
              ],
              [
                4.489583617932942,
                51.238806071888476
              ],
              [
                4.4899176509090655,
                51.238522305724935
              ],
              [
                4.490205762931861,
                51.23821935264435
              ],
              [
                4.4904451799168665,
                51.237900130588706
              ],
              [
                4.49063359694224,
                51.237567714137
              ],
              [
                4.4907692004158735,
                51.23722530488409
              ],
              [
                4.490850685504102,
                51.236876200598154
              ],
              [
                4.490877268655617,
                51.23652376345455
              ],
              [
                4.490848695101583,
                51.23617138765193
              ],
              [
                4.49076524126148,
                51.2358224667229
              ],
              [
                4.4906277120333735,
                51.23548036085396
              ],
              [
                4.490437432996498,
                51.23514836452936
              ],
              [
                4.490196237603033,
                51.23482967481045
              ]
            ]
          ]
        ]
      },
      "properties": {
        "type": "buffer_union_400m",
        "buffer_m": 400
      }
    },
    {
      "type": "Feature",
      "geometry": {
        "type": "Polygon",
        "coordinates": [
          [
            [
              4.479944,
              51.2381992
            ],
            [
              4.480653,
              51.2381993
            ],
            [
              4.4813182,
              51.238458
            ],
            [
              4.4828307,
              51.2388376
            ],
            [
              4.485442,
              51.2389701
            ],
            [
              4.4907474,
              51.2383572
            ],
            [
              4.4929366,
              51.2377756
            ],
            [
              4.4956613,
              51.2372438
            ],
            [
              4.495901,
              51.2379189
            ],
            [
              4.4962395,
              51.2380762
            ],
            [
              4.4973671,
              51.2378845
            ],
            [
              4.499356,
              51.2372642
            ],
            [
              4.5000882,
              51.2371695
            ],
            [
              4.5001727,
              51.2365435
            ],
            [
              4.5009779,
              51.2365506
            ],
            [
              4.5020556,
              51.2361321
            ],
            [
              4.5038259,
              51.235991
            ],
            [
              4.5059609,
              51.2356081
            ],
            [
              4.5067053,
              51.2355599
            ],
            [
              4.5068514,
              51.2356224
            ],
            [
              4.507302,
              51.2362547
            ],
            [
              4.5098649,
              51.2362131
            ],
            [
              4.5101593,
              51.236557
            ],
            [
              4.5109271,
              51.2368231
            ],
            [
              4.5112073,
              51.2370423
            ],
            [
              4.5116848,
              51.2369718
            ],
            [
              4.511784,
              51.2370272
            ],
            [
              4.5117465,
              51.2371985
            ],
            [
              4.5121353,
              51.2372059
            ],
            [
              4.5122319,
              51.2373093
            ],
            [
              4.512755,
              51.2373782
            ],
            [
              4.5131251,
              51.2375545
            ],
            [
              4.513223,
              51.2376838
            ],
            [
              4.5136294,
              51.2377375
            ],
            [
              4.5139539,
              51.2379172
            ],
            [
              4.5140424,
              51.2377862
            ],
            [
              4.5139544,
              51.2376318
            ],
            [
              4.5141029,
              51.237597
            ],
            [
              4.514155,
              51.2374592
            ],
            [
              4.5146513,
              51.2373731
            ],
            [
              4.5148695,
              51.237478
            ],
            [
              4.5151683,
              51.2373977
            ],
            [
              4.5151914,
              51.2372198
            ],
            [
              4.5157054,
              51.2374101
            ],
            [
              4.5159859,
              51.2374058
            ],
            [
              4.5166737,
              51.2377762
            ],
            [
              4.5192072,
              51.2385044
            ],
            [
              4.5193982,
              51.2388006
            ],
            [
              4.5196353,
              51.239696
            ],
            [
              4.5198119,
              51.2398568
            ],
            [
              4.5199621,
              51.2398937
            ],
            [
              4.5207916,
              51.2397502
            ],
            [
              4.5215869,
              51.2398497
            ],
            [
              4.5220173,
              51.2397595
            ],
            [
              4.5233081,
              51.2402178
            ],
            [
              4.5244659,
              51.2403093
            ],
            [
              4.5245328,
              51.240536
            ],
            [
              4.5261775,
              51.2407236
            ],
            [
              4.526571,
              51.2408559
            ],
            [
              4.5266839,
              51.2410514
            ],
            [
              4.5271973,
              51.2412984
            ],
            [
              4.5274776,
              51.2412849
            ],
            [
              4.5276563,
              51.2414871
            ],
            [
              4.527841,
              51.2412665
            ],
            [
              4.5284657,
              51.2413803
            ],
            [
              4.5283424,
              51.2416144
            ],
            [
              4.5287851,
              51.2416005
            ],
            [
              4.5292909,
              51.2419564
            ],
            [
              4.5290464,
              51.2420915
            ],
            [
              4.5292627,
              51.2422771
            ],
            [
              4.5294085,
              51.2423047
            ],
            [
              4.5315378,
              51.2388604
            ],
            [
              4.5381253,
              51.2402575
            ],
            [
              4.5383828,
              51.2402172
            ],
            [
              4.5376747,
              51.2382424
            ],
            [
              4.5373314,
              51.236899
            ],
            [
              4.5407509,
              51.2355431
            ],
            [
              4.5417379,
              51.2348243
            ],
            [
              4.5427164,
              51.2336957
            ],
            [
              4.5427464,
              51.2335479
            ],
            [
              4.5444071,
              51.2325353
            ],
            [
              4.5451865,
              51.2306106
            ],
            [
              4.5444593,
              51.2301325
            ],
            [
              4.5448456,
              51.2289984
            ],
            [
              4.5530862,
              51.2314074
            ],
            [
              4.5523007,
              51.2298647
            ],
            [
              4.5521706,
              51.2297654
            ],
            [
              4.5512366,
              51.2277292
            ],
            [
              4.5496009,
              51.2250475
            ],
            [
              4.5496184,
              51.2248441
            ],
            [
              4.5491048,
              51.2241362
            ],
            [
              4.5490877,
              51.2240047
            ],
            [
              4.548326,
              51.2231318
            ],
            [
              4.5480034,
              51.2226385
            ],
            [
              4.5475438,
              51.2223986
            ],
            [
              4.5469845,
              51.2211597
            ],
            [
              4.5461346,
              51.2200347
            ],
            [
              4.5453956,
              51.2204085
            ],
            [
              4.5450106,
              51.2202407
            ],
            [
              4.5447723,
              51.2199807
            ],
            [
              4.544345,
              51.2199645
            ],
            [
              4.5442659,
              51.2200506
            ],
            [
              4.5443215,
              51.2202531
            ],
            [
              4.5437138,
              51.220342
            ],
            [
              4.5435112,
              51.2205465
            ],
            [
              4.5431584,
              51.2206109
            ],
            [
              4.5431261,
              51.2208388
            ],
            [
              4.5426531,
              51.2210675
            ],
            [
              4.5419232,
              51.2211306
            ],
            [
              4.5417028,
              51.2209522
            ],
            [
              4.5416156,
              51.2209626
            ],
            [
              4.5415631,
              51.2210757
            ],
            [
              4.5416131,
              51.2213089
            ],
            [
              4.5413704,
              51.2215179
            ],
            [
              4.5411163,
              51.221582
            ],
            [
              4.5409674,
              51.2213801
            ],
            [
              4.5408328,
              51.221392
            ],
            [
              4.5407811,
              51.2219106
            ],
            [
              4.5402497,
              51.2219032
            ],
            [
              4.5401889,
              51.2217171
            ],
            [
              4.5395967,
              51.2215235
            ],
            [
              4.5394679,
              51.2215665
            ],
            [
              4.5394599,
              51.2218
            ],
            [
              4.5391096,
              51.2221266
            ],
            [
              4.5387313,
              51.2221534
            ],
            [
              4.5383779,
              51.2220557
            ],
            [
              4.5382062,
              51.2221149
            ],
            [
              4.5381461,
              51.2225858
            ],
            [
              4.5380775,
              51.2226363
            ],
            [
              4.5378229,
              51.2225875
            ],
            [
              4.5374688,
              51.2222448
            ],
            [
              4.5372299,
              51.2221945
            ],
            [
              4.5370838,
              51.2222335
            ],
            [
              4.5370818,
              51.2224051
            ],
            [
              4.5369448,
              51.2225364
            ],
            [
              4.5364467,
              51.2224266
            ],
            [
              4.536236,
              51.2224655
            ],
            [
              4.5361892,
              51.2223299
            ],
            [
              4.5364038,
              51.2221794
            ],
            [
              4.5362235,
              51.2220934
            ],
            [
              4.5354253,
              51.2221632
            ],
            [
              4.5353017,
              51.2226381
            ],
            [
              4.5352162,
              51.2227038
            ],
            [
              4.5346779,
              51.2226387
            ],
            [
              4.5345327,
              51.2225126
            ],
            [
              4.5345327,
              51.2223084
            ],
            [
              4.5344372,
              51.2222702
            ],
            [
              4.5342151,
              51.2224051
            ],
            [
              4.5334083,
              51.2225772
            ],
            [
              4.5325851,
              51.2223149
            ],
            [
              4.532515,
              51.2220615
            ],
            [
              4.5320046,
              51.2219528
            ],
            [
              4.5316665,
              51.2217099
            ],
            [
              4.530952,
              51.2216282
            ],
            [
              4.5308945,
              51.2213825
            ],
            [
              4.5306783,
              51.2211995
            ],
            [
              4.5304545,
              51.2216129
            ],
            [
              4.5302762,
              51.2217697
            ],
            [
              4.5292555,
              51.2217287
            ],
            [
              4.5290852,
              51.221405
            ],
            [
              4.5287945,
              51.2214508
            ],
            [
              4.5286831,
              51.2216043
            ],
            [
              4.5286759,
              51.2219179
            ],
            [
              4.5278392,
              51.2224655
            ],
            [
              4.5264849,
              51.2222772
            ],
            [
              4.5260629,
              51.2221116
            ],
            [
              4.5254846,
              51.2221652
            ],
            [
              4.5244471,
              51.2218087
            ],
            [
              4.5235939,
              51.2219518
            ],
            [
              4.5232282,
              51.2217089
            ],
            [
              4.523119,
              51.2217394
            ],
            [
              4.5230567,
              51.2218753
            ],
            [
              4.52315,
              51.222101
            ],
            [
              4.5233652,
              51.2223234
            ],
            [
              4.523269,
              51.2224272
            ],
            [
              4.5224551,
              51.2223536
            ],
            [
              4.5221289,
              51.2222021
            ],
            [
              4.5218179,
              51.2223934
            ],
            [
              4.521235,
              51.2223474
            ],
            [
              4.5211479,
              51.2224078
            ],
            [
              4.5211683,
              51.2226408
            ],
            [
              4.5202044,
              51.2229993
            ],
            [
              4.5199557,
              51.2226041
            ],
            [
              4.5195927,
              51.2226591
            ],
            [
              4.5192302,
              51.2223962
            ],
            [
              4.5188503,
              51.2223602
            ],
            [
              4.5187387,
              51.2223868
            ],
            [
              4.5186179,
              51.2226015
            ],
            [
              4.5181863,
              51.2225459
            ],
            [
              4.5178303,
              51.2229024
            ],
            [
              4.5177304,
              51.2228402
            ],
            [
              4.5177124,
              51.2225041
            ],
            [
              4.5169989,
              51.2222304
            ],
            [
              4.5170428,
              51.2219749
            ],
            [
              4.516956,
              51.2218924
            ],
            [
              4.5166369,
              51.2219054
            ],
            [
              4.5164488,
              51.2221658
            ],
            [
              4.5153001,
              51.2220022
            ],
            [
              4.5152532,
              51.2219328
            ],
            [
              4.5155391,
              51.2217169
            ],
            [
              4.5154149,
              51.2216512
            ],
            [
              4.5148444,
              51.2219751
            ],
            [
              4.5146935,
              51.2219872
            ],
            [
              4.5147677,
              51.2214997
            ],
            [
              4.5139746,
              51.2214758
            ],
            [
              4.5139853,
              51.221079
            ],
            [
              4.5133538,
              51.2208155
            ],
            [
              4.5136346,
              51.2206242
            ],
            [
              4.5134082,
              51.220451
            ],
            [
              4.5123035,
              51.2203057
            ],
            [
              4.5116287,
              51.22062
            ],
            [
              4.5114805,
              51.2202817
            ],
            [
              4.5111102,
              51.2202149
            ],
            [
              4.5110701,
              51.2198794
            ],
            [
              4.5102938,
              51.219989
            ],
            [
              4.5102701,
              51.2193472
            ],
            [
              4.5098821,
              51.2191528
            ],
            [
              4.5093501,
              51.2192094
            ],
            [
              4.5092163,
              51.2188875
            ],
            [
              4.5084438,
              51.2191561
            ],
            [
              4.5083274,
              51.2188493
            ],
            [
              4.5080247,
              51.2188173
            ],
            [
              4.5069515,
              51.218949
            ],
            [
              4.5066504,
              51.2189072
            ],
            [
              4.5067899,
              51.2186202
            ],
            [
              4.5065632,
              51.2178972
            ],
            [
              4.5064861,
              51.2178492
            ],
            [
              4.5061885,
              51.2178266
            ],
            [
              4.5055996,
              51.2180615
            ],
            [
              4.5052444,
              51.2179335
            ],
            [
              4.504876,
              51.2181934
            ],
            [
              4.5046963,
              51.2179584
            ],
            [
              4.5042815,
              51.2179204
            ],
            [
              4.5041261,
              51.217981
            ],
            [
              4.5038736,
              51.2182691
            ],
            [
              4.5035559,
              51.2180294
            ],
            [
              4.5027995,
              51.2179173
            ],
            [
              4.5026058,
              51.2175326
            ],
            [
              4.5018007,
              51.2176242
            ],
            [
              4.5010361,
              51.217419
            ],
            [
              4.5010022,
              51.2170485
            ],
            [
              4.5003536,
              51.2168642
            ],
            [
              4.5001193,
              51.2164015
            ],
            [
              4.499282,
              51.2160454
            ],
            [
              4.4971997,
              51.2158572
            ],
            [
              4.4967206,
              51.2160544
            ],
            [
              4.4956844,
              51.2158952
            ],
            [
              4.4955489,
              51.2159425
            ],
            [
              4.4956498,
              51.2161676
            ],
            [
              4.4958765,
              51.2163756
            ],
            [
              4.4958845,
              51.2164914
            ],
            [
              4.495829,
              51.2165276
            ],
            [
              4.495567,
              51.2163428
            ],
            [
              4.4958531,
              51.2172232
            ],
            [
              4.4948266,
              51.2184961
            ],
            [
              4.4952005,
              51.2186573
            ],
            [
              4.4958627,
              51.2187767
            ],
            [
              4.4953489,
              51.2197626
            ],
            [
              4.4971956,
              51.2205177
            ],
            [
              4.4979684,
              51.2213049
            ],
            [
              4.4969904,
              51.2245511
            ],
            [
              4.4963515,
              51.2276348
            ],
            [
              4.4930875,
              51.2272117
            ],
            [
              4.489299,
              51.226838
            ],
            [
              4.483943,
              51.2255647
            ],
            [
              4.4838303,
              51.2257808
            ],
            [
              4.4839629,
              51.2272366
            ],
            [
              4.484907,
              51.2289458
            ],
            [
              4.485997,
              51.232923
            ],
            [
              4.4870528,
              51.2336593
            ],
            [
              4.4874203,
              51.2345619
            ],
            [
              4.4853716,
              51.2351786
            ],
            [
              4.4853307,
              51.2359944
            ],
            [
              4.4843254,
              51.2362191
            ],
            [
              4.4826901,
              51.2373933
            ],
            [
              4.4823575,
              51.2377266
            ],
            [
              4.4808702,
              51.2371741
            ],
            [
              4.479944,
              51.2381992
            ]
          ]
        ]
      },
      "properties": {
        "type": "boundary",
        "gemeente": "Wijnegem"
      }
    }
  ]
}