{
  "type": "FeatureCollection",
  "metadata": {
    "gemeente": "Zutendaal",
    "slug": "zutendaal",
    "generated_at": "2026-09-25T22:11:46.397591Z",
    "total_points": 18,
    "providers": [
      "bpost",
      "DHL",
      "GLS",
      "InPost",
      "VintedGo",
      "PostNL",
      "DPD",
      "Amazon"
    ],
    "bounds": [
      5.535886,
      50.918102,
      5.572501,
      50.952314
    ]
  },
  "features": [
    {
      "type": "Feature",
      "geometry": {
        "type": "Point",
        "coordinates": [
          5.56087,
          50.95231
        ]
      },
      "properties": {
        "type": "pakketpunt",
        "locatieNaam": "Pakjesautomaat 24/7 De Wevel Zutendaal",
        "straatNaam": "Jachthoornplein",
        "straatNr": "8",
        "vervoerder": "bpost",
        "puntType": "automaat",
        "bezettingsgraad": 50,
        "latitude": 50.95231,
        "longitude": 5.56087,
        "canPickup": true,
        "canDropoff": true,
        "openingstijden": null
      }
    },
    {
      "type": "Feature",
      "geometry": {
        "type": "Point",
        "coordinates": [
          5.57125,
          50.93218
        ]
      },
      "properties": {
        "type": "pakketpunt",
        "locatieNaam": "Zutendaal",
        "straatNaam": "Kerkplein",
        "straatNr": "2",
        "vervoerder": "bpost",
        "puntType": "postkantoor",
        "bezettingsgraad": 50,
        "latitude": 50.93218,
        "longitude": 5.57125,
        "canPickup": true,
        "canDropoff": true,
        "openingstijden": null
      }
    },
    {
      "type": "Feature",
      "geometry": {
        "type": "Point",
        "coordinates": [
          5.57218,
          50.93113
        ]
      },
      "properties": {
        "type": "pakketpunt",
        "locatieNaam": "Bbox 24/7 Crf Mkt Zutendaal",
        "straatNaam": "Vonderstraat",
        "straatNr": "3",
        "vervoerder": "bpost",
        "puntType": "automaat",
        "bezettingsgraad": 50,
        "latitude": 50.93113,
        "longitude": 5.57218,
        "canPickup": true,
        "canDropoff": true,
        "openingstijden": null
      }
    },
    {
      "type": "Feature",
      "geometry": {
        "type": "Point",
        "coordinates": [
          5.5725,
          50.93353
        ]
      },
      "properties": {
        "type": "pakketpunt",
        "locatieNaam": "Pakjesautomaat 24/7 Admin Centrum Zutend",
        "straatNaam": "Oosterzonneplein",
        "straatNr": "1",
        "vervoerder": "bpost",
        "puntType": "automaat",
        "bezettingsgraad": 50,
        "latitude": 50.93353,
        "longitude": 5.5725,
        "canPickup": true,
        "canDropoff": true,
        "openingstijden": null
      }
    },
    {
      "type": "Feature",
      "geometry": {
        "type": "Point",
        "coordinates": [
          5.572178,
          50.931127
        ]
      },
      "properties": {
        "type": "pakketpunt",
        "locatieNaam": "BBOX 24/7 CRF MKT ZUTENDAAL",
        "straatNaam": "VONDERSTRAAT",
        "straatNr": "3",
        "vervoerder": "DHL",
        "puntType": "packStation",
        "bezettingsgraad": 50,
        "latitude": 50.931127,
        "longitude": 5.572178,
        "canPickup": true,
        "canDropoff": true,
        "openingstijden": {
          "ma": "00:00 - 23:59",
          "di": "00:00 - 23:59",
          "wo": "00:00 - 23:59",
          "do": "00:00 - 23:59",
          "vr": "00:00 - 23:59",
          "za": "00:00 - 23:59",
          "zo": "00:00 - 23:59"
        }
      }
    },
    {
      "type": "Feature",
      "geometry": {
        "type": "Point",
        "coordinates": [
          5.571246,
          50.932179
        ]
      },
      "properties": {
        "type": "pakketpunt",
        "locatieNaam": "ZUTENDAAL",
        "straatNaam": "KERKPLEIN",
        "straatNr": "2",
        "vervoerder": "DHL",
        "puntType": "postOffice",
        "bezettingsgraad": 50,
        "latitude": 50.932179,
        "longitude": 5.571246,
        "canPickup": true,
        "canDropoff": true,
        "openingstijden": {
          "ma": "14:15 - 17:00",
          "di": "14:15 - 18:00",
          "wo": "09:30 - 12:30, 13:45 - 17:00",
          "do": "14:15 - 18:00",
          "vr": "14:15 - 17:00",
          "za": "09:30 - 13:00",
          "zo": "gesloten"
        }
      }
    },
    {
      "type": "Feature",
      "geometry": {
        "type": "Point",
        "coordinates": [
          5.572501,
          50.933526
        ]
      },
      "properties": {
        "type": "pakketpunt",
        "locatieNaam": "PARCEL LOCKER 24/7 ADMIN CENTRUM ZU",
        "straatNaam": "OOSTERZONNEPLEIN",
        "straatNr": "1",
        "vervoerder": "DHL",
        "puntType": "packStation",
        "bezettingsgraad": 50,
        "latitude": 50.933526,
        "longitude": 5.572501,
        "canPickup": true,
        "canDropoff": true,
        "openingstijden": {
          "ma": "00:00 - 23:59",
          "di": "00:00 - 23:59",
          "wo": "00:00 - 23:59",
          "do": "00:00 - 23:59",
          "vr": "00:00 - 23:59",
          "za": "00:00 - 23:59",
          "zo": "00:00 - 23:59"
        }
      }
    },
    {
      "type": "Feature",
      "geometry": {
        "type": "Point",
        "coordinates": [
          5.560872,
          50.952314
        ]
      },
      "properties": {
        "type": "pakketpunt",
        "locatieNaam": "PARCEL LOCKER 24/7 DE WEVEL ZUTENDA",
        "straatNaam": "JACHTHOORNPLEIN",
        "straatNr": "8",
        "vervoerder": "DHL",
        "puntType": "packStation",
        "bezettingsgraad": 50,
        "latitude": 50.952314,
        "longitude": 5.560872,
        "canPickup": true,
        "canDropoff": true,
        "openingstijden": {
          "ma": "00:00 - 23:59",
          "di": "00:00 - 23:59",
          "wo": "00:00 - 23:59",
          "do": "00:00 - 23:59",
          "vr": "00:00 - 23:59",
          "za": "00:00 - 23:59",
          "zo": "00:00 - 23:59"
        }
      }
    },
    {
      "type": "Feature",
      "geometry": {
        "type": "Point",
        "coordinates": [
          5.5361097,
          50.9183975
        ]
      },
      "properties": {
        "type": "pakketpunt",
        "locatieNaam": "Abo Print",
        "straatNaam": "Tiendenstraat",
        "straatNr": "15",
        "vervoerder": "GLS",
        "puntType": "parcel_shop",
        "bezettingsgraad": 50,
        "latitude": 50.9183975,
        "longitude": 5.5361097,
        "canPickup": true,
        "canDropoff": true,
        "openingstijden": "vr: 09:00 - 12:00, 13:30 - 17:00; ma: 09:00 - 12:00, 13:30 - 17:00"
      }
    },
    {
      "type": "Feature",
      "geometry": {
        "type": "Point",
        "coordinates": [
          5.5720134,
          50.9311655
        ]
      },
      "properties": {
        "type": "pakketpunt",
        "locatieNaam": "GLS Parcel Locker powered by bbox",
        "straatNaam": "Vonderstraat",
        "straatNr": "1",
        "vervoerder": "GLS",
        "puntType": "locker",
        "bezettingsgraad": 50,
        "latitude": 50.9311655,
        "longitude": 5.5720134,
        "canPickup": true,
        "canDropoff": true,
        "openingstijden": "vr: 00:00 - 24:00; za: 00:00 - 24:00"
      }
    },
    {
      "type": "Feature",
      "geometry": {
        "type": "Point",
        "coordinates": [
          5.57063,
          50.93279
        ]
      },
      "properties": {
        "type": "pakketpunt",
        "locatieNaam": "LECTUUR ACTUEEL (DBH)",
        "straatNaam": "13 Hoogstraat",
        "straatNr": "",
        "vervoerder": "InPost",
        "puntType": "servicepunt",
        "bezettingsgraad": 50,
        "latitude": 50.93279,
        "longitude": 5.57063,
        "canPickup": true,
        "canDropoff": true,
        "openingstijden": null
      }
    },
    {
      "type": "Feature",
      "geometry": {
        "type": "Point",
        "coordinates": [
          5.57050919,
          50.93274831
        ]
      },
      "properties": {
        "type": "pakketpunt",
        "locatieNaam": "Lectuur Actueel DBH Zutendaal ",
        "straatNaam": "Hoogstraat",
        "straatNr": "13",
        "vervoerder": "VintedGo",
        "puntType": "parcel_shop",
        "bezettingsgraad": 50,
        "latitude": 50.93274831,
        "longitude": 5.57050919,
        "canPickup": true,
        "canDropoff": true,
        "openingstijden": null
      }
    },
    {
      "type": "Feature",
      "geometry": {
        "type": "Point",
        "coordinates": [
          5.535886,
          50.918102
        ]
      },
      "properties": {
        "type": "pakketpunt",
        "locatieNaam": "Aboprint Nv",
        "straatNaam": "Tiendenstraat",
        "straatNr": "15",
        "vervoerder": "VintedGo",
        "puntType": "locker",
        "bezettingsgraad": 50,
        "latitude": 50.918102,
        "longitude": 5.535886,
        "canPickup": true,
        "canDropoff": true,
        "openingstijden": null
      }
    },
    {
      "type": "Feature",
      "geometry": {
        "type": "Point",
        "coordinates": [
          5.570509,
          50.932748
        ]
      },
      "properties": {
        "type": "pakketpunt",
        "locatieNaam": "Lectuur Actueel",
        "straatNaam": "Hoogstraat",
        "straatNr": "13",
        "vervoerder": "PostNL",
        "puntType": "servicepunt",
        "bezettingsgraad": 50,
        "latitude": 50.932748,
        "longitude": 5.570509,
        "canPickup": true,
        "canDropoff": true,
        "openingstijden": "06:00 - 22:00"
      }
    },
    {
      "type": "Feature",
      "geometry": {
        "type": "Point",
        "coordinates": [
          5.5360167,
          50.9182278
        ]
      },
      "properties": {
        "type": "pakketpunt",
        "locatieNaam": "ABo Print",
        "straatNaam": "Tiendenstraat",
        "straatNr": "15",
        "vervoerder": "PostNL",
        "puntType": "servicepunt",
        "bezettingsgraad": 50,
        "latitude": 50.9182278,
        "longitude": 5.5360167,
        "canPickup": true,
        "canDropoff": true,
        "openingstijden": "09:00 - 17:00"
      }
    },
    {
      "type": "Feature",
      "geometry": {
        "type": "Point",
        "coordinates": [
          5.535886,
          50.918102
        ]
      },
      "properties": {
        "type": "pakketpunt",
        "locatieNaam": "ABO PRINT",
        "straatNaam": "TIENDENSTRAAT",
        "straatNr": "15",
        "vervoerder": "DPD",
        "puntType": "pickup_point",
        "bezettingsgraad": 50,
        "latitude": 50.918102,
        "longitude": 5.535886,
        "canPickup": true,
        "canDropoff": true,
        "openingstijden": {
          "ma": "09:00 - 12:00, 13:30 - 17:00",
          "di": "09:00 - 12:00, 13:30 - 17:00",
          "wo": "09:00 - 12:00, 13:30 - 17:00",
          "do": "09:00 - 12:00, 13:30 - 17:00",
          "vr": "09:00 - 12:00, 13:30 - 17:00",
          "za": "gesloten",
          "zo": "gesloten"
        }
      }
    },
    {
      "type": "Feature",
      "geometry": {
        "type": "Point",
        "coordinates": [
          5.571246,
          50.932179
        ]
      },
      "properties": {
        "type": "pakketpunt",
        "locatieNaam": "bpost - ZUTENDAAL",
        "straatNaam": "KERKPLEIN,2",
        "straatNr": "",
        "vervoerder": "Amazon",
        "puntType": "3p",
        "bezettingsgraad": 50,
        "latitude": 50.932179,
        "longitude": 5.571246,
        "canPickup": true,
        "canDropoff": false,
        "openingstijden": null
      }
    },
    {
      "type": "Feature",
      "geometry": {
        "type": "Point",
        "coordinates": [
          5.572178,
          50.931127
        ]
      },
      "properties": {
        "type": "pakketpunt",
        "locatieNaam": "bpost - BBOX 24/7 CRF MKT ZUTENDAAL",
        "straatNaam": "VONDERSTRAAT,3",
        "straatNr": "",
        "vervoerder": "Amazon",
        "puntType": "3p",
        "bezettingsgraad": 50,
        "latitude": 50.931127,
        "longitude": 5.572178,
        "canPickup": true,
        "canDropoff": false,
        "openingstijden": null
      }
    },
    {
      "type": "Feature",
      "geometry": {
        "type": "MultiPolygon",
        "coordinates": [
          [
            [
              [
                5.538854434577475,
                50.916165043728846
              ],
              [
                5.53853980250049,
                50.91599045053943
              ],
              [
                5.5381996162927605,
                50.91583619209862
              ],
              [
                5.537837151911654,
                50.91570375379527
              ],
              [
                5.5374558997419445,
                50.91559441089582
              ],
              [
                5.537059530994773,
                50.91550921626991
              ],
              [
                5.536651862369377,
                50.915448990256955
              ],
              [
                5.536236819317279,
                50.91541431277079
              ],
              [
                5.535818398261861,
                50.9154055177186
              ],
              [
                5.5354006281362995,
                50.915422689787164
              ],
              [
                5.534987531609258,
                50.915465663628055
              ],
              [
                5.534583086370743,
                50.91553402544873
              ],
              [
                5.5341911868499665,
                50.915627116995125
              ],
              [
                5.533815606732884,
                50.91574404188674
              ],
              [
                5.5334599626395615,
                50.915883674243865
              ],
              [
                5.533127679310336,
                50.91604466952384
              ],
              [
                5.532821956635494,
                50.91622547746231
              ],
              [
                5.532545738845486,
                50.91642435699514
              ],
              [
                5.532301686158147,
                50.916639393017476
              ],
              [
                5.532092149155915,
                50.916868514819164
              ],
              [
                5.531919146139917,
                50.91710951601881
              ],
              [
                5.531784343679374,
                50.91736007580541
              ],
              [
                5.5316890405441095,
                50.9176177812827
              ],
              [
                5.531634155175627,
                50.91788015070163
              ],
              [
                5.531620216818178,
                50.918144657357324
              ],
              [
                5.531647360396181,
                50.91840875392043
              ],
              [
                5.531715325188284,
                50.91866989696876
              ],
              [
                5.5318234573119,
                50.91892557148293
              ],
              [
                5.5319707159952465,
                50.91917331507
              ],
              [
                5.532155683577503,
                50.91941074168179
              ],
              [
                5.532166288198007,
                50.91942153490334
              ],
              [
                5.532194396450449,
                50.919468822431014
              ],
              [
                5.532379366328827,
                50.91970624866956
              ],
              [
                5.532600264355254,
                50.91993107114653
              ],
              [
                5.5328549634677655,
                50.920141124505285
              ],
              [
                5.53314101095455,
                50.92033438560892
              ],
              [
                5.533455652067989,
                50.92050899303219
              ],
              [
                5.533795856552602,
                50.92066326499637
              ],
              [
                5.534158347831504,
                50.92079571557379
              ],
              [
                5.534539634570156,
                50.920905069006146
              ],
              [
                5.53493604431309,
                50.9209902719978
              ],
              [
                5.53534375886919,
                50.921050503865935
              ],
              [
                5.535758851104028,
                50.92108518444914
              ],
              [
                5.536177322784172,
                50.92109397969843
              ],
              [
                5.5365951431080465,
                50.921076804896394
              ],
              [
                5.537008287551287,
                50.921033825473735
              ],
              [
                5.5374127766515,
                50.92096545541485
              ],
              [
                5.537804714357845,
                50.92087235326845
              ],
              [
                5.538180325575197,
                50.92075541580111
              ],
              [
                5.5385359925403765,
                50.920615769355514
              ],
              [
                5.538868289679411,
                50.920454758996584
              ],
              [
                5.539174016609461,
                50.92027393555035
              ],
              [
                5.539450228967164,
                50.920075040660606
              ],
              [
                5.539694266766228,
                50.91985999000765
              ],
              [
                5.5399037800110955,
                50.91963085485113
              ],
              [
                5.540076751320159,
                50.9193898420747
              ],
              [
                5.540211515340967,
                50.91913927292542
              ],
              [
                5.540306774770955,
                50.91888156065257
              ],
              [
                5.540361612830094,
                50.91861918726179
              ],
              [
                5.540375502066139,
                50.91835467960825
              ],
              [
                5.540348309408596,
                50.91809058505958
              ],
              [
                5.540280297423739,
                50.91782944696268
              ],
              [
                5.5401721217595785,
                50.917573780151066
              ],
              [
                5.540098565437945,
                50.917450068784
              ],
              [
                5.540079108704097,
                50.91740408332579
              ],
              [
                5.539931812774414,
                50.917156349773784
              ],
              [
                5.5397468147423945,
                50.91691893524753
              ],
              [
                5.539525896661913,
                50.91669412600776
              ],
              [
                5.539488527796321,
                50.916663311056304
              ],
              [
                5.539395191527442,
                50.91656832985479
              ],
              [
                5.539140482534485,
                50.91635829045278
              ],
              [
                5.538854434577475,
                50.916165043728846
              ]
            ]
          ],
          [
            [
              [
                5.567442615945239,
                50.930872389064035
              ],
              [
                5.567166458701045,
                50.93107134911149
              ],
              [
                5.566922488517156,
                50.93128645609468
              ],
              [
                5.566713055182207,
                50.93151563861996
              ],
              [
                5.566540175999729,
                50.93175668972112
              ],
              [
                5.5664055163471255,
                50.93200728810642
              ],
              [
                5.56631037361964,
                50.932265020507735
              ],
              [
                5.566255664714633,
                50.93252740491653
              ],
              [
                5.5662419171775,
                50.9327919144834
              ],
              [
                5.566269264095432,
                50.93305600185075
              ],
              [
                5.5663374427891466,
                50.93331712368477
              ],
              [
                5.566445797316267,
                50.933572765170155
              ],
              [
                5.566593284763199,
                50.93382046423187
              ],
              [
                5.566593307523843,
                50.9338204934043
              ],
              [
                5.566593474741672,
                50.93382077423812
              ],
              [
                5.566778675246559,
                50.93405814525632
              ],
              [
                5.566999805646979,
                50.93428290204752
              ],
              [
                5.567254736642692,
                50.934492879887564
              ],
              [
                5.567541013288214,
                50.934686056366786
              ],
              [
                5.567855878628394,
                50.93486057087486
              ],
              [
                5.568196300247628,
                50.93501474252784
              ],
              [
                5.568558999477166,
                50.93514708636425
              ],
              [
                5.568589450861895,
                50.93515580646107
              ],
              [
                5.568679813920836,
                50.935188778338905
              ],
              [
                5.569061298042974,
                50.93529801923483
              ],
              [
                5.569382306636933,
                50.93536688922791
              ],
              [
                5.569531856057183,
                50.93546779619377
              ],
              [
                5.5698467340484825,
                50.93564230532567
              ],
              [
                5.57018716788149,
                50.93579647117434
              ],
              [
                5.570549878769785,
                50.93592880883417
              ],
              [
                5.5709313732630585,
                50.93603804363433
              ],
              [
                5.571327976904249,
                50.9361231234219
              ],
              [
                5.571735869634125,
                50.93618322870065
              ],
              [
                5.572151122601646,
                50.936217780528516
              ],
              [
                5.572569736024833,
                50.936226446096676
              ],
              [
                5.572987677736552,
                50.93620914193682
              ],
              [
                5.573400922043057,
                50.93616603472569
              ],
              [
                5.57380548852001,
                50.93609753967852
              ],
              [
                5.5741974803713426,
                50.93600431654794
              ],
              [
                5.5745731219805945,
                50.935887263265855
              ],
              [
                5.574928795292164,
                50.935747507290436
              ],
              [
                5.575261074671367,
                50.935586394741556
              ],
              [
                5.575566759906943,
                50.93540547742946
              ],
              [
                5.575842907037717,
                50.93520649790196
              ],
              [
                5.576086856706298,
                50.934991372654466
              ],
              [
                5.5762962597666625,
                50.93476217366497
              ],
              [
                5.576469099899147,
                50.934521108431774
              ],
              [
                5.576603713015409,
                50.93427049870699
              ],
              [
                5.576698803266944,
                50.93401275813053
              ],
              [
                5.576699420560345,
                50.93400979447906
              ],
              [
                5.576699802919276,
                50.9340087580954
              ],
              [
                5.576754455145787,
                50.93374636894451
              ],
              [
                5.576768143698904,
                50.93348185822707
              ],
              [
                5.576740737441308,
                50.93321777333998
              ],
              [
                5.576672500996714,
                50.93295665753693
              ],
              [
                5.576564092175006,
                50.932701025436494
              ],
              [
                5.576416555611984,
                50.932453338807726
              ],
              [
                5.576231312685909,
                50.932215982866055
              ],
              [
                5.576144282637023,
                50.93212754646157
              ],
              [
                5.57614889012484,
                50.932121119967015
              ],
              [
                5.57628349806608,
                50.93187051042624
              ],
              [
                5.576378585212838,
                50.93161276992095
              ],
              [
                5.576433236444899,
                50.93135038072848
              ],
              [
                5.576446926109804,
                50.93108586985599
              ],
              [
                5.576419523059457,
                50.93082178470188
              ],
              [
                5.576351291886613,
                50.93056066852239
              ],
              [
                5.576242890350325,
                50.93030503593975
              ],
              [
                5.576095363016169,
                50.93005734872763
              ],
              [
                5.576094461777122,
                50.93005619388386
              ],
              [
                5.576093362811567,
                50.93005434879329
              ],
              [
                5.575908130990835,
                50.92981699216941
              ],
              [
                5.575686978968627,
                50.92959225183945
              ],
              [
                5.5754320368659505,
                50.929382291982265
              ],
              [
                5.575145760093749,
                50.92918913441775
              ],
              [
                5.574830905699066,
                50.92901463914368
              ],
              [
                5.574490505811454,
                50.92886048643113
              ],
              [
                5.57412783844537,
                50.928728160650834
              ],
              [
                5.573746395939665,
                50.928618935985654
              ],
              [
                5.57334985133776,
                50.92853386416665
              ],
              [
                5.57294202303175,
                50.928473764350734
              ],
              [
                5.572526838010328,
                50.92843921523659
              ],
              [
                5.57210829406357,
                50.92843054949525
              ],
              [
                5.5716904213077365,
                50.928447850568425
              ],
              [
                5.571277243399584,
                50.92849095186548
              ],
              [
                5.5708727388127155,
                50.92855943836663
              ],
              [
                5.570717576406085,
                50.92859634007027
              ],
              [
                5.570708146748082,
                50.92859793656807
              ],
              [
                5.57031620983478,
                50.92869114826853
              ],
              [
                5.569940615213344,
                50.92880818819831
              ],
              [
                5.569584979643823,
                50.928947929369954
              ],
              [
                5.5692527277849,
                50.92910902619296
              ],
              [
                5.568947059224336,
                50.92928992742515
              ],
              [
                5.568670917672076,
                50.92948889110392
              ],
              [
                5.568426962612462,
                50.92970400131407
              ],
              [
                5.568217543688486,
                50.9299331866309
              ],
              [
                5.568044678064895,
                50.93017424006126
              ],
              [
                5.567910030988501,
                50.93042484029103
              ],
              [
                5.567870771857765,
                50.930531203194285
              ],
              [
                5.567659509051488,
                50.93071747833848
              ],
              [
                5.567606662880163,
                50.93077531009425
              ],
              [
                5.567442615945239,
                50.930872389064035
              ]
            ]
          ],
          [
            [
              [
                5.564125927103097,
                50.95056561646838
              ],
              [
                5.563839567601657,
                50.950372432610386
              ],
              [
                5.563524613073671,
                50.95019790817113
              ],
              [
                5.563184096613155,
                50.95004372370252
              ],
              [
                5.562821297357228,
                50.949911363881064
              ],
              [
                5.562439708914782,
                50.9498021032174
              ],
              [
                5.5620430057344326,
                50.94971699378924
              ],
              [
                5.5616350077351075,
                50.949656855115585
              ],
              [
                5.56121964353927,
                50.94962226626926
              ],
              [
                5.560800912661995,
                50.9496135603039
              ],
              [
                5.5603828470191745,
                50.94963082104853
              ],
              [
                5.559969472124526,
                50.9496738823008
              ],
              [
                5.5595647683480784,
                50.94974232942654
              ],
              [
                5.5591726326082656,
                50.94983550335032
              ],
              [
                5.55879684086551,
                50.94995250689841
              ],
              [
                5.558441011777699,
                50.95009221343374
              ],
              [
                5.5581085718667405,
                50.950253277699375
              ],
              [
                5.557802722531076,
                50.95043414876669
              ],
              [
                5.557526409221368,
                50.95063308496361
              ],
              [
                5.557282293075951,
                50.95084817063967
              ],
              [
                5.557072725289161,
                50.95107733460644
              ],
              [
                5.5568997244595115,
                50.95131837007649
              ],
              [
                5.556764957136176,
                50.9515689559087
              ],
              [
                5.5566697217516765,
                50.951826678955854
              ],
              [
                5.5566149360961505,
                50.95208905729964
              ],
              [
                5.556601128454654,
                50.95235356414907
              ],
              [
                5.556628432493778,
                50.95261765217278
              ],
              [
                5.556696585947785,
                50.9528787780307
              ],
              [
                5.5568049331179745,
                50.95313442686882
              ],
              [
                5.556805989192654,
                50.953136200461095
              ],
              [
                5.556806932806431,
                50.95313842693696
              ],
              [
                5.556954430873792,
                50.953386136606646
              ],
              [
                5.5571396598524165,
                50.9536235213884
              ],
              [
                5.557360836308134,
                50.953848294965944
              ],
              [
                5.557615830497585,
                50.95405829245344
              ],
              [
                5.55790218686702,
                50.954251491251995
              ],
              [
                5.558217147693717,
                50.954426030536325
              ],
              [
                5.558557679642593,
                50.95458022918387
              ],
              [
                5.558920502982345,
                50.95471260197306
              ],
              [
                5.559302123179607,
                50.95482187389475
              ],
              [
                5.559698864566515,
                50.95490699243837
              ],
              [
                5.560106905756964,
                50.954967137734464
              ],
              [
                5.560522316469756,
                50.95500173045546
              ],
              [
                5.5609410954032565,
                50.95501043739865
              ],
              [
                5.561359208795842,
                50.954993174697215
              ],
              [
                5.561772629299804,
                50.954950108628495
              ],
              [
                5.562177374793331,
                50.95488165401154
              ],
              [
                5.56256954675574,
                50.95478847020951
              ],
              [
                5.562945367835441,
                50.95467145477552
              ],
              [
                5.563301218247926,
                50.95453173480325
              ],
              [
                5.56363367065249,
                50.954370656065834
              ],
              [
                5.563939523171191,
                50.95418977004789
              ],
              [
                5.564215830231572,
                50.953990818995855
              ],
              [
                5.564459930935894,
                50.953775719131
              ],
              [
                5.564669474683545,
                50.95354654218688
              ],
              [
                5.564842443800058,
                50.95330549544953
              ],
              [
                5.564977172955105,
                50.95305490049301
              ],
              [
                5.565072365182973,
                50.952797170815096
              ],
              [
                5.565127104351928,
                50.95253478858891
              ],
              [
                5.5651408639631805,
                50.952270280754625
              ],
              [
                5.565113512195621,
                50.95200619468142
              ],
              [
                5.565045313148774,
                50.95174507363446
              ],
              [
                5.564936924272957,
                50.9514894322829
              ],
              [
                5.564935867927895,
                50.95148765876278
              ],
              [
                5.564934923961448,
                50.95148543235104
              ],
              [
                5.564787389724107,
                50.95123773255023
              ],
              [
                5.56460213146152,
                50.95100035964468
              ],
              [
                5.564380933733968,
                50.950775599494165
              ],
              [
                5.564125927103097,
                50.95056561646838
              ]
            ]
          ]
        ]
      },
      "properties": {
        "type": "buffer_union_300m",
        "buffer_m": 300
      }
    },
    {
      "type": "Feature",
      "geometry": {
        "type": "MultiPolygon",
        "coordinates": [
          [
            [
              [
                5.539843858327254,
                50.915519374719516
              ],
              [
                5.539424350275007,
                50.915286587099885
              ],
              [
                5.538970772087249,
                50.91508091233086
              ],
              [
                5.5384874915755935,
                50.9149043308098
              ],
              [
                5.537979162381584,
                50.91475854278118
              ],
              [
                5.537450679183176,
                50.91464495197498
              ],
              [
                5.536907130587446,
                50.914564652099116
              ],
              [
                5.53635375016198,
                50.91451841631541
              ],
              [
                5.53579586607512,
                50.91450668980019
              ],
              [
                5.535238849828417,
                50.914529585460706
              ],
              [
                5.53468806457329,
                50.9145868828489
              ],
              [
                5.53414881350779,
                50.91467803028239
              ],
              [
                5.533626288848675,
                50.91480215015291
              ],
              [
                5.533125521868468,
                50.91495804737062
              ],
              [
                5.532651334477116,
                50.915144220863944
              ],
              [
                5.532208292813177,
                50.91535887802395
              ],
              [
                5.531800663290365,
                50.915599951954995
              ],
              [
                5.531432371521937,
                50.91586512136576
              ],
              [
                5.5311069645180515,
                50.91615183290995
              ],
              [
                5.53082757652002,
                50.91645732576178
              ],
              [
                5.530596898800712,
                50.91677865819025
              ],
              [
                5.530417153722562,
                50.91711273587693
              ],
              [
                5.530290073303883,
                50.91745634170472
              ],
              [
                5.530216882501136,
                50.917806166731616
              ],
              [
                5.530198287369564,
                50.918158842051035
              ],
              [
                5.530234468217841,
                50.918510971232344
              ],
              [
                5.530325077824454,
                50.91885916302943
              ],
              [
                5.530469244734737,
                50.91920006404219
              ],
              [
                5.530665581608674,
                50.91953039101616
              ],
              [
                5.530868217783959,
                50.91979050663372
              ],
              [
                5.530889255548219,
                50.9198259008307
              ],
              [
                5.531135875541777,
                50.92014247178651
              ],
              [
                5.531430401509313,
                50.92044223807202
              ],
              [
                5.531769997550217,
                50.92072231243039
              ],
              [
                5.5321513934888085,
                50.92097999722229
              ],
              [
                5.532570916355615,
                50.92121281041975
              ],
              [
                5.533024525756918,
                50.9214185095243
              ],
              [
                5.5335078527920585,
                50.92159511317792
              ],
              [
                5.534016242143491,
                50.921740920258706
              ],
              [
                5.534544796933625,
                50.92185452627623
              ],
              [
                5.535088425915577,
                50.921934836908726
              ],
              [
                5.535641892542144,
                50.92198107855098
              ],
              [
                5.5361998654390145,
                50.9219928057711
              ],
              [
                5.536756969794486,
                50.92196990560405
              ],
              [
                5.537307839169031,
                50.92191259864063
              ],
              [
                5.537847167223942,
                50.9218214369011
              ],
              [
                5.538369758869069,
                50.921697298514204
              ],
              [
                5.538870580335365,
                50.92154137925295
              ],
              [
                5.539344807688409,
                50.921355181008984
              ],
              [
                5.539787873314368,
                50.92114049731688
              ],
              [
                5.540195509929546,
                50.92089939606813
              ],
              [
                5.540563791688945,
                50.92063419958211
              ],
              [
                5.540889171997428,
                50.92034746222608
              ],
              [
                5.541168517659216,
                50.920041945800655
              ],
              [
                5.541399139037115,
                50.91972059292818
              ],
              [
                5.541578815931573,
                50.919386498700966
              ],
              [
                5.541705818931268,
                50.91904288086268
              ],
              [
                5.541778926030775,
                50.91869304881083
              ],
              [
                5.541797434356768,
                50.91834037171886
              ],
              [
                5.541761166891417,
                50.91798824608537
              ],
              [
                5.541670474129982,
                50.917640063023015
              ],
              [
                5.541526230658494,
                50.917299175602125
              ],
              [
                5.541452671198193,
                50.91717546507286
              ],
              [
                5.541433213251525,
                50.91712947983519
              ],
              [
                5.541236810643926,
                50.91679917062433
              ],
              [
                5.540990140093115,
                50.916482620560835
              ],
              [
                5.540695577920962,
                50.91618287789097
              ],
              [
                5.540658208694496,
                50.916152063306924
              ],
              [
                5.5405648710753415,
                50.91605708302035
              ],
              [
                5.540225256311568,
                50.91577703369778
              ],
              [
                5.539843858327254,
                50.915519374719516
              ]
            ]
          ],
          [
            [
              [
                5.566420542402386,
                50.93024716739917
              ],
              [
                5.56605233135097,
                50.93051244416285
              ],
              [
                5.565727034340113,
                50.93079925032219
              ],
              [
                5.565447784553166,
                50.93110482414011
              ],
              [
                5.565217271933331,
                50.931426223105724
              ],
              [
                5.565037717254411,
                50.93176035225957
              ],
              [
                5.56491085070238,
                50.932103993988676
              ],
              [
                5.564837895175242,
                50.93245383900499
              ],
              [
                5.564819554463447,
                50.93280651820905
              ],
              [
                5.564856006426312,
                50.93315863513247
              ],
              [
                5.564946901231952,
                50.93350679864687
              ],
              [
                5.565091364679438,
                50.93384765562407
              ],
              [
                5.565288006573036,
                50.93417792323348
              ],
              [
                5.565288029333042,
                50.93417795240615
              ],
              [
                5.565288196544332,
                50.9341782332418
              ],
              [
                5.56553512404377,
                50.9344947305726
              ],
              [
                5.565829959849276,
                50.93479440927875
              ],
              [
                5.566169865075647,
                50.93507438294663
              ],
              [
                5.566551566568667,
                50.93533195490648
              ],
              [
                5.566971388415124,
                50.93556464421692
              ],
              [
                5.567425287340727,
                50.93577020957257
              ],
              [
                5.567908891655224,
                50.93594667090359
              ],
              [
                5.56793934343808,
                50.93595539116674
              ],
              [
                5.56802970758014,
                50.93598836353648
              ],
              [
                5.568538360121346,
                50.93613402056688
              ],
              [
                5.56860477453815,
                50.93614826944407
              ],
              [
                5.568962258974137,
                50.93634639348512
              ],
              [
                5.569416174185428,
                50.936551951101606
              ],
              [
                5.5698997940456065,
                50.93672840419711
              ],
              [
                5.570408460415621,
                50.936874053099785
              ],
              [
                5.570937273748607,
                50.93698749484277
              ],
              [
                5.571481140306408,
                50.93706763668665
              ],
              [
                5.5720348212525925,
                50.93711370665204
              ],
              [
                5.572592983147751,
                50.937125260960734
              ],
              [
                5.573150249359155,
                50.93710218831334
              ],
              [
                5.573701251887884,
                50.93704471096209
              ],
              [
                5.574240683112518,
                50.936953382568525
              ],
              [
                5.574763346949243,
                50.936829082866716
              ],
              [
                5.575264208933963,
                50.93667300918353
              ],
              [
                5.5757384447425204,
                50.93648666489805
              ],
              [
                5.576181486680375,
                50.93627184495149
              ],
              [
                5.576589067692925,
                50.93603061854772
              ],
              [
                5.576957262471806,
                50.93576530921146
              ],
              [
                5.57728252526085,
                50.93547847239677
              ],
              [
                5.577561723997453,
                50.93517287086201
              ],
              [
                5.577792170460831,
                50.93485144804909
              ],
              [
                5.577971646137386,
                50.934517299723574
              ],
              [
                5.578098423554997,
                50.93417364414993
              ],
              [
                5.578099040762109,
                50.93417068049127
              ],
              [
                5.578099423091435,
                50.93416964410311
              ],
              [
                5.578172282404738,
                50.93381979104084
              ],
              [
                5.578190523145933,
                50.93346710986688
              ],
              [
                5.5781539708750465,
                50.933114997118786
              ],
              [
                5.578062978830801,
                50.932766843784755
              ],
              [
                5.577918424481851,
                50.93242600264843
              ],
              [
                5.5777217010314795,
                50.93209575600457
              ],
              [
                5.577679336645731,
                50.93204147578569
              ],
              [
                5.577778132814664,
                50.93177365987227
              ],
              [
                5.577850990803113,
                50.93142380675456
              ],
              [
                5.577869233027787,
                50.93107112537384
              ],
              [
                5.577832685034301,
                50.93071901226969
              ],
              [
                5.577741700020062,
                50.93037085843367
              ],
              [
                5.577597155385901,
                50.930030016654335
              ],
              [
                5.5774004442414435,
                50.92969976923265
              ],
              [
                5.577399542977146,
                50.929698614398774
              ],
              [
                5.577398443968647,
                50.92969676932022
              ],
              [
                5.57715146170423,
                50.929380296462085
              ],
              [
                5.576856587616505,
                50.92908064567364
              ],
              [
                5.576516662048318,
                50.92880070241197
              ],
              [
                5.57613495898711,
                50.92854316231343
              ],
              [
                5.575715154522389,
                50.92831050524745
              ],
              [
                5.5752612914399124,
                50.92810497144869
              ],
              [
                5.574777740293625,
                50.92792853995701
              ],
              [
                5.574269157330047,
                50.92778290957213
              ],
              [
                5.573740439669721,
                50.92766948250609
              ],
              [
                5.573196678176444,
                50.92758935089016
              ],
              [
                5.572643108466979,
                50.92754328626607
              ],
              [
                5.572085060531602,
                50.9275317321621
              ],
              [
                5.571527907449059,
                50.92755479982551
              ],
              [
                5.570977013688046,
                50.92761226715209
              ],
              [
                5.570437683491329,
                50.92770358082325
              ],
              [
                5.5702825235724935,
                50.9277404819619
              ],
              [
                5.570273094071674,
                50.92774207842518
              ],
              [
                5.569750519553484,
                50.92786635849849
              ],
              [
                5.569249733229518,
                50.92802240909822
              ],
              [
                5.568775557196552,
                50.92820872767587
              ],
              [
                5.568332557484522,
                50.92842352022547
              ],
              [
                5.567925000104102,
                50.92866471854761
              ],
              [
                5.5675568099749295,
                50.9289300001531
              ],
              [
                5.567231533129593,
                50.92921681061512
              ],
              [
                5.566952302557263,
                50.92952238815519
              ],
              [
                5.566721808016092,
                50.929843790226535
              ],
              [
                5.566559218179872,
                50.93014638059899
              ],
              [
                5.566494640783308,
                50.93020331848262
              ],
              [
                5.566420542402386,
                50.93024716739917
              ]
            ]
          ],
          [
            [
              [
                5.56521118231864,
                50.94998413504175
              ],
              [
                5.5648293689479,
                50.94972655988565
              ],
              [
                5.564409430970139,
                50.94949386393334
              ],
              [
                5.563955412457143,
                50.94928828779394
              ],
              [
                5.563471685459737,
                50.949111810914964
              ],
              [
                5.562962907917751,
                50.94896613253315
              ],
              [
                5.562433978825176,
                50.948852655322646
              ],
              [
                5.561889991081362,
                50.94877247189752
              ],
              [
                5.5613361824811545,
                50.948726354298316
              ],
              [
                5.560777885314506,
                50.94871474656336
              ],
              [
                5.560220475059307,
                50.94873776045629
              ],
              [
                5.559669318659817,
                50.948795174390625
              ],
              [
                5.559129722886983,
                50.948886435561924
              ],
              [
                5.558606883276139,
                50.94901066526671
              ],
              [
                5.558105834132157,
                50.94916666735775
              ],
              [
                5.557631400081945,
                50.94935293975367
              ],
              [
                5.557188149639464,
                50.94956768889325
              ],
              [
                5.5567803512294125,
                50.94980884699514
              ],
              [
                5.556411932092234,
                50.95007409195756
              ],
              [
                5.556086440465772,
                50.95036086970668
              ],
              [
                5.555807011407654,
                50.950666418779086
              ],
              [
                5.5555763365878015,
                50.950987796902325
              ],
              [
                5.555396638342527,
                50.95132190931776
              ],
              [
                5.555269648241046,
                50.951665538573735
              ],
              [
                5.555196590371992,
                50.95201537550239
              ],
              [
                5.55517816951233,
                50.95236805108231
              ],
              [
                5.555214564294252,
                50.95272016888008
              ],
              [
                5.555305425437613,
                50.95306833775899
              ],
              [
                5.5554498790667495,
                50.95340920453932
              ],
              [
                5.555450935096372,
                50.95341097814362
              ],
              [
                5.55545187865135,
                50.95341320463016
              ],
              [
                5.555648534696983,
                50.95374348638318
              ],
              [
                5.5558955001537695,
                50.954060002065205
              ],
              [
                5.556190397359904,
                50.95435970315316
              ],
              [
                5.5565303868396,
                50.95463970301785
              ],
              [
                5.556912194627815,
                50.9548973047372
              ],
              [
                5.557332143788039,
                50.95513002708319
              ],
              [
                5.557786189820067,
                50.955335628432245
              ],
              [
                5.5582699596169,
                50.955512128367786
              ],
              [
                5.558778793595356,
                50.9556578267668
              ],
              [
                5.559307790594051,
                50.955771320185654
              ],
              [
                5.559851855105482,
                50.9558515153871
              ],
              [
                5.560405746386095,
                50.9558976398778
              ],
              [
                5.5609641289699985,
                50.95590924935428
              ],
              [
                5.561521624098149,
                50.95588623198573
              ],
              [
                5.562072861566004,
                50.955828809491905
              ],
              [
                5.562612531488495,
                50.95573753500596
              ],
              [
                5.563135435481967,
                50.955613287742715
              ],
              [
                5.563636536768491,
                50.95545726452397
              ],
              [
                5.564111008718392,
                50.95527096824277
              ],
              [
                5.56455428136218,
                50.95505619337802
              ],
              [
                5.564962085422797,
                50.95481500869942
              ],
              [
                5.565330493443359,
                50.95454973732991
              ],
              [
                5.565655957613809,
                50.95426293435799
              ],
              [
                5.56593534393208,
                50.95395736221617
              ],
              [
                5.566165962371033,
                50.953635964063366
              ],
              [
                5.566345592761215,
                50.95330183542782
              ],
              [
                5.566472506141073,
                50.95295819438444
              ],
              [
                5.566545481370232,
                50.95260835055401
              ],
              [
                5.566563816847282,
                50.95225567322319
              ],
              [
                5.56652733722085,
                50.95190355889262
              ],
              [
                5.566436395031084,
                50.951555398565866
              ],
              [
                5.566291867267564,
                50.951214545094
              ],
              [
                5.566290810877459,
                50.951212771585915
              ],
              [
                5.566289866852227,
                50.951210545184864
              ],
              [
                5.5660931464941195,
                50.9508802809778
              ],
              [
                5.5658461289654335,
                50.950563786410534
              ],
              [
                5.5655511939300615,
                50.950264109194656
              ],
              [
                5.56521118231864,
                50.94998413504175
              ]
            ]
          ]
        ]
      },
      "properties": {
        "type": "buffer_union_400m",
        "buffer_m": 400
      }
    },
    {
      "type": "Feature",
      "geometry": {
        "type": "Polygon",
        "coordinates": [
          [
            [
              5.528231,
              50.9139555
            ],
            [
              5.5312242,
              50.9161354
            ],
            [
              5.5326184,
              50.917244
            ],
            [
              5.5366159,
              50.920055
            ],
            [
              5.543625,
              50.925335
            ],
            [
              5.543525,
              50.93043
            ],
            [
              5.543867,
              50.932045
            ],
            [
              5.544597,
              50.934133
            ],
            [
              5.545861,
              50.9365
            ],
            [
              5.5455059,
              50.9411731
            ],
            [
              5.546314,
              50.945588
            ],
            [
              5.545716,
              50.945784
            ],
            [
              5.54582,
              50.949973
            ],
            [
              5.546694,
              50.951773
            ],
            [
              5.546577,
              50.956154
            ],
            [
              5.546942,
              50.958721
            ],
            [
              5.549826,
              50.9625
            ],
            [
              5.551511,
              50.963578
            ],
            [
              5.553716,
              50.964317
            ],
            [
              5.558327,
              50.961795
            ],
            [
              5.559795,
              50.960257
            ],
            [
              5.560337,
              50.960823
            ],
            [
              5.562512,
              50.9646631
            ],
            [
              5.5944665,
              50.9771171
            ],
            [
              5.595162,
              50.9773424
            ],
            [
              5.5953188,
              50.9773018
            ],
            [
              5.6018599,
              50.9485656
            ],
            [
              5.6019806,
              50.9484304
            ],
            [
              5.6021804,
              50.947219
            ],
            [
              5.6035939,
              50.9416167
            ],
            [
              5.6043325,
              50.9336364
            ],
            [
              5.6040562,
              50.9335293
            ],
            [
              5.605285,
              50.9274849
            ],
            [
              5.6055217,
              50.9261829
            ],
            [
              5.6054166,
              50.9261483
            ],
            [
              5.6056937,
              50.9245829
            ],
            [
              5.6071279,
              50.921597
            ],
            [
              5.6084316,
              50.9200567
            ],
            [
              5.6094305,
              50.9178866
            ],
            [
              5.6093171,
              50.9178606
            ],
            [
              5.6096373,
              50.9167512
            ],
            [
              5.6096913,
              50.9162798
            ],
            [
              5.6097924,
              50.9161838
            ],
            [
              5.6106629,
              50.9133002
            ],
            [
              5.6114428,
              50.9104503
            ],
            [
              5.6114694,
              50.9079374
            ],
            [
              5.6117674,
              50.9030879
            ],
            [
              5.6117081,
              50.9027523
            ],
            [
              5.6125638,
              50.9004701
            ],
            [
              5.6137051,
              50.8979206
            ],
            [
              5.6078446,
              50.8966927
            ],
            [
              5.6026763,
              50.8952602
            ],
            [
              5.5995368,
              50.8950656
            ],
            [
              5.5981598,
              50.8952065
            ],
            [
              5.5963949,
              50.8961877
            ],
            [
              5.5926606,
              50.8984774
            ],
            [
              5.5885632,
              50.9007639
            ],
            [
              5.5884086,
              50.9007309
            ],
            [
              5.5881196,
              50.900882
            ],
            [
              5.5880666,
              50.9013726
            ],
            [
              5.587403,
              50.9013192
            ],
            [
              5.582772,
              50.9030667
            ],
            [
              5.5777948,
              50.9055219
            ],
            [
              5.5730834,
              50.9072773
            ],
            [
              5.5673533,
              50.9091328
            ],
            [
              5.5668469,
              50.9089941
            ],
            [
              5.5642282,
              50.9088797
            ],
            [
              5.5633508,
              50.9087047
            ],
            [
              5.5631312,
              50.9088552
            ],
            [
              5.5624301,
              50.9087882
            ],
            [
              5.5623335,
              50.9090087
            ],
            [
              5.5598444,
              50.9091415
            ],
            [
              5.5588976,
              50.9087432
            ],
            [
              5.5588782,
              50.9083798
            ],
            [
              5.5587022,
              50.9080371
            ],
            [
              5.5569108,
              50.9076347
            ],
            [
              5.5547543,
              50.9068428
            ],
            [
              5.5543714,
              50.9064647
            ],
            [
              5.5540844,
              50.9063992
            ],
            [
              5.5538987,
              50.9062292
            ],
            [
              5.5528995,
              50.9057912
            ],
            [
              5.5520888,
              50.9051759
            ],
            [
              5.5522055,
              50.9048833
            ],
            [
              5.5521673,
              50.9047949
            ],
            [
              5.5514237,
              50.9043255
            ],
            [
              5.550106,
              50.9049836
            ],
            [
              5.5461853,
              50.9052336
            ],
            [
              5.5443642,
              50.9051778
            ],
            [
              5.5441296,
              50.9050562
            ],
            [
              5.5393307,
              50.9049175
            ],
            [
              5.5346371,
              50.9058026
            ],
            [
              5.5337948,
              50.9052026
            ],
            [
              5.5335796,
              50.9053521
            ],
            [
              5.5335731,
              50.9054778
            ],
            [
              5.5328795,
              50.9056525
            ],
            [
              5.5327669,
              50.9067388
            ],
            [
              5.5328034,
              50.9070223
            ],
            [
              5.5327109,
              50.9073571
            ],
            [
              5.5319931,
              50.9084493
            ],
            [
              5.5319099,
              50.9086828
            ],
            [
              5.5320568,
              50.9088105
            ],
            [
              5.5298897,
              50.9126743
            ],
            [
              5.528231,
              50.9139555
            ]
          ]
        ]
      },
      "properties": {
        "type": "boundary",
        "gemeente": "Zutendaal"
      }
    }
  ]
}